{
  "id": 1981759337,
  "type": "Feature",
  "properties": {
    "geom:area": 0,
    "geom:bbox": "-122.390000,35.830000,-86.680000,39.500000",
    "geom:latitude": 38.38941682620567,
    "geom:longitude": -104.55019671152023,
    "src:alt_label": "swim-route",
    "src:geom": "swim",
    "swim:geom": "route",
    "wof:geomhash": "1c6139141e17d5ccb259eb0c6432da20",
    "wof:id": 1981759337,
    "wof:repo": "sfomuseum-data-flights-2025-10"
  },
  "bbox": [
    -122.39,
    35.83,
    -86.68,
    39.5
  ],
  "geometry": {"coordinates":[[-122.38,37.62],[-122.3,37.68],[-122.31,37.7],[-122.31,37.7],[-122.34,37.75],[-122.35,37.76],[-122.35,37.77],[-122.36,37.79],[-122.38,37.84],[-122.39,37.85],[-122.39,37.86],[-122.38,37.94],[-122.31,37.96],[-122.1,38],[-122.02,38.01],[-121.94,38.03],[-121.78,38.06],[-121.67,38.08],[-121.55,38.11],[-121.52,38.11],[-121.45,38.13],[-121.42,38.13],[-121.23,38.17],[-121.13,38.19],[-121.04,38.2],[-121.04,38.21],[-120.95,38.22],[-120.51,38.28],[-120.29,38.31],[-119.22,38.45],[-118.23,38.57],[-117.3,38.68],[-117.29,38.68],[-116.05,38.89],[-114.68,39.1],[-113.32,39.29],[-113.25,39.3],[-112.2,39.47],[-110.8,39.49],[-110.23,39.5],[-110,39.5],[-107.88,39.36],[-106.9,39.29],[-106.89,39.29],[-106.27,39.23],[-105.24,39.13],[-104.17,39.02],[-104,39],[-103.45,38.92],[-102.37,38.76],[-101.83,38.67],[-101.76,38.66],[-100.59,38.56],[-100,38.5],[-97.64,38.31],[-96.41,38.19],[-94.54,38.05],[-94,38],[-93.06,37.76],[-92.69,37.67],[-90.86,37.22],[-90.57,37.15],[-90,37],[-89.34,36.7],[-89.28,36.67],[-89.07,36.58],[-89.04,36.57],[-88.78,36.45],[-88.69,36.4],[-88.64,36.38],[-88.45,36.29],[-88.44,36.28],[-88.32,36.23],[-88.27,36.2],[-88.01,36.08],[-87.75,35.96],[-87.48,35.83],[-87.48,35.83],[-87.47,35.83],[-87.34,35.88],[-87.28,35.87],[-87.06,35.83],[-87.03,35.86],[-86.88,35.97],[-86.83,36.01],[-86.81,36.03],[-86.73,36.08],[-86.68,36.12]],"type":"LineString"}
}
