{
  "id": 1981741465,
  "type": "Feature",
  "properties": {
    "geom:area": 0,
    "geom:bbox": "-122.316667,35.875278,-78.634167,40.138889",
    "geom:latitude": 38.95642348380853,
    "geom:longitude": -100.15806742538213,
    "src:alt_label": "swim-path",
    "src:geom": "swim",
    "swim:altitudes": [
      "033",
      "033",
      "033",
      "033",
      "033",
      "042",
      "095",
      "095",
      "200",
      "200",
      "200",
      "200",
      "200",
      "200",
      "200",
      "276",
      "276",
      "276",
      "298",
      "298",
      "298",
      "327",
      "327",
      "350C",
      "350C",
      "350C",
      "350C",
      "350C",
      "350C",
      "350C",
      "350C",
      "350C",
      "350C",
      "350C",
      "350C",
      "350C",
      "350C",
      "350C",
      "350C",
      "350C",
      "350C",
      "350C",
      "350C",
      "350C",
      "350C",
      "350C",
      "350C",
      "350C",
      "350C",
      "350C",
      "350C",
      "350C",
      "350C",
      "350C",
      "350C",
      "350C",
      "350C",
      "350C",
      "350C",
      "350C",
      "350C",
      "350C",
      "350C",
      "350C",
      "350C",
      "350C",
      "350C",
      "350C",
      "350C",
      "350C",
      "350C",
      "350C",
      "350C",
      "350C",
      "350C",
      "350C",
      "350C",
      "350C",
      "350C",
      "350C",
      "350C",
      "350C",
      "350C",
      "350C",
      "350C",
      "350C",
      "350C",
      "350C",
      "350C",
      "350C",
      "350C",
      "350C",
      "350C",
      "350C",
      "350C",
      "350C",
      "350C",
      "350C",
      "350C",
      "350C",
      "350",
      "353",
      "353",
      "353",
      "353",
      "360C",
      "360C",
      "360C",
      "359",
      "359",
      "350C",
      "350C",
      "350C",
      "350C",
      "350C",
      "350C",
      "350C",
      "350C",
      "350C",
      "350C",
      "350C",
      "350C",
      "350C",
      "350C",
      "350C",
      "350C",
      "350C",
      "350C",
      "350C",
      "350C",
      "350C",
      "350C",
      "350C",
      "350C",
      "350C",
      "350C",
      "350C",
      "350C",
      "350C",
      "350C",
      "350C",
      "350C",
      "350C",
      "350C",
      "350C",
      "350C",
      "350C",
      "350C",
      "350C",
      "350C",
      "350C",
      "350C",
      "350C",
      "350C",
      "350C",
      "350C",
      "350C",
      "350C",
      "350C",
      "350C",
      "350C",
      "350C",
      "350C",
      "350C",
      "350C",
      "350C",
      "350C",
      "350C",
      "350C",
      "350C",
      "350C",
      "350C",
      "350C",
      "350C",
      "350C",
      "350C",
      "350C",
      "350C",
      "350C",
      "350C",
      "350C",
      "350C",
      "350C",
      "350C",
      "350C",
      "350C",
      "350C",
      "350C",
      "350C",
      "350C",
      "350C",
      "350C",
      "350C",
      "350C",
      "350C",
      "350C",
      "350C",
      "350C",
      "350C",
      "350C",
      "350C",
      "350C",
      "350C",
      "350C",
      "350C",
      "350C",
      "350C",
      "350C",
      "350C",
      "350C",
      "350C",
      "350C",
      "350C",
      "318",
      "318",
      "318",
      "318",
      "318",
      "307",
      "307",
      "307",
      "297",
      "297",
      "240",
      "240",
      "240",
      "220",
      "220",
      "220",
      "147",
      "147",
      "147",
      "147",
      "147",
      "096",
      "086",
      "086",
      "076",
      "032",
      "032",
      "026",
      "012",
      "012",
      "005",
      "005",
      "005",
      "005"
    ],
    "swim:geom": "path",
    "swim:speeds": [
      201,
      201,
      201,
      201,
      201,
      236,
      274,
      274,
      371,
      371,
      371,
      371,
      371,
      371,
      371,
      396,
      396,
      396,
      409,
      409,
      409,
      429,
      429,
      437,
      437,
      439,
      439,
      439,
      439,
      438,
      438,
      438,
      438,
      438,
      438,
      438,
      438,
      439,
      443,
      443,
      443,
      444,
      445,
      445,
      445,
      445,
      447,
      447,
      447,
      447,
      449,
      449,
      449,
      449,
      450,
      473,
      473,
      473,
      473,
      473,
      475,
      478,
      478,
      478,
      479,
      479,
      479,
      479,
      479,
      497,
      497,
      497,
      498,
      498,
      502,
      502,
      506,
      506,
      506,
      511,
      511,
      509,
      510,
      505,
      504,
      504,
      504,
      504,
      504,
      504,
      510,
      510,
      512,
      512,
      512,
      512,
      512,
      512,
      512,
      512,
      510,
      509,
      509,
      509,
      509,
      504,
      504,
      504,
      509,
      509,
      512,
      512,
      512,
      519,
      519,
      519,
      519,
      519,
      521,
      521,
      521,
      521,
      533,
      533,
      533,
      533,
      533,
      533,
      533,
      531,
      531,
      531,
      531,
      531,
      531,
      534,
      534,
      534,
      537,
      537,
      537,
      537,
      537,
      538,
      538,
      538,
      538,
      538,
      538,
      538,
      546,
      546,
      546,
      546,
      546,
      546,
      547,
      547,
      547,
      547,
      547,
      547,
      547,
      562,
      562,
      562,
      562,
      562,
      562,
      562,
      561,
      561,
      561,
      560,
      560,
      561,
      561,
      561,
      561,
      562,
      563,
      563,
      562,
      562,
      562,
      562,
      561,
      561,
      560,
      560,
      560,
      560,
      561,
      561,
      561,
      561,
      561,
      561,
      562,
      562,
      562,
      562,
      562,
      563,
      563,
      563,
      563,
      563,
      563,
      563,
      563,
      563,
      563,
      554,
      554,
      554,
      554,
      554,
      554,
      554,
      554,
      554,
      554,
      466,
      466,
      466,
      452,
      452,
      452,
      398,
      398,
      398,
      398,
      398,
      331,
      284,
      284,
      260,
      184,
      184,
      176,
      145,
      145,
      148,
      148,
      148,
      148
    ],
    "swim:timestamps": [
      1761144082,
      1761144082,
      1761144082,
      1761144082,
      1761144082,
      1761144131,
      1761144252,
      1761144252,
      1761144612,
      1761144612,
      1761144612,
      1761144612,
      1761144612,
      1761144612,
      1761144612,
      1761144912,
      1761144912,
      1761144912,
      1761145032,
      1761145032,
      1761145032,
      1761145226,
      1761145226,
      1761145453,
      1761145453,
      1761145573,
      1761145573,
      1761145573,
      1761145573,
      1761145587,
      1761145587,
      1761145647,
      1761145647,
      1761145647,
      1761145647,
      1761145647,
      1761145707,
      1761145873,
      1761145888,
      1761145888,
      1761145888,
      1761146008,
      1761146053,
      1761146053,
      1761146053,
      1761146053,
      1761146248,
      1761146248,
      1761146248,
      1761146248,
      1761146549,
      1761146549,
      1761146549,
      1761146549,
      1761146669,
      1761147270,
      1761147270,
      1761147270,
      1761147270,
      1761147270,
      1761147330,
      1761147450,
      1761147450,
      1761147450,
      1761147510,
      1761147510,
      1761147510,
      1761147510,
      1761147510,
      1761147871,
      1761147871,
      1761147931,
      1761147991,
      1761147991,
      1761148171,
      1761148171,
      1761148291,
      1761148291,
      1761148291,
      1761148369,
      1761148369,
      1761148472,
      1761148489,
      1761148652,
      1761148729,
      1761148729,
      1761148789,
      1761148789,
      1761148789,
      1761148789,
      1761149072,
      1761149089,
      1761149270,
      1761149270,
      1761149270,
      1761149313,
      1761149390,
      1761149390,
      1761149433,
      1761149630,
      1761149810,
      1761149871,
      1761149871,
      1761149871,
      1761149871,
      1761150051,
      1761150051,
      1761150051,
      1761150171,
      1761150171,
      1761150231,
      1761150231,
      1761150231,
      1761150591,
      1761150591,
      1761150652,
      1761150652,
      1761150652,
      1761150772,
      1761150772,
      1761150772,
      1761150772,
      1761151433,
      1761151433,
      1761151433,
      1761151433,
      1761151433,
      1761151433,
      1761151433,
      1761151733,
      1761151733,
      1761151733,
      1761151733,
      1761151733,
      1761151733,
      1761152033,
      1761152033,
      1761152033,
      1761152117,
      1761152117,
      1761152117,
      1761152177,
      1761152177,
      1761152471,
      1761152471,
      1761152537,
      1761152537,
      1761152537,
      1761152537,
      1761152537,
      1761152898,
      1761152898,
      1761152898,
      1761152898,
      1761152898,
      1761152898,
      1761153556,
      1761153556,
      1761153556,
      1761153556,
      1761153556,
      1761153556,
      1761153556,
      1761154938,
      1761154938,
      1761154938,
      1761154998,
      1761154998,
      1761154998,
      1761154998,
      1761155119,
      1761155119,
      1761155119,
      1761155239,
      1761155239,
      1761155359,
      1761155359,
      1761155359,
      1761155359,
      1761155447,
      1761155599,
      1761155599,
      1761155659,
      1761155659,
      1761155687,
      1761155687,
      1761155720,
      1761155720,
      1761155808,
      1761155808,
      1761155808,
      1761155900,
      1761156048,
      1761156048,
      1761156288,
      1761156288,
      1761156288,
      1761156288,
      1761156349,
      1761156349,
      1761156349,
      1761156469,
      1761156469,
      1761157070,
      1761157070,
      1761157070,
      1761157070,
      1761157070,
      1761157070,
      1761157250,
      1761157250,
      1761157250,
      1761157250,
      1761157791,
      1761157791,
      1761157791,
      1761157791,
      1761157791,
      1761157853,
      1761157853,
      1761157853,
      1761157913,
      1761157913,
      1761158333,
      1761158333,
      1761158333,
      1761158454,
      1761158454,
      1761158454,
      1761158715,
      1761158715,
      1761158715,
      1761158715,
      1761158715,
      1761158934,
      1761159001,
      1761159001,
      1761159061,
      1761159244,
      1761159244,
      1761159295,
      1761159484,
      1761159484,
      1761159596,
      1761159596,
      1761159596,
      1761159596
    ],
    "wof:geomhash": "37165bfccce5ff3faf70236cc8f6adf8",
    "wof:id": 1981741465,
    "wof:repo": "sfomuseum-data-flights-2025-10"
  },
  "bbox": [
    -122.31666666666666,
    35.875277777777775,
    -78.63416666666667,
    40.138888888888886
  ],
  "geometry": {"coordinates":[[-122.31666666666666,37.666666666666664],[-122.31666666666666,37.666666666666664],[-122.31666666666666,37.666666666666664],[-122.31666666666666,37.666666666666664],[-122.31666666666666,37.666666666666664],[-122.26472222222222,37.69138888888889],[-122.10194444444444,37.763888888888886],[-122.10194444444444,37.763888888888886],[-121.44500000000001,38.02861111111111],[-121.44500000000001,38.02861111111111],[-121.44500000000001,38.02861111111111],[-121.44500000000001,38.02861111111111],[-121.44500000000001,38.02861111111111],[-121.44500000000001,38.02861111111111],[-121.44500000000001,38.02861111111111],[-120.77583333333334,38.14416666666666],[-120.77583333333334,38.14416666666666],[-120.77583333333334,38.14416666666666],[-120.49555555555555,38.19138888888889],[-120.49555555555555,38.19138888888889],[-120.49555555555555,38.19138888888889],[-120.0425,38.266666666666666],[-120.0425,38.266666666666666],[-119.4588888888889,38.359722222222224],[-119.4588888888889,38.359722222222224],[-119.16277777777778,38.40611111111111],[-119.16277777777778,38.40611111111111],[-119.16277777777778,38.40611111111111],[-119.16277777777778,38.40611111111111],[-119.13472222222222,38.41027777777778],[-119.13472222222222,38.41027777777778],[-118.98166666666667,38.43277777777777],[-118.98166666666667,38.43277777777777],[-118.98166666666667,38.43277777777777],[-118.98166666666667,38.43277777777777],[-118.98166666666667,38.43277777777777],[-118.82972222222222,38.4575],[-118.39805555555556,38.52166666666667],[-118.36944444444444,38.52611111111111],[-118.36944444444444,38.52611111111111],[-118.36944444444444,38.52611111111111],[-118.05666666666666,38.57194444444445],[-117.93166666666667,38.59],[-117.93166666666667,38.59],[-117.93166666666667,38.59],[-117.93166666666667,38.59],[-117.43166666666667,38.660555555555554],[-117.43166666666667,38.660555555555554],[-117.43166666666667,38.660555555555554],[-117.43166666666667,38.660555555555554],[-116.64250000000001,38.79],[-116.64250000000001,38.79],[-116.64250000000001,38.79],[-116.64250000000001,38.79],[-116.32666666666667,38.841944444444444],[-114.68305555555555,39.097500000000004],[-114.68305555555555,39.097500000000004],[-114.68305555555555,39.097500000000004],[-114.68305555555555,39.097500000000004],[-114.68305555555555,39.097500000000004],[-114.51638888888888,39.121944444444445],[-114.17805555555556,39.17111111111111],[-114.17805555555556,39.17111111111111],[-114.17805555555556,39.17111111111111],[-114.00861111111111,39.19499999999999],[-114.00861111111111,39.19499999999999],[-114.00861111111111,39.19499999999999],[-114.00861111111111,39.19499999999999],[-114.00861111111111,39.19499999999999],[-112.96916666666667,39.346944444444446],[-112.96916666666667,39.346944444444446],[-112.83194444444445,39.36972222222222],[-112.65444444444445,39.39888888888889],[-112.65444444444445,39.39888888888889],[-112.10166666666666,39.48777777777778],[-112.10166666666666,39.48777777777778],[-111.74722222222222,39.543055555555554],[-111.74722222222222,39.543055555555554],[-111.74722222222222,39.543055555555554],[-111.5213888888889,39.57777777777778],[-111.5213888888889,39.57777777777778],[-111.19666666666667,39.62694444444445],[-111.1613888888889,39.632222222222225],[-110.66250000000001,39.705555555555556],[-110.44805555555556,39.73638888888889],[-110.44805555555556,39.73638888888889],[-110.27027777777778,39.76166666666666],[-110.27027777777778,39.76166666666666],[-110.27027777777778,39.76166666666666],[-110.27027777777778,39.76166666666666],[-109.39972222222222,39.880833333333335],[-109.36583333333333,39.88527777777778],[-108.80916666666667,39.94499999999999],[-108.80916666666667,39.94499999999999],[-108.80916666666667,39.94499999999999],[-108.69722222222222,39.95194444444445],[-108.43722222222223,39.968333333333334],[-108.43722222222223,39.968333333333334],[-108.32527777777777,39.975],[-107.6975,40.01083333333333],[-107.1538888888889,40.03916666666667],[-106.97444444444444,40.047777777777775],[-106.97444444444444,40.047777777777775],[-106.97444444444444,40.047777777777775],[-106.97444444444444,40.047777777777775],[-106.43583333333333,40.072500000000005],[-106.43583333333333,40.072500000000005],[-106.43583333333333,40.072500000000005],[-106.06555555555555,40.088055555555556],[-106.06555555555555,40.088055555555556],[-105.8775,40.095555555555556],[-105.8775,40.095555555555556],[-105.8775,40.095555555555556],[-104.74388888888889,40.13361111111111],[-104.74388888888889,40.13361111111111],[-104.55472222222222,40.138888888888886],[-104.55472222222222,40.138888888888886],[-104.55472222222222,40.138888888888886],[-104.17472222222223,40.13666666666666],[-104.17472222222223,40.13666666666666],[-104.17472222222223,40.13666666666666],[-104.17472222222223,40.13666666666666],[-102.06944444444444,40.05416666666667],[-102.06944444444444,40.05416666666667],[-102.06944444444444,40.05416666666667],[-102.06944444444444,40.05416666666667],[-102.06944444444444,40.05416666666667],[-102.06944444444444,40.05416666666667],[-102.06944444444444,40.05416666666667],[-101.11527777777778,40.00388888888889],[-101.11527777777778,40.00388888888889],[-101.11527777777778,40.00388888888889],[-101.11527777777778,40.00388888888889],[-101.11527777777778,40.00388888888889],[-101.11527777777778,40.00388888888889],[-100.1363888888889,39.94444444444444],[-100.1363888888889,39.94444444444444],[-100.1363888888889,39.94444444444444],[-99.87166666666666,39.92666666666666],[-99.87166666666666,39.92666666666666],[-99.87166666666666,39.92666666666666],[-99.68111111111112,39.913333333333334],[-99.68111111111112,39.913333333333334],[-98.70861111111111,39.841944444444444],[-98.70861111111111,39.841944444444444],[-98.5213888888889,39.827222222222225],[-98.5213888888889,39.827222222222225],[-98.5213888888889,39.827222222222225],[-98.5213888888889,39.827222222222225],[-98.5213888888889,39.827222222222225],[-97.3536111111111,39.723888888888894],[-97.3536111111111,39.723888888888894],[-97.3536111111111,39.723888888888894],[-97.3536111111111,39.723888888888894],[-97.3536111111111,39.723888888888894],[-97.3536111111111,39.723888888888894],[-95.19388888888889,39.498333333333335],[-95.19388888888889,39.498333333333335],[-95.19388888888889,39.498333333333335],[-95.19388888888889,39.498333333333335],[-95.19388888888889,39.498333333333335],[-95.19388888888889,39.498333333333335],[-95.19388888888889,39.498333333333335],[-90.6975,38.89416666666666],[-90.6975,38.89416666666666],[-90.6975,38.89416666666666],[-90.48833333333333,38.86138888888889],[-90.48833333333333,38.86138888888889],[-90.48833333333333,38.86138888888889],[-90.48833333333333,38.86138888888889],[-90.10972222222222,38.811388888888885],[-90.10972222222222,38.811388888888885],[-90.10972222222222,38.811388888888885],[-89.70027777777779,38.75472222222222],[-89.70027777777779,38.75472222222222],[-89.30694444444444,38.69916666666666],[-89.30694444444444,38.69916666666666],[-89.30694444444444,38.69916666666666],[-89.30694444444444,38.69916666666666],[-89.03611111111111,38.66027777777778],[-88.51388888888889,38.583333333333336],[-88.51388888888889,38.583333333333336],[-88.31472222222222,38.55333333333333],[-88.31472222222222,38.55333333333333],[-88.24833333333333,38.54333333333333],[-88.24833333333333,38.54333333333333],[-88.12138888888889,38.52388888888889],[-88.12138888888889,38.52388888888889],[-87.84944444444444,38.48166666666667],[-87.84944444444444,38.48166666666667],[-87.84944444444444,38.48166666666667],[-87.53611111111111,38.4325],[-87.06027777777777,38.35583333333334],[-87.06027777777777,38.35583333333334],[-86.30888888888889,38.23027777777778],[-86.30888888888889,38.23027777777778],[-86.30888888888889,38.23027777777778],[-86.30888888888889,38.23027777777778],[-86.11722222222221,38.1975],[-86.11722222222221,38.1975],[-86.11722222222221,38.1975],[-85.72666666666667,38.12972222222222],[-85.72666666666667,38.12972222222222],[-83.78111111111112,37.861666666666665],[-83.78111111111112,37.861666666666665],[-83.78111111111112,37.861666666666665],[-83.78111111111112,37.861666666666665],[-83.78111111111112,37.861666666666665],[-83.78111111111112,37.861666666666665],[-83.19666666666667,37.776666666666664],[-83.19666666666667,37.776666666666664],[-83.19666666666667,37.776666666666664],[-83.19666666666667,37.776666666666664],[-81.46777777777778,37.5075],[-81.46777777777778,37.5075],[-81.46777777777778,37.5075],[-81.46777777777778,37.5075],[-81.46777777777778,37.5075],[-81.24888888888889,37.47138888888889],[-81.24888888888889,37.47138888888889],[-81.24888888888889,37.47138888888889],[-81.05666666666666,37.43944444444444],[-81.05666666666666,37.43944444444444],[-79.82777777777777,37.19166666666666],[-79.82777777777777,37.19166666666666],[-79.82777777777777,37.19166666666666],[-79.58222222222221,37.035555555555554],[-79.58222222222221,37.035555555555554],[-79.58222222222221,37.035555555555554],[-79.18055555555556,36.64333333333333],[-79.18055555555556,36.64333333333333],[-79.18055555555556,36.64333333333333],[-79.18055555555556,36.64333333333333],[-79.18055555555556,36.64333333333333],[-78.88194444444444,36.356944444444444],[-78.80138888888888,36.29222222222222],[-78.80138888888888,36.29222222222222],[-78.73722222222223,36.234722222222224],[-78.63416666666667,36.07777777777778],[-78.63416666666667,36.07777777777778],[-78.63416666666667,36.04194444444444],[-78.74333333333334,35.92166666666667],[-78.74333333333334,35.92166666666667],[-78.80111111111111,35.875277777777775],[-78.80111111111111,35.875277777777775],[-78.80111111111111,35.875277777777775],[-78.80111111111111,35.875277777777775]],"type":"LineString"}
}
