{
  "id": 1981593193,
  "type": "Feature",
  "properties": {
    "geom:area": 0,
    "geom:bbox": "-122.458860,36.728380,-121.491730,37.717080",
    "geom:latitude": 37.23155907028782,
    "geom:longitude": -122.07108896866279,
    "src:alt_label": "swim-takeoff",
    "src:geom": "swim",
    "swim:elevations": [
      213,
      364,
      717,
      1072,
      1469,
      1690,
      1957,
      2422,
      2569,
      2782,
      3288,
      3715,
      3978,
      4305,
      4725,
      4925,
      5010,
      5336,
      5709,
      5820,
      6285,
      6625,
      6764,
      7258,
      7405,
      7664,
      7864,
      7986,
      8202,
      8402,
      8596,
      8862,
      8952,
      9126
    ],
    "swim:geom": "takeoff",
    "swim:timestamps": [
      1759701928,
      1759701939,
      1759701967,
      1759701991,
      1759702047,
      1759702065,
      1759702080,
      1759702107,
      1759702116,
      1759702128,
      1759702160,
      1759702198,
      1759702224,
      1759702254,
      1759702283,
      1759702298,
      1759702304,
      1759702340,
      1759702372,
      1759702380,
      1759702428,
      1759702466,
      1759702479,
      1759702528,
      1759702544,
      1759702583,
      1759702615,
      1759702632,
      1759702665,
      1759702695,
      1759702724,
      1759702760,
      1759702773,
      1759702805
    ],
    "wof:geomhash": "0e943e01636590f3bc276b17a284f3e5",
    "wof:id": 1981593193,
    "wof:repo": "sfomuseum-data-flights-2025-10"
  },
  "bbox": [
    -122.45886,
    36.72838,
    -121.49173,
    37.71708
  ],
  "geometry": {"coordinates":[[-122.36575,37.63378],[-122.3625,37.64244],[-122.36308,37.66331],[-122.36246,37.68146],[-122.40677,37.71708],[-122.4345,37.71091],[-122.45153,37.69684],[-122.45886,37.6627],[-122.4575,37.65005],[-122.45574,37.63492],[-122.45127,37.59254],[-122.44511,37.53859],[-122.44034,37.50022],[-122.41823,37.45639],[-122.3753,37.42473],[-122.35317,37.40871],[-122.34418,37.40217],[-122.28904,37.36099],[-122.23942,37.32345],[-122.2271,37.31424],[-122.14899,37.25634],[-122.08665,37.20995],[-122.06428,37.19335],[-121.98148,37.13129],[-121.95467,37.11115],[-121.88726,37.05899],[-121.83283,37.01277],[-121.80307,36.98808],[-121.74382,36.94015],[-121.69042,36.89557],[-121.63991,36.85206],[-121.57386,36.79709],[-121.55016,36.7776],[-121.49173,36.72838]],"type":"LineString"}
}
