{
  "id": 1981597727,
  "type": "Feature",
  "properties": {
    "geom:area": 0,
    "geom:bbox": "-122.350860,36.765090,-121.900420,37.608570",
    "geom:latitude": 37.22776154679008,
    "geom:longitude": -122.07623378631658,
    "src:alt_label": "swim-approach",
    "src:geom": "swim",
    "swim:elevations": [
      5245,
      5040,
      4600,
      4364,
      4083,
      3865,
      3590,
      3348,
      3174,
      3040,
      2799,
      2463,
      2374,
      2130,
      2036,
      1853,
      1720,
      1580,
      1460,
      1440,
      1152,
      1063,
      888,
      725,
      465,
      327,
      200,
      74,
      48
    ],
    "swim:geom": "approach",
    "swim:timestamps": [
      1759751002,
      1759751023,
      1759751066,
      1759751089,
      1759751122,
      1759751152,
      1759751187,
      1759751211,
      1759751228,
      1759751271,
      1759751305,
      1759751366,
      1759751386,
      1759751420,
      1759751436,
      1759751464,
      1759751487,
      1759751518,
      1759751547,
      1759751552,
      1759751604,
      1759751621,
      1759751650,
      1759751681,
      1759751724,
      1759751754,
      1759751786,
      1759751816,
      1759751824
    ],
    "wof:geomhash": "105155e4411bc65e955f65f50196006f",
    "wof:id": 1981597727,
    "wof:repo": "sfomuseum-data-flights-2025-10"
  },
  "bbox": [
    -122.35086,
    36.76509,
    -121.90042,
    37.60857
  ],
  "geometry": {"coordinates":[[-121.90042,36.76509],[-121.91016,36.79969],[-121.93036,36.87119],[-121.94078,36.90825],[-121.95655,36.96017],[-121.9732,37.00333],[-121.9919,37.05149],[-122.00458,37.08427],[-122.01317,37.10623],[-122.03476,37.16114],[-122.04979,37.19948],[-122.07622,37.26723],[-122.08506,37.28925],[-122.09963,37.32626],[-122.10651,37.34379],[-122.119,37.37548],[-122.12774,37.4],[-122.1384,37.43146],[-122.14751,37.4571],[-122.14965,37.4615],[-122.17456,37.50401],[-122.18411,37.51743],[-122.19938,37.53949],[-122.22652,37.55647],[-122.26687,37.57313],[-122.29399,37.58457],[-122.31993,37.59525],[-122.34433,37.60575],[-122.35086,37.60857]],"type":"LineString"}
}
