{
  "id": 1981588787,
  "type": "Feature",
  "properties": {
    "geom:area": 0,
    "geom:bbox": "-122.356080,36.731330,-121.885730,37.610710",
    "geom:latitude": 37.21294059074625,
    "geom:longitude": -122.07109030432595,
    "src:alt_label": "swim-approach",
    "src:geom": "swim",
    "swim:elevations": [
      4658,
      4403,
      4228,
      3910,
      3720,
      3437,
      3277,
      3172,
      2934,
      2688,
      2560,
      2460,
      2416,
      2441,
      2183,
      2009,
      1906,
      1726,
      1537,
      1390,
      1186,
      881,
      787,
      662,
      487,
      359,
      233,
      139,
      28
    ],
    "swim:geom": "approach",
    "swim:timestamps": [
      1759651189,
      1759651220,
      1759651242,
      1759651281,
      1759651305,
      1759651340,
      1759651372,
      1759651399,
      1759651437,
      1759651468,
      1759651483,
      1759651508,
      1759651543,
      1759651569,
      1759651615,
      1759651643,
      1759651653,
      1759651683,
      1759651738,
      1759651759,
      1759651779,
      1759651826,
      1759651858,
      1759651880,
      1759651916,
      1759651946,
      1759651978,
      1759652004,
      1759652032
    ],
    "wof:geomhash": "db3fc46d694f2c79f8b910569f70bf26",
    "wof:id": 1981588787,
    "wof:repo": "sfomuseum-data-flights-2025-10"
  },
  "bbox": [
    -122.35608,
    36.73133,
    -121.88573,
    37.61071
  ],
  "geometry": {"coordinates":[[-121.88573,36.73133],[-121.904,36.77786],[-121.91394,36.81344],[-121.93092,36.87368],[-121.94111,36.91007],[-121.95727,36.96306],[-121.97555,37.00991],[-121.99012,37.04718],[-122.00929,37.09627],[-122.02482,37.13611],[-122.03227,37.15503],[-122.04416,37.18536],[-122.06027,37.22693],[-122.07277,37.25889],[-122.09474,37.31426],[-122.10743,37.34675],[-122.11204,37.35818],[-122.1246,37.39214],[-122.14417,37.4492],[-122.15334,37.47023],[-122.16493,37.49048],[-122.19345,37.5309],[-122.21467,37.55076],[-122.2352,37.5597],[-122.2696,37.57437],[-122.29452,37.58477],[-122.31774,37.59415],[-122.33663,37.60231],[-122.35608,37.61071]],"type":"LineString"}
}
