{
  "id": 1981771807,
  "type": "Feature",
  "properties": {
    "geom:area": 0,
    "geom:bbox": "-122.360810,37.491090,-121.294730,37.614850",
    "geom:latitude": 37.54501626550922,
    "geom:longitude": -121.83253304740676,
    "src:alt_label": "swim-approach",
    "src:geom": "swim",
    "swim:elevations": [
      4648,
      4422,
      4128,
      3883,
      3687,
      3259,
      3199,
      3060,
      2890,
      2699,
      2529,
      2422,
      2409,
      2262,
      2073,
      2018,
      1855,
      1829,
      1679,
      1486,
      1308,
      1089,
      881,
      772,
      676,
      551,
      458,
      372,
      308,
      210,
      73,
      0
    ],
    "swim:geom": "approach",
    "swim:timestamps": [
      1761478312,
      1761478335,
      1761478364,
      1761478389,
      1761478410,
      1761478465,
      1761478485,
      1761478521,
      1761478557,
      1761478584,
      1761478617,
      1761478641,
      1761478647,
      1761478673,
      1761478708,
      1761478721,
      1761478755,
      1761478780,
      1761478814,
      1761478840,
      1761478865,
      1761478908,
      1761478945,
      1761478970,
      1761478993,
      1761479029,
      1761479057,
      1761479085,
      1761479102,
      1761479132,
      1761479165,
      1761479183
    ],
    "wof:geomhash": "a9a3664cc64e94c51b6df2ed114d7ea5",
    "wof:id": 1981771807,
    "wof:repo": "sfomuseum-data-flights-2025-10"
  },
  "bbox": [
    -122.36081,
    37.49109,
    -121.29473,
    37.61485
  ],
  "geometry": {"coordinates":[[-121.29473,37.58889],[-121.33649,37.58417],[-121.38961,37.57813],[-121.43445,37.57302],[-121.47214,37.56846],[-121.56916,37.55724],[-121.60199,37.55338],[-121.65399,37.54373],[-121.70243,37.53221],[-121.7374,37.52392],[-121.77919,37.51399],[-121.80804,37.50699],[-121.8152,37.50527],[-121.84513,37.49808],[-121.88704,37.49109],[-121.90268,37.49157],[-121.94262,37.49272],[-121.97133,37.49349],[-122.00999,37.50166],[-122.03877,37.51113],[-122.06707,37.5204],[-122.11374,37.53551],[-122.15356,37.54826],[-122.17874,37.55652],[-122.20122,37.56387],[-122.23504,37.57474],[-122.25808,37.58223],[-122.28121,37.58864],[-122.29527,37.59288],[-122.32,37.60011],[-122.34608,37.60876],[-122.36081,37.61485]],"type":"LineString"}
}
