{
  "id": 1981795949,
  "type": "Feature",
  "properties": {
    "geom:area": 0,
    "geom:bbox": "-122.380000,37.490000,-71.010000,43.280000",
    "geom:latitude": 41.492663982350074,
    "geom:longitude": -96.82739394609213,
    "src:alt_label": "swim-route",
    "src:geom": "swim",
    "swim:geom": "route",
    "wof:geomhash": "1be75885d3ca8f1d643a756ad6f4689d",
    "wof:id": 1981795949,
    "wof:repo": "sfomuseum-data-flights-2025-10"
  },
  "bbox": [
    -122.38,
    37.49,
    -71.01,
    43.28
  ],
  "geometry": {"coordinates":[[-71.01,42.36],[-74.2,42.8],[-74.54,42.84],[-74.88,42.88],[-75.89,42.99],[-76.76,43.08],[-77.31,43.13],[-78.93,43.27],[-79.1,43.28],[-82.26,43.27],[-82.28,43.27],[-82.29,43.27],[-82.71,43.26],[-84.46,43.24],[-85,43.22],[-86.05,43.17],[-87,43.15],[-87.03,43.15],[-87.36,43.14],[-88.28,43.12],[-89.34,43.14],[-89.78,43.1],[-91.06,42.95],[-91.56,42.89],[-92.55,42.76],[-92.62,42.75],[-93.03,42.72],[-93.39,42.69],[-94.29,42.61],[-95.81,42.41],[-96.3,42.35],[-96.32,42.34],[-97.49,42.41],[-98.37,42.46],[-98.69,42.47],[-99.31,42.36],[-102.03,41.82],[-102.93,41.63],[-103.16,41.58],[-103.86,41.42],[-104.09,41.37],[-104.55,41.26],[-104.77,41.21],[-105.61,40.99],[-106.34,40.79],[-106.82,40.66],[-107.3,40.52],[-107.32,40.52],[-109.03,40.3],[-109.15,40.29],[-109.37,40.25],[-110.13,40.15],[-110.98,39.85],[-112.51,39.3],[-112.61,39.28],[-113.32,39.12],[-114.17,38.91],[-114.46,38.85],[-115.31,38.64],[-115.87,38.49],[-116.15,38.42],[-116.43,38.34],[-117.19,38.14],[-117.27,38.12],[-117.27,38.12],[-117.77,38],[-118.02,37.98],[-118.03,37.98],[-118.76,37.9],[-119.1,37.86],[-119.38,37.82],[-119.8,37.77],[-120.12,37.74],[-120.31,37.71],[-120.4,37.7],[-120.4,37.7],[-120.57,37.68],[-120.69,37.67],[-120.75,37.66],[-120.79,37.65],[-120.8,37.65],[-120.96,37.63],[-121,37.63],[-121.01,37.63],[-121.07,37.62],[-121.17,37.61],[-121.26,37.59],[-121.39,37.58],[-121.41,37.58],[-121.6,37.55],[-121.61,37.55],[-121.62,37.55],[-121.72,37.53],[-121.8,37.51],[-121.88,37.49],[-121.89,37.49],[-122.01,37.53],[-122.08,37.54],[-122.18,37.57],[-122.18,37.57],[-122.28,37.59],[-122.33,37.61],[-122.36,37.61],[-122.38,37.62]],"type":"LineString"}
}
