{
  "id": 1981724627,
  "type": "Feature",
  "properties": {
    "geom:area": 0,
    "geom:bbox": "-122.526500,37.635930,-121.283970,37.971180",
    "geom:latitude": 37.86860147113587,
    "geom:longitude": -121.99647186383623,
    "src:alt_label": "swim-takeoff",
    "src:geom": "swim",
    "swim:elevations": [
      366,
      673,
      819,
      1064,
      1130,
      1647,
      2091,
      2477,
      2658,
      2878,
      3417,
      3527,
      3834,
      4092,
      4272,
      4506,
      4956,
      5156,
      5350,
      5464,
      5658,
      5960,
      6190,
      6445,
      6604,
      6732,
      6991,
      7166,
      7355
    ],
    "swim:geom": "takeoff",
    "swim:timestamps": [
      1760953198,
      1760953223,
      1760953236,
      1760953287,
      1760953292,
      1760953346,
      1760953376,
      1760953407,
      1760953425,
      1760953441,
      1760953497,
      1760953512,
      1760953550,
      1760953583,
      1760953603,
      1760953627,
      1760953672,
      1760953695,
      1760953723,
      1760953747,
      1760953774,
      1760953816,
      1760953846,
      1760953876,
      1760953893,
      1760953911,
      1760953944,
      1760953968,
      1760953995
    ],
    "wof:geomhash": "1f2a6dd9d5efb3993fd32c5d37e7e60a",
    "wof:id": 1981724627,
    "wof:repo": "sfomuseum-data-flights-2025-10"
  },
  "bbox": [
    -122.5265,
    37.63593,
    -121.28397,
    37.97118
  ],
  "geometry": {"coordinates":[[-122.41534,37.63593],[-122.44021,37.64655],[-122.45409,37.65262],[-122.51283,37.68163],[-122.51665,37.68578],[-122.5265,37.75168],[-122.52434,37.79082],[-122.48985,37.81848],[-122.46316,37.82797],[-122.43614,37.83623],[-122.34131,37.84904],[-122.31404,37.85255],[-122.24175,37.86153],[-122.1771,37.86883],[-122.13687,37.87347],[-122.08814,37.87937],[-121.99551,37.89012],[-121.94835,37.89566],[-121.89071,37.90237],[-121.83859,37.90837],[-121.78074,37.91504],[-121.68818,37.92562],[-121.62127,37.9334],[-121.55506,37.94088],[-121.51484,37.9454],[-121.4747,37.94991],[-121.40087,37.95821],[-121.34519,37.96429],[-121.28397,37.97118]],"type":"LineString"}
}
