{
  "id": 1981676265,
  "type": "Feature",
  "properties": {
    "geom:area": 0,
    "geom:bbox": "-122.666790,37.522330,-122.144670,38.512900",
    "geom:latitude": 38.010406368270324,
    "geom:longitude": -122.4736824364863,
    "src:alt_label": "swim-approach",
    "src:geom": "swim",
    "swim:elevations": [
      992,
      913,
      914,
      781,
      541,
      419,
      307,
      248,
      171,
      22,
      8013,
      7826,
      7359,
      7042,
      6620,
      6314,
      5861,
      5572,
      5440,
      5134,
      4756,
      4362,
      4248,
      3959,
      3485,
      3448,
      3353,
      3353,
      3353,
      3353
    ],
    "swim:geom": "approach",
    "swim:timestamps": [
      1760511622,
      1760511649,
      1760511670,
      1760511697,
      1760511740,
      1760511766,
      1760511787,
      1760511805,
      1760511823,
      1760511858,
      1760597425,
      1760597445,
      1760597485,
      1760597509,
      1760597545,
      1760597571,
      1760597606,
      1760597633,
      1760597645,
      1760597681,
      1760597719,
      1760597757,
      1760597767,
      1760597797,
      1760597846,
      1760597852,
      1760597904,
      1760597920,
      1760597950,
      1760597973
    ],
    "wof:geomhash": "b5c73d824ea6af60c3d7a2381399f33a",
    "wof:id": 1981676265,
    "wof:repo": "sfomuseum-data-flights-2025-10"
  },
  "bbox": [
    -122.66679,
    37.52233,
    -122.14467,
    38.5129
  ],
  "geometry": {"coordinates":[[-122.14467,37.52233],[-122.1695,37.53443],[-122.18971,37.54313],[-122.21596,37.55415],[-122.25773,37.57181],[-122.28147,37.58176],[-122.29908,37.58916],[-122.31405,37.59538],[-122.32856,37.60153],[-122.35622,37.61307],[-122.47095,38.5129],[-122.50267,38.48244],[-122.55957,38.41729],[-122.57698,38.37349],[-122.59126,38.30371],[-122.60148,38.25412],[-122.61463,38.18981],[-122.62471,38.13967],[-122.62916,38.11783],[-122.64223,38.05345],[-122.65589,37.98496],[-122.66679,37.91522],[-122.66222,37.8982],[-122.6262,37.85561],[-122.55751,37.79036],[-122.54929,37.78258],[-122.4834,37.71991],[-122.46438,37.70206],[-122.43236,37.67216],[-122.40899,37.65057]],"type":"LineString"}
}
