{
  "id": 1981767531,
  "type": "Feature",
  "properties": {
    "geom:area": 0,
    "geom:bbox": "-122.366667,37.633333,-77.459722,42.232778",
    "geom:latitude": 40.96926746350641,
    "geom:longitude": -100.06708262668104,
    "src:alt_label": "swim-path",
    "src:geom": "swim",
    "swim:altitudes": [
      "008",
      "008",
      "008",
      "008",
      "008",
      "012",
      "012",
      "045",
      "045",
      "045",
      "171",
      "171",
      "191",
      "191",
      "191",
      "281",
      "295",
      "295",
      "308C",
      "308C",
      "308C",
      "350C",
      "350C",
      "350C",
      "350C",
      "350C",
      "350C",
      "350C",
      "350C",
      "350C",
      "350C",
      "350C",
      "350C",
      "350C",
      "350C",
      "350C",
      "350C",
      "350C",
      "350C",
      "350C",
      "350C",
      "350C",
      "350C",
      "350C",
      "350C",
      "350C",
      "350C",
      "350C",
      "350C",
      "350C",
      "350C",
      "350C",
      "350C",
      "350C",
      "363",
      "363",
      "370C",
      "370C",
      "370C",
      "370C",
      "370C",
      "370C",
      "370C",
      "370C",
      "370C",
      "370C",
      "370C",
      "370C",
      "370C",
      "370C",
      "370C",
      "370C",
      "370C",
      "370C",
      "370C",
      "370C",
      "370C",
      "370C",
      "370C",
      "370C",
      "370C",
      "370C",
      "370C",
      "370C",
      "370C",
      "370C",
      "370C",
      "370C",
      "370C",
      "370C",
      "370C",
      "370C",
      "370C",
      "370C",
      "370C",
      "370C",
      "370C",
      "370C",
      "370C",
      "370C",
      "370C",
      "370C",
      "370C",
      "370C",
      "370C",
      "370C",
      "370C",
      "370C",
      "370C",
      "370C",
      "370C",
      "370C",
      "370C",
      "370C",
      "370C",
      "370C",
      "370C",
      "370C",
      "370C",
      "370C",
      "370C",
      "370C",
      "370C",
      "370C",
      "370C",
      "370C",
      "370C",
      "370C",
      "370C",
      "370C",
      "370C",
      "370C",
      "370C",
      "370C",
      "370C",
      "370C",
      "370C",
      "370C",
      "370C",
      "370C",
      "370C",
      "370C",
      "370C",
      "370C",
      "370C",
      "370C",
      "370C",
      "370C",
      "370C",
      "370C",
      "350C",
      "350C",
      "350C",
      "350C",
      "350C",
      "350C",
      "350C",
      "350C",
      "350C",
      "350C",
      "350C",
      "350C",
      "350C",
      "350C",
      "350C",
      "350C",
      "350C",
      "350C",
      "350C",
      "350C",
      "350C",
      "350C",
      "350C",
      "350C",
      "350C",
      "350C",
      "350C",
      "350C",
      "350C",
      "350C",
      "350C",
      "350C",
      "350C",
      "350C",
      "350C",
      "350C",
      "350C",
      "350C",
      "350C",
      "350C",
      "350C",
      "350C",
      "350C",
      "350C",
      "350C",
      "350C",
      "350C",
      "350C",
      "350C",
      "350C",
      "350C",
      "350C",
      "350C",
      "350C",
      "350C",
      "350C",
      "350C",
      "350C",
      "350C",
      "350C",
      "350C",
      "350C",
      "350C",
      "350C",
      "350C",
      "350C",
      "350C",
      "350C",
      "350C",
      "350C",
      "350C",
      "350C",
      "350C",
      "350C",
      "350C",
      "350C",
      "350C",
      "350C",
      "350C",
      "350C",
      "350C",
      "350C",
      "350C",
      "350C",
      "350C",
      "350C",
      "350C",
      "350C",
      "350C",
      "350C",
      "350C",
      "350C",
      "350C",
      "350C",
      "350C",
      "350C",
      "350C",
      "350C",
      "350C",
      "350C",
      "350C",
      "350C",
      "350C",
      "350C",
      "350C",
      "350C",
      "350C",
      "350C",
      "350C",
      "350C",
      "350C",
      "350C",
      "350C",
      "350C",
      "350C",
      "350C",
      "350C",
      "350C",
      "350C",
      "350C",
      "350C",
      "350C",
      "350C",
      "350C",
      "350C",
      "350C",
      "350C",
      "341",
      "337",
      "337",
      "330",
      "330",
      "309",
      "297",
      "297",
      "287",
      "265",
      "246",
      "243",
      "243",
      "227",
      "227",
      "210",
      "210",
      "131",
      "131",
      "131",
      "127",
      "127",
      "115",
      "085",
      "082",
      "082",
      "069",
      "062",
      "062",
      "060",
      "051",
      "050",
      "044",
      "030",
      "030",
      "025",
      "025",
      "017",
      "017",
      "011",
      "009",
      "002",
      "002",
      "002"
    ],
    "swim:geom": "path",
    "swim:speeds": [
      187,
      187,
      187,
      187,
      187,
      189,
      189,
      256,
      256,
      256,
      404,
      404,
      419,
      419,
      419,
      500,
      510,
      510,
      512,
      512,
      512,
      491,
      491,
      491,
      498,
      498,
      498,
      522,
      522,
      522,
      520,
      520,
      529,
      529,
      529,
      529,
      529,
      532,
      532,
      533,
      533,
      534,
      533,
      533,
      533,
      533,
      522,
      520,
      518,
      518,
      517,
      517,
      507,
      507,
      507,
      507,
      501,
      501,
      506,
      506,
      506,
      506,
      506,
      500,
      500,
      500,
      500,
      495,
      495,
      493,
      493,
      492,
      492,
      492,
      494,
      494,
      486,
      486,
      481,
      481,
      478,
      478,
      478,
      470,
      467,
      467,
      466,
      466,
      466,
      464,
      464,
      464,
      463,
      463,
      461,
      461,
      461,
      461,
      450,
      450,
      450,
      445,
      445,
      441,
      440,
      440,
      440,
      439,
      439,
      438,
      438,
      438,
      439,
      433,
      433,
      432,
      432,
      434,
      434,
      434,
      437,
      438,
      439,
      438,
      438,
      438,
      437,
      437,
      437,
      437,
      436,
      436,
      436,
      436,
      435,
      435,
      436,
      436,
      436,
      437,
      437,
      438,
      438,
      439,
      441,
      441,
      443,
      443,
      443,
      443,
      430,
      430,
      433,
      436,
      436,
      436,
      439,
      440,
      440,
      441,
      441,
      444,
      443,
      443,
      443,
      443,
      442,
      443,
      443,
      443,
      445,
      446,
      447,
      449,
      449,
      449,
      449,
      449,
      450,
      451,
      452,
      453,
      455,
      456,
      456,
      458,
      458,
      461,
      463,
      465,
      465,
      466,
      466,
      468,
      469,
      468,
      472,
      471,
      471,
      474,
      473,
      473,
      473,
      473,
      478,
      478,
      480,
      480,
      481,
      481,
      482,
      484,
      484,
      484,
      487,
      487,
      487,
      487,
      487,
      489,
      491,
      493,
      493,
      493,
      494,
      494,
      495,
      495,
      495,
      495,
      495,
      496,
      500,
      500,
      502,
      504,
      506,
      509,
      509,
      511,
      511,
      512,
      512,
      513,
      513,
      513,
      514,
      514,
      514,
      514,
      514,
      514,
      515,
      516,
      516,
      516,
      516,
      516,
      519,
      519,
      519,
      519,
      519,
      520,
      520,
      520,
      520,
      520,
      524,
      524,
      523,
      525,
      524,
      524,
      524,
      524,
      524,
      525,
      525,
      525,
      527,
      528,
      539,
      534,
      534,
      528,
      514,
      504,
      501,
      501,
      483,
      483,
      464,
      464,
      362,
      362,
      362,
      361,
      361,
      353,
      295,
      293,
      293,
      275,
      272,
      272,
      268,
      261,
      255,
      255,
      220,
      220,
      218,
      218,
      170,
      170,
      144,
      148,
      146,
      146,
      146
    ],
    "swim:timestamps": [
      1761436562,
      1761436562,
      1761436562,
      1761436562,
      1761436562,
      1761436573,
      1761436573,
      1761436664,
      1761436664,
      1761436664,
      1761436994,
      1761436994,
      1761437054,
      1761437054,
      1761437054,
      1761437416,
      1761437474,
      1761437474,
      1761437534,
      1761437534,
      1761437534,
      1761438015,
      1761438015,
      1761438015,
      1761438195,
      1761438195,
      1761438195,
      1761438435,
      1761438435,
      1761438435,
      1761438497,
      1761438497,
      1761438916,
      1761438916,
      1761438916,
      1761438916,
      1761438916,
      1761439157,
      1761439157,
      1761439278,
      1761439278,
      1761439459,
      1761439519,
      1761439519,
      1761439519,
      1761439519,
      1761439696,
      1761439756,
      1761439816,
      1761439816,
      1761439937,
      1761439937,
      1761440117,
      1761440117,
      1761440299,
      1761440299,
      1761440359,
      1761440359,
      1761440479,
      1761440659,
      1761440659,
      1761440659,
      1761440659,
      1761441079,
      1761441079,
      1761441079,
      1761441079,
      1761441278,
      1761441278,
      1761441439,
      1761441439,
      1761441619,
      1761441679,
      1761441679,
      1761441920,
      1761441939,
      1761442040,
      1761442040,
      1761442119,
      1761442119,
      1761442341,
      1761442341,
      1761442341,
      1761442780,
      1761442840,
      1761442840,
      1761442900,
      1761442900,
      1761442900,
      1761443020,
      1761443020,
      1761443020,
      1761443080,
      1761443080,
      1761443261,
      1761443261,
      1761443261,
      1761443261,
      1761443561,
      1761443561,
      1761443561,
      1761443621,
      1761443621,
      1761443681,
      1761443801,
      1761443801,
      1761443801,
      1761443895,
      1761443895,
      1761443921,
      1761443921,
      1761443921,
      1761443955,
      1761444162,
      1761444162,
      1761444195,
      1761444195,
      1761444315,
      1761444315,
      1761444315,
      1761444402,
      1761444462,
      1761444642,
      1761444735,
      1761444735,
      1761444735,
      1761444855,
      1761444855,
      1761444942,
      1761444942,
      1761445063,
      1761445063,
      1761445096,
      1761445096,
      1761445156,
      1761445183,
      1761445216,
      1761445243,
      1761445243,
      1761445336,
      1761445336,
      1761445396,
      1761445396,
      1761445456,
      1761445516,
      1761445516,
      1761445816,
      1761445816,
      1761445816,
      1761445816,
      1761446057,
      1761446057,
      1761446177,
      1761446297,
      1761446297,
      1761446297,
      1761446477,
      1761446537,
      1761446537,
      1761446597,
      1761446597,
      1761446629,
      1761446689,
      1761446689,
      1761446749,
      1761446749,
      1761446777,
      1761446837,
      1761446837,
      1761446837,
      1761446929,
      1761446989,
      1761447017,
      1761447049,
      1761447049,
      1761447077,
      1761447077,
      1761447077,
      1761447109,
      1761447137,
      1761447197,
      1761447230,
      1761447290,
      1761447318,
      1761447318,
      1761447378,
      1761447378,
      1761447470,
      1761447498,
      1761447558,
      1761447558,
      1761447590,
      1761447590,
      1761447678,
      1761447710,
      1761447738,
      1761447830,
      1761447858,
      1761447858,
      1761447890,
      1761447918,
      1761447918,
      1761447978,
      1761447978,
      1761448070,
      1761448070,
      1761448190,
      1761448190,
      1761448310,
      1761448310,
      1761448370,
      1761448430,
      1761448430,
      1761448430,
      1761448534,
      1761448550,
      1761448550,
      1761448594,
      1761448594,
      1761448610,
      1761448731,
      1761448791,
      1761448791,
      1761448791,
      1761448835,
      1761448835,
      1761448895,
      1761448911,
      1761448971,
      1761448971,
      1761448971,
      1761449014,
      1761449196,
      1761449196,
      1761449256,
      1761449331,
      1761449374,
      1761449434,
      1761449434,
      1761449494,
      1761449494,
      1761449571,
      1761449571,
      1761449616,
      1761449691,
      1761449691,
      1761449737,
      1761449811,
      1761449811,
      1761449854,
      1761449860,
      1761449931,
      1761449980,
      1761450036,
      1761450097,
      1761450097,
      1761450097,
      1761450111,
      1761450291,
      1761450351,
      1761450351,
      1761450401,
      1761450401,
      1761450457,
      1761450516,
      1761450516,
      1761450576,
      1761450636,
      1761450818,
      1761450818,
      1761451096,
      1761451121,
      1761451154,
      1761451154,
      1761451154,
      1761451238,
      1761451238,
      1761451396,
      1761451416,
      1761451416,
      1761451481,
      1761451516,
      1761451661,
      1761451696,
      1761451696,
      1761451721,
      1761451781,
      1761451824,
      1761451841,
      1761451841,
      1761451884,
      1761451884,
      1761451937,
      1761451937,
      1761452203,
      1761452203,
      1761452203,
      1761452239,
      1761452239,
      1761452311,
      1761452475,
      1761452492,
      1761452492,
      1761452557,
      1761452595,
      1761452595,
      1761452610,
      1761452655,
      1761452677,
      1761452717,
      1761452836,
      1761452836,
      1761452895,
      1761452895,
      1761453015,
      1761453015,
      1761453055,
      1761453075,
      1761453135,
      1761453135,
      1761453135
    ],
    "wof:geomhash": "7e62130210c0dc5c26f36533b3d8328c",
    "wof:id": 1981767531,
    "wof:repo": "sfomuseum-data-flights-2025-10"
  },
  "bbox": [
    -122.36666666666666,
    37.63333333333333,
    -77.45972222222223,
    42.23277777777778
  ],
  "geometry": {"coordinates":[[-122.36666666666666,37.63333333333333],[-122.36666666666666,37.63333333333333],[-122.36666666666666,37.63333333333333],[-122.36666666666666,37.63333333333333],[-122.36666666666666,37.63333333333333],[-122.35805555555555,37.64055555555556],[-122.35805555555555,37.64055555555556],[-122.26666666666667,37.7],[-122.26666666666667,37.7],[-122.26666666666667,37.7],[-121.79083333333332,38.04222222222222],[-121.79083333333332,38.04222222222222],[-121.68416666666667,38.120555555555555],[-121.68416666666667,38.120555555555555],[-121.68416666666667,38.120555555555555],[-120.915,38.628055555555555],[-120.75722222222223,38.72555555555556],[-120.75722222222223,38.72555555555556],[-120.61333333333333,38.81305555555555],[-120.61333333333333,38.81305555555555],[-120.61333333333333,38.81305555555555],[-119.48138888888889,39.48861111111111],[-119.48138888888889,39.48861111111111],[-119.48138888888889,39.48861111111111],[-119.04833333333333,39.74055555555556],[-119.04833333333333,39.74055555555556],[-119.04833333333333,39.74055555555556],[-118.40944444444445,40.0425],[-118.40944444444445,40.0425],[-118.40944444444445,40.0425],[-118.2625,40.10166666666667],[-118.2625,40.10166666666667],[-117.01583333333333,40.49638888888889],[-117.01583333333333,40.49638888888889],[-117.01583333333333,40.49638888888889],[-117.01583333333333,40.49638888888889],[-117.01583333333333,40.49638888888889],[-116.28388888888888,40.705555555555556],[-116.28388888888888,40.705555555555556],[-115.91527777777779,40.80916666666666],[-115.91527777777779,40.80916666666666],[-115.36527777777778,40.96055555555556],[-115.18138888888889,41.01027777777778],[-115.18138888888889,41.01027777777778],[-115.18138888888889,41.01027777777778],[-115.18138888888889,41.01027777777778],[-114.62555555555555,41.15888888888889],[-114.44555555555556,41.20611111111111],[-114.26722222222222,41.2525],[-114.26722222222222,41.2525],[-113.90583333333333,41.345555555555556],[-113.90583333333333,41.345555555555556],[-113.35055555555554,41.402499999999996],[-113.35055555555554,41.402499999999996],[-112.78833333333333,41.44499999999999],[-112.78833333333333,41.44499999999999],[-112.60194444444444,41.45861111111111],[-112.60194444444444,41.45861111111111],[-112.22944444444444,41.48444444444444],[-111.65972222222223,41.513888888888886],[-111.65972222222223,41.513888888888886],[-111.65972222222223,41.513888888888886],[-111.65972222222223,41.513888888888886],[-110.38138888888888,41.558611111111105],[-110.38138888888888,41.558611111111105],[-110.38138888888888,41.558611111111105],[-110.38138888888888,41.558611111111105],[-109.75555555555556,41.575],[-109.75555555555556,41.575],[-109.27694444444444,41.58555555555556],[-109.27694444444444,41.58555555555556],[-108.72694444444444,41.62138888888889],[-108.54444444444444,41.64083333333333],[-108.54444444444444,41.64083333333333],[-107.81861111111111,41.71472222222223],[-107.78277777777778,41.718333333333334],[-107.4588888888889,41.749722222222225],[-107.4588888888889,41.749722222222225],[-107.24638888888889,41.76972222222222],[-107.24638888888889,41.76972222222222],[-106.60777777777777,41.8275],[-106.60777777777777,41.8275],[-106.60777777777777,41.8275],[-105.31472222222222,41.93388888888889],[-105.14250000000001,41.94694444444444],[-105.14250000000001,41.94694444444444],[-104.97305555555556,41.95944444444445],[-104.97305555555556,41.95944444444445],[-104.97305555555556,41.95944444444445],[-104.63138888888888,41.98388888888889],[-104.63138888888888,41.98388888888889],[-104.63138888888888,41.98388888888889],[-104.46222222222222,41.99583333333334],[-104.46222222222222,41.99583333333334],[-103.91805555555555,42.03194444444444],[-103.91805555555555,42.03194444444444],[-103.91805555555555,42.03194444444444],[-103.91805555555555,42.03194444444444],[-103.07777777777777,42.0825],[-103.07777777777777,42.0825],[-103.07777777777777,42.0825],[-102.91222222222223,42.09138888888889],[-102.91222222222223,42.09138888888889],[-102.74944444444445,42.10055555555556],[-102.4238888888889,42.1175],[-102.4238888888889,42.1175],[-102.4238888888889,42.1175],[-102.1738888888889,42.13333333333333],[-102.1738888888889,42.13333333333333],[-102.11666666666666,42.132777777777775],[-102.11666666666666,42.132777777777775],[-102.11666666666666,42.132777777777775],[-102.0125,42.13722222222222],[-101.47,42.161944444444444],[-101.47,42.161944444444444],[-101.365,42.16611111111111],[-101.365,42.16611111111111],[-101.03833333333333,42.17916666666667],[-101.03833333333333,42.17916666666667],[-101.03833333333333,42.17916666666667],[-100.81583333333333,42.187777777777775],[-100.6525,42.19361111111111],[-100.15777777777778,42.21],[-99.87944444444443,42.218333333333334],[-99.87944444444443,42.218333333333334],[-99.87944444444443,42.218333333333334],[-99.55388888888889,42.227222222222224],[-99.55388888888889,42.227222222222224],[-99.3236111111111,42.23277777777778],[-99.3236111111111,42.23277777777778],[-98.99861111111112,42.22277777777778],[-98.99861111111112,42.22277777777778],[-98.93083333333334,42.218611111111116],[-98.93083333333334,42.218611111111116],[-98.76944444444445,42.208333333333336],[-98.6713888888889,42.20194444444445],[-98.60444444444444,42.19777777777777],[-98.50944444444444,42.19166666666666],[-98.50944444444444,42.19166666666666],[-98.27583333333334,42.17611111111111],[-98.27583333333334,42.17611111111111],[-98.11333333333333,42.165],[-98.11333333333333,42.165],[-97.94944444444445,42.15361111111111],[-97.75972222222222,42.140277777777776],[-97.75972222222222,42.140277777777776],[-96.93444444444445,42.07805555555556],[-96.93444444444445,42.07805555555556],[-96.93444444444445,42.07805555555556],[-96.93444444444445,42.07805555555556],[-96.31916666666666,42.02722222222222],[-96.31916666666666,42.02722222222222],[-95.99555555555555,41.9975],[-95.68444444444445,41.922777777777775],[-95.68444444444445,41.922777777777775],[-95.68444444444445,41.922777777777775],[-95.21111111111111,41.82972222222222],[-95.04722222222222,41.81472222222222],[-95.04722222222222,41.81472222222222],[-94.88222222222221,41.79972222222222],[-94.88222222222221,41.79972222222222],[-94.78916666666666,41.79138888888889],[-94.61777777777777,41.775555555555556],[-94.61777777777777,41.775555555555556],[-94.45472222222223,41.76],[-94.45472222222223,41.76],[-94.39222222222223,41.75416666666667],[-94.2286111111111,41.73861111111111],[-94.2286111111111,41.73861111111111],[-94.2286111111111,41.73861111111111],[-93.96555555555555,41.71277777777778],[-93.79194444444444,41.695277777777775],[-93.72527777777778,41.68861111111111],[-93.62527777777777,41.67833333333333],[-93.62527777777777,41.67833333333333],[-93.55944444444444,41.67166666666667],[-93.55944444444444,41.67166666666667],[-93.55944444444444,41.67166666666667],[-93.45833333333334,41.66111111111111],[-93.39305555555556,41.654444444444444],[-93.22555555555556,41.63805555555555],[-93.125,41.62916666666667],[-92.9563888888889,41.61361111111111],[-92.8888888888889,41.60722222222223],[-92.8888888888889,41.60722222222223],[-92.71833333333333,41.590833333333336],[-92.71833333333333,41.590833333333336],[-92.45916666666668,41.56583333333333],[-92.37583333333333,41.5575],[-92.205,41.540277777777774],[-92.205,41.540277777777774],[-92.11833333333333,41.531666666666666],[-92.11833333333333,41.531666666666666],[-91.85777777777777,41.504444444444445],[-91.77583333333334,41.49666666666667],[-91.70555555555556,41.48916666666667],[-91.42972222222222,41.46027777777778],[-91.3586111111111,41.452222222222225],[-91.3586111111111,41.452222222222225],[-91.25111111111111,41.44083333333333],[-91.18527777777778,41.433611111111105],[-91.18527777777778,41.433611111111105],[-91.01194444444444,41.41416666666667],[-91.01194444444444,41.41416666666667],[-90.7275,41.3825],[-90.7275,41.3825],[-90.37666666666667,41.3425],[-90.37666666666667,41.3425],[-90.02222222222223,41.3],[-90.02222222222223,41.3],[-89.8461111111111,41.27916666666667],[-89.66861111111112,41.257222222222225],[-89.66861111111112,41.257222222222225],[-89.66861111111112,41.257222222222225],[-89.38611111111112,41.221944444444446],[-89.30916666666667,41.21194444444445],[-89.30916666666667,41.21194444444445],[-89.20861111111111,41.19888888888889],[-89.20861111111111,41.19888888888889],[-89.1363888888889,41.19027777777777],[-88.78138888888888,41.14416666666666],[-88.60388888888889,41.12083333333334],[-88.60388888888889,41.12083333333334],[-88.60388888888889,41.12083333333334],[-88.46111111111111,41.10166666666667],[-88.46111111111111,41.10166666666667],[-88.28222222222222,41.0775],[-88.24666666666667,41.072500000000005],[-88.07,41.04861111111111],[-88.07,41.04861111111111],[-88.07,41.04861111111111],[-87.92750000000001,41.028888888888886],[-87.38694444444445,40.9525],[-87.38694444444445,40.9525],[-87.20833333333334,40.92611111111111],[-86.98916666666666,40.89361111111111],[-86.8425,40.87166666666667],[-86.65833333333335,40.844166666666666],[-86.65833333333335,40.844166666666666],[-86.49472222222222,40.81944444444445],[-86.49472222222222,40.81944444444445],[-86.23611111111111,40.77972222222222],[-86.23611111111111,40.77972222222222],[-86.12888888888888,40.76305555555555],[-85.87249999999999,40.72277777777778],[-85.87249999999999,40.72277777777778],[-85.74083333333333,40.70194444444445],[-85.5213888888889,40.666666666666664],[-85.5213888888889,40.666666666666664],[-85.37472222222222,40.64277777777778],[-85.36222222222221,40.64083333333333],[-85.1525,40.60638888888889],[-84.99333333333334,40.57972222222222],[-84.84055555555555,40.55444444444444],[-84.65583333333333,40.52305555555555],[-84.65583333333333,40.52305555555555],[-84.65583333333333,40.52305555555555],[-84.59083333333332,40.511944444444445],[-84.03972222222222,40.41277777777778],[-83.85638888888889,40.37916666666667],[-83.85638888888889,40.37916666666667],[-83.69666666666667,40.34916666666667],[-83.69666666666667,40.34916666666667],[-83.52305555555556,40.31666666666667],[-83.33833333333332,40.281666666666666],[-83.33833333333332,40.281666666666666],[-83.15694444444445,40.24666666666667],[-82.97361111111111,40.21083333333333],[-82.41861111111112,40.10166666666667],[-82.41861111111112,40.10166666666667],[-81.575,39.92805555555555],[-81.48583333333333,39.91027777777778],[-81.39305555555556,39.89055555555556],[-81.39305555555556,39.89055555555556],[-81.39305555555556,39.89055555555556],[-81.15666666666667,39.84055555555556],[-81.15666666666667,39.84055555555556],[-80.66722222222222,39.73527777777778],[-80.60527777777777,39.72166666666667],[-80.60527777777777,39.72166666666667],[-80.41111111111111,39.67972222222222],[-80.30305555555556,39.655833333333334],[-79.85777777777777,39.55583333333333],[-79.75083333333333,39.53666666666666],[-79.75083333333333,39.53666666666666],[-79.67416666666666,39.5225],[-79.49583333333334,39.49055555555556],[-79.35222222222221,39.46472222222223],[-79.32444444444444,39.459722222222226],[-79.32444444444444,39.459722222222226],[-79.1888888888889,39.43472222222222],[-79.1888888888889,39.43472222222222],[-79.04416666666667,39.409444444444446],[-79.04416666666667,39.409444444444446],[-78.4,39.28333333333333],[-78.4,39.28333333333333],[-78.4,39.28333333333333],[-78.37055555555555,39.255833333333335],[-78.37055555555555,39.255833333333335],[-78.26444444444445,39.17305555555555],[-77.99861111111112,39.01083333333333],[-77.97777777777777,38.99861111111111],[-77.97777777777777,38.99861111111111],[-77.88333333333334,38.95],[-77.84027777777777,38.91916666666666],[-77.84027777777777,38.91916666666666],[-77.82083333333333,38.907777777777774],[-77.76722222222222,38.87583333333333],[-77.73333333333333,38.86666666666667],[-77.69555555555556,38.83305555555556],[-77.56305555555555,38.76],[-77.56305555555555,38.76],[-77.48666666666666,38.764722222222225],[-77.48666666666666,38.764722222222225],[-77.46083333333334,38.86972222222222],[-77.46083333333334,38.86972222222222],[-77.46666666666667,38.9],[-77.46027777777778,38.910555555555554],[-77.45972222222223,38.948611111111106],[-77.45972222222223,38.948611111111106],[-77.45972222222223,38.948611111111106]],"type":"LineString"}
}
