{
  "id": 1981777305,
  "type": "Feature",
  "properties": {
    "geom:area": 0,
    "geom:bbox": "-122.380000,32.640000,-97.040000,37.620000",
    "geom:latitude": 33.81505613179737,
    "geom:longitude": -110.15321708920338,
    "src:alt_label": "swim-route",
    "src:geom": "swim",
    "swim:geom": "route",
    "wof:geomhash": "bb415b420c2286c8a45fbb196bc4dbeb",
    "wof:id": 1981777305,
    "wof:repo": "sfomuseum-data-flights-2025-10"
  },
  "bbox": [
    -122.38,
    32.64,
    -97.04,
    37.62
  ],
  "geometry": {"coordinates":[[-97.04,32.9],[-97.05,32.76],[-97.05,32.71],[-97.09,32.7],[-97.14,32.69],[-97.21,32.69],[-97.29,32.69],[-97.49,32.68],[-97.57,32.68],[-97.59,32.68],[-97.73,32.68],[-97.8,32.67],[-97.89,32.67],[-98.03,32.65],[-98.06,32.65],[-98.2,32.64],[-98.25,32.64],[-98.47,32.65],[-98.64,32.67],[-98.8,32.68],[-99.2,32.71],[-99.35,32.72],[-99.5,32.73],[-100.19,32.77],[-101.95,32.87],[-102.42,32.89],[-103.81,32.95],[-103.93,32.95],[-105.59,32.86],[-106.33,32.97],[-106.83,33.04],[-107.66,33.15],[-108.16,33.22],[-110.5,33.46],[-110.62,33.47],[-113.87,33.65],[-114,33.68],[-114.73,33.87],[-114.87,33.9],[-116.45,34.27],[-117.14,34.43],[-117.96,34.61],[-118.06,34.63],[-118.48,34.82],[-118.68,34.91],[-119.3,35.19],[-119.67,35.35],[-120.03,35.51],[-120.4,35.66],[-121.04,35.93],[-121.13,35.97],[-121.22,36.01],[-121.36,36.07],[-121.43,36.15],[-121.47,36.21],[-121.57,36.33],[-121.68,36.48],[-121.69,36.48],[-121.7,36.5],[-121.8,36.63],[-121.82,36.65],[-121.83,36.67],[-121.89,36.73],[-121.89,36.74],[-121.9,36.75],[-121.94,36.91],[-121.95,36.95],[-121.97,36.99],[-122,37.07],[-122.08,37.27],[-122.08,37.28],[-122.09,37.29],[-122.1,37.33],[-122.12,37.37],[-122.13,37.39],[-122.17,37.43],[-122.24,37.49],[-122.24,37.49],[-122.31,37.56],[-122.36,37.6],[-122.37,37.61],[-122.38,37.62]],"type":"LineString"}
}
