{
  "id": 1981733351,
  "type": "Feature",
  "properties": {
    "geom:area": 0,
    "geom:bbox": "-122.525480,37.624890,-121.525260,38.512880",
    "geom:latitude": 38.061351965755506,
    "geom:longitude": -122.08702334817129,
    "src:alt_label": "swim-takeoff",
    "src:geom": "swim",
    "swim:elevations": [
      152,
      213,
      786,
      914,
      884,
      977,
      1159,
      1831,
      2243,
      2603,
      2979,
      3109,
      3309,
      3655,
      3973,
      4212,
      4686,
      5123,
      5564,
      6040,
      6507,
      6644,
      7126,
      7268,
      7454,
      7694
    ],
    "swim:geom": "takeoff",
    "swim:timestamps": [
      1761053486,
      1761053491,
      1761053548,
      1761053590,
      1761053627,
      1761053654,
      1761053670,
      1761053721,
      1761053745,
      1761053780,
      1761053808,
      1761053847,
      1761053877,
      1761053902,
      1761053928,
      1761053948,
      1761053985,
      1761054022,
      1761054057,
      1761054105,
      1761054146,
      1761054159,
      1761054207,
      1761054221,
      1761054243,
      1761054273
    ],
    "wof:geomhash": "714c791bb5b3d616efab0a4f0a52e386",
    "wof:id": 1981733351,
    "wof:repo": "sfomuseum-data-flights-2025-10"
  },
  "bbox": [
    -122.52548,
    37.62489,
    -121.52526,
    38.51288
  ],
  "geometry": {"coordinates":[[-122.38978,37.62489],[-122.39433,37.62675],[-122.45032,37.65096],[-122.50163,37.67304],[-122.52548,37.7117],[-122.52431,37.74638],[-122.5247,37.76632],[-122.48644,37.81903],[-122.45214,37.8328],[-122.40349,37.85906],[-122.36641,37.88486],[-122.30906,37.92381],[-122.25921,37.95821],[-122.2158,37.9887],[-122.1716,38.01927],[-122.13448,38.04476],[-122.06719,38.0914],[-121.99713,38.13908],[-121.93173,38.18514],[-121.83672,38.24842],[-121.75412,38.30493],[-121.72769,38.32341],[-121.63118,38.39547],[-121.60646,38.41919],[-121.57107,38.45748],[-121.52526,38.51288]],"type":"LineString"}
}
