{
  "id": 1981726763,
  "type": "Feature",
  "properties": {
    "geom:area": 0,
    "geom:bbox": "-122.333333,37.492778,-73.650000,45.121389",
    "geom:latitude": 41.89349312732892,
    "geom:longitude": -97.80378541478476,
    "src:alt_label": "swim-path",
    "src:geom": "swim",
    "swim:altitudes": [
      "012",
      "012",
      "012",
      "012",
      "020",
      "020",
      "020",
      "020",
      "020",
      "020",
      "150",
      "150",
      "150",
      "150",
      "150",
      "198",
      "198",
      "198",
      "198",
      "198",
      "198",
      "198",
      "243",
      "243",
      "243",
      "243",
      "250",
      "250",
      "250",
      "250",
      "259",
      "259",
      "259",
      "259",
      "259",
      "270",
      "270",
      "270",
      "270",
      "270",
      "323",
      "323",
      "323",
      "323",
      "323",
      "323",
      "323",
      "323",
      "340C",
      "340C",
      "340C",
      "340C",
      "340C",
      "340C",
      "340C",
      "340C",
      "340C",
      "340C",
      "340C",
      "340C",
      "340C",
      "340C",
      "340C",
      "340C",
      "340C",
      "340C",
      "340C",
      "340C",
      "340C",
      "340C",
      "340C",
      "340C",
      "340C",
      "340C",
      "340C",
      "340C",
      "340C",
      "340C",
      "340C",
      "340C",
      "340C",
      "340C",
      "340C",
      "340C",
      "340C",
      "340C",
      "340C",
      "340C",
      "340C",
      "340C",
      "340C",
      "340C",
      "340C",
      "340C",
      "340C",
      "340C",
      "340C",
      "340C",
      "340C",
      "340C",
      "340C",
      "340C",
      "340C",
      "340C",
      "340C",
      "340C",
      "340C",
      "340C",
      "340C",
      "340C",
      "340C",
      "340C",
      "340C",
      "340C",
      "340C",
      "340C",
      "340C",
      "340C",
      "340C",
      "340C",
      "340C",
      "340C",
      "340C",
      "340C",
      "340C",
      "340C",
      "340C",
      "340C",
      "340C",
      "340C",
      "340C",
      "340C",
      "340C",
      "340C",
      "340C",
      "340C",
      "340C",
      "340C",
      "340C",
      "340C",
      "340C",
      "340C",
      "340C",
      "340C",
      "340C",
      "340C",
      "340C",
      "340C",
      "340C",
      "340C",
      "340C",
      "340C",
      "340C",
      "340C",
      "340C",
      "340C",
      "340C",
      "340C",
      "340C",
      "340C",
      "340C",
      "340C",
      "340C",
      "340C",
      "340C",
      "340C",
      "340C",
      "340C",
      "340C",
      "340C",
      "340C",
      "340C",
      "340C",
      "340C",
      "340C",
      "340C",
      "340C",
      "340C",
      "340C",
      "340C",
      "340C",
      "340C",
      "340C",
      "340C",
      "340C",
      "340C",
      "340C",
      "340C",
      "340C",
      "340C",
      "340C",
      "340C",
      "340C",
      "340C",
      "340C",
      "340C",
      "340C",
      "340C",
      "340C",
      "340C",
      "340C",
      "340C",
      "340C",
      "340C",
      "340C",
      "340C",
      "340C",
      "340C",
      "340C",
      "340C",
      "340C",
      "340C",
      "340C",
      "340C",
      "340C",
      "340C",
      "340C",
      "340C",
      "340C",
      "340C",
      "340C",
      "340C",
      "340C",
      "340C",
      "340C",
      "340C",
      "340C",
      "340C",
      "340C",
      "340C",
      "340C",
      "340C",
      "340C",
      "340C",
      "340C",
      "340C",
      "340C",
      "340C",
      "340C",
      "340C",
      "340C",
      "340C",
      "340C",
      "340C",
      "340C",
      "340C",
      "340C",
      "340C",
      "340C",
      "340C",
      "340C",
      "340C",
      "340C",
      "340C",
      "340C",
      "340C",
      "340C",
      "340C",
      "340C",
      "340C",
      "340C",
      "340C",
      "340C",
      "340C",
      "340C",
      "340C",
      "340C",
      "340C",
      "340C",
      "340C",
      "340C",
      "340C",
      "340C",
      "340C",
      "340C",
      "340C",
      "340C",
      "340C",
      "340C",
      "340C",
      "340C",
      "340C",
      "340C",
      "340C",
      "340C",
      "340C",
      "340C",
      "340C",
      "340C",
      "340C",
      "340C",
      "340C",
      "340C",
      "340C",
      "340C",
      "340C",
      "340C",
      "340C",
      "340C",
      "340C",
      "340C",
      "340C",
      "340C",
      "340C",
      "340C",
      "340C",
      "340C",
      "340C",
      "340C",
      "340C",
      "340C",
      "340C",
      "340C",
      "340C",
      "340C",
      "340C",
      "340C",
      "340C",
      "340C",
      "340C",
      "340C",
      "340C",
      "340C",
      "340C",
      "340C",
      "340C",
      "340C",
      "340C",
      "340C",
      "340C",
      "340C",
      "340C",
      "340C",
      "340C",
      "340C",
      "340C",
      "340C",
      "340C",
      "340C",
      "340C",
      "340C",
      "340C",
      "340C",
      "340C",
      "340C",
      "340C",
      "340C",
      "340C",
      "340C",
      "340C",
      "340C",
      "340C",
      "340C",
      "340C",
      "340C",
      "340C",
      "340C",
      "340C",
      "340C",
      "340C",
      "340C",
      "340C",
      "340C",
      "340C",
      "340C",
      "340C",
      "340C",
      "340C",
      "340C",
      "340C",
      "340C",
      "340C",
      "340C",
      "340C",
      "340C",
      "340C",
      "340C",
      "340C",
      "340C",
      "340C",
      "340C",
      "340C",
      "340C",
      "340C",
      "340C",
      "340C",
      "340C",
      "340C",
      "340C",
      "340C",
      "340C",
      "340C",
      "340C",
      "340C",
      "340C",
      "340C",
      "340C",
      "340C",
      "340C",
      "340C",
      "340C",
      "340C",
      "340C",
      "340C",
      "340C",
      "340C",
      "340C",
      "340C",
      "340C",
      "340C",
      "340C",
      "340C",
      "340C",
      "340C",
      "340C",
      "340C",
      "340C",
      "340C",
      "340C",
      "340C",
      "340C",
      "340C",
      "340C",
      "340C",
      "340C",
      "340C",
      "340C",
      "340C",
      "340C",
      "340C",
      "340C",
      "340C",
      "340C",
      "340C",
      "340C",
      "340C",
      "340C",
      "340C",
      "340C",
      "340C",
      "340C",
      "340C",
      "340C",
      "340C",
      "340C",
      "340C",
      "340C",
      "340C",
      "340C",
      "340C",
      "340C",
      "340C",
      "340C",
      "340C",
      "340C",
      "340C",
      "340C",
      "340C",
      "340C",
      "340C",
      "340C",
      "340C",
      "340C",
      "340C",
      "340C",
      "340C",
      "340C",
      "340C",
      "340C",
      "340C",
      "340C",
      "340C",
      "340C",
      "340C",
      "340C",
      "340C",
      "340C",
      "340C",
      "340C",
      "340C",
      "340C",
      "340C",
      "340C",
      "340C",
      "340C",
      "340C",
      "340C",
      "340C",
      "340C",
      "340C",
      "340C",
      "340C",
      "340C",
      "340C",
      "340C",
      "340C",
      "340C",
      "340C",
      "340C",
      "340C",
      "340C",
      "340C",
      "340C",
      "340C",
      "340C",
      "340C",
      "340C",
      "340C",
      "340C",
      "340C",
      "340C",
      "340C",
      "340C",
      "340C",
      "340C",
      "340C",
      "340C",
      "340C",
      "340C",
      "340C",
      "340C",
      "340C",
      "340C",
      "340C",
      "340C",
      "340C",
      "340C",
      "340C",
      "340C",
      "340C",
      "340C",
      "340C",
      "340C",
      "340C",
      "340C",
      "340C",
      "340C",
      "340C",
      "340C",
      "340C",
      "340C",
      "340C",
      "340C",
      "340C",
      "340C",
      "340C",
      "340C",
      "340C",
      "340C",
      "340C",
      "340C",
      "340C",
      "340C",
      "340C",
      "340C",
      "324",
      "324",
      "324",
      "324",
      "324",
      "324",
      "324",
      "311",
      "311",
      "306",
      "306",
      "306",
      "306",
      "286",
      "286",
      "286",
      "286",
      "286",
      "286",
      "286",
      "189",
      "189",
      "189",
      "189",
      "189",
      "134",
      "134",
      "124",
      "124",
      "124",
      "124",
      "103",
      "103",
      "103",
      "103",
      "063",
      "063",
      "063",
      "063",
      "063",
      "058",
      "058",
      "058",
      "058",
      "058",
      "039",
      "039",
      "039",
      "018",
      "018",
      "018",
      "018",
      "018",
      "005",
      "005",
      "005",
      "005",
      "005",
      "005"
    ],
    "swim:geom": "path",
    "swim:speeds": [
      179,
      179,
      179,
      179,
      195,
      195,
      195,
      195,
      195,
      195,
      381,
      381,
      381,
      381,
      381,
      383,
      383,
      383,
      383,
      383,
      383,
      383,
      403,
      403,
      403,
      403,
      411,
      411,
      411,
      411,
      414,
      414,
      414,
      414,
      414,
      421,
      421,
      421,
      421,
      421,
      423,
      423,
      423,
      423,
      423,
      423,
      423,
      423,
      414,
      414,
      414,
      412,
      412,
      412,
      412,
      412,
      412,
      412,
      412,
      412,
      412,
      412,
      412,
      413,
      413,
      413,
      413,
      413,
      413,
      413,
      415,
      415,
      421,
      425,
      425,
      425,
      425,
      425,
      425,
      426,
      426,
      426,
      430,
      430,
      430,
      430,
      430,
      430,
      430,
      430,
      431,
      431,
      431,
      431,
      431,
      431,
      431,
      431,
      431,
      431,
      431,
      431,
      430,
      430,
      430,
      430,
      414,
      414,
      414,
      414,
      414,
      414,
      414,
      414,
      414,
      419,
      419,
      419,
      419,
      419,
      419,
      419,
      421,
      421,
      421,
      421,
      421,
      421,
      421,
      421,
      421,
      421,
      421,
      421,
      421,
      421,
      421,
      421,
      421,
      421,
      419,
      419,
      419,
      419,
      419,
      419,
      419,
      430,
      430,
      430,
      430,
      430,
      430,
      430,
      430,
      430,
      430,
      430,
      430,
      431,
      431,
      431,
      432,
      432,
      432,
      432,
      431,
      431,
      431,
      431,
      431,
      431,
      433,
      433,
      433,
      433,
      437,
      437,
      441,
      441,
      443,
      443,
      443,
      443,
      443,
      443,
      443,
      443,
      443,
      443,
      443,
      442,
      442,
      442,
      442,
      442,
      442,
      442,
      442,
      441,
      441,
      445,
      445,
      445,
      445,
      444,
      444,
      444,
      444,
      444,
      444,
      433,
      433,
      433,
      433,
      433,
      431,
      431,
      431,
      431,
      431,
      431,
      424,
      424,
      424,
      424,
      424,
      424,
      424,
      424,
      424,
      424,
      426,
      426,
      426,
      426,
      426,
      426,
      427,
      428,
      428,
      428,
      428,
      428,
      428,
      428,
      428,
      428,
      428,
      427,
      427,
      427,
      426,
      424,
      424,
      424,
      419,
      419,
      419,
      419,
      419,
      419,
      419,
      419,
      419,
      419,
      418,
      418,
      418,
      432,
      432,
      432,
      432,
      432,
      432,
      433,
      433,
      433,
      433,
      433,
      414,
      414,
      414,
      414,
      412,
      413,
      413,
      413,
      413,
      413,
      389,
      382,
      374,
      374,
      374,
      370,
      370,
      370,
      370,
      370,
      370,
      367,
      367,
      367,
      367,
      367,
      373,
      373,
      373,
      368,
      368,
      362,
      362,
      362,
      362,
      362,
      362,
      372,
      372,
      372,
      373,
      373,
      373,
      372,
      372,
      372,
      372,
      396,
      396,
      396,
      397,
      397,
      397,
      397,
      397,
      397,
      397,
      395,
      395,
      395,
      395,
      395,
      395,
      395,
      395,
      396,
      396,
      396,
      396,
      396,
      396,
      396,
      395,
      393,
      393,
      393,
      393,
      393,
      393,
      393,
      393,
      393,
      392,
      392,
      393,
      393,
      393,
      393,
      393,
      393,
      393,
      396,
      396,
      396,
      396,
      396,
      400,
      400,
      400,
      400,
      400,
      400,
      400,
      400,
      400,
      400,
      400,
      400,
      394,
      394,
      386,
      386,
      386,
      389,
      389,
      389,
      389,
      389,
      389,
      389,
      389,
      386,
      386,
      386,
      386,
      387,
      387,
      387,
      387,
      387,
      387,
      387,
      386,
      386,
      392,
      392,
      392,
      392,
      392,
      399,
      399,
      399,
      397,
      397,
      397,
      397,
      396,
      396,
      405,
      405,
      405,
      405,
      405,
      405,
      405,
      400,
      400,
      400,
      402,
      402,
      402,
      402,
      402,
      402,
      402,
      402,
      402,
      402,
      402,
      402,
      402,
      402,
      402,
      399,
      399,
      399,
      399,
      399,
      399,
      401,
      401,
      401,
      401,
      401,
      401,
      401,
      401,
      401,
      401,
      407,
      407,
      407,
      407,
      407,
      405,
      405,
      405,
      404,
      404,
      404,
      404,
      405,
      405,
      405,
      405,
      405,
      405,
      408,
      408,
      408,
      408,
      408,
      408,
      408,
      407,
      407,
      405,
      405,
      405,
      404,
      404,
      404,
      404,
      404,
      405,
      405,
      405,
      405,
      405,
      405,
      405,
      405,
      412,
      412,
      412,
      418,
      418,
      418,
      418,
      418,
      418,
      418,
      418,
      418,
      427,
      427,
      427,
      432,
      432,
      432,
      432,
      432,
      432,
      432,
      432,
      434,
      434,
      434,
      434,
      434,
      434,
      434,
      436,
      436,
      436,
      436,
      436,
      436,
      438,
      438,
      438,
      438,
      438,
      438,
      438,
      440,
      440,
      440,
      440,
      440,
      440,
      440,
      437,
      437,
      433,
      433,
      433,
      433,
      420,
      420,
      420,
      420,
      420,
      420,
      420,
      379,
      379,
      379,
      379,
      379,
      346,
      346,
      335,
      335,
      335,
      335,
      321,
      321,
      321,
      321,
      262,
      262,
      262,
      262,
      262,
      265,
      265,
      265,
      265,
      265,
      243,
      243,
      243,
      196,
      196,
      196,
      196,
      196,
      147,
      147,
      147,
      147,
      147,
      147
    ],
    "swim:timestamps": [
      1761068046,
      1761068046,
      1761068046,
      1761068046,
      1761068070,
      1761068070,
      1761068070,
      1761068070,
      1761068070,
      1761068070,
      1761068466,
      1761068466,
      1761068466,
      1761068466,
      1761068466,
      1761068647,
      1761068647,
      1761068647,
      1761068647,
      1761068647,
      1761068647,
      1761068647,
      1761068827,
      1761068827,
      1761068827,
      1761068827,
      1761068947,
      1761068947,
      1761068947,
      1761068947,
      1761069007,
      1761069007,
      1761069007,
      1761069007,
      1761069007,
      1761069067,
      1761069067,
      1761069067,
      1761069067,
      1761069067,
      1761069368,
      1761069368,
      1761069368,
      1761069368,
      1761069368,
      1761069368,
      1761069368,
      1761069368,
      1761069480,
      1761069480,
      1761069480,
      1761069548,
      1761069548,
      1761069548,
      1761069548,
      1761069548,
      1761069608,
      1761069608,
      1761069608,
      1761069608,
      1761069608,
      1761069728,
      1761069728,
      1761069781,
      1761069781,
      1761069781,
      1761069788,
      1761069788,
      1761069788,
      1761069788,
      1761069849,
      1761069849,
      1761069969,
      1761070029,
      1761070029,
      1761070029,
      1761070261,
      1761070261,
      1761070261,
      1761070269,
      1761070269,
      1761070269,
      1761070389,
      1761070389,
      1761070389,
      1761070389,
      1761070389,
      1761070389,
      1761070389,
      1761070389,
      1761070682,
      1761070682,
      1761070682,
      1761070682,
      1761070682,
      1761070682,
      1761070682,
      1761070742,
      1761070742,
      1761070742,
      1761070742,
      1761070742,
      1761070862,
      1761070862,
      1761070862,
      1761070862,
      1761071043,
      1761071043,
      1761071043,
      1761071043,
      1761071043,
      1761071043,
      1761071043,
      1761071043,
      1761071043,
      1761071642,
      1761071642,
      1761071642,
      1761071642,
      1761071642,
      1761071642,
      1761071642,
      1761071763,
      1761071763,
      1761071763,
      1761071763,
      1761071763,
      1761071763,
      1761071763,
      1761071763,
      1761071943,
      1761071943,
      1761071943,
      1761071943,
      1761071943,
      1761072003,
      1761072003,
      1761072003,
      1761072003,
      1761072003,
      1761072123,
      1761072123,
      1761072123,
      1761072123,
      1761072123,
      1761072123,
      1761072123,
      1761072471,
      1761072471,
      1761072471,
      1761072471,
      1761072531,
      1761072531,
      1761072531,
      1761072531,
      1761072531,
      1761072531,
      1761072531,
      1761072531,
      1761072584,
      1761072584,
      1761072584,
      1761072604,
      1761072604,
      1761072604,
      1761072644,
      1761072724,
      1761072724,
      1761072765,
      1761072765,
      1761072765,
      1761072765,
      1761072952,
      1761072952,
      1761072952,
      1761072952,
      1761073036,
      1761073036,
      1761073132,
      1761073132,
      1761073192,
      1761073192,
      1761073252,
      1761073252,
      1761073252,
      1761073372,
      1761073372,
      1761073372,
      1761073372,
      1761073372,
      1761073372,
      1761073432,
      1761073492,
      1761073492,
      1761073492,
      1761073517,
      1761073517,
      1761073517,
      1761073517,
      1761073612,
      1761073612,
      1761073853,
      1761073853,
      1761073853,
      1761073853,
      1761073973,
      1761073973,
      1761073973,
      1761073973,
      1761073973,
      1761073973,
      1761074213,
      1761074213,
      1761074213,
      1761074213,
      1761074213,
      1761074273,
      1761074273,
      1761074273,
      1761074273,
      1761074273,
      1761074273,
      1761074514,
      1761074514,
      1761074514,
      1761074514,
      1761074514,
      1761074514,
      1761074514,
      1761074514,
      1761074514,
      1761074514,
      1761075054,
      1761075054,
      1761075054,
      1761075054,
      1761075054,
      1761075054,
      1761075175,
      1761075235,
      1761075235,
      1761075235,
      1761075235,
      1761075235,
      1761075235,
      1761075235,
      1761075355,
      1761075355,
      1761075355,
      1761075475,
      1761075475,
      1761075475,
      1761075535,
      1761075595,
      1761075595,
      1761075595,
      1761075715,
      1761075715,
      1761075715,
      1761075715,
      1761075715,
      1761075715,
      1761075715,
      1761075715,
      1761076016,
      1761076016,
      1761076076,
      1761076076,
      1761076076,
      1761076256,
      1761076256,
      1761076256,
      1761076256,
      1761076256,
      1761076256,
      1761076316,
      1761076316,
      1761076316,
      1761076316,
      1761076316,
      1761076737,
      1761076737,
      1761076737,
      1761076737,
      1761076797,
      1761076977,
      1761076977,
      1761076977,
      1761076977,
      1761076977,
      1761077398,
      1761077458,
      1761077638,
      1761077638,
      1761077638,
      1761077818,
      1761077818,
      1761077818,
      1761077818,
      1761077818,
      1761077818,
      1761078299,
      1761078299,
      1761078299,
      1761078299,
      1761078359,
      1761078380,
      1761078380,
      1761078380,
      1761078419,
      1761078419,
      1761078500,
      1761078500,
      1761078500,
      1761078500,
      1761078500,
      1761078500,
      1761078659,
      1761078659,
      1761078659,
      1761078779,
      1761078779,
      1761078779,
      1761078801,
      1761078801,
      1761078900,
      1761078900,
      1761078960,
      1761078960,
      1761078960,
      1761078981,
      1761078981,
      1761079041,
      1761079080,
      1761079080,
      1761079080,
      1761079080,
      1761079200,
      1761079200,
      1761079200,
      1761079341,
      1761079341,
      1761079341,
      1761079380,
      1761079380,
      1761079410,
      1761079410,
      1761079410,
      1761079590,
      1761079590,
      1761079590,
      1761079590,
      1761079642,
      1761079741,
      1761079741,
      1761079741,
      1761079741,
      1761079741,
      1761079741,
      1761079741,
      1761079801,
      1761079801,
      1761079822,
      1761079822,
      1761079951,
      1761079951,
      1761079951,
      1761079951,
      1761079951,
      1761079951,
      1761079951,
      1761080062,
      1761080062,
      1761080062,
      1761080062,
      1761080062,
      1761080303,
      1761080303,
      1761080303,
      1761080423,
      1761080423,
      1761080423,
      1761080423,
      1761080423,
      1761080543,
      1761080543,
      1761080543,
      1761080543,
      1761080732,
      1761080732,
      1761080843,
      1761080843,
      1761080843,
      1761080912,
      1761080912,
      1761080972,
      1761080972,
      1761081033,
      1761081033,
      1761081033,
      1761081033,
      1761081084,
      1761081084,
      1761081084,
      1761081084,
      1761081213,
      1761081213,
      1761081213,
      1761081213,
      1761081213,
      1761081213,
      1761081213,
      1761081453,
      1761081453,
      1761081504,
      1761081504,
      1761081504,
      1761081504,
      1761081504,
      1761081564,
      1761081564,
      1761081564,
      1761081694,
      1761081694,
      1761081694,
      1761081694,
      1761081754,
      1761081754,
      1761081994,
      1761081994,
      1761081994,
      1761081994,
      1761081994,
      1761081994,
      1761081994,
      1761082054,
      1761082054,
      1761082054,
      1761082345,
      1761082345,
      1761082345,
      1761082345,
      1761082345,
      1761082535,
      1761082535,
      1761082535,
      1761082535,
      1761082535,
      1761082535,
      1761082655,
      1761082655,
      1761082655,
      1761082655,
      1761082766,
      1761082766,
      1761082766,
      1761082766,
      1761082766,
      1761082766,
      1761083307,
      1761083307,
      1761083307,
      1761083307,
      1761083307,
      1761083307,
      1761083307,
      1761083307,
      1761083307,
      1761083307,
      1761084458,
      1761084458,
      1761084458,
      1761084458,
      1761084458,
      1761084518,
      1761084518,
      1761084518,
      1761084578,
      1761084578,
      1761084578,
      1761084578,
      1761084818,
      1761084818,
      1761084879,
      1761084879,
      1761084879,
      1761084879,
      1761085059,
      1761085059,
      1761085059,
      1761085059,
      1761085059,
      1761085119,
      1761085119,
      1761085179,
      1761085179,
      1761085299,
      1761085299,
      1761085299,
      1761085419,
      1761085419,
      1761085419,
      1761085419,
      1761085419,
      1761085600,
      1761085600,
      1761085600,
      1761085660,
      1761085660,
      1761085660,
      1761085660,
      1761085660,
      1761086083,
      1761086083,
      1761086083,
      1761086263,
      1761086263,
      1761086263,
      1761086263,
      1761086263,
      1761086263,
      1761086263,
      1761086263,
      1761086263,
      1761086683,
      1761086683,
      1761086683,
      1761086864,
      1761086864,
      1761086864,
      1761086922,
      1761086922,
      1761086922,
      1761086922,
      1761086922,
      1761086982,
      1761086982,
      1761086982,
      1761087104,
      1761087104,
      1761087104,
      1761087104,
      1761087224,
      1761087224,
      1761087224,
      1761087224,
      1761087224,
      1761087224,
      1761087344,
      1761087344,
      1761087344,
      1761087344,
      1761087344,
      1761087344,
      1761087344,
      1761087705,
      1761087705,
      1761087705,
      1761087705,
      1761087705,
      1761087705,
      1761087705,
      1761087885,
      1761087885,
      1761087896,
      1761087896,
      1761087896,
      1761087896,
      1761087945,
      1761087945,
      1761087945,
      1761087945,
      1761087945,
      1761087945,
      1761087945,
      1761088185,
      1761088185,
      1761088185,
      1761088185,
      1761088185,
      1761088366,
      1761088366,
      1761088394,
      1761088394,
      1761088394,
      1761088394,
      1761088486,
      1761088486,
      1761088486,
      1761088486,
      1761088726,
      1761088726,
      1761088726,
      1761088726,
      1761088726,
      1761088754,
      1761088754,
      1761088754,
      1761088754,
      1761088754,
      1761088846,
      1761088846,
      1761088846,
      1761088966,
      1761088966,
      1761088966,
      1761088966,
      1761088966,
      1761089054,
      1761089054,
      1761089054,
      1761089054,
      1761089054,
      1761089054
    ],
    "wof:geomhash": "7adf6a0b901f4f08448fce9e4f31207e",
    "wof:id": 1981726763,
    "wof:repo": "sfomuseum-data-flights-2025-10"
  },
  "bbox": [
    -122.33333333333333,
    37.49277777777778,
    -73.65,
    45.12138888888889
  ],
  "geometry": {"coordinates":[[-73.795,40.61055555555556],[-73.795,40.61055555555556],[-73.795,40.61055555555556],[-73.795,40.61055555555556],[-73.81666666666666,40.583333333333336],[-73.81666666666666,40.583333333333336],[-73.81666666666666,40.583333333333336],[-73.81666666666666,40.583333333333336],[-73.81666666666666,40.583333333333336],[-73.81666666666666,40.583333333333336],[-73.65,40.93388888888889],[-73.65,40.93388888888889],[-73.65,40.93388888888889],[-73.65,40.93388888888889],[-73.65,40.93388888888889],[-74.01666666666667,41.06194444444444],[-74.01666666666667,41.06194444444444],[-74.01666666666667,41.06194444444444],[-74.01666666666667,41.06194444444444],[-74.01666666666667,41.06194444444444],[-74.01666666666667,41.06194444444444],[-74.01666666666667,41.06194444444444],[-74.41805555555555,41.17833333333333],[-74.41805555555555,41.17833333333333],[-74.41805555555555,41.17833333333333],[-74.41805555555555,41.17833333333333],[-74.70055555555555,41.25861111111111],[-74.70055555555555,41.25861111111111],[-74.70055555555555,41.25861111111111],[-74.70055555555555,41.25861111111111],[-74.8436111111111,41.29861111111111],[-74.8436111111111,41.29861111111111],[-74.8436111111111,41.29861111111111],[-74.8436111111111,41.29861111111111],[-74.8436111111111,41.29861111111111],[-74.98972222222223,41.339444444444446],[-74.98972222222223,41.339444444444446],[-74.98972222222223,41.339444444444446],[-74.98972222222223,41.339444444444446],[-74.98972222222223,41.339444444444446],[-75.71888888888888,41.54388888888889],[-75.71888888888888,41.54388888888889],[-75.71888888888888,41.54388888888889],[-75.71888888888888,41.54388888888889],[-75.71888888888888,41.54388888888889],[-75.71888888888888,41.54388888888889],[-75.71888888888888,41.54388888888889],[-75.71888888888888,41.54388888888889],[-75.99833333333333,41.623333333333335],[-75.99833333333333,41.623333333333335],[-75.99833333333333,41.623333333333335],[-76.17527777777778,41.672777777777775],[-76.17527777777778,41.672777777777775],[-76.17527777777778,41.672777777777775],[-76.17527777777778,41.672777777777775],[-76.17527777777778,41.672777777777775],[-76.315,41.71194444444445],[-76.315,41.71194444444445],[-76.315,41.71194444444445],[-76.315,41.71194444444445],[-76.315,41.71194444444445],[-76.59305555555555,41.78944444444444],[-76.59305555555555,41.78944444444444],[-76.71055555555556,41.82166666666667],[-76.71055555555556,41.82166666666667],[-76.71055555555556,41.82166666666667],[-76.73694444444445,41.82888888888889],[-76.73694444444445,41.82888888888889],[-76.73694444444445,41.82888888888889],[-76.73694444444445,41.82888888888889],[-76.88194444444444,41.86888888888889],[-76.88194444444444,41.86888888888889],[-77.17750000000001,41.948611111111106],[-77.3286111111111,41.989444444444445],[-77.3286111111111,41.989444444444445],[-77.3286111111111,41.989444444444445],[-77.90472222222223,42.14472222222222],[-77.90472222222223,42.14472222222222],[-77.90472222222223,42.14472222222222],[-77.93277777777779,42.152499999999996],[-77.93277777777779,42.152499999999996],[-77.93277777777779,42.152499999999996],[-78.23611111111111,42.23277777777778],[-78.23611111111111,42.23277777777778],[-78.23611111111111,42.23277777777778],[-78.23611111111111,42.23277777777778],[-78.23611111111111,42.23277777777778],[-78.23611111111111,42.23277777777778],[-78.23611111111111,42.23277777777778],[-78.23611111111111,42.23277777777778],[-78.96305555555556,42.4125],[-78.96305555555556,42.4125],[-78.96305555555556,42.4125],[-78.96305555555556,42.4125],[-78.96305555555556,42.4125],[-78.96305555555556,42.4125],[-78.96305555555556,42.4125],[-79.11611111111111,42.45],[-79.11611111111111,42.45],[-79.11611111111111,42.45],[-79.11611111111111,42.45],[-79.11611111111111,42.45],[-79.43861111111111,42.528055555555554],[-79.43861111111111,42.528055555555554],[-79.43861111111111,42.528055555555554],[-79.43861111111111,42.528055555555554],[-79.8963888888889,42.61638888888889],[-79.8963888888889,42.61638888888889],[-79.8963888888889,42.61638888888889],[-79.8963888888889,42.61638888888889],[-79.8963888888889,42.61638888888889],[-79.8963888888889,42.61638888888889],[-79.8963888888889,42.61638888888889],[-79.8963888888889,42.61638888888889],[-79.8963888888889,42.61638888888889],[-81.46111111111111,42.689166666666665],[-81.46111111111111,42.689166666666665],[-81.46111111111111,42.689166666666665],[-81.46111111111111,42.689166666666665],[-81.46111111111111,42.689166666666665],[-81.46111111111111,42.689166666666665],[-81.46111111111111,42.689166666666665],[-81.77055555555556,42.72416666666667],[-81.77055555555556,42.72416666666667],[-81.77055555555556,42.72416666666667],[-81.77055555555556,42.72416666666667],[-81.77055555555556,42.72416666666667],[-81.77055555555556,42.72416666666667],[-81.77055555555556,42.72416666666667],[-81.77055555555556,42.72416666666667],[-82.2538888888889,42.777499999999996],[-82.2538888888889,42.777499999999996],[-82.2538888888889,42.777499999999996],[-82.2538888888889,42.777499999999996],[-82.2538888888889,42.777499999999996],[-82.41111111111111,42.794444444444444],[-82.41111111111111,42.794444444444444],[-82.41111111111111,42.794444444444444],[-82.41111111111111,42.794444444444444],[-82.41111111111111,42.794444444444444],[-82.7225,42.8325],[-82.7225,42.8325],[-82.7225,42.8325],[-82.7225,42.8325],[-82.7225,42.8325],[-82.7225,42.8325],[-82.7225,42.8325],[-83.59472222222222,43.009166666666665],[-83.59472222222222,43.009166666666665],[-83.59472222222222,43.009166666666665],[-83.59472222222222,43.009166666666665],[-83.74305555555556,43.058611111111105],[-83.74305555555556,43.058611111111105],[-83.74305555555556,43.058611111111105],[-83.74305555555556,43.058611111111105],[-83.74305555555556,43.058611111111105],[-83.74305555555556,43.058611111111105],[-83.74305555555556,43.058611111111105],[-83.74305555555556,43.058611111111105],[-83.89194444444445,43.108333333333334],[-83.89194444444445,43.108333333333334],[-83.89194444444445,43.108333333333334],[-83.9363888888889,43.12305555555555],[-83.9363888888889,43.12305555555555],[-83.9363888888889,43.12305555555555],[-84.04277777777777,43.15833333333333],[-84.21805555555555,43.21638888888889],[-84.21805555555555,43.21638888888889],[-84.33777777777777,43.25555555555555],[-84.33777777777777,43.25555555555555],[-84.33777777777777,43.25555555555555],[-84.33777777777777,43.25555555555555],[-84.78972222222222,43.401944444444446],[-84.78972222222222,43.401944444444446],[-84.78972222222222,43.401944444444446],[-84.78972222222222,43.401944444444446],[-85.0325,43.48083333333334],[-85.0325,43.48083333333334],[-85.28138888888888,43.56388888888888],[-85.28138888888888,43.56388888888888],[-85.435,43.614444444444445],[-85.435,43.614444444444445],[-85.58888888888889,43.664722222222224],[-85.58888888888889,43.664722222222224],[-85.58888888888889,43.664722222222224],[-85.89694444444446,43.764722222222225],[-85.89694444444446,43.764722222222225],[-85.89694444444446,43.764722222222225],[-85.89694444444446,43.764722222222225],[-85.89694444444446,43.764722222222225],[-85.89694444444446,43.764722222222225],[-86.05055555555555,43.814166666666665],[-86.20472222222223,43.86361111111111],[-86.20472222222223,43.86361111111111],[-86.20472222222223,43.86361111111111],[-86.26305555555555,43.8825],[-86.26305555555555,43.8825],[-86.26305555555555,43.8825],[-86.26305555555555,43.8825],[-86.51444444444445,43.96194444444445],[-86.51444444444445,43.96194444444445],[-87.14250000000001,44.157222222222224],[-87.14250000000001,44.157222222222224],[-87.14250000000001,44.157222222222224],[-87.14250000000001,44.157222222222224],[-87.44055555555556,44.24805555555556],[-87.44055555555556,44.24805555555556],[-87.44055555555556,44.24805555555556],[-87.44055555555556,44.24805555555556],[-87.44055555555556,44.24805555555556],[-87.44055555555556,44.24805555555556],[-88.06277777777777,44.43527777777778],[-88.06277777777777,44.43527777777778],[-88.06277777777777,44.43527777777778],[-88.06277777777777,44.43527777777778],[-88.06277777777777,44.43527777777778],[-88.21527777777779,44.480555555555554],[-88.21527777777779,44.480555555555554],[-88.21527777777779,44.480555555555554],[-88.21527777777779,44.480555555555554],[-88.21527777777779,44.480555555555554],[-88.21527777777779,44.480555555555554],[-88.88472222222222,44.59],[-88.88472222222222,44.59],[-88.88472222222222,44.59],[-88.88472222222222,44.59],[-88.88472222222222,44.59],[-88.88472222222222,44.59],[-88.88472222222222,44.59],[-88.88472222222222,44.59],[-88.88472222222222,44.59],[-88.88472222222222,44.59],[-90.34666666666666,44.78805555555555],[-90.34666666666666,44.78805555555555],[-90.34666666666666,44.78805555555555],[-90.34666666666666,44.78805555555555],[-90.34666666666666,44.78805555555555],[-90.34666666666666,44.78805555555555],[-90.67583333333334,44.830000000000005],[-90.83999999999999,44.85027777777778],[-90.83999999999999,44.85027777777778],[-90.83999999999999,44.85027777777778],[-90.83999999999999,44.85027777777778],[-90.83999999999999,44.85027777777778],[-90.83999999999999,44.85027777777778],[-90.83999999999999,44.85027777777778],[-91.17111111111112,44.89083333333333],[-91.17111111111112,44.89083333333333],[-91.17111111111112,44.89083333333333],[-91.50138888888888,44.93055555555555],[-91.50138888888888,44.93055555555555],[-91.50138888888888,44.93055555555555],[-91.66444444444446,44.94944444444444],[-91.82444444444444,44.967777777777776],[-91.82444444444444,44.967777777777776],[-91.82444444444444,44.967777777777776],[-92.14666666666668,45.004444444444445],[-92.14666666666668,45.004444444444445],[-92.14666666666668,45.004444444444445],[-92.14666666666668,45.004444444444445],[-92.14666666666668,45.004444444444445],[-92.14666666666668,45.004444444444445],[-92.14666666666668,45.004444444444445],[-92.14666666666668,45.004444444444445],[-92.95555555555556,45.091944444444444],[-92.95555555555556,45.091944444444444],[-93.11472222222221,45.10861111111111],[-93.11472222222221,45.10861111111111],[-93.11472222222221,45.10861111111111],[-93.59777777777778,45.12138888888889],[-93.59777777777778,45.12138888888889],[-93.59777777777778,45.12138888888889],[-93.59777777777778,45.12138888888889],[-93.59777777777778,45.12138888888889],[-93.59777777777778,45.12138888888889],[-93.75888888888889,45.083333333333336],[-93.75888888888889,45.083333333333336],[-93.75888888888889,45.083333333333336],[-93.75888888888889,45.083333333333336],[-93.75888888888889,45.083333333333336],[-94.85138888888888,44.815555555555555],[-94.85138888888888,44.815555555555555],[-94.85138888888888,44.815555555555555],[-94.85138888888888,44.815555555555555],[-95.00111111111111,44.77777777777778],[-95.455,44.661944444444444],[-95.455,44.661944444444444],[-95.455,44.661944444444444],[-95.455,44.661944444444444],[-95.455,44.661944444444444],[-96.515,44.47527777777778],[-96.65805555555556,44.4525],[-97.07944444444443,44.38333333333333],[-97.07944444444443,44.38333333333333],[-97.07944444444443,44.38333333333333],[-97.49694444444445,44.31333333333333],[-97.49694444444445,44.31333333333333],[-97.49694444444445,44.31333333333333],[-97.49694444444445,44.31333333333333],[-97.49694444444445,44.31333333333333],[-97.49694444444445,44.31333333333333],[-98.60472222222222,44.11944444444445],[-98.60472222222222,44.11944444444445],[-98.60472222222222,44.11944444444445],[-98.60472222222222,44.11944444444445],[-98.74666666666667,44.09388888888889],[-98.80777777777777,44.086111111111116],[-98.80777777777777,44.086111111111116],[-98.80777777777777,44.086111111111116],[-98.86055555555555,44.073055555555555],[-98.86055555555555,44.073055555555555],[-99.0775,44.03333333333333],[-99.0775,44.03333333333333],[-99.0775,44.03333333333333],[-99.0775,44.03333333333333],[-99.0775,44.03333333333333],[-99.0775,44.03333333333333],[-99.41388888888889,43.97027777777778],[-99.41388888888889,43.97027777777778],[-99.41388888888889,43.97027777777778],[-99.69444444444444,43.91694444444444],[-99.69444444444444,43.91694444444444],[-99.69444444444444,43.91694444444444],[-99.76666666666667,43.903055555555554],[-99.76666666666667,43.903055555555554],[-99.96861111111112,43.86277777777778],[-99.96861111111112,43.86277777777778],[-100.09638888888888,43.802499999999995],[-100.09638888888888,43.802499999999995],[-100.09638888888888,43.802499999999995],[-100.15944444444445,43.76916666666666],[-100.15944444444445,43.76916666666666],[-100.26583333333333,43.71222222222222],[-100.34277777777777,43.67111111111111],[-100.34277777777777,43.67111111111111],[-100.34277777777777,43.67111111111111],[-100.34277777777777,43.67111111111111],[-100.585,43.54055555555556],[-100.585,43.54055555555556],[-100.585,43.54055555555556],[-100.87194444444444,43.38472222222222],[-100.87194444444444,43.38472222222222],[-100.87194444444444,43.38472222222222],[-100.94611111111111,43.34388888888889],[-100.94611111111111,43.34388888888889],[-101.00194444444445,43.30916666666666],[-101.00194444444445,43.30916666666666],[-101.00194444444445,43.30916666666666],[-101.36277777777777,43.11083333333333],[-101.36277777777777,43.11083333333333],[-101.36277777777777,43.11083333333333],[-101.36277777777777,43.11083333333333],[-101.48305555555555,43.04722222222222],[-101.66472222222222,42.94583333333333],[-101.66472222222222,42.94583333333333],[-101.66472222222222,42.94583333333333],[-101.66472222222222,42.94583333333333],[-101.66472222222222,42.94583333333333],[-101.66472222222222,42.94583333333333],[-101.66472222222222,42.94583333333333],[-101.78166666666667,42.88],[-101.78166666666667,42.88],[-101.83583333333333,42.84916666666667],[-101.83583333333333,42.84916666666667],[-102.07083333333333,42.71277777777778],[-102.07083333333333,42.71277777777778],[-102.07083333333333,42.71277777777778],[-102.07083333333333,42.71277777777778],[-102.07083333333333,42.71277777777778],[-102.07083333333333,42.71277777777778],[-102.07083333333333,42.71277777777778],[-102.30722222222222,42.58111111111111],[-102.30722222222222,42.58111111111111],[-102.30722222222222,42.58111111111111],[-102.30722222222222,42.58111111111111],[-102.30722222222222,42.58111111111111],[-102.78138888888888,42.30722222222222],[-102.78138888888888,42.30722222222222],[-102.78138888888888,42.30722222222222],[-103.01722222222222,42.169444444444444],[-103.01722222222222,42.169444444444444],[-103.01722222222222,42.169444444444444],[-103.01722222222222,42.169444444444444],[-103.01722222222222,42.169444444444444],[-103.2525,42.03055555555555],[-103.2525,42.03055555555555],[-103.2525,42.03055555555555],[-103.2525,42.03055555555555],[-103.62333333333332,41.855000000000004],[-103.62333333333332,41.855000000000004],[-103.89277777777778,41.784166666666664],[-103.89277777777778,41.784166666666664],[-103.89277777777778,41.784166666666664],[-104.03138888888888,41.74583333333334],[-104.03138888888888,41.74583333333334],[-104.16694444444445,41.70916666666667],[-104.16694444444445,41.70916666666667],[-104.30111111111111,41.67194444444444],[-104.30111111111111,41.67194444444444],[-104.30111111111111,41.67194444444444],[-104.30111111111111,41.67194444444444],[-104.43305555555555,41.63666666666666],[-104.43305555555555,41.63666666666666],[-104.43305555555555,41.63666666666666],[-104.43305555555555,41.63666666666666],[-104.70333333333333,41.56194444444444],[-104.70333333333333,41.56194444444444],[-104.70333333333333,41.56194444444444],[-104.70333333333333,41.56194444444444],[-104.70333333333333,41.56194444444444],[-104.70333333333333,41.56194444444444],[-104.70333333333333,41.56194444444444],[-105.2363888888889,41.41027777777778],[-105.2363888888889,41.41027777777778],[-105.37805555555555,41.37111111111111],[-105.37805555555555,41.37111111111111],[-105.37805555555555,41.37111111111111],[-105.37805555555555,41.37111111111111],[-105.37805555555555,41.37111111111111],[-105.515,41.33166666666667],[-105.515,41.33166666666667],[-105.515,41.33166666666667],[-105.78305555555555,41.253055555555555],[-105.78305555555555,41.253055555555555],[-105.78305555555555,41.253055555555555],[-105.78305555555555,41.253055555555555],[-105.91861111111112,41.21388888888889],[-105.91861111111112,41.21388888888889],[-106.46944444444445,41.051111111111105],[-106.46944444444445,41.051111111111105],[-106.46944444444445,41.051111111111105],[-106.46944444444445,41.051111111111105],[-106.46944444444445,41.051111111111105],[-106.46944444444445,41.051111111111105],[-106.46944444444445,41.051111111111105],[-106.60499999999999,41.01027777777778],[-106.60499999999999,41.01027777777778],[-106.60499999999999,41.01027777777778],[-107.28888888888889,40.80277777777778],[-107.28888888888889,40.80277777777778],[-107.28888888888889,40.80277777777778],[-107.28888888888889,40.80277777777778],[-107.28888888888889,40.80277777777778],[-107.72472222222223,40.6675],[-107.72472222222223,40.6675],[-107.72472222222223,40.6675],[-107.72472222222223,40.6675],[-107.72472222222223,40.6675],[-107.72472222222223,40.6675],[-107.99527777777777,40.58222222222223],[-107.99527777777777,40.58222222222223],[-107.99527777777777,40.58222222222223],[-107.99527777777777,40.58222222222223],[-108.24027777777778,40.51833333333333],[-108.24027777777778,40.51833333333333],[-108.24027777777778,40.51833333333333],[-108.24027777777778,40.51833333333333],[-108.24027777777778,40.51833333333333],[-108.24027777777778,40.51833333333333],[-109.46305555555556,40.19],[-109.46305555555556,40.19],[-109.46305555555556,40.19],[-109.46305555555556,40.19],[-109.46305555555556,40.19],[-109.46305555555556,40.19],[-109.46305555555556,40.19],[-109.46305555555556,40.19],[-109.46305555555556,40.19],[-109.46305555555556,40.19],[-112.08138888888888,39.43222222222222],[-112.08138888888888,39.43222222222222],[-112.08138888888888,39.43222222222222],[-112.08138888888888,39.43222222222222],[-112.08138888888888,39.43222222222222],[-112.215,39.39138888888889],[-112.215,39.39138888888889],[-112.215,39.39138888888889],[-112.35,39.35],[-112.35,39.35],[-112.35,39.35],[-112.35,39.35],[-112.91305555555556,39.222500000000004],[-112.91305555555556,39.222500000000004],[-113.05305555555556,39.19472222222222],[-113.05305555555556,39.19472222222222],[-113.05305555555556,39.19472222222222],[-113.05305555555556,39.19472222222222],[-113.47666666666667,39.10944444444445],[-113.47666666666667,39.10944444444445],[-113.47666666666667,39.10944444444445],[-113.47666666666667,39.10944444444445],[-113.47666666666667,39.10944444444445],[-113.61638888888888,39.08083333333334],[-113.61638888888888,39.08083333333334],[-113.75555555555556,39.05222222222222],[-113.75555555555556,39.05222222222222],[-114.03388888888888,38.99444444444445],[-114.03388888888888,38.99444444444445],[-114.03388888888888,38.99444444444445],[-114.31277777777777,38.93611111111111],[-114.31277777777777,38.93611111111111],[-114.31277777777777,38.93611111111111],[-114.31277777777777,38.93611111111111],[-114.31277777777777,38.93611111111111],[-114.7275,38.847500000000004],[-114.7275,38.847500000000004],[-114.7275,38.847500000000004],[-114.86749999999999,38.81722222222223],[-114.86749999999999,38.81722222222223],[-114.86749999999999,38.81722222222223],[-114.86749999999999,38.81722222222223],[-114.86749999999999,38.81722222222223],[-115.86805555555554,38.596111111111114],[-115.86805555555554,38.596111111111114],[-115.86805555555554,38.596111111111114],[-116.2961111111111,38.49722222222222],[-116.2961111111111,38.49722222222222],[-116.2961111111111,38.49722222222222],[-116.2961111111111,38.49722222222222],[-116.2961111111111,38.49722222222222],[-116.2961111111111,38.49722222222222],[-116.2961111111111,38.49722222222222],[-116.2961111111111,38.49722222222222],[-116.2961111111111,38.49722222222222],[-117.3125,38.282777777777774],[-117.3125,38.282777777777774],[-117.3125,38.282777777777774],[-117.73722222222223,38.20777777777778],[-117.73722222222223,38.20777777777778],[-117.73722222222223,38.20777777777778],[-117.88305555555554,38.18194444444444],[-117.88305555555554,38.18194444444444],[-117.88305555555554,38.18194444444444],[-117.88305555555554,38.18194444444444],[-117.88305555555554,38.18194444444444],[-118.03444444444445,38.15472222222222],[-118.03444444444445,38.15472222222222],[-118.03444444444445,38.15472222222222],[-118.335,38.099722222222226],[-118.335,38.099722222222226],[-118.335,38.099722222222226],[-118.335,38.099722222222226],[-118.63388888888889,38.044444444444444],[-118.63388888888889,38.044444444444444],[-118.63388888888889,38.044444444444444],[-118.63388888888889,38.044444444444444],[-118.63388888888889,38.044444444444444],[-118.63388888888889,38.044444444444444],[-118.93472222222222,37.98777777777778],[-118.93472222222222,37.98777777777778],[-118.93472222222222,37.98777777777778],[-118.93472222222222,37.98777777777778],[-118.93472222222222,37.98777777777778],[-118.93472222222222,37.98777777777778],[-118.93472222222222,37.98777777777778],[-119.85472222222222,37.80972222222222],[-119.85472222222222,37.80972222222222],[-119.85472222222222,37.80972222222222],[-119.85472222222222,37.80972222222222],[-119.85472222222222,37.80972222222222],[-119.85472222222222,37.80972222222222],[-119.85472222222222,37.80972222222222],[-120.30388888888889,37.71944444444445],[-120.30388888888889,37.71944444444445],[-120.33333333333333,37.71666666666667],[-120.33333333333333,37.71666666666667],[-120.33333333333333,37.71666666666667],[-120.33333333333333,37.71666666666667],[-120.44805555555556,37.69416666666666],[-120.44805555555556,37.69416666666666],[-120.44805555555556,37.69416666666666],[-120.44805555555556,37.69416666666666],[-120.44805555555556,37.69416666666666],[-120.44805555555556,37.69416666666666],[-120.44805555555556,37.69416666666666],[-120.99638888888889,37.62861111111111],[-120.99638888888889,37.62861111111111],[-120.99638888888889,37.62861111111111],[-120.99638888888889,37.62861111111111],[-120.99638888888889,37.62861111111111],[-121.35583333333332,37.58222222222223],[-121.35583333333332,37.58222222222223],[-121.41666666666667,37.56666666666667],[-121.41666666666667,37.56666666666667],[-121.41666666666667,37.56666666666667],[-121.41666666666667,37.56666666666667],[-121.5825,37.55555555555555],[-121.5825,37.55555555555555],[-121.5825,37.55555555555555],[-121.5825,37.55555555555555],[-121.94972222222222,37.49277777777778],[-121.94972222222222,37.49277777777778],[-121.94972222222222,37.49277777777778],[-121.94972222222222,37.49277777777778],[-121.94972222222222,37.49277777777778],[-122,37.5],[-122,37.5],[-122,37.5],[-122,37.5],[-122,37.5],[-122.11749999999999,37.53666666666666],[-122.11749999999999,37.53666666666666],[-122.11749999999999,37.53666666666666],[-122.25361111111111,37.58083333333334],[-122.25361111111111,37.58083333333334],[-122.25361111111111,37.58083333333334],[-122.25361111111111,37.58083333333334],[-122.25361111111111,37.58083333333334],[-122.33333333333333,37.6],[-122.33333333333333,37.6],[-122.33333333333333,37.6],[-122.33333333333333,37.6],[-122.33333333333333,37.6],[-122.33333333333333,37.6]],"type":"LineString"}
}
