{
  "id": 1981729297,
  "type": "Feature",
  "properties": {
    "geom:area": 0,
    "geom:bbox": "-122.333920,37.491700,-121.602240,37.604310",
    "geom:latitude": 37.53184110826431,
    "geom:longitude": -121.97021062140392,
    "src:alt_label": "swim-approach",
    "src:geom": "swim",
    "swim:elevations": [
      3141,
      3054,
      2904,
      2726,
      2598,
      2438,
      2256,
      2162,
      2039,
      1860,
      1708,
      1578,
      1362,
      1167,
      1155,
      868,
      740,
      580,
      454,
      364,
      191,
      152
    ],
    "swim:geom": "approach",
    "swim:timestamps": [
      1761071651,
      1761071674,
      1761071698,
      1761071727,
      1761071747,
      1761071786,
      1761071813,
      1761071829,
      1761071854,
      1761071902,
      1761071931,
      1761071957,
      1761071992,
      1761072028,
      1761072033,
      1761072087,
      1761072114,
      1761072144,
      1761072171,
      1761072195,
      1761072238,
      1761072249
    ],
    "wof:geomhash": "dedd2a298521fb3d65922dfd69d708a0",
    "wof:id": 1981729297,
    "wof:repo": "sfomuseum-data-flights-2025-10"
  },
  "bbox": [
    -122.33392,
    37.4917,
    -121.60224,
    37.60431
  ],
  "geometry": {"coordinates":[[-121.60224,37.55346],[-121.64175,37.54681],[-121.6806,37.53753],[-121.72521,37.52682],[-121.7543,37.51989],[-121.81114,37.50628],[-121.84927,37.49699],[-121.87101,37.49253],[-121.90647,37.4917],[-121.97403,37.49369],[-122.01071,37.50209],[-122.04257,37.51237],[-122.08208,37.52512],[-122.12226,37.53831],[-122.12789,37.54015],[-122.1865,37.55907],[-122.21403,37.56804],[-122.24429,37.57775],[-122.27023,37.58566],[-122.29025,37.59143],[-122.32537,37.60188],[-122.33392,37.60431]],"type":"LineString"}
}
