{
  "id": 1981798291,
  "type": "Feature",
  "properties": {
    "geom:area": 0,
    "geom:bbox": "-122.266667,37.700000,-88.101389,42.660000",
    "geom:latitude": 41.722381337516474,
    "geom:longitude": -105.4497846041383,
    "src:alt_label": "swim-path",
    "src:geom": "swim",
    "swim:altitudes": [
      "046",
      "046",
      "046",
      "046",
      "046",
      "046",
      "094",
      "094",
      "094",
      "094",
      "094",
      "094",
      "113",
      "113",
      "113",
      "113",
      "113",
      "202",
      "202",
      "202",
      "220",
      "220",
      "251",
      "251",
      "251",
      "251",
      "273",
      "273",
      "273",
      "273",
      "300",
      "300",
      "300",
      "300",
      "300",
      "300",
      "350",
      "350",
      "350",
      "350",
      "350",
      "370C",
      "370C",
      "370C",
      "370C",
      "370C",
      "370C",
      "370C",
      "370C",
      "370C",
      "370C",
      "370C",
      "370C",
      "370C",
      "370C",
      "370C",
      "370C",
      "370C",
      "370C",
      "370C",
      "370C",
      "370C",
      "370C",
      "370C",
      "370C",
      "370C",
      "370C",
      "370C",
      "370C",
      "370C",
      "370C",
      "370C",
      "370C",
      "370C",
      "370C",
      "370C",
      "370C",
      "370C",
      "370C",
      "370C",
      "370C",
      "370C",
      "370C",
      "370C",
      "370C",
      "370C",
      "370C",
      "370C",
      "370C",
      "370C",
      "370C",
      "370C",
      "370C",
      "370C",
      "370C",
      "370C",
      "370C",
      "370C",
      "370C",
      "370C",
      "370C",
      "370C",
      "370C",
      "370C",
      "370C",
      "370C",
      "370C",
      "370C",
      "370C",
      "370C",
      "370C",
      "370C",
      "370C",
      "370C",
      "370C",
      "370C",
      "370C",
      "370C",
      "370C",
      "370C",
      "370C",
      "370C",
      "370C",
      "370C",
      "370C",
      "370C",
      "370C",
      "370C",
      "370C",
      "370C",
      "370C",
      "370C",
      "370C",
      "370C",
      "370C",
      "370C",
      "370C",
      "370C",
      "370C",
      "370C",
      "370C",
      "370C",
      "370C",
      "370C",
      "370C",
      "370C",
      "370C",
      "370C",
      "370C",
      "370C",
      "370C",
      "370C",
      "370C",
      "370C",
      "370C",
      "370C",
      "370C",
      "370C",
      "370C",
      "370C",
      "370C",
      "370C",
      "370C",
      "370C",
      "370C",
      "370C",
      "370C",
      "370C",
      "370C",
      "370C",
      "370C",
      "370C",
      "370C",
      "370C",
      "370C",
      "370C",
      "370C",
      "370C",
      "370C",
      "370C",
      "370C",
      "370C",
      "370C",
      "370C",
      "370C",
      "370C",
      "370C",
      "370C",
      "370C",
      "370C",
      "370C",
      "370C",
      "370C",
      "370C",
      "370C",
      "370C",
      "370C",
      "370C",
      "370C",
      "370C",
      "370C",
      "370C",
      "370C",
      "370C",
      "370C",
      "370C",
      "370C",
      "370C",
      "370C",
      "370C",
      "370C",
      "370C",
      "370C",
      "370C",
      "370C",
      "370C",
      "370C",
      "370C",
      "370C",
      "370C",
      "370C",
      "370C",
      "370C",
      "370C",
      "370C",
      "370C",
      "370C",
      "370C",
      "370C",
      "370C",
      "370C",
      "370C",
      "370C",
      "370C",
      "370C",
      "370C",
      "370C",
      "370C",
      "370C",
      "370C",
      "370C",
      "370C",
      "370C",
      "370C",
      "370C",
      "370C",
      "370C",
      "370C",
      "370C",
      "370C",
      "370C",
      "370C",
      "370C",
      "358",
      "358",
      "358",
      "358",
      "334",
      "334",
      "334",
      "334",
      "334",
      "279",
      "279",
      "279",
      "279",
      "269",
      "269",
      "269",
      "240",
      "240",
      "240",
      "239",
      "239",
      "223",
      "206",
      "206",
      "206",
      "161",
      "161",
      "161",
      "132",
      "132",
      "132",
      "132",
      "132",
      "132",
      "132",
      "132",
      "132",
      "059",
      "050",
      "050",
      "050",
      "050",
      "050",
      "040",
      "040",
      "040",
      "040",
      "040",
      "033",
      "033",
      "033",
      "033",
      "033",
      "033",
      "033",
      "033",
      "033",
      "033"
    ],
    "swim:geom": "path",
    "swim:speeds": [
      256,
      256,
      256,
      256,
      256,
      256,
      280,
      280,
      280,
      280,
      280,
      280,
      326,
      326,
      326,
      326,
      326,
      411,
      411,
      411,
      416,
      416,
      448,
      448,
      448,
      448,
      477,
      477,
      477,
      477,
      494,
      494,
      494,
      494,
      494,
      494,
      474,
      474,
      474,
      474,
      474,
      480,
      480,
      480,
      480,
      482,
      482,
      482,
      483,
      483,
      483,
      481,
      481,
      481,
      481,
      481,
      482,
      482,
      482,
      482,
      482,
      482,
      482,
      482,
      498,
      498,
      498,
      498,
      498,
      498,
      498,
      498,
      498,
      498,
      498,
      498,
      498,
      498,
      498,
      497,
      497,
      497,
      497,
      497,
      497,
      497,
      503,
      503,
      503,
      502,
      502,
      502,
      502,
      502,
      499,
      499,
      499,
      499,
      499,
      499,
      500,
      500,
      500,
      500,
      500,
      499,
      499,
      498,
      495,
      495,
      495,
      495,
      496,
      496,
      496,
      496,
      495,
      495,
      494,
      494,
      494,
      494,
      493,
      493,
      493,
      493,
      492,
      492,
      492,
      492,
      490,
      489,
      489,
      489,
      489,
      489,
      489,
      489,
      490,
      490,
      490,
      490,
      490,
      490,
      490,
      490,
      490,
      490,
      490,
      489,
      489,
      489,
      489,
      489,
      489,
      484,
      484,
      484,
      484,
      484,
      482,
      482,
      482,
      483,
      483,
      483,
      483,
      486,
      486,
      487,
      487,
      487,
      487,
      487,
      487,
      487,
      487,
      486,
      486,
      486,
      486,
      486,
      486,
      487,
      487,
      487,
      484,
      484,
      484,
      480,
      480,
      480,
      478,
      478,
      470,
      470,
      470,
      470,
      470,
      462,
      462,
      462,
      456,
      456,
      456,
      456,
      456,
      457,
      457,
      457,
      457,
      453,
      453,
      453,
      453,
      439,
      439,
      439,
      439,
      442,
      442,
      442,
      442,
      440,
      440,
      440,
      438,
      438,
      438,
      438,
      438,
      438,
      438,
      451,
      451,
      451,
      451,
      451,
      451,
      451,
      451,
      451,
      451,
      451,
      451,
      448,
      448,
      448,
      448,
      448,
      448,
      448,
      448,
      438,
      438,
      438,
      438,
      438,
      438,
      438,
      438,
      438,
      448,
      448,
      448,
      448,
      439,
      439,
      439,
      421,
      421,
      421,
      419,
      419,
      402,
      383,
      383,
      383,
      348,
      348,
      348,
      314,
      314,
      314,
      314,
      314,
      314,
      314,
      314,
      314,
      268,
      267,
      267,
      267,
      267,
      267,
      246,
      246,
      246,
      246,
      246,
      157,
      157,
      157,
      157,
      157,
      157,
      157,
      157,
      157,
      157
    ],
    "swim:timestamps": [
      1761750130,
      1761750130,
      1761750130,
      1761750130,
      1761750130,
      1761750130,
      1761750231,
      1761750231,
      1761750231,
      1761750231,
      1761750231,
      1761750231,
      1761750291,
      1761750291,
      1761750291,
      1761750291,
      1761750291,
      1761750532,
      1761750532,
      1761750532,
      1761750592,
      1761750592,
      1761750712,
      1761750712,
      1761750712,
      1761750712,
      1761750832,
      1761750832,
      1761750832,
      1761750832,
      1761750952,
      1761750952,
      1761750952,
      1761750952,
      1761750952,
      1761750952,
      1761751312,
      1761751312,
      1761751312,
      1761751312,
      1761751312,
      1761751493,
      1761751493,
      1761751493,
      1761751493,
      1761751553,
      1761751553,
      1761751553,
      1761751613,
      1761751613,
      1761751613,
      1761751857,
      1761751857,
      1761751857,
      1761751857,
      1761751857,
      1761751973,
      1761751973,
      1761751973,
      1761751973,
      1761751973,
      1761751973,
      1761751973,
      1761751973,
      1761752818,
      1761752818,
      1761752818,
      1761752818,
      1761752818,
      1761752818,
      1761752818,
      1761752818,
      1761752818,
      1761752818,
      1761753179,
      1761753179,
      1761753179,
      1761753179,
      1761753179,
      1761753299,
      1761753299,
      1761753299,
      1761753299,
      1761753299,
      1761753299,
      1761753299,
      1761754020,
      1761754020,
      1761754020,
      1761754080,
      1761754080,
      1761754080,
      1761754080,
      1761754080,
      1761754442,
      1761754442,
      1761754442,
      1761754442,
      1761754442,
      1761754442,
      1761754742,
      1761754742,
      1761754742,
      1761754742,
      1761754742,
      1761754802,
      1761754802,
      1761754862,
      1761755041,
      1761755041,
      1761755041,
      1761755041,
      1761755200,
      1761755200,
      1761755200,
      1761755200,
      1761755260,
      1761755260,
      1761755320,
      1761755320,
      1761755320,
      1761755320,
      1761755342,
      1761755342,
      1761755402,
      1761755402,
      1761755462,
      1761755462,
      1761755462,
      1761755462,
      1761755560,
      1761755703,
      1761755703,
      1761755703,
      1761755703,
      1761755763,
      1761755763,
      1761755763,
      1761755861,
      1761755861,
      1761755861,
      1761755861,
      1761755921,
      1761755921,
      1761756003,
      1761756003,
      1761756003,
      1761756003,
      1761756041,
      1761756101,
      1761756101,
      1761756101,
      1761756101,
      1761756101,
      1761756101,
      1761756244,
      1761756244,
      1761756244,
      1761756244,
      1761756244,
      1761756582,
      1761756582,
      1761756582,
      1761756642,
      1761756642,
      1761756642,
      1761756642,
      1761756762,
      1761756762,
      1761756822,
      1761756822,
      1761756822,
      1761756882,
      1761756882,
      1761756882,
      1761756882,
      1761756882,
      1761757543,
      1761757543,
      1761757543,
      1761757543,
      1761757543,
      1761757543,
      1761757552,
      1761757552,
      1761757552,
      1761757663,
      1761757663,
      1761757663,
      1761757853,
      1761757853,
      1761757973,
      1761758023,
      1761758023,
      1761758153,
      1761758153,
      1761758153,
      1761758153,
      1761758153,
      1761758324,
      1761758324,
      1761758324,
      1761758564,
      1761758564,
      1761758564,
      1761758564,
      1761758564,
      1761758624,
      1761758624,
      1761758624,
      1761758624,
      1761758694,
      1761758694,
      1761758694,
      1761758694,
      1761758994,
      1761758994,
      1761758994,
      1761758994,
      1761759054,
      1761759054,
      1761759054,
      1761759054,
      1761759355,
      1761759355,
      1761759355,
      1761759535,
      1761759535,
      1761759535,
      1761759535,
      1761759535,
      1761759535,
      1761759535,
      1761759655,
      1761759655,
      1761759655,
      1761759655,
      1761759655,
      1761759655,
      1761760077,
      1761760077,
      1761760077,
      1761760077,
      1761760077,
      1761760077,
      1761760317,
      1761760317,
      1761760317,
      1761760317,
      1761760317,
      1761760317,
      1761760317,
      1761760317,
      1761761013,
      1761761013,
      1761761013,
      1761761013,
      1761761158,
      1761761158,
      1761761158,
      1761761158,
      1761761158,
      1761761554,
      1761761554,
      1761761554,
      1761761554,
      1761761614,
      1761761614,
      1761761614,
      1761761819,
      1761761819,
      1761761819,
      1761761879,
      1761761879,
      1761761939,
      1761761999,
      1761761999,
      1761761999,
      1761762179,
      1761762179,
      1761762179,
      1761762300,
      1761762300,
      1761762300,
      1761762300,
      1761762300,
      1761762300,
      1761762300,
      1761762300,
      1761762300,
      1761762600,
      1761762656,
      1761762656,
      1761762656,
      1761762656,
      1761762656,
      1761762776,
      1761762776,
      1761762776,
      1761762776,
      1761762776,
      1761763081,
      1761763081,
      1761763081,
      1761763081,
      1761763081,
      1761763081,
      1761763081,
      1761763081,
      1761763081,
      1761763081
    ],
    "wof:geomhash": "d7cfe813d3b0e970f7b48a4f8c3d278d",
    "wof:id": 1981798291,
    "wof:repo": "sfomuseum-data-flights-2025-10"
  },
  "bbox": [
    -122.26666666666667,
    37.7,
    -88.10138888888888,
    42.66
  ],
  "geometry": {"coordinates":[[-122.26666666666667,37.7],[-122.26666666666667,37.7],[-122.26666666666667,37.7],[-122.26666666666667,37.7],[-122.26666666666667,37.7],[-122.26666666666667,37.7],[-122.15361111111112,37.78527777777778],[-122.15361111111112,37.78527777777778],[-122.15361111111112,37.78527777777778],[-122.15361111111112,37.78527777777778],[-122.15361111111112,37.78527777777778],[-122.15361111111112,37.78527777777778],[-122.09138888888889,37.85416666666667],[-122.09138888888889,37.85416666666667],[-122.09138888888889,37.85416666666667],[-122.09138888888889,37.85416666666667],[-122.09138888888889,37.85416666666667],[-121.6888888888889,38.13611111111111],[-121.6888888888889,38.13611111111111],[-121.6888888888889,38.13611111111111],[-121.57833333333333,38.21027777777778],[-121.57833333333333,38.21027777777778],[-121.33999999999999,38.36833333333333],[-121.33999999999999,38.36833333333333],[-121.33999999999999,38.36833333333333],[-121.33999999999999,38.36833333333333],[-121.08694444444444,38.52361111111111],[-121.08694444444444,38.52361111111111],[-121.08694444444444,38.52361111111111],[-121.08694444444444,38.52361111111111],[-120.81361111111111,38.69166666666666],[-120.81361111111111,38.69166666666666],[-120.81361111111111,38.69166666666666],[-120.81361111111111,38.69166666666666],[-120.81361111111111,38.69166666666666],[-120.81361111111111,38.69166666666666],[-120.00555555555556,39.17944444444444],[-120.00555555555556,39.17944444444444],[-120.00555555555556,39.17944444444444],[-120.00555555555556,39.17944444444444],[-120.00555555555556,39.17944444444444],[-119.5975,39.42194444444444],[-119.5975,39.42194444444444],[-119.5975,39.42194444444444],[-119.5975,39.42194444444444],[-119.4575,39.50472222222222],[-119.4575,39.50472222222222],[-119.4575,39.50472222222222],[-119.31888888888888,39.58722222222222],[-119.31888888888888,39.58722222222222],[-119.31888888888888,39.58722222222222],[-118.75361111111111,39.90222222222222],[-118.75361111111111,39.90222222222222],[-118.75361111111111,39.90222222222222],[-118.75361111111111,39.90222222222222],[-118.75361111111111,39.90222222222222],[-118.4413888888889,40.02972222222222],[-118.4413888888889,40.02972222222222],[-118.4413888888889,40.02972222222222],[-118.4413888888889,40.02972222222222],[-118.4413888888889,40.02972222222222],[-118.4413888888889,40.02972222222222],[-118.4413888888889,40.02972222222222],[-118.4413888888889,40.02972222222222],[-116.15416666666667,40.87305555555555],[-116.15416666666667,40.87305555555555],[-116.15416666666667,40.87305555555555],[-116.15416666666667,40.87305555555555],[-116.15416666666667,40.87305555555555],[-116.15416666666667,40.87305555555555],[-116.15416666666667,40.87305555555555],[-116.15416666666667,40.87305555555555],[-116.15416666666667,40.87305555555555],[-116.15416666666667,40.87305555555555],[-115.1413888888889,41.195277777777775],[-115.1413888888889,41.195277777777775],[-115.1413888888889,41.195277777777775],[-115.1413888888889,41.195277777777775],[-115.1413888888889,41.195277777777775],[-114.80138888888888,41.300555555555555],[-114.80138888888888,41.300555555555555],[-114.80138888888888,41.300555555555555],[-114.80138888888888,41.300555555555555],[-114.80138888888888,41.300555555555555],[-114.80138888888888,41.300555555555555],[-114.80138888888888,41.300555555555555],[-112.68694444444445,41.74916666666667],[-112.68694444444445,41.74916666666667],[-112.68694444444445,41.74916666666667],[-112.50138888888888,41.772777777777776],[-112.50138888888888,41.772777777777776],[-112.50138888888888,41.772777777777776],[-112.50138888888888,41.772777777777776],[-112.50138888888888,41.772777777777776],[-111.39833333333334,41.907777777777774],[-111.39833333333334,41.907777777777774],[-111.39833333333334,41.907777777777774],[-111.39833333333334,41.907777777777774],[-111.39833333333334,41.907777777777774],[-111.39833333333334,41.907777777777774],[-110.45666666666666,42.013888888888886],[-110.45666666666666,42.013888888888886],[-110.45666666666666,42.013888888888886],[-110.45666666666666,42.013888888888886],[-110.45666666666666,42.013888888888886],[-110.27444444444444,42.03388888888889],[-110.27444444444444,42.03388888888889],[-110.08833333333332,42.05361111111111],[-109.53944444444444,42.11],[-109.53944444444444,42.11],[-109.53944444444444,42.11],[-109.53944444444444,42.11],[-109.06055555555555,42.15694444444444],[-109.06055555555555,42.15694444444444],[-109.06055555555555,42.15694444444444],[-109.06055555555555,42.15694444444444],[-108.88055555555555,42.174166666666665],[-108.88055555555555,42.174166666666665],[-108.69638888888889,42.19138888888889],[-108.69638888888889,42.19138888888889],[-108.69638888888889,42.19138888888889],[-108.69638888888889,42.19138888888889],[-108.61916666666666,42.198611111111106],[-108.61916666666666,42.198611111111106],[-108.43555555555555,42.21527777777778],[-108.43555555555555,42.21527777777778],[-108.25472222222223,42.231388888888894],[-108.25472222222223,42.231388888888894],[-108.25472222222223,42.231388888888894],[-108.25472222222223,42.231388888888894],[-107.96416666666667,42.25694444444444],[-107.52555555555556,42.29361111111111],[-107.52555555555556,42.29361111111111],[-107.52555555555556,42.29361111111111],[-107.52555555555556,42.29361111111111],[-107.37888888888888,42.30555555555555],[-107.37888888888888,42.30555555555555],[-107.37888888888888,42.30555555555555],[-107.05111111111111,42.33166666666667],[-107.05111111111111,42.33166666666667],[-107.05111111111111,42.33166666666667],[-107.05111111111111,42.33166666666667],[-106.86916666666666,42.34583333333334],[-106.86916666666666,42.34583333333334],[-106.61027777777777,42.36527777777778],[-106.61027777777777,42.36527777777778],[-106.61027777777777,42.36527777777778],[-106.61027777777777,42.36527777777778],[-106.52333333333333,42.37166666666667],[-106.34166666666667,42.385],[-106.34166666666667,42.385],[-106.34166666666667,42.385],[-106.34166666666667,42.385],[-106.34166666666667,42.385],[-106.34166666666667,42.385],[-105.90722222222223,42.415277777777774],[-105.90722222222223,42.415277777777774],[-105.90722222222223,42.415277777777774],[-105.90722222222223,42.415277777777774],[-105.90722222222223,42.415277777777774],[-104.87138888888889,42.48083333333334],[-104.87138888888889,42.48083333333334],[-104.87138888888889,42.48083333333334],[-104.6913888888889,42.49111111111111],[-104.6913888888889,42.49111111111111],[-104.6913888888889,42.49111111111111],[-104.6913888888889,42.49111111111111],[-104.33666666666666,42.50833333333333],[-104.33666666666666,42.50833333333333],[-104.15444444444445,42.51111111111111],[-104.15444444444445,42.51111111111111],[-104.15444444444445,42.51111111111111],[-103.97166666666666,42.51416666666667],[-103.97166666666666,42.51416666666667],[-103.97166666666666,42.51416666666667],[-103.97166666666666,42.51416666666667],[-103.97166666666666,42.51416666666667],[-101.96944444444445,42.52611111111111],[-101.96944444444445,42.52611111111111],[-101.96944444444445,42.52611111111111],[-101.96944444444445,42.52611111111111],[-101.96944444444445,42.52611111111111],[-101.96944444444445,42.52611111111111],[-101.94888888888889,42.525],[-101.94888888888889,42.525],[-101.94888888888889,42.525],[-101.58916666666666,42.52444444444444],[-101.58916666666666,42.52444444444444],[-101.58916666666666,42.52444444444444],[-101.0461111111111,42.519999999999996],[-101.0461111111111,42.519999999999996],[-100.68305555555555,42.51555555555556],[-100.50722222222223,42.51277777777778],[-100.50722222222223,42.51277777777778],[-100.15222222222222,42.50694444444444],[-100.15222222222222,42.50694444444444],[-100.15222222222222,42.50694444444444],[-100.15222222222222,42.50694444444444],[-100.15222222222222,42.50694444444444],[-99.63083333333333,42.49611111111111],[-99.63083333333333,42.49611111111111],[-99.63083333333333,42.49611111111111],[-98.94472222222223,42.47833333333333],[-98.94472222222223,42.47833333333333],[-98.94472222222223,42.47833333333333],[-98.94472222222223,42.47833333333333],[-98.94472222222223,42.47833333333333],[-98.77194444444444,42.473055555555554],[-98.77194444444444,42.473055555555554],[-98.77194444444444,42.473055555555554],[-98.77194444444444,42.473055555555554],[-98.58749999999999,42.47527777777778],[-98.58749999999999,42.47527777777778],[-98.58749999999999,42.47527777777778],[-98.58749999999999,42.47527777777778],[-97.76638888888888,42.513888888888886],[-97.76638888888888,42.513888888888886],[-97.76638888888888,42.513888888888886],[-97.76638888888888,42.513888888888886],[-97.59833333333333,42.52111111111111],[-97.59833333333333,42.52111111111111],[-97.59833333333333,42.52111111111111],[-97.59833333333333,42.52111111111111],[-96.7713888888889,42.583333333333336],[-96.7713888888889,42.583333333333336],[-96.7713888888889,42.583333333333336],[-96.28472222222221,42.64472222222222],[-96.28472222222221,42.64472222222222],[-96.28472222222221,42.64472222222222],[-96.28472222222221,42.64472222222222],[-96.28472222222221,42.64472222222222],[-96.28472222222221,42.64472222222222],[-96.28472222222221,42.64472222222222],[-95.9475,42.66],[-95.9475,42.66],[-95.9475,42.66],[-95.9475,42.66],[-95.9475,42.66],[-95.9475,42.66],[-94.77194444444444,42.63333333333333],[-94.77194444444444,42.63333333333333],[-94.77194444444444,42.63333333333333],[-94.77194444444444,42.63333333333333],[-94.77194444444444,42.63333333333333],[-94.77194444444444,42.63333333333333],[-94.06666666666666,42.61083333333333],[-94.06666666666666,42.61083333333333],[-94.06666666666666,42.61083333333333],[-94.06666666666666,42.61083333333333],[-94.06666666666666,42.61083333333333],[-94.06666666666666,42.61083333333333],[-94.06666666666666,42.61083333333333],[-94.06666666666666,42.61083333333333],[-92.16555555555556,42.529444444444444],[-92.16555555555556,42.529444444444444],[-92.16555555555556,42.529444444444444],[-92.16555555555556,42.529444444444444],[-91.7425,42.52583333333333],[-91.7425,42.52583333333333],[-91.7425,42.52583333333333],[-91.7425,42.52583333333333],[-91.7425,42.52583333333333],[-90.6438888888889,42.525555555555556],[-90.6438888888889,42.525555555555556],[-90.6438888888889,42.525555555555556],[-90.6438888888889,42.525555555555556],[-90.48027777777779,42.524166666666666],[-90.48027777777779,42.524166666666666],[-90.48027777777779,42.524166666666666],[-89.93916666666667,42.519999999999996],[-89.93916666666667,42.519999999999996],[-89.93916666666667,42.519999999999996],[-89.7825,42.518055555555556],[-89.7825,42.518055555555556],[-89.63138888888888,42.50055555555556],[-89.49,42.483333333333334],[-89.49,42.483333333333334],[-89.49,42.483333333333334],[-89.095,42.43444444444444],[-89.095,42.43444444444444],[-89.095,42.43444444444444],[-88.85499999999999,42.40416666666667],[-88.85499999999999,42.40416666666667],[-88.85499999999999,42.40416666666667],[-88.85499999999999,42.40416666666667],[-88.85499999999999,42.40416666666667],[-88.85499999999999,42.40416666666667],[-88.85499999999999,42.40416666666667],[-88.85499999999999,42.40416666666667],[-88.85499999999999,42.40416666666667],[-88.44833333333334,42.25694444444444],[-88.43333333333334,42.18333333333333],[-88.43333333333334,42.18333333333333],[-88.43333333333334,42.18333333333333],[-88.43333333333334,42.18333333333333],[-88.43333333333334,42.18333333333333],[-88.41666666666667,42.03333333333333],[-88.41666666666667,42.03333333333333],[-88.41666666666667,42.03333333333333],[-88.41666666666667,42.03333333333333],[-88.41666666666667,42.03333333333333],[-88.10138888888888,42.0025],[-88.10138888888888,42.0025],[-88.10138888888888,42.0025],[-88.10138888888888,42.0025],[-88.10138888888888,42.0025],[-88.10138888888888,42.0025],[-88.10138888888888,42.0025],[-88.10138888888888,42.0025],[-88.10138888888888,42.0025],[-88.10138888888888,42.0025]],"type":"LineString"}
}
