{
  "id": 1981803103,
  "type": "Feature",
  "properties": {
    "geom:area": 0,
    "geom:bbox": "-122.277222,34.193611,-119.113889,37.577500",
    "geom:latitude": 35.76131617004689,
    "geom:longitude": -120.86784196329883,
    "src:alt_label": "swim-path",
    "src:geom": "swim",
    "swim:altitudes": [
      "380C",
      "380C",
      "380C",
      "380C",
      "380C",
      "380C",
      "380C",
      "380C",
      "380C",
      "380C",
      "380C",
      "380C",
      "380C",
      "380C",
      "380C",
      "380C",
      "380C",
      "380C",
      "380C",
      "380C",
      "380C",
      "380C",
      "380C",
      "380C",
      "380C",
      "361",
      "327",
      "327",
      "259",
      "259",
      "251",
      "251",
      "251",
      "251",
      "251",
      "251",
      "192",
      "192",
      "192",
      "123",
      "123",
      "064",
      "039",
      "039",
      "039",
      "039",
      "039",
      "037",
      "037",
      "037",
      "014",
      "014"
    ],
    "swim:geom": "path",
    "swim:speeds": [
      419,
      419,
      419,
      419,
      419,
      419,
      421,
      421,
      421,
      421,
      421,
      436,
      428,
      428,
      426,
      426,
      426,
      426,
      426,
      426,
      426,
      426,
      428,
      428,
      428,
      412,
      432,
      432,
      414,
      414,
      409,
      409,
      409,
      409,
      409,
      409,
      379,
      379,
      379,
      310,
      310,
      243,
      168,
      168,
      168,
      168,
      168,
      160,
      160,
      160,
      149,
      149
    ],
    "swim:timestamps": [
      1761851352,
      1761851352,
      1761851352,
      1761851352,
      1761851352,
      1761851352,
      1761851525,
      1761851525,
      1761851525,
      1761851525,
      1761851525,
      1761851773,
      1761851893,
      1761851893,
      1761852065,
      1761852065,
      1761852133,
      1761852133,
      1761852133,
      1761852133,
      1761852133,
      1761852133,
      1761852366,
      1761852366,
      1761852366,
      1761852666,
      1761852726,
      1761852726,
      1761852907,
      1761852907,
      1761852921,
      1761852921,
      1761852921,
      1761852921,
      1761852921,
      1761852921,
      1761853087,
      1761853087,
      1761853087,
      1761853327,
      1761853327,
      1761853628,
      1761853780,
      1761853780,
      1761853780,
      1761853780,
      1761853780,
      1761853808,
      1761853808,
      1761853808,
      1761853988,
      1761853988
    ],
    "wof:geomhash": "2e646263efe35f117d0aca08b9f59fda",
    "wof:id": 1981803103,
    "wof:repo": "sfomuseum-data-flights-2025-10"
  },
  "bbox": [
    -122.27722222222222,
    34.19361111111111,
    -119.11388888888888,
    37.5775
  ],
  "geometry": {"coordinates":[[-119.11388888888888,34.19361111111111],[-119.11388888888888,34.19361111111111],[-119.11388888888888,34.19361111111111],[-119.11388888888888,34.19361111111111],[-119.11388888888888,34.19361111111111],[-119.11388888888888,34.19361111111111],[-119.46305555555556,34.35916666666667],[-119.46305555555556,34.35916666666667],[-119.46305555555556,34.35916666666667],[-119.46305555555556,34.35916666666667],[-119.46305555555556,34.35916666666667],[-119.85333333333332,34.680277777777775],[-120.03722222222223,34.861111111111114],[-120.03722222222223,34.861111111111114],[-120.32555555555555,35.12777777777778],[-120.32555555555555,35.12777777777778],[-120.42194444444445,35.21638888888889],[-120.42194444444445,35.21638888888889],[-120.42194444444445,35.21638888888889],[-120.42194444444445,35.21638888888889],[-120.42194444444445,35.21638888888889],[-120.42194444444445,35.21638888888889],[-120.78861111111111,35.56638888888889],[-120.78861111111111,35.56638888888889],[-120.78861111111111,35.56638888888889],[-121.24,36.03055555555555],[-121.33166666666666,36.12388888888889],[-121.33166666666666,36.12388888888889],[-121.60555555555555,36.401111111111106],[-121.60555555555555,36.401111111111106],[-121.63333333333334,36.43333333333333],[-121.63333333333334,36.43333333333333],[-121.63333333333334,36.43333333333333],[-121.63333333333334,36.43333333333333],[-121.63333333333334,36.43333333333333],[-121.63333333333334,36.43333333333333],[-121.84666666666666,36.681666666666665],[-121.84666666666666,36.681666666666665],[-121.84666666666666,36.681666666666665],[-121.98583333333333,37.03666666666666],[-121.98583333333333,37.03666666666666],[-122.11861111111111,37.36666666666667],[-122.11666666666666,37.5],[-122.11666666666666,37.5],[-122.11666666666666,37.5],[-122.11666666666666,37.5],[-122.11666666666666,37.5],[-122.13694444444445,37.51777777777777],[-122.13694444444445,37.51777777777777],[-122.13694444444445,37.51777777777777],[-122.27722222222222,37.5775],[-122.27722222222222,37.5775]],"type":"LineString"}
}
