{
  "id": 1981598559,
  "type": "Feature",
  "properties": {
    "geom:area": 0,
    "geom:bbox": "-122.471060,36.719800,-121.295770,37.717270",
    "geom:latitude": 37.212876892034835,
    "geom:longitude": -121.9939888637243,
    "src:alt_label": "swim-takeoff",
    "src:geom": "swim",
    "swim:elevations": [
      213,
      400,
      642,
      1044,
      1198,
      1933,
      2140,
      2417,
      2786,
      3017,
      3291,
      3357,
      3636,
      3843,
      3945,
      4296,
      4696,
      4885,
      5128,
      5446,
      5600,
      6016,
      6370,
      6908,
      7081,
      7274,
      7697,
      7768,
      8069,
      8276,
      8647,
      8901,
      8973,
      9170,
      9381,
      9658,
      9768
    ],
    "swim:geom": "takeoff",
    "swim:timestamps": [
      1759779086,
      1759779097,
      1759779137,
      1759779178,
      1759779188,
      1759779232,
      1759779245,
      1759779264,
      1759779291,
      1759779312,
      1759779355,
      1759779367,
      1759779390,
      1759779413,
      1759779422,
      1759779446,
      1759779477,
      1759779491,
      1759779510,
      1759779535,
      1759779544,
      1759779579,
      1759779612,
      1759779658,
      1759779675,
      1759779693,
      1759779739,
      1759779750,
      1759779789,
      1759779819,
      1759779863,
      1759779895,
      1759779904,
      1759779924,
      1759779945,
      1759779974,
      1759779991
    ],
    "wof:geomhash": "64c6777f3f8911f69e1c8bba0d4cbe06",
    "wof:id": 1981598559,
    "wof:repo": "sfomuseum-data-flights-2025-10"
  },
  "bbox": [
    -122.47106,
    36.7198,
    -121.29577,
    37.71727
  ],
  "geometry": {"coordinates":[[-122.36408,37.63492],[-122.36019,37.64315],[-122.36065,37.67803],[-122.39107,37.71477],[-122.40606,37.71727],[-122.45594,37.6855],[-122.45777,37.66992],[-122.45934,37.64574],[-122.46245,37.61036],[-122.46515,37.58327],[-122.47106,37.5206],[-122.46742,37.50194],[-122.44378,37.47057],[-122.40717,37.44572],[-122.39157,37.43569],[-122.3509,37.40976],[-122.29915,37.37658],[-122.27417,37.36056],[-122.24025,37.33872],[-122.19561,37.30977],[-122.17971,37.29954],[-122.11767,37.25931],[-122.05552,37.21903],[-121.96886,37.16255],[-121.93758,37.14216],[-121.90289,37.11954],[-121.81269,37.06062],[-121.79249,37.04741],[-121.71486,36.99634],[-121.6534,36.95526],[-121.56082,36.89419],[-121.49421,36.85033],[-121.47732,36.83906],[-121.43445,36.81084],[-121.39066,36.78169],[-121.33237,36.74341],[-121.29577,36.7198]],"type":"LineString"}
}
