{
  "id": 1981776637,
  "type": "Feature",
  "properties": {
    "geom:area": 0,
    "geom:bbox": "-122.530000,37.620000,-0.460000,64.230000",
    "geom:latitude": 58.06151256673877,
    "geom:longitude": -62.620365091505,
    "src:alt_label": "swim-route",
    "src:geom": "swim",
    "swim:geom": "route",
    "wof:geomhash": "63778c23eaad72f9ce03d84c91b973aa",
    "wof:id": 1981776637,
    "wof:repo": "sfomuseum-data-flights-2025-10"
  },
  "bbox": [
    -122.53,
    37.62,
    -0.46,
    64.23
  ],
  "geometry": {"coordinates":[[-122.38,37.62],[-122.5,37.67],[-122.51,37.68],[-122.52,37.68],[-122.53,37.75],[-122.53,37.76],[-122.53,37.79],[-122.53,37.8],[-122.47,37.83],[-122.46,37.83],[-122.43,37.84],[-122.36,37.89],[-122.2,38],[-122.12,38.06],[-122.04,38.11],[-121.9,38.2],[-121.88,38.22],[-121.68,38.36],[-121.68,38.36],[-121.55,38.44],[-121.55,38.44],[-121.52,38.46],[-121.43,38.51],[-121.28,38.61],[-121.27,38.61],[-121.2,38.65],[-121.13,38.69],[-121.06,38.73],[-120.86,38.85],[-120.73,38.92],[-120.5,39.05],[-120.43,39.1],[-120.33,39.15],[-120,39.34],[-119.66,39.53],[-119.59,39.59],[-119.38,39.79],[-118.54,40.53],[-118.14,40.88],[-118,41],[-117.34,41.6],[-117.21,41.72],[-117,41.9],[-116.88,42],[-115.37,43.29],[-113.95,44.29],[-113.88,44.34],[-113.7,44.46],[-110.95,46.23],[-110.7,46.38],[-109.46,47.12],[-108.91,47.43],[-106,49],[-106,49],[-104.95,49.77],[-101,52.4],[-100.92,52.45],[-100,53],[-99.14,53.63],[-98.49,54.09],[-96.42,55.46],[-94.46,56.65],[-92.3,57.84],[-90,59],[-88.69,59.51],[-85.96,60.5],[-84.54,60.97],[-83.07,61.42],[-80,62.28],[-77.52,62.75],[-74.97,63.17],[-73.75,63.35],[-70,63.83],[-67,63.87],[-63,64],[-59,64.23],[-56.48,64.22],[-55.4,64.21],[-50,64],[-40,64],[-37.9,64.06],[-30,64],[-20,63],[-15.79,61.31],[-10,58.39],[-5.51,55.52],[-5.32,55.39],[-4.82,55.03],[-3.52,54.04],[-3.51,54.04],[-3,53.64],[-2.6,53.31],[-2.55,53.27],[-2.23,53],[-2.16,52.95],[-2.1,52.9],[-1.92,52.75],[-1.87,52.71],[-1.7,52.56],[-1.62,52.49],[-1.5,52.39],[-1.2,52.13],[-1.05,52],[-0.93,51.89],[-0.84,51.82],[-0.8,51.78],[-0.69,51.68],[-0.61,51.61],[-0.54,51.55],[-0.51,51.52],[-0.46,51.48]],"type":"LineString"}
}
