{
  "id": 1981571559,
  "type": "Feature",
  "properties": {
    "geom:area": 0,
    "geom:bbox": "-122.358200,37.424330,-121.243680,37.614100",
    "geom:latitude": 37.5364720843609,
    "geom:longitude": -121.81339558101004,
    "src:alt_label": "swim-approach",
    "src:geom": "swim",
    "swim:elevations": [
      4490,
      4341,
      4149,
      4002,
      3740,
      3619,
      3463,
      3358,
      3123,
      3050,
      3048,
      3049,
      2723,
      2594,
      2437,
      2433,
      2369,
      2236,
      2135,
      2134,
      2044,
      1783,
      1690,
      1525,
      1215,
      1219,
      1178,
      1099,
      890,
      763,
      701,
      544,
      406,
      293,
      240,
      131,
      70
    ],
    "swim:geom": "approach",
    "swim:timestamps": [
      1759488416,
      1759488443,
      1759488463,
      1759488486,
      1759488523,
      1759488543,
      1759488579,
      1759488603,
      1759488655,
      1759488674,
      1759488711,
      1759488724,
      1759488771,
      1759488791,
      1759488821,
      1759488859,
      1759488879,
      1759488904,
      1759488937,
      1759488965,
      1759488990,
      1759489042,
      1759489055,
      1759489084,
      1759489137,
      1759489147,
      1759489187,
      1759489203,
      1759489240,
      1759489264,
      1759489284,
      1759489312,
      1759489337,
      1759489367,
      1759489386,
      1759489410,
      1759489444
    ],
    "wof:geomhash": "287d121abb1c5c0b401f49a563d2f60e",
    "wof:id": 1981571559,
    "wof:repo": "sfomuseum-data-flights-2025-10"
  },
  "bbox": [
    -122.3582,
    37.42433,
    -121.24368,
    37.6141
  ],
  "geometry": {"coordinates":[[-121.24368,37.59535],[-121.29577,37.58844],[-121.33385,37.58426],[-121.37687,37.57964],[-121.44111,37.57235],[-121.4734,37.56855],[-121.52577,37.56233],[-121.56038,37.55832],[-121.63594,37.54819],[-121.66498,37.54933],[-121.71508,37.5626],[-121.73248,37.56719],[-121.79617,37.5822],[-121.82353,37.57371],[-121.83957,37.54031],[-121.83321,37.49603],[-121.83681,37.47345],[-121.84432,37.44551],[-121.87788,37.42433],[-121.91339,37.42717],[-121.94242,37.43516],[-122.00169,37.45999],[-122.01605,37.46634],[-122.04592,37.47975],[-122.09385,37.50244],[-122.10397,37.50685],[-122.14094,37.52244],[-122.15634,37.52898],[-122.19218,37.54415],[-122.21619,37.55423],[-122.23515,37.56239],[-122.25989,37.57346],[-122.28125,37.58173],[-122.30361,37.59103],[-122.31705,37.5969],[-122.33426,37.60406],[-122.3582,37.6141]],"type":"LineString"}
}
