{
  "id": 1981728831,
  "type": "Feature",
  "properties": {
    "geom:area": 0,
    "geom:bbox": "-122.348570,37.491350,-121.411920,37.610090",
    "geom:latitude": 37.53958173224368,
    "geom:longitude": -121.88408315992997,
    "src:alt_label": "swim-approach",
    "src:geom": "swim",
    "swim:elevations": [
      3840,
      3719,
      3327,
      3222,
      3077,
      2982,
      2742,
      2711,
      2602,
      2507,
      2177,
      2107,
      1956,
      1912,
      1785,
      1623,
      1419,
      1292,
      1132,
      818,
      756,
      545,
      435,
      252,
      199,
      59
    ],
    "swim:geom": "approach",
    "swim:timestamps": [
      1761042711,
      1761042724,
      1761042770,
      1761042782,
      1761042830,
      1761042856,
      1761042891,
      1761042901,
      1761042922,
      1761042934,
      1761042981,
      1761043007,
      1761043038,
      1761043048,
      1761043076,
      1761043098,
      1761043129,
      1761043153,
      1761043180,
      1761043227,
      1761043240,
      1761043283,
      1761043299,
      1761043341,
      1761043353,
      1761043385
    ],
    "wof:geomhash": "5d8221bf60e69e9b44b29de4fab06882",
    "wof:id": 1981728831,
    "wof:repo": "sfomuseum-data-flights-2025-10"
  },
  "bbox": [
    -122.34857,
    37.49135,
    -121.41192,
    37.61009
  ],
  "geometry": {"coordinates":[[-121.41192,37.57564],[-121.43628,37.57281],[-121.52108,37.56297],[-121.54347,37.56034],[-121.63057,37.54927],[-121.67075,37.5397],[-121.72636,37.52648],[-121.74068,37.52316],[-121.77179,37.51569],[-121.79006,37.51122],[-121.85803,37.49491],[-121.89671,37.49135],[-121.94377,37.49265],[-121.9586,37.49311],[-121.99989,37.49855],[-122.02934,37.50822],[-122.07118,37.52172],[-122.10184,37.53161],[-122.13519,37.54247],[-122.19346,37.56132],[-122.20965,37.56647],[-122.25601,37.58149],[-122.2718,37.58623],[-122.3111,37.59735],[-122.32151,37.6008],[-122.34857,37.61009]],"type":"LineString"}
}
