{
  "id": 1981621579,
  "type": "Feature",
  "properties": {
    "geom:area": 0,
    "geom:bbox": "-122.363360,37.491290,-121.245040,37.615610",
    "geom:latitude": 37.547397618967686,
    "geom:longitude": -121.80913518288556,
    "src:alt_label": "swim-approach",
    "src:geom": "swim",
    "swim:elevations": [
      5256,
      4782,
      4743,
      4489,
      4366,
      4175,
      3863,
      3655,
      3575,
      3386,
      3140,
      3003,
      2805,
      2595,
      2497,
      2262,
      2119,
      1889,
      1680,
      1452,
      1365,
      1231,
      1014,
      910,
      730,
      638,
      457,
      326,
      169,
      46,
      0
    ],
    "swim:geom": "approach",
    "swim:timestamps": [
      1760053982,
      1760054038,
      1760054044,
      1760054071,
      1760054088,
      1760054115,
      1760054154,
      1760054187,
      1760054216,
      1760054243,
      1760054275,
      1760054302,
      1760054337,
      1760054366,
      1760054381,
      1760054420,
      1760054438,
      1760054468,
      1760054510,
      1760054546,
      1760054572,
      1760054596,
      1760054635,
      1760054654,
      1760054684,
      1760054702,
      1760054747,
      1760054775,
      1760054816,
      1760054846,
      1760054860
    ],
    "wof:geomhash": "6d5c3b57c6d1cd7b62641432e931991a",
    "wof:id": 1981621579,
    "wof:repo": "sfomuseum-data-flights-2025-10"
  },
  "bbox": [
    -122.36336,
    37.49129,
    -121.24504,
    37.61561
  ],
  "geometry": {"coordinates":[[-121.24504,37.59523],[-121.33952,37.58396],[-121.34953,37.58287],[-121.39552,37.57771],[-121.42384,37.57447],[-121.46772,37.5692],[-121.53152,37.5616],[-121.58519,37.55542],[-121.62997,37.54959],[-121.66841,37.54038],[-121.71293,37.52989],[-121.75037,37.52083],[-121.79554,37.51002],[-121.8315,37.50136],[-121.85019,37.49699],[-121.89952,37.49129],[-121.92395,37.49209],[-121.96403,37.49319],[-122.01997,37.50468],[-122.06462,37.5193],[-122.09598,37.52985],[-122.12262,37.53858],[-122.16372,37.5516],[-122.18307,37.55782],[-122.21275,37.56747],[-122.2303,37.57322],[-122.27234,37.58635],[-122.29671,37.59349],[-122.33042,37.6034],[-122.35347,37.61195],[-122.36336,37.61561]],"type":"LineString"}
}
