{
  "id": 1981559293,
  "type": "Feature",
  "properties": {
    "geom:area": 0,
    "geom:bbox": "-122.361050,36.745870,-121.893550,37.614650",
    "geom:latitude": 37.226326446768525,
    "geom:longitude": -122.07558251232106,
    "src:alt_label": "swim-approach",
    "src:geom": "swim",
    "swim:elevations": [
      4734,
      4589,
      4348,
      4069,
      3978,
      3739,
      3416,
      3298,
      3226,
      3065,
      2997,
      2838,
      2673,
      2444,
      2438,
      2346,
      1980,
      1813,
      1535,
      1368,
      1343,
      1172,
      988,
      940,
      889,
      764,
      608,
      430,
      351,
      320,
      244,
      161,
      58,
      105
    ],
    "swim:geom": "approach",
    "swim:timestamps": [
      1759450889,
      1759450909,
      1759450939,
      1759450975,
      1759450987,
      1759451020,
      1759451062,
      1759451096,
      1759451124,
      1759451142,
      1759451169,
      1759451213,
      1759451244,
      1759451276,
      1759451291,
      1759451315,
      1759451363,
      1759451387,
      1759451428,
      1759451454,
      1759451460,
      1759451495,
      1759451547,
      1759451571,
      1759451592,
      1759451619,
      1759451652,
      1759451698,
      1759451724,
      1759451733,
      1759451754,
      1759451772,
      1759451803,
      1759451822
    ],
    "wof:geomhash": "179dc886e89b4b5247355b76215e3e53",
    "wof:id": 1981559293,
    "wof:repo": "sfomuseum-data-flights-2025-10"
  },
  "bbox": [
    -122.36105,
    36.74587,
    -121.89355,
    37.61465
  ],
  "geometry": {"coordinates":[[-121.89355,36.74587],[-121.90399,36.77828],[-121.91752,36.82664],[-121.93355,36.88397],[-121.93887,36.90272],[-121.9536,36.95377],[-121.9777,37.0156],[-121.99597,37.06288],[-122.00938,37.09753],[-122.01828,37.11993],[-122.0309,37.15267],[-122.0505,37.20266],[-122.06288,37.23411],[-122.07614,37.2675],[-122.08177,37.28193],[-122.0914,37.30609],[-122.11022,37.35353],[-122.11931,37.37679],[-122.13268,37.41595],[-122.14084,37.43989],[-122.14269,37.44519],[-122.15242,37.47423],[-122.16625,37.51626],[-122.17537,37.53444],[-122.19282,37.54414],[-122.21717,37.55469],[-122.24487,37.56635],[-122.27858,37.58053],[-122.29599,37.58783],[-122.30192,37.59034],[-122.31565,37.59608],[-122.32741,37.60105],[-122.34772,37.60956],[-122.36105,37.61465]],"type":"LineString"}
}
