{
  "id": 1981731455,
  "type": "Feature",
  "properties": {
    "geom:area": 0,
    "geom:bbox": "-126.733333,37.516667,-122.400000,37.681667",
    "geom:latitude": 37.6144790738848,
    "geom:longitude": -124.56467811256168,
    "src:alt_label": "swim-path",
    "src:geom": "swim",
    "swim:altitudes": [
      "006",
      "006",
      "006",
      "006",
      "006",
      "006",
      "024",
      "024",
      "024",
      "075",
      "075",
      "111C",
      "147C",
      "162",
      "162",
      "162",
      "162",
      "177",
      "177",
      "191",
      "191",
      "194C",
      "194C",
      "194C",
      "194C",
      "194C",
      "209C",
      "235",
      "237C",
      "237C",
      "237C",
      "237C",
      "237C",
      "247",
      "247",
      "270",
      "270",
      "270",
      "270",
      "310C",
      "310C",
      "310C",
      "319",
      "319",
      "319",
      "319",
      "320",
      "320",
      "320",
      "320",
      "340C",
      "340C",
      "340C",
      "340C",
      "340C",
      "340",
      "340",
      "340",
      "340",
      "340",
      "340"
    ],
    "swim:geom": "path",
    "swim:speeds": [
      193,
      193,
      193,
      193,
      193,
      193,
      200,
      200,
      200,
      302,
      302,
      340,
      390,
      394,
      394,
      394,
      394,
      407,
      407,
      420,
      420,
      430,
      430,
      430,
      430,
      430,
      430,
      447,
      450,
      450,
      450,
      450,
      450,
      459,
      459,
      477,
      477,
      477,
      477,
      510,
      510,
      510,
      504,
      504,
      504,
      504,
      509,
      509,
      509,
      509,
      505,
      505,
      505,
      505,
      505,
      500,
      500,
      500,
      500,
      500,
      500
    ],
    "swim:timestamps": [
      1761033072,
      1761033072,
      1761033072,
      1761033072,
      1761033072,
      1761033072,
      1761033129,
      1761033129,
      1761033129,
      1761033309,
      1761033309,
      1761033443,
      1761033563,
      1761033609,
      1761033609,
      1761033609,
      1761033609,
      1761033669,
      1761033669,
      1761033729,
      1761033729,
      1761033743,
      1761033743,
      1761033743,
      1761033743,
      1761033743,
      1761033803,
      1761033909,
      1761033923,
      1761033923,
      1761033923,
      1761033923,
      1761033923,
      1761033969,
      1761033969,
      1761034089,
      1761034089,
      1761034089,
      1761034089,
      1761034343,
      1761034343,
      1761034343,
      1761034389,
      1761034389,
      1761034389,
      1761034389,
      1761034449,
      1761034449,
      1761034449,
      1761034449,
      1761034809,
      1761034809,
      1761034809,
      1761034809,
      1761034809,
      1761034824,
      1761034824,
      1761034824,
      1761034824,
      1761034824,
      1761034824
    ],
    "wof:geomhash": "99f4a155eaa471e4f7b04ba4b430076f",
    "wof:id": 1981731455,
    "wof:repo": "sfomuseum-data-flights-2025-10"
  },
  "bbox": [
    -126.73333333333333,
    37.516666666666666,
    -122.4,
    37.681666666666665
  ],
  "geometry": {"coordinates":[[-122.4,37.63333333333333],[-122.4,37.63333333333333],[-122.4,37.63333333333333],[-122.4,37.63333333333333],[-122.4,37.63333333333333],[-122.4,37.63333333333333],[-122.45138888888889,37.651944444444446],[-122.45138888888889,37.651944444444446],[-122.45138888888889,37.651944444444446],[-122.71972222222223,37.681666666666665],[-122.71972222222223,37.681666666666665],[-122.96666666666667,37.666666666666664],[-123.23333333333333,37.666666666666664],[-123.35138888888888,37.66555555555556],[-123.35138888888888,37.66555555555556],[-123.35138888888888,37.66555555555556],[-123.35138888888888,37.66555555555556],[-123.49333333333334,37.66138888888889],[-123.49333333333334,37.66138888888889],[-123.64055555555557,37.657222222222224],[-123.64055555555557,37.657222222222224],[-123.66666666666667,37.65],[-123.66666666666667,37.65],[-123.66666666666667,37.65],[-123.66666666666667,37.65],[-123.66666666666667,37.65],[-123.81666666666666,37.65],[-124.10333333333332,37.64194444444444],[-124.11666666666666,37.63333333333333],[-124.11666666666666,37.63333333333333],[-124.11666666666666,37.63333333333333],[-124.11666666666666,37.63333333333333],[-124.11666666666666,37.63333333333333],[-124.26277777777777,37.63638888888889],[-124.26277777777777,37.63638888888889],[-124.59333333333333,37.62416666666667],[-124.59333333333333,37.62416666666667],[-124.59333333333333,37.62416666666667],[-124.59333333333333,37.62416666666667],[-125.31666666666666,37.583333333333336],[-125.31666666666666,37.583333333333336],[-125.31666666666666,37.583333333333336],[-125.46555555555555,37.58722222222222],[-125.46555555555555,37.58722222222222],[-125.46555555555555,37.58722222222222],[-125.46555555555555,37.58722222222222],[-125.64333333333335,37.578611111111115],[-125.64333333333335,37.578611111111115],[-125.64333333333335,37.578611111111115],[-125.64333333333335,37.578611111111115],[-126.70527777777778,37.52333333333333],[-126.70527777777778,37.52333333333333],[-126.70527777777778,37.52333333333333],[-126.70527777777778,37.52333333333333],[-126.70527777777778,37.52333333333333],[-126.73333333333333,37.516666666666666],[-126.73333333333333,37.516666666666666],[-126.73333333333333,37.516666666666666],[-126.73333333333333,37.516666666666666],[-126.73333333333333,37.516666666666666],[-126.73333333333333,37.516666666666666]],"type":"LineString"}
}
