{
  "id": 1981735843,
  "type": "Feature",
  "properties": {
    "geom:area": 0,
    "geom:bbox": "-122.770000,37.620000,-73.550000,44.180000",
    "geom:latitude": 42.67088063030284,
    "geom:longitude": -98.23946237435516,
    "src:alt_label": "swim-route",
    "src:geom": "swim",
    "swim:geom": "route",
    "wof:geomhash": "c933c60dd362a6da1475823f35ab1402",
    "wof:id": 1981735843,
    "wof:repo": "sfomuseum-data-flights-2025-10"
  },
  "bbox": [
    -122.77,
    37.62,
    -73.55,
    44.18
  ],
  "geometry": {"coordinates":[[-73.78,40.64],[-73.86,40.75],[-73.88,40.77],[-73.93,40.85],[-73.95,40.87],[-73.97,40.9],[-73.99,40.92],[-73.55,40.93],[-73.89,41.13],[-73.91,41.15],[-74.32,41.38],[-74.36,41.41],[-74.36,41.41],[-74.43,41.44],[-74.49,41.47],[-74.5,41.47],[-74.55,41.49],[-74.56,41.49],[-74.69,41.55],[-74.8,41.6],[-74.89,41.63],[-75.02,41.69],[-75.14,41.74],[-75.2,41.77],[-75.29,41.81],[-75.47,41.88],[-75.61,41.94],[-75.77,42.01],[-76.14,42.16],[-76.38,42.32],[-76.44,42.33],[-76.47,42.37],[-76.82,42.58],[-77.21,42.81],[-77.35,42.89],[-77.4,42.92],[-77.53,42.93],[-78.98,43.23],[-79.32,43.29],[-80.14,43.44],[-81.36,43.65],[-82.05,43.76],[-82.15,43.77],[-82.47,43.82],[-82.55,43.82],[-82.7,43.85],[-83.16,43.87],[-84.39,43.95],[-84.65,43.97],[-86.58,44.08],[-87.08,44.1],[-87.45,44.11],[-87.55,44.1],[-87.82,44.11],[-88.07,44.12],[-88.62,44.13],[-89.8,44.15],[-90.57,44.16],[-91.82,44.18],[-92.39,44.16],[-93.63,44.15],[-93.76,44.14],[-95.4,44.1],[-95.57,44.09],[-97.93,44],[-98.32,43.96],[-99.06,43.93],[-99.69,43.88],[-99.92,43.86],[-100.53,43.82],[-100.84,43.79],[-101.41,43.74],[-102.05,43.68],[-102.7,43.62],[-102.99,43.59],[-103.22,43.57],[-107.15,43.08],[-109.85,42.67],[-110.11,42.62],[-110.25,42.6],[-110.77,42.51],[-111.2,42.41],[-111.2,42.41],[-111.46,42.27],[-111.57,42.24],[-113.03,41.85],[-113.16,41.82],[-114.48,41.45],[-118.16,40.34],[-120.51,39.55],[-121.1,39.34],[-121.19,39.28],[-121.36,39.18],[-121.58,39.05],[-121.66,39.01],[-121.73,38.96],[-121.81,38.92],[-122.01,38.8],[-122.06,38.77],[-122.16,38.71],[-122.3,38.63],[-122.31,38.62],[-122.44,38.54],[-122.45,38.53],[-122.68,38.31],[-122.69,38.3],[-122.77,38.22],[-122.75,38.16],[-122.7,37.99],[-122.69,37.95],[-122.67,37.9],[-122.67,37.9],[-122.65,37.87],[-122.59,37.82],[-122.58,37.81],[-122.55,37.79],[-122.55,37.78],[-122.51,37.74],[-122.5,37.73],[-122.44,37.68],[-122.37,37.62],[-122.38,37.62]],"type":"LineString"}
}
