{
  "id": 1981737271,
  "type": "Feature",
  "properties": {
    "geom:area": 0,
    "geom:bbox": "-122.568050,36.724240,-121.880220,37.612060",
    "geom:latitude": 37.20589042548106,
    "geom:longitude": -122.242117159323,
    "src:alt_label": "swim-approach",
    "src:geom": "swim",
    "swim:elevations": [
      4726,
      4575,
      4321,
      4079,
      3880,
      3809,
      3628,
      3270,
      3100,
      3047,
      3048,
      3048,
      3048,
      3048,
      3048,
      3048,
      3048,
      3048,
      3048,
      3048,
      3048,
      2860,
      2718,
      2702,
      2567,
      2438,
      2375,
      2219,
      1996,
      1946,
      1858,
      1829,
      1842,
      1829,
      1789,
      1384,
      1339,
      1278,
      1241,
      1219,
      1094,
      996,
      882,
      730,
      584,
      480,
      391,
      294,
      148,
      0
    ],
    "swim:geom": "approach",
    "swim:timestamps": [
      1761128238,
      1761128256,
      1761128287,
      1761128321,
      1761128359,
      1761128375,
      1761128405,
      1761128454,
      1761128481,
      1761128511,
      1761128527,
      1761128544,
      1761128568,
      1761128599,
      1761128631,
      1761128667,
      1761128670,
      1761128723,
      1761128730,
      1761128778,
      1761128796,
      1761128841,
      1761128861,
      1761128867,
      1761128889,
      1761128935,
      1761128967,
      1761128988,
      1761129028,
      1761129038,
      1761129052,
      1761129087,
      1761129104,
      1761129133,
      1761129151,
      1761129208,
      1761129226,
      1761129250,
      1761129277,
      1761129304,
      1761129350,
      1761129375,
      1761129398,
      1761129433,
      1761129464,
      1761129491,
      1761129516,
      1761129542,
      1761129584,
      1761129625
    ],
    "wof:geomhash": "0f7f68827cbfcf1dbbc902ada4524ac1",
    "wof:id": 1981737271,
    "wof:repo": "sfomuseum-data-flights-2025-10"
  },
  "bbox": [
    -122.56805,
    36.72424,
    -121.88022,
    37.61206
  ],
  "geometry": {"coordinates":[[-121.88022,36.72424],[-121.89549,36.75073],[-121.90988,36.79943],[-121.92455,36.8511],[-121.93947,36.90389],[-121.94514,36.92407],[-121.95631,36.95983],[-122.0227,36.99416],[-122.06269,37.00633],[-122.10959,37.02102],[-122.1334,37.02868],[-122.16025,37.03745],[-122.19554,37.0492],[-122.24359,37.06516],[-122.29277,37.08137],[-122.34751,37.09898],[-122.35214,37.10048],[-122.43396,37.12814],[-122.44311,37.13341],[-122.49306,37.18103],[-122.51087,37.19905],[-122.55272,37.24128],[-122.56686,37.26109],[-122.56805,37.26839],[-122.55908,37.29093],[-122.51898,37.3288],[-122.47591,37.32644],[-122.44851,37.32036],[-122.39711,37.32088],[-122.38356,37.32428],[-122.36589,37.32897],[-122.32305,37.3412],[-122.30161,37.34711],[-122.26636,37.35659],[-122.24663,37.36802],[-122.19604,37.41458],[-122.17973,37.42851],[-122.15936,37.44561],[-122.13859,37.46298],[-122.13264,37.48538],[-122.15846,37.51678],[-122.17198,37.53132],[-122.19105,37.54071],[-122.21931,37.55303],[-122.24526,37.56434],[-122.26719,37.57325],[-122.28601,37.58131],[-122.30442,37.58903],[-122.33209,37.6007],[-122.35884,37.61206]],"type":"LineString"}
}
