{
  "id": 1981595969,
  "type": "Feature",
  "properties": {
    "geom:area": 0,
    "geom:bbox": "-122.358720,36.760190,-121.898500,37.611890",
    "geom:latitude": 37.21396460086631,
    "geom:longitude": -122.12289281948564,
    "src:alt_label": "swim-approach",
    "src:geom": "swim",
    "swim:elevations": [
      5020,
      4795,
      4534,
      4260,
      4027,
      3976,
      3679,
      3505,
      3324,
      3089,
      3048,
      3048,
      3048,
      3040,
      2727,
      2541,
      2430,
      2276,
      2080,
      1756,
      1590,
      1524,
      1523,
      1343,
      1126,
      994,
      954,
      881,
      728,
      546,
      468,
      275,
      211,
      56,
      42
    ],
    "swim:geom": "approach",
    "swim:timestamps": [
      1759762254,
      1759762280,
      1759762308,
      1759762338,
      1759762374,
      1759762385,
      1759762431,
      1759762455,
      1759762475,
      1759762509,
      1759762552,
      1759762564,
      1759762594,
      1759762620,
      1759762676,
      1759762705,
      1759762722,
      1759762749,
      1759762774,
      1759762807,
      1759762828,
      1759762855,
      1759762881,
      1759762907,
      1759762943,
      1759762972,
      1759762977,
      1759762991,
      1759763023,
      1759763064,
      1759763083,
      1759763127,
      1759763141,
      1759763182,
      1759763195
    ],
    "wof:geomhash": "c3b776b674441bb7fea8542bbf511c75",
    "wof:id": 1981595969,
    "wof:repo": "sfomuseum-data-flights-2025-10"
  },
  "bbox": [
    -122.35872,
    36.76019,
    -121.8985,
    37.61189
  ],
  "geometry": {"coordinates":[[-121.8985,36.76019],[-121.91036,36.80137],[-121.92334,36.84614],[-121.93721,36.89455],[-121.95271,36.95005],[-121.96174,36.96463],[-122.03024,37.00492],[-122.06648,37.02415],[-122.09677,37.04013],[-122.14621,37.06684],[-122.20774,37.09919],[-122.22256,37.10826],[-122.23252,37.14534],[-122.22496,37.17668],[-122.20901,37.24072],[-122.19746,37.27312],[-122.1856,37.28903],[-122.16633,37.3152],[-122.15218,37.33999],[-122.13416,37.37427],[-122.1225,37.39543],[-122.10808,37.42199],[-122.10088,37.44812],[-122.11846,37.47269],[-122.14674,37.50484],[-122.16983,37.52627],[-122.17393,37.52974],[-122.18537,37.53744],[-122.21662,37.55091],[-122.25316,37.56656],[-122.2697,37.5737],[-122.30499,37.58869],[-122.31637,37.59364],[-122.34838,37.60745],[-122.35872,37.61189]],"type":"LineString"}
}
