{
  "id": 1981771833,
  "type": "Feature",
  "properties": {
    "geom:area": 0,
    "geom:bbox": "-123.090000,37.600000,-122.333333,45.573056",
    "geom:latitude": 41.59491536082873,
    "geom:longitude": -122.945951995676,
    "src:alt_label": "swim-path",
    "src:geom": "swim",
    "swim:altitudes": [
      "023",
      "023",
      "023",
      "023",
      "023",
      "023",
      "117",
      "117",
      "117",
      "117",
      "117",
      "117",
      "117",
      "117",
      "117",
      "117",
      "294",
      "294",
      "294",
      "294",
      "294",
      "294",
      "294",
      "294",
      "294",
      "294",
      "294",
      "351C",
      "351C",
      "351C",
      "351C",
      "351C",
      "351C",
      "350C",
      "350C",
      "350C",
      "350C",
      "350C",
      "350C",
      "350C",
      "350C",
      "350C",
      "350C",
      "350C",
      "350C",
      "350C",
      "350C",
      "350C",
      "350C",
      "350C",
      "350C",
      "350C",
      "350C",
      "344",
      "344",
      "344",
      "314",
      "314",
      "314",
      "314",
      "310C",
      "310C",
      "310C",
      "310C",
      "310C",
      "310C",
      "310C",
      "310C",
      "310C",
      "310C",
      "310C",
      "311C",
      "311C",
      "311C",
      "311C",
      "310",
      "310",
      "310",
      "310",
      "310",
      "290",
      "290",
      "290",
      "290",
      "290",
      "240C",
      "240C",
      "240C",
      "240C",
      "240C",
      "240C",
      "240C",
      "240C",
      "240C",
      "240C",
      "240C",
      "240C",
      "240C",
      "240C",
      "240C",
      "240C",
      "240C",
      "240C",
      "240C",
      "240C",
      "240C",
      "240C",
      "240C",
      "240C",
      "240C",
      "240C",
      "240C",
      "240C",
      "173",
      "173",
      "173",
      "173",
      "173",
      "173",
      "173",
      "173",
      "173",
      "173",
      "110C",
      "110C",
      "110C",
      "110C",
      "110C",
      "110C",
      "110C",
      "110C",
      "110C",
      "004",
      "004",
      "004",
      "004",
      "004"
    ],
    "swim:geom": "path",
    "swim:speeds": [
      191,
      191,
      191,
      191,
      191,
      191,
      298,
      298,
      298,
      298,
      298,
      298,
      298,
      298,
      298,
      298,
      421,
      421,
      421,
      421,
      421,
      421,
      421,
      421,
      421,
      421,
      421,
      443,
      443,
      443,
      443,
      443,
      443,
      443,
      443,
      443,
      443,
      440,
      440,
      440,
      440,
      440,
      440,
      440,
      440,
      458,
      458,
      458,
      458,
      458,
      458,
      458,
      458,
      460,
      460,
      460,
      433,
      433,
      433,
      433,
      429,
      429,
      429,
      429,
      429,
      429,
      429,
      429,
      429,
      429,
      429,
      436,
      436,
      436,
      436,
      436,
      436,
      436,
      436,
      436,
      426,
      426,
      426,
      426,
      426,
      414,
      414,
      414,
      414,
      414,
      414,
      414,
      414,
      417,
      417,
      417,
      417,
      417,
      417,
      417,
      417,
      417,
      435,
      435,
      435,
      435,
      435,
      437,
      437,
      437,
      437,
      437,
      437,
      393,
      393,
      393,
      393,
      393,
      393,
      393,
      393,
      393,
      393,
      319,
      319,
      319,
      319,
      319,
      319,
      319,
      319,
      319,
      138,
      138,
      138,
      138,
      138
    ],
    "swim:timestamps": [
      1761490055,
      1761490055,
      1761490055,
      1761490055,
      1761490055,
      1761490055,
      1761490271,
      1761490271,
      1761490271,
      1761490271,
      1761490271,
      1761490271,
      1761490271,
      1761490271,
      1761490271,
      1761490271,
      1761490812,
      1761490812,
      1761490812,
      1761490812,
      1761490812,
      1761490812,
      1761490812,
      1761490812,
      1761490812,
      1761490812,
      1761490812,
      1761491530,
      1761491530,
      1761491530,
      1761491530,
      1761491530,
      1761491530,
      1761491590,
      1761491590,
      1761491590,
      1761491590,
      1761491710,
      1761491710,
      1761491710,
      1761491710,
      1761491710,
      1761491710,
      1761491710,
      1761491710,
      1761492010,
      1761492010,
      1761492010,
      1761492010,
      1761492010,
      1761492010,
      1761492010,
      1761492010,
      1761492190,
      1761492190,
      1761492190,
      1761492370,
      1761492370,
      1761492370,
      1761492370,
      1761492490,
      1761492490,
      1761492490,
      1761492490,
      1761492614,
      1761492614,
      1761492614,
      1761492614,
      1761492614,
      1761492614,
      1761492614,
      1761492851,
      1761492851,
      1761492851,
      1761492851,
      1761492911,
      1761492911,
      1761492911,
      1761492911,
      1761492911,
      1761493091,
      1761493091,
      1761493091,
      1761493091,
      1761493091,
      1761493271,
      1761493271,
      1761493271,
      1761493271,
      1761493271,
      1761493271,
      1761493271,
      1761493271,
      1761493572,
      1761493572,
      1761493572,
      1761493572,
      1761493572,
      1761493572,
      1761493572,
      1761493572,
      1761493572,
      1761493752,
      1761493752,
      1761493752,
      1761493752,
      1761493752,
      1761493812,
      1761493812,
      1761493812,
      1761493812,
      1761493812,
      1761493812,
      1761494112,
      1761494112,
      1761494112,
      1761494112,
      1761494112,
      1761494112,
      1761494112,
      1761494112,
      1761494112,
      1761494112,
      1761494353,
      1761494353,
      1761494353,
      1761494353,
      1761494353,
      1761494353,
      1761494353,
      1761494353,
      1761494353,
      1761494979,
      1761494979,
      1761494979,
      1761494979,
      1761494979
    ],
    "wof:geomhash": "0b218aea237469f359c9a7136a1e1d14",
    "wof:id": 1981771833,
    "wof:repo": "sfomuseum-data-flights-2025-10"
  },
  "bbox": [
    -123.08999999999999,
    37.6,
    -122.33333333333333,
    45.573055555555555
  ],
  "geometry": {"coordinates":[[-122.50444444444445,45.573055555555555],[-122.50444444444445,45.573055555555555],[-122.50444444444445,45.573055555555555],[-122.50444444444445,45.573055555555555],[-122.50444444444445,45.573055555555555],[-122.50444444444445,45.573055555555555],[-122.50222222222222,45.43888888888888],[-122.50222222222222,45.43888888888888],[-122.50222222222222,45.43888888888888],[-122.50222222222222,45.43888888888888],[-122.50222222222222,45.43888888888888],[-122.50222222222222,45.43888888888888],[-122.50222222222222,45.43888888888888],[-122.50222222222222,45.43888888888888],[-122.50222222222222,45.43888888888888],[-122.50222222222222,45.43888888888888],[-123.08583333333333,44.718611111111116],[-123.08583333333333,44.718611111111116],[-123.08583333333333,44.718611111111116],[-123.08583333333333,44.718611111111116],[-123.08583333333333,44.718611111111116],[-123.08583333333333,44.718611111111116],[-123.08583333333333,44.718611111111116],[-123.08583333333333,44.718611111111116],[-123.08583333333333,44.718611111111116],[-123.08583333333333,44.718611111111116],[-123.08583333333333,44.718611111111116],[-123.08999999999999,43.257777777777775],[-123.08999999999999,43.257777777777775],[-123.08999999999999,43.257777777777775],[-123.08999999999999,43.257777777777775],[-123.08999999999999,43.257777777777775],[-123.08999999999999,43.257777777777775],[-123.08638888888889,43.135555555555555],[-123.08638888888889,43.135555555555555],[-123.08638888888889,43.135555555555555],[-123.08638888888889,43.135555555555555],[-123.07916666666667,42.89138888888889],[-123.07916666666667,42.89138888888889],[-123.07916666666667,42.89138888888889],[-123.07916666666667,42.89138888888889],[-123.07916666666667,42.89138888888889],[-123.07916666666667,42.89138888888889],[-123.07916666666667,42.89138888888889],[-123.07916666666667,42.89138888888889],[-123.05805555555555,42.24055555555556],[-123.05805555555555,42.24055555555556],[-123.05805555555555,42.24055555555556],[-123.05805555555555,42.24055555555556],[-123.05805555555555,42.24055555555556],[-123.05805555555555,42.24055555555556],[-123.05805555555555,42.24055555555556],[-123.05805555555555,42.24055555555556],[-123.04583333333333,41.86027777777778],[-123.04583333333333,41.86027777777778],[-123.04583333333333,41.86027777777778],[-123.03388888888888,41.49],[-123.03388888888888,41.49],[-123.03388888888888,41.49],[-123.03388888888888,41.49],[-123.02694444444444,41.26416666666667],[-123.02694444444444,41.26416666666667],[-123.02694444444444,41.26416666666667],[-123.02694444444444,41.26416666666667],[-123.01944444444445,41.02361111111111],[-123.01944444444445,41.02361111111111],[-123.01944444444445,41.02361111111111],[-123.01944444444445,41.02361111111111],[-123.01944444444445,41.02361111111111],[-123.01944444444445,41.02361111111111],[-123.01944444444445,41.02361111111111],[-123.00527777777778,40.54611111111111],[-123.00527777777778,40.54611111111111],[-123.00527777777778,40.54611111111111],[-123.00527777777778,40.54611111111111],[-123.00166666666667,40.42472222222222],[-123.00166666666667,40.42472222222222],[-123.00166666666667,40.42472222222222],[-123.00166666666667,40.42472222222222],[-123.00166666666667,40.42472222222222],[-122.99083333333333,40.04722222222222],[-122.99083333333333,40.04722222222222],[-122.99083333333333,40.04722222222222],[-122.99083333333333,40.04722222222222],[-122.99083333333333,40.04722222222222],[-122.98055555555555,39.69611111111111],[-122.98055555555555,39.69611111111111],[-122.98055555555555,39.69611111111111],[-122.98055555555555,39.69611111111111],[-122.98055555555555,39.69611111111111],[-122.98055555555555,39.69611111111111],[-122.98055555555555,39.69611111111111],[-122.98055555555555,39.69611111111111],[-122.96388888888889,39.12138888888889],[-122.96388888888889,39.12138888888889],[-122.96388888888889,39.12138888888889],[-122.96388888888889,39.12138888888889],[-122.96388888888889,39.12138888888889],[-122.96388888888889,39.12138888888889],[-122.96388888888889,39.12138888888889],[-122.96388888888889,39.12138888888889],[-122.96388888888889,39.12138888888889],[-122.92833333333334,38.77166666666667],[-122.92833333333334,38.77166666666667],[-122.92833333333334,38.77166666666667],[-122.92833333333334,38.77166666666667],[-122.92833333333334,38.77166666666667],[-122.89305555555556,38.65277777777778],[-122.89305555555556,38.65277777777778],[-122.89305555555556,38.65277777777778],[-122.89305555555556,38.65277777777778],[-122.89305555555556,38.65277777777778],[-122.89305555555556,38.65277777777778],[-122.72833333333334,38.09],[-122.72833333333334,38.09],[-122.72833333333334,38.09],[-122.72833333333334,38.09],[-122.72833333333334,38.09],[-122.72833333333334,38.09],[-122.72833333333334,38.09],[-122.72833333333334,38.09],[-122.72833333333334,38.09],[-122.72833333333334,38.09],[-122.49638888888889,37.73305555555556],[-122.49638888888889,37.73305555555556],[-122.49638888888889,37.73305555555556],[-122.49638888888889,37.73305555555556],[-122.49638888888889,37.73305555555556],[-122.49638888888889,37.73305555555556],[-122.49638888888889,37.73305555555556],[-122.49638888888889,37.73305555555556],[-122.49638888888889,37.73305555555556],[-122.33333333333333,37.6],[-122.33333333333333,37.6],[-122.33333333333333,37.6],[-122.33333333333333,37.6],[-122.33333333333333,37.6]],"type":"LineString"}
}
