{
  "id": 1981789053,
  "type": "Feature",
  "properties": {
    "geom:area": 0,
    "geom:bbox": "-122.380000,37.490000,-74.170000,43.400000",
    "geom:latitude": 41.48488475025321,
    "geom:longitude": -98.27537550113271,
    "src:alt_label": "swim-route",
    "src:geom": "swim",
    "swim:geom": "route",
    "wof:geomhash": "b53c0f2d3ac275bb7578e74c9d967edd",
    "wof:id": 1981789053,
    "wof:repo": "sfomuseum-data-flights-2025-10"
  },
  "bbox": [
    -122.38,
    37.49,
    -74.17,
    43.4
  ],
  "geometry": {"coordinates":[[-74.17,40.69],[-74.26,40.77],[-74.31,40.81],[-74.32,40.82],[-74.34,40.84],[-74.36,40.85],[-74.38,40.87],[-74.4,40.88],[-74.43,40.91],[-74.45,40.93],[-74.46,40.94],[-74.48,40.96],[-74.5,40.97],[-74.51,40.98],[-74.55,41.01],[-74.57,41.03],[-74.62,41.07],[-74.64,41.09],[-74.66,41.1],[-74.69,41.13],[-74.7,41.14],[-74.74,41.15],[-74.78,41.17],[-74.78,41.17],[-74.84,41.2],[-74.97,41.26],[-75.1,41.31],[-75.19,41.35],[-75.34,41.42],[-75.35,41.42],[-75.48,41.48],[-75.54,41.49],[-75.64,41.52],[-75.73,41.55],[-75.74,41.55],[-75.86,41.58],[-75.96,41.61],[-76.06,41.64],[-76.22,41.69],[-76.46,41.75],[-76.52,41.77],[-76.73,41.83],[-76.93,41.88],[-76.93,41.88],[-76.98,41.9],[-77.35,41.99],[-77.41,42.01],[-77.96,42.16],[-78.27,42.24],[-78.91,42.4],[-79.16,42.46],[-79.26,42.49],[-79.62,42.57],[-79.67,42.58],[-79.79,42.61],[-80.21,42.63],[-80.5,42.64],[-80.6,42.65],[-80.75,42.65],[-81.27,42.67],[-81.47,42.69],[-82.48,42.8],[-82.55,42.81],[-82.71,42.83],[-82.92,42.86],[-83.3,42.91],[-83.5,42.93],[-84.53,43.01],[-84.59,43.02],[-85,43.08],[-85.85,43.21],[-87,43.37],[-87.18,43.4],[-87.55,43.4],[-87.76,43.4],[-90.34,43.36],[-91.11,43.34],[-91.16,43.34],[-93.99,43.2],[-95.29,43.12],[-95.51,43.1],[-96.19,43.05],[-98.55,42.85],[-98.77,42.83],[-98.99,42.8],[-99.2,42.78],[-99.43,42.76],[-99.63,42.73],[-102.27,42.41],[-102.56,42.37],[-103.38,42.26],[-103.58,42.23],[-104.47,42.09],[-104.62,42.07],[-106,41.85],[-106.45,41.67],[-107.22,41.37],[-108.06,41.03],[-108.92,40.67],[-109.12,40.58],[-109.8,40.29],[-110.13,40.15],[-110.25,40.11],[-111.75,39.58],[-112.51,39.3],[-113.32,39.12],[-115.31,38.64],[-115.87,38.49],[-117.27,38.12],[-117.27,38.12],[-117.77,38],[-118.76,37.9],[-119.1,37.86],[-119.81,37.77],[-119.9,37.76],[-119.99,37.75],[-120.07,37.74],[-120.4,37.7],[-120.42,37.7],[-120.49,37.69],[-120.69,37.67],[-120.75,37.66],[-120.78,37.66],[-120.83,37.65],[-120.96,37.63],[-121,37.63],[-121.08,37.62],[-121.18,37.6],[-121.26,37.59],[-121.39,37.58],[-121.41,37.58],[-121.6,37.55],[-121.61,37.55],[-121.62,37.55],[-121.69,37.53],[-121.8,37.51],[-121.81,37.51],[-121.88,37.49],[-122.08,37.54],[-122.09,37.55],[-122.18,37.57],[-122.28,37.59],[-122.33,37.61],[-122.36,37.61],[-122.38,37.62]],"type":"LineString"}
}
