{
  "id": 1981677045,
  "type": "Feature",
  "properties": {
    "geom:area": 0,
    "geom:bbox": "-122.367780,37.626440,-121.255380,37.963840",
    "geom:latitude": 37.83701005477726,
    "geom:longitude": -121.82717053011764,
    "src:alt_label": "swim-takeoff",
    "src:geom": "swim",
    "swim:elevations": [
      122,
      428,
      666,
      785,
      847,
      1229,
      1415,
      1731,
      2123,
      2495,
      2928,
      3202,
      3269,
      3387,
      3560,
      3654,
      3969,
      4190,
      4338,
      4561,
      4825,
      4910,
      5266,
      5310
    ],
    "swim:geom": "takeoff",
    "swim:timestamps": [
      1760513844,
      1760513863,
      1760513897,
      1760513922,
      1760513940,
      1760513994,
      1760514009,
      1760514033,
      1760514064,
      1760514098,
      1760514143,
      1760514178,
      1760514194,
      1760514219,
      1760514266,
      1760514293,
      1760514327,
      1760514354,
      1760514374,
      1760514398,
      1760514439,
      1760514450,
      1760514504,
      1760514510
    ],
    "wof:geomhash": "9ce3a677a78dbf74498288aca9d99cbb",
    "wof:id": 1981677045,
    "wof:repo": "sfomuseum-data-flights-2025-10"
  },
  "bbox": [
    -122.36778,
    37.62644,
    -121.25538,
    37.96384
  ],
  "geometry": {"coordinates":[[-122.36778,37.62644],[-122.35713,37.63863],[-122.33104,37.65462],[-122.30766,37.66713],[-122.28905,37.67771],[-122.2237,37.71286],[-122.20402,37.72308],[-122.17282,37.73923],[-122.13349,37.75953],[-122.08904,37.78264],[-122.02919,37.8137],[-121.97502,37.8319],[-121.94905,37.83671],[-121.90246,37.84539],[-121.8086,37.86288],[-121.75082,37.87362],[-121.67604,37.88737],[-121.61612,37.89834],[-121.57164,37.90642],[-121.51752,37.91632],[-121.42476,37.93323],[-121.39718,37.93822],[-121.26974,37.96124],[-121.25538,37.96384]],"type":"LineString"}
}
