{
  "id": 1981667869,
  "type": "Feature",
  "properties": {
    "geom:area": 0,
    "geom:bbox": "-122.363210,37.476810,-121.246620,37.614760",
    "geom:latitude": 37.54149810646706,
    "geom:longitude": -121.81183068559517,
    "src:alt_label": "swim-approach",
    "src:geom": "swim",
    "swim:elevations": [
      4608,
      4384,
      4308,
      3997,
      3708,
      3656,
      3446,
      3241,
      3102,
      3048,
      2767,
      2470,
      2437,
      2438,
      2414,
      2163,
      1967,
      1887,
      1834,
      1774,
      1504,
      1326,
      1185,
      910,
      914,
      750,
      646,
      576,
      383,
      218,
      100,
      10
    ],
    "swim:geom": "approach",
    "swim:timestamps": [
      1760429846,
      1760429871,
      1760429880,
      1760429916,
      1760429966,
      1760429973,
      1760430015,
      1760430043,
      1760430071,
      1760430094,
      1760430139,
      1760430178,
      1760430205,
      1760430211,
      1760430230,
      1760430265,
      1760430298,
      1760430307,
      1760430331,
      1760430374,
      1760430407,
      1760430431,
      1760430463,
      1760430508,
      1760430529,
      1760430567,
      1760430587,
      1760430604,
      1760430645,
      1760430685,
      1760430713,
      1760430741
    ],
    "wof:geomhash": "32df9ba4132f251261da8c7b016c8ca3",
    "wof:id": 1981667869,
    "wof:repo": "sfomuseum-data-flights-2025-10"
  },
  "bbox": [
    -122.36321,
    37.47681,
    -121.24662,
    37.61476
  ],
  "geometry": {"coordinates":[[-121.24662,37.59508],[-121.29755,37.58839],[-121.31585,37.58629],[-121.38841,37.57875],[-121.4812,37.56768],[-121.49323,37.56623],[-121.56004,37.5586],[-121.60127,37.55855],[-121.64114,37.56663],[-121.6734,37.57265],[-121.72317,37.54731],[-121.75341,37.51339],[-121.78144,37.49591],[-121.78965,37.49499],[-121.81678,37.49314],[-121.8647,37.48952],[-121.9093,37.48567],[-121.92141,37.48457],[-121.95338,37.48182],[-122.00926,37.47681],[-122.05261,37.48262],[-122.0804,37.49435],[-122.1132,37.50862],[-122.15672,37.52689],[-122.17679,37.53517],[-122.21331,37.55079],[-122.23291,37.55898],[-122.24848,37.56556],[-122.28652,37.58163],[-122.31897,37.59513],[-122.34183,37.60481],[-122.36321,37.61476]],"type":"LineString"}
}
