{
  "id": 1981780513,
  "type": "Feature",
  "properties": {
    "geom:area": 0,
    "geom:bbox": "-122.333120,37.491330,-121.295440,37.603730",
    "geom:latitude": 37.54321216948427,
    "geom:longitude": -121.81846443379894,
    "src:alt_label": "swim-approach",
    "src:geom": "swim",
    "swim:elevations": [
      4839,
      4792,
      4671,
      4560,
      4352,
      4252,
      4165,
      3858,
      3649,
      3329,
      3097,
      2867,
      2795,
      2629,
      2530,
      2450,
      2302,
      2118,
      2074,
      1960,
      1898,
      1865,
      1656,
      1523,
      1469,
      1399,
      1250,
      1178,
      1086,
      974,
      822,
      760,
      428,
      327,
      242,
      141
    ],
    "swim:geom": "approach",
    "swim:timestamps": [
      1761598403,
      1761598410,
      1761598427,
      1761598452,
      1761598492,
      1761598503,
      1761598515,
      1761598548,
      1761598567,
      1761598596,
      1761598632,
      1761598673,
      1761598682,
      1761598711,
      1761598738,
      1761598760,
      1761598784,
      1761598822,
      1761598834,
      1761598869,
      1761598887,
      1761598895,
      1761598938,
      1761598971,
      1761598981,
      1761599003,
      1761599030,
      1761599044,
      1761599066,
      1761599088,
      1761599118,
      1761599130,
      1761599201,
      1761599222,
      1761599245,
      1761599268
    ],
    "wof:geomhash": "8b4f4c65ecc8cd080c9d54093317bcaf",
    "wof:id": 1981780513,
    "wof:repo": "sfomuseum-data-flights-2025-10"
  },
  "bbox": [
    -122.33312,
    37.49133,
    -121.29544,
    37.60373
  ],
  "geometry": {"coordinates":[[-121.29544,37.58871],[-121.30828,37.58741],[-121.3407,37.58392],[-121.38339,37.57886],[-121.44766,37.57143],[-121.46503,37.56941],[-121.48288,37.56738],[-121.52994,37.56175],[-121.55584,37.55894],[-121.59695,37.55401],[-121.64838,37.54514],[-121.70303,37.53215],[-121.71483,37.52925],[-121.75116,37.52057],[-121.78397,37.51274],[-121.80936,37.50671],[-121.83845,37.49976],[-121.88239,37.49153],[-121.89743,37.49133],[-121.93869,37.49255],[-121.9595,37.49317],[-121.96935,37.4934],[-122.01554,37.50359],[-122.05013,37.51483],[-122.05921,37.51776],[-122.08155,37.525],[-122.10782,37.53349],[-122.12159,37.53788],[-122.14343,37.54519],[-122.16585,37.55241],[-122.19535,37.56208],[-122.2074,37.56579],[-122.27648,37.58742],[-122.29501,37.59277],[-122.31393,37.59839],[-122.33312,37.60373]],"type":"LineString"}
}
