{
  "id": 1981624187,
  "type": "Feature",
  "properties": {
    "geom:area": 0,
    "geom:bbox": "-122.351900,37.491490,-121.268490,37.611600",
    "geom:latitude": 37.54560488963136,
    "geom:longitude": -121.81493685157585,
    "src:alt_label": "swim-approach",
    "src:geom": "swim",
    "swim:elevations": [
      4881,
      4658,
      4424,
      4322,
      4086,
      4000,
      3784,
      3489,
      3290,
      3123,
      2966,
      2809,
      2733,
      2581,
      2561,
      2299,
      2090,
      2072,
      1952,
      1877,
      1783,
      1521,
      1322,
      1182,
      994,
      828,
      732,
      494,
      362,
      308,
      121,
      58
    ],
    "swim:geom": "approach",
    "swim:timestamps": [
      1760034047,
      1760034082,
      1760034115,
      1760034141,
      1760034176,
      1760034184,
      1760034203,
      1760034226,
      1760034258,
      1760034287,
      1760034321,
      1760034343,
      1760034358,
      1760034382,
      1760034392,
      1760034436,
      1760034478,
      1760034482,
      1760034514,
      1760034531,
      1760034552,
      1760034592,
      1760034625,
      1760034645,
      1760034681,
      1760034709,
      1760034726,
      1760034777,
      1760034807,
      1760034816,
      1760034864,
      1760034882
    ],
    "wof:geomhash": "e150e2d5247bc6a2b5fde92db7dacbc8",
    "wof:id": 1981624187,
    "wof:repo": "sfomuseum-data-flights-2025-10"
  },
  "bbox": [
    -122.3519,
    37.49149,
    -121.26849,
    37.6116
  ],
  "geometry": {"coordinates":[[-121.26849,37.59201],[-121.33472,37.58437],[-121.39179,37.57808],[-121.43405,37.57318],[-121.48793,37.56691],[-121.50023,37.56546],[-121.52789,37.56193],[-121.5612,37.55784],[-121.60814,37.55267],[-121.64939,37.54496],[-121.69522,37.53399],[-121.72305,37.52726],[-121.74232,37.52282],[-121.77301,37.51549],[-121.78534,37.51245],[-121.84067,37.49899],[-121.89636,37.49149],[-121.90182,37.4917],[-121.94585,37.49258],[-121.97051,37.49331],[-121.99942,37.49821],[-122.0523,37.5156],[-122.09484,37.52963],[-122.12008,37.53776],[-122.16267,37.5513],[-122.19398,37.56133],[-122.21151,37.56712],[-122.26256,37.58358],[-122.29033,37.5915],[-122.29788,37.59368],[-122.33698,37.60609],[-122.3519,37.6116]],"type":"LineString"}
}
