{
  "id": 1981754687,
  "type": "Feature",
  "properties": {
    "geom:area": 0,
    "geom:bbox": "-122.116667,32.766111,-117.250000,37.433333",
    "geom:latitude": 34.92214592230649,
    "geom:longitude": -119.91120419347499,
    "src:alt_label": "swim-path",
    "src:geom": "swim",
    "swim:altitudes": [
      "023",
      "023",
      "023",
      "025",
      "025",
      "025",
      "025",
      "025",
      "271",
      "271",
      "271",
      "271",
      "271",
      "290",
      "290",
      "343",
      "343",
      "359",
      "359",
      "359",
      "359",
      "374",
      "374",
      "366",
      "366",
      "366",
      "360C",
      "360C",
      "360C",
      "360C",
      "360C",
      "360C",
      "360C",
      "360C",
      "360C",
      "360C",
      "360C",
      "360C",
      "360C",
      "360C",
      "360C",
      "360C",
      "360C",
      "360C",
      "360C",
      "360C",
      "360C",
      "360",
      "360",
      "360",
      "258",
      "258",
      "258",
      "258",
      "258",
      "258",
      "258",
      "185",
      "143",
      "143",
      "143",
      "143",
      "095",
      "077",
      "077",
      "077",
      "041",
      "041",
      "041",
      "041",
      "041",
      "041",
      "041"
    ],
    "swim:geom": "path",
    "swim:speeds": [
      223,
      223,
      223,
      221,
      221,
      221,
      221,
      221,
      419,
      419,
      419,
      419,
      419,
      428,
      428,
      433,
      433,
      434,
      434,
      434,
      434,
      433,
      433,
      424,
      424,
      424,
      425,
      425,
      425,
      426,
      426,
      439,
      439,
      439,
      439,
      439,
      439,
      430,
      430,
      430,
      413,
      413,
      413,
      413,
      413,
      413,
      413,
      409,
      409,
      409,
      389,
      389,
      389,
      389,
      389,
      389,
      389,
      338,
      284,
      284,
      284,
      284,
      237,
      234,
      234,
      234,
      189,
      189,
      189,
      189,
      189,
      189,
      189
    ],
    "swim:timestamps": [
      1761319496,
      1761319496,
      1761319496,
      1761319508,
      1761319508,
      1761319508,
      1761319508,
      1761319508,
      1761320049,
      1761320049,
      1761320049,
      1761320049,
      1761320049,
      1761320109,
      1761320109,
      1761320289,
      1761320289,
      1761320349,
      1761320349,
      1761320349,
      1761320349,
      1761320409,
      1761320409,
      1761320590,
      1761320590,
      1761320590,
      1761320650,
      1761320650,
      1761320650,
      1761320710,
      1761320710,
      1761320949,
      1761320949,
      1761320949,
      1761320949,
      1761320949,
      1761320949,
      1761321310,
      1761321310,
      1761321310,
      1761321490,
      1761321490,
      1761321490,
      1761321490,
      1761321490,
      1761321490,
      1761321490,
      1761321911,
      1761321911,
      1761321911,
      1761322211,
      1761322211,
      1761322211,
      1761322211,
      1761322211,
      1761322211,
      1761322211,
      1761322431,
      1761322611,
      1761322611,
      1761322611,
      1761322611,
      1761322791,
      1761322851,
      1761322851,
      1761322851,
      1761323091,
      1761323091,
      1761323091,
      1761323091,
      1761323091,
      1761323091,
      1761323091
    ],
    "wof:geomhash": "cd6f5fa58b3c8916e82dd1f075296d74",
    "wof:id": 1981754687,
    "wof:repo": "sfomuseum-data-flights-2025-10"
  },
  "bbox": [
    -122.11666666666666,
    32.76611111111111,
    -117.25,
    37.43333333333333
  ],
  "geometry": {"coordinates":[[-117.25,32.766666666666666],[-117.25,32.766666666666666],[-117.25,32.766666666666666],[-117.2575,32.76611111111111],[-117.2575,32.76611111111111],[-117.2575,32.76611111111111],[-117.2575,32.76611111111111],[-117.2575,32.76611111111111],[-118.04638888888888,33.348333333333336],[-118.04638888888888,33.348333333333336],[-118.04638888888888,33.348333333333336],[-118.04638888888888,33.348333333333336],[-118.04638888888888,33.348333333333336],[-118.14805555555556,33.43333333333333],[-118.14805555555556,33.43333333333333],[-118.47611111111111,33.67638888888889],[-118.47611111111111,33.67638888888889],[-118.59027777777777,33.75611111111111],[-118.59027777777777,33.75611111111111],[-118.59027777777777,33.75611111111111],[-118.59027777777777,33.75611111111111],[-118.70055555555555,33.83416666666667],[-118.70055555555555,33.83416666666667],[-119.02555555555556,34.06111111111111],[-119.02555555555556,34.06111111111111],[-119.02555555555556,34.06111111111111],[-119.13527777777779,34.1375],[-119.13527777777779,34.1375],[-119.13527777777779,34.1375],[-119.24138888888889,34.219722222222224],[-119.24138888888889,34.219722222222224],[-119.63916666666667,34.57527777777778],[-119.63916666666667,34.57527777777778],[-119.63916666666667,34.57527777777778],[-119.63916666666667,34.57527777777778],[-119.63916666666667,34.57527777777778],[-119.63916666666667,34.57527777777778],[-120.2388888888889,35.10333333333333],[-120.2388888888889,35.10333333333333],[-120.2388888888889,35.10333333333333],[-120.52694444444444,35.353611111111114],[-120.52694444444444,35.353611111111114],[-120.52694444444444,35.353611111111114],[-120.52694444444444,35.353611111111114],[-120.52694444444444,35.353611111111114],[-120.52694444444444,35.353611111111114],[-120.52694444444444,35.353611111111114],[-121.20972222222223,35.9375],[-121.20972222222223,35.9375],[-121.20972222222223,35.9375],[-121.61527777777778,36.388888888888886],[-121.61527777777778,36.388888888888886],[-121.61527777777778,36.388888888888886],[-121.61527777777778,36.388888888888886],[-121.61527777777778,36.388888888888886],[-121.61527777777778,36.388888888888886],[-121.61527777777778,36.388888888888886],[-121.86666666666666,36.7],[-121.95,36.96666666666667],[-121.95,36.96666666666667],[-121.95,36.96666666666667],[-121.95,36.96666666666667],[-122.05,37.15],[-122.1,37.2],[-122.1,37.2],[-122.1,37.2],[-122.11666666666666,37.43333333333333],[-122.11666666666666,37.43333333333333],[-122.11666666666666,37.43333333333333],[-122.11666666666666,37.43333333333333],[-122.11666666666666,37.43333333333333],[-122.11666666666666,37.43333333333333],[-122.11666666666666,37.43333333333333]],"type":"LineString"}
}
