{
  "id": 1981801517,
  "type": "Feature",
  "properties": {
    "geom:area": 0,
    "geom:bbox": "-122.556200,36.720420,-122.355030,37.709760",
    "geom:latitude": 37.252556594746224,
    "geom:longitude": -122.47582328323242,
    "src:alt_label": "swim-takeoff",
    "src:geom": "swim",
    "swim:elevations": [
      183,
      476,
      1022,
      1229,
      1284,
      1892,
      2140,
      2494,
      2704,
      3316,
      3618,
      4056,
      4143,
      4819,
      5022,
      5613,
      5653,
      6154,
      6489,
      6810,
      7079,
      7523,
      7655,
      8019,
      8045,
      8512
    ],
    "swim:geom": "takeoff",
    "swim:timestamps": [
      1761741230,
      1761741250,
      1761741293,
      1761741325,
      1761741333,
      1761741381,
      1761741395,
      1761741416,
      1761741428,
      1761741476,
      1761741503,
      1761741536,
      1761741541,
      1761741593,
      1761741609,
      1761741656,
      1761741660,
      1761741707,
      1761741745,
      1761741772,
      1761741793,
      1761741836,
      1761741855,
      1761741897,
      1761741901,
      1761741957
    ],
    "wof:geomhash": "703df1f80566ecc77f47741fb3d776d8",
    "wof:id": 1981801517,
    "wof:repo": "sfomuseum-data-flights-2025-10"
  },
  "bbox": [
    -122.5562,
    36.72042,
    -122.35503,
    37.70976
  ],
  "geometry": {"coordinates":[[-122.36656,37.63264],[-122.3628,37.64709],[-122.36179,37.6778],[-122.37051,37.70346],[-122.37754,37.70976],[-122.44252,37.70128],[-122.45041,37.68365],[-122.45265,37.65614],[-122.45522,37.64003],[-122.46695,37.57326],[-122.47419,37.53127],[-122.4835,37.47882],[-122.48503,37.47002],[-122.49933,37.38284],[-122.50388,37.35603],[-122.51857,37.27176],[-122.51984,37.26462],[-122.53459,37.17902],[-122.54685,37.10645],[-122.55558,37.05537],[-122.5562,37.01261],[-122.51182,36.93609],[-122.48855,36.90392],[-122.43453,36.82853],[-122.42927,36.82139],[-122.35503,36.72042]],"type":"LineString"}
}
