{
  "id": 1981609537,
  "type": "Feature",
  "properties": {
    "geom:area": 0,
    "geom:bbox": "-122.386250,37.631390,-121.253150,37.985590",
    "geom:latitude": 37.91918453105639,
    "geom:longitude": -121.93839425910632,
    "src:alt_label": "swim-takeoff",
    "src:geom": "swim",
    "swim:elevations": [
      213,
      422,
      585,
      884,
      923,
      1498,
      1839,
      2160,
      2467,
      2753,
      3032,
      3294,
      3407,
      3468,
      3666,
      3793,
      4122,
      4395,
      4620,
      4791,
      4904,
      5312,
      5378,
      5832,
      5894,
      6069,
      6179,
      6341
    ],
    "swim:geom": "takeoff",
    "swim:timestamps": [
      1759880227,
      1759880241,
      1759880256,
      1759880298,
      1759880310,
      1759880368,
      1759880397,
      1759880428,
      1759880456,
      1759880483,
      1759880510,
      1759880547,
      1759880567,
      1759880580,
      1759880618,
      1759880634,
      1759880667,
      1759880697,
      1759880722,
      1759880752,
      1759880761,
      1759880818,
      1759880824,
      1759880873,
      1759880882,
      1759880931,
      1759880961,
      1759880989
    ],
    "wof:geomhash": "806146b5a4cf750637bdb74027d3c746",
    "wof:id": 1981609537,
    "wof:repo": "sfomuseum-data-flights-2025-10"
  },
  "bbox": [
    -122.38625,
    37.63139,
    -121.25315,
    37.98559
  ],
  "geometry": {"coordinates":[[-122.36439,37.63139],[-122.3565,37.64064],[-122.34604,37.65019],[-122.31319,37.68036],[-122.30963,37.69286],[-122.34245,37.75827],[-122.36082,37.79306],[-122.37931,37.8313],[-122.38625,37.86692],[-122.38345,37.90494],[-122.35793,37.93561],[-122.29567,37.94456],[-122.25648,37.94553],[-122.2316,37.94648],[-122.15312,37.95006],[-122.11776,37.95166],[-122.0445,37.95502],[-121.97637,37.95796],[-121.91828,37.96035],[-121.84759,37.96325],[-121.82612,37.96413],[-121.69021,37.96948],[-121.67546,37.97003],[-121.55303,37.97471],[-121.53081,37.97558],[-121.40806,37.98005],[-121.32916,37.98287],[-121.25315,37.98559]],"type":"LineString"}
}
