{
  "id": 1981739945,
  "type": "Feature",
  "properties": {
    "geom:area": 0,
    "geom:bbox": "-126.949167,36.460000,-122.861111,37.581944",
    "geom:latitude": 37.022277052294214,
    "geom:longitude": -124.90523576260392,
    "src:alt_label": "swim-path",
    "src:geom": "swim",
    "swim:altitudes": [
      "106",
      "106",
      "246",
      "250C",
      "250C",
      "295C",
      "314",
      "323C",
      "323C",
      "357",
      "357",
      "357"
    ],
    "swim:geom": "path",
    "swim:speeds": [
      319,
      319,
      444,
      450,
      450,
      500,
      509,
      520,
      520,
      492,
      492,
      492
    ],
    "swim:timestamps": [
      1761201676,
      1761201676,
      1761202277,
      1761202318,
      1761202318,
      1761202679,
      1761202877,
      1761202979,
      1761202979,
      1761203297,
      1761203297,
      1761203297
    ],
    "wof:geomhash": "d0bb43fc5b32c603ac43af65e192de07",
    "wof:id": 1981739945,
    "wof:repo": "sfomuseum-data-flights-2025-10"
  },
  "bbox": [
    -126.94916666666667,
    36.46,
    -122.8611111111111,
    37.581944444444446
  ],
  "geometry": {"coordinates":[[-122.8611111111111,37.581944444444446],[-122.8611111111111,37.581944444444446],[-124.21222222222222,37.22],[-124.28333333333333,37.18333333333333],[-124.28333333333333,37.18333333333333],[-125.23333333333333,36.93333333333333],[-125.8025,36.78138888888889],[-126.06666666666666,36.7],[-126.06666666666666,36.7],[-126.94916666666667,36.46],[-126.94916666666667,36.46],[-126.94916666666667,36.46]],"type":"LineString"}
}
