{
  "id": 1981772807,
  "type": "Feature",
  "properties": {
    "geom:area": 0,
    "geom:bbox": "-122.387240,37.631720,-121.291170,37.991240",
    "geom:latitude": 37.93486625738741,
    "geom:longitude": -121.95669902748462,
    "src:alt_label": "swim-takeoff",
    "src:geom": "swim",
    "swim:elevations": [
      183,
      428,
      744,
      1121,
      1518,
      1817,
      1943,
      1992,
      2739,
      2973,
      3273,
      3543,
      3642,
      3878,
      4034,
      4460,
      4757,
      5149,
      5374,
      5426,
      5550,
      5754,
      6083,
      6183,
      6492,
      6587,
      6796
    ],
    "swim:geom": "takeoff",
    "swim:timestamps": [
      1761522769,
      1761522784,
      1761522820,
      1761522868,
      1761522897,
      1761522919,
      1761522927,
      1761522930,
      1761522982,
      1761523006,
      1761523038,
      1761523071,
      1761523083,
      1761523115,
      1761523136,
      1761523181,
      1761523213,
      1761523256,
      1761523286,
      1761523297,
      1761523313,
      1761523334,
      1761523371,
      1761523390,
      1761523434,
      1761523453,
      1761523482
    ],
    "wof:geomhash": "9a84ce3058567e50c1fc6e6380c0747d",
    "wof:id": 1981772807,
    "wof:repo": "sfomuseum-data-flights-2025-10"
  },
  "bbox": [
    -122.38724,
    37.63172,
    -121.29117,
    37.99124
  ],
  "geometry": {"coordinates":[[-122.36389,37.63172],[-122.35468,37.6415],[-122.32791,37.66437],[-122.31561,37.70837],[-122.3325,37.73964],[-122.34485,37.7625],[-122.34947,37.77126],[-122.35118,37.77452],[-122.37903,37.83077],[-122.38724,37.85982],[-122.38343,37.90141],[-122.35226,37.94313],[-122.32835,37.9524],[-122.25873,37.9648],[-122.21154,37.97444],[-122.10487,37.98826],[-122.0263,37.98869],[-121.91472,37.98943],[-121.83563,37.98989],[-121.80698,37.99001],[-121.76419,37.99026],[-121.70596,37.99051],[-121.60387,37.99081],[-121.55422,37.99105],[-121.42986,37.99118],[-121.37595,37.9912],[-121.29117,37.99124]],"type":"LineString"}
}
