{
  "id": 1981627157,
  "type": "Feature",
  "properties": {
    "geom:area": 0,
    "geom:bbox": "-123.339750,37.625190,-122.390280,38.519000",
    "geom:latitude": 38.029701149628444,
    "geom:longitude": -122.89885402035169,
    "src:alt_label": "swim-takeoff",
    "src:geom": "swim",
    "swim:elevations": [
      122,
      396,
      426,
      612,
      1015,
      1183,
      1382,
      1767,
      2306,
      2403,
      2922,
      2992,
      3198,
      3251,
      3388,
      3513,
      3601,
      3848,
      4246,
      4453,
      4669,
      4963,
      5639,
      5705,
      5791,
      5822,
      6005
    ],
    "swim:geom": "takeoff",
    "swim:timestamps": [
      1760051576,
      1760051605,
      1760051617,
      1760051655,
      1760051696,
      1760051715,
      1760051734,
      1760051768,
      1760051811,
      1760051821,
      1760051873,
      1760051882,
      1760051906,
      1760051921,
      1760051954,
      1760051986,
      1760052002,
      1760052032,
      1760052082,
      1760052108,
      1760052134,
      1760052164,
      1760052204,
      1760052231,
      1760052256,
      1760052279,
      1760052319
    ],
    "wof:geomhash": "c7a9e3ee8d58dde015bd9c18ee1919b8",
    "wof:id": 1981627157,
    "wof:repo": "sfomuseum-data-flights-2025-10"
  },
  "bbox": [
    -123.33975,
    37.62519,
    -122.39028,
    38.519
  ],
  "geometry": {"coordinates":[[-122.39028,37.62519],[-122.41663,37.63638],[-122.42873,37.64169],[-122.47203,37.66099],[-122.52406,37.68661],[-122.54773,37.70094],[-122.57224,37.71548],[-122.61754,37.74212],[-122.67386,37.77523],[-122.68729,37.78315],[-122.75655,37.82469],[-122.76696,37.83435],[-122.79054,37.86373],[-122.80668,37.8837],[-122.84353,37.9284],[-122.88302,37.97587],[-122.90337,38.0004],[-122.94254,38.04768],[-123.00834,38.12672],[-123.04389,38.16912],[-123.08114,38.21354],[-123.12257,38.26298],[-123.17648,38.32788],[-123.21314,38.37011],[-123.24883,38.41059],[-123.28117,38.44839],[-123.33975,38.519]],"type":"LineString"}
}
