{
  "id": 1997546641,
  "type": "Feature",
  "properties": {
    "geom:area": 0,
    "geom:bbox": "-122.491944,33.226667,-117.858056,37.652222",
    "geom:latitude": 35.275153068733275,
    "geom:longitude": -120.49438736044227,
    "src:alt_label": "swim-path",
    "src:geom": "swim",
    "swim:altitudes": [
      "006",
      "006",
      "023",
      "023",
      "023",
      "023",
      "023",
      "104",
      "104",
      "104",
      "206",
      "206",
      "206",
      "206",
      "206",
      "206",
      "206",
      "260",
      "260",
      "272",
      "272",
      "272",
      "289C",
      "289C",
      "289C",
      "289C",
      "289C",
      "289C",
      "290C",
      "290C",
      "290C",
      "290C",
      "290C",
      "290C",
      "290C",
      "290C",
      "290C",
      "290C",
      "290C",
      "290C",
      "290C",
      "290C",
      "290C",
      "290C",
      "290C",
      "290C",
      "290C",
      "290C",
      "290C",
      "331",
      "331",
      "331",
      "350C",
      "350C",
      "350C",
      "350C",
      "350C",
      "350C",
      "350C",
      "350C",
      "350C",
      "350C"
    ],
    "swim:geom": "path",
    "swim:speeds": [
      150,
      150,
      143,
      143,
      143,
      143,
      143,
      305,
      305,
      305,
      419,
      419,
      419,
      419,
      419,
      419,
      419,
      444,
      444,
      452,
      452,
      452,
      432,
      432,
      432,
      432,
      432,
      432,
      421,
      421,
      421,
      428,
      428,
      428,
      428,
      428,
      428,
      440,
      440,
      446,
      446,
      446,
      446,
      446,
      446,
      446,
      446,
      446,
      446,
      468,
      468,
      468,
      473,
      473,
      473,
      473,
      474,
      474,
      474,
      474,
      474,
      474
    ],
    "swim:timestamps": [
      1761926802,
      1761926802,
      1761926841,
      1761926841,
      1761926841,
      1761926841,
      1761926841,
      1761927081,
      1761927081,
      1761927081,
      1761927442,
      1761927442,
      1761927442,
      1761927442,
      1761927442,
      1761927442,
      1761927442,
      1761927682,
      1761927682,
      1761927742,
      1761927742,
      1761927742,
      1761928103,
      1761928103,
      1761928103,
      1761928103,
      1761928103,
      1761928103,
      1761928403,
      1761928403,
      1761928403,
      1761928643,
      1761928643,
      1761928643,
      1761928643,
      1761928643,
      1761928643,
      1761929004,
      1761929004,
      1761929128,
      1761929128,
      1761929128,
      1761929128,
      1761929308,
      1761929308,
      1761929308,
      1761929308,
      1761929308,
      1761929308,
      1761929668,
      1761929668,
      1761929668,
      1761929849,
      1761929849,
      1761929849,
      1761929849,
      1761930029,
      1761930029,
      1761930029,
      1761930029,
      1761930029,
      1761930029
    ],
    "wof:geomhash": "ef9fdc5878cdbebdd46ee53bdd6abd87",
    "wof:id": 1997546641,
    "wof:repo": "sfomuseum-data-flights-2025-10"
  },
  "bbox": [
    -122.49194444444444,
    33.22666666666667,
    -117.85805555555555,
    37.65222222222222
  ],
  "geometry": {"coordinates":[[-122.36666666666666,37.63333333333333],[-122.36666666666666,37.63333333333333],[-122.36416666666666,37.65222222222222],[-122.36416666666666,37.65222222222222],[-122.36416666666666,37.65222222222222],[-122.36416666666666,37.65222222222222],[-122.36416666666666,37.65222222222222],[-122.46527777777779,37.54277777777778],[-122.46527777777779,37.54277777777778],[-122.46527777777779,37.54277777777778],[-122.49194444444444,36.928888888888885],[-122.49194444444444,36.928888888888885],[-122.49194444444444,36.928888888888885],[-122.49194444444444,36.928888888888885],[-122.49194444444444,36.928888888888885],[-122.49194444444444,36.928888888888885],[-122.49194444444444,36.928888888888885],[-122.11055555555555,36.55638888888888],[-122.11055555555555,36.55638888888888],[-122.01166666666667,36.45888888888889],[-122.01166666666667,36.45888888888889],[-122.01166666666667,36.45888888888889],[-121.45361111111112,35.904444444444444],[-121.45361111111112,35.904444444444444],[-121.45361111111112,35.904444444444444],[-121.45361111111112,35.904444444444444],[-121.45361111111112,35.904444444444444],[-121.45361111111112,35.904444444444444],[-120.94555555555556,35.44194444444444],[-120.94555555555556,35.44194444444444],[-120.94555555555556,35.44194444444444],[-120.50805555555556,35.13972222222222],[-120.50805555555556,35.13972222222222],[-120.50805555555556,35.13972222222222],[-120.50805555555556,35.13972222222222],[-120.50805555555556,35.13972222222222],[-120.50805555555556,35.13972222222222],[-119.83999999999999,34.670833333333334],[-119.83999999999999,34.670833333333334],[-119.60333333333332,34.5025],[-119.60333333333332,34.5025],[-119.60333333333332,34.5025],[-119.60333333333332,34.5025],[-119.26333333333334,34.259166666666665],[-119.26333333333334,34.259166666666665],[-119.26333333333334,34.259166666666665],[-119.26333333333334,34.259166666666665],[-119.26333333333334,34.259166666666665],[-119.26333333333334,34.259166666666665],[-118.57916666666667,33.76166666666666],[-118.57916666666667,33.76166666666666],[-118.57916666666667,33.76166666666666],[-118.20944444444444,33.48888888888889],[-118.20944444444444,33.48888888888889],[-118.20944444444444,33.48888888888889],[-118.20944444444444,33.48888888888889],[-117.85805555555555,33.22666666666667],[-117.85805555555555,33.22666666666667],[-117.85805555555555,33.22666666666667],[-117.85805555555555,33.22666666666667],[-117.85805555555555,33.22666666666667],[-117.85805555555555,33.22666666666667]],"type":"LineString"}
}
