{
  "id": 1981641373,
  "type": "Feature",
  "properties": {
    "geom:area": 0,
    "geom:bbox": "-122.353030,37.416270,-121.282080,37.611820",
    "geom:latitude": 37.534636019276675,
    "geom:longitude": -121.81698580864207,
    "src:alt_label": "swim-approach",
    "src:geom": "swim",
    "swim:elevations": [
      4612,
      4275,
      4004,
      3983,
      3711,
      3602,
      3484,
      3323,
      3121,
      3077,
      3048,
      2966,
      2745,
      2743,
      2743,
      2534,
      2424,
      2348,
      2220,
      2134,
      2044,
      1947,
      1869,
      1566,
      1385,
      1210,
      974,
      841,
      760,
      668,
      549,
      452,
      357,
      196,
      88,
      35
    ],
    "swim:geom": "approach",
    "swim:timestamps": [
      1760182958,
      1760183006,
      1760183036,
      1760183040,
      1760183079,
      1760183098,
      1760183115,
      1760183142,
      1760183185,
      1760183196,
      1760183241,
      1760183261,
      1760183297,
      1760183314,
      1760183342,
      1760183393,
      1760183419,
      1760183440,
      1760183481,
      1760183515,
      1760183533,
      1760183559,
      1760183585,
      1760183628,
      1760183653,
      1760183679,
      1760183726,
      1760183755,
      1760183773,
      1760183801,
      1760183829,
      1760183857,
      1760183894,
      1760183937,
      1760183965,
      1760183976
    ],
    "wof:geomhash": "dd0c2de78b98acbe1424e94bf787aad8",
    "wof:id": 1981641373,
    "wof:repo": "sfomuseum-data-flights-2025-10"
  },
  "bbox": [
    -122.35303,
    37.41627,
    -121.28208,
    37.61182
  ],
  "geometry": {"coordinates":[[-121.28208,37.59018],[-121.36339,37.58127],[-121.41329,37.57552],[-121.41888,37.57488],[-121.47946,37.56775],[-121.50714,37.56445],[-121.52982,37.5619],[-121.56729,37.56199],[-121.62219,37.5718],[-121.63698,37.57457],[-121.69366,37.58512],[-121.71874,37.58305],[-121.74127,37.5498],[-121.74485,37.53008],[-121.75064,37.49942],[-121.76377,37.44208],[-121.78665,37.4213],[-121.81276,37.41627],[-121.85951,37.43246],[-121.89743,37.45115],[-121.9167,37.46075],[-121.94572,37.47487],[-121.97369,37.48828],[-122.02471,37.50667],[-122.0551,37.51652],[-122.08485,37.52607],[-122.13536,37.5424],[-122.16367,37.55169],[-122.1805,37.55693],[-122.20684,37.56546],[-122.23308,37.57404],[-122.25902,37.58218],[-122.28922,37.59118],[-122.32326,37.6014],[-122.34531,37.60871],[-122.35303,37.61182]],"type":"LineString"}
}
