{
  "id": 1981650917,
  "type": "Feature",
  "properties": {
    "geom:area": 0,
    "geom:bbox": "-122.363030,37.632780,-121.242680,38.118150",
    "geom:latitude": 37.876852449935946,
    "geom:longitude": -121.804037810163,
    "src:alt_label": "swim-takeoff",
    "src:geom": "swim",
    "swim:elevations": [
      213,
      532,
      718,
      1244,
      1603,
      2401,
      2671,
      3183,
      3324,
      3631,
      3782,
      4385,
      4736,
      4857,
      5397,
      5660,
      5934,
      6164,
      6357,
      6651,
      6744,
      7093,
      7294
    ],
    "swim:geom": "takeoff",
    "swim:timestamps": [
      1760282525,
      1760282551,
      1760282582,
      1760282617,
      1760282643,
      1760282697,
      1760282714,
      1760282753,
      1760282781,
      1760282818,
      1760282829,
      1760282875,
      1760282906,
      1760282917,
      1760282961,
      1760282981,
      1760283006,
      1760283030,
      1760283049,
      1760283080,
      1760283090,
      1760283129,
      1760283152
    ],
    "wof:geomhash": "e3c38cdd4ada89e0fe58858b8b89f2da",
    "wof:id": 1981650917,
    "wof:repo": "sfomuseum-data-flights-2025-10"
  },
  "bbox": [
    -122.36303,
    37.63278,
    -121.24268,
    38.11815
  ],
  "geometry": {"coordinates":[[-122.36303,37.63278],[-122.34328,37.64908],[-122.30825,37.66313],[-122.26029,37.68208],[-122.22349,37.69581],[-122.14628,37.72787],[-122.12072,37.73929],[-122.06141,37.76497],[-122.01581,37.78497],[-121.94705,37.8149],[-121.92571,37.82416],[-121.83665,37.8626],[-121.77412,37.88961],[-121.75127,37.8995],[-121.66023,37.93886],[-121.61815,37.957],[-121.56511,37.97994],[-121.51472,38.00163],[-121.47216,38.0199],[-121.40536,38.04856],[-121.38113,38.05896],[-121.29331,38.09654],[-121.24268,38.11815]],"type":"LineString"}
}
