{
  "id": 1981591313,
  "type": "Feature",
  "properties": {
    "geom:area": 0,
    "geom:bbox": "-122.386050,37.630860,-121.463500,38.497350",
    "geom:latitude": 38.11316355840368,
    "geom:longitude": -122.02663184226721,
    "src:alt_label": "swim-takeoff",
    "src:geom": "swim",
    "swim:elevations": [
      152,
      408,
      739,
      1277,
      1563,
      2179,
      2653,
      3083,
      3274,
      3565,
      3786,
      4219,
      4598,
      4924,
      5298,
      5597,
      5905,
      6170,
      6496,
      6794,
      7118,
      7290,
      7474,
      7721,
      8036,
      8197
    ],
    "swim:geom": "takeoff",
    "swim:timestamps": [
      1759711828,
      1759711843,
      1759711873,
      1759711918,
      1759711936,
      1759711975,
      1759712005,
      1759712036,
      1759712057,
      1759712098,
      1759712119,
      1759712149,
      1759712180,
      1759712204,
      1759712237,
      1759712270,
      1759712301,
      1759712325,
      1759712355,
      1759712385,
      1759712427,
      1759712448,
      1759712469,
      1759712499,
      1759712543,
      1759712561
    ],
    "wof:geomhash": "2a11299bee4f634f51b9a7c0fdd5e2e7",
    "wof:id": 1981591313,
    "wof:repo": "sfomuseum-data-flights-2025-10"
  },
  "bbox": [
    -122.38605,
    37.63086,
    -121.4635,
    38.49735
  ],
  "geometry": {"coordinates":[[-122.36469,37.63086],[-122.35612,37.64093],[-122.33354,37.65976],[-122.31321,37.70153],[-122.32325,37.72192],[-122.34877,37.76857],[-122.36799,37.80579],[-122.38496,37.84688],[-122.38605,37.87757],[-122.37088,37.94237],[-122.33858,37.96848],[-122.28485,37.99998],[-122.22888,38.03497],[-122.1848,38.06227],[-122.12347,38.09927],[-122.06032,38.13765],[-121.99961,38.1749],[-121.9519,38.20378],[-121.89184,38.23981],[-121.8313,38.27616],[-121.74515,38.3279],[-121.70136,38.35417],[-121.6572,38.38064],[-121.59368,38.41861],[-121.50169,38.47403],[-121.4635,38.49735]],"type":"LineString"}
}
