{
  "id": 1981799501,
  "type": "Feature",
  "properties": {
    "geom:area": 0,
    "geom:bbox": "-122.361450,37.635740,-121.277840,37.975390",
    "geom:latitude": 37.88809436972212,
    "geom:longitude": -121.88292845913837,
    "src:alt_label": "swim-takeoff",
    "src:geom": "swim",
    "swim:elevations": [
      262,
      522,
      721,
      1025,
      1213,
      1765,
      1992,
      2567,
      2910,
      3191,
      3444,
      3506,
      3634,
      4386,
      4693,
      5176,
      5326,
      5544,
      5607,
      5827,
      6124,
      6548,
      6615,
      6941,
      7129,
      7199,
      7451,
      7648,
      7718,
      7997
    ],
    "swim:geom": "takeoff",
    "swim:timestamps": [
      1761721467,
      1761721495,
      1761721520,
      1761721554,
      1761721568,
      1761721606,
      1761721624,
      1761721664,
      1761721691,
      1761721712,
      1761721736,
      1761721742,
      1761721763,
      1761721821,
      1761721845,
      1761721882,
      1761721895,
      1761721916,
      1761721923,
      1761721940,
      1761721965,
      1761722006,
      1761722013,
      1761722046,
      1761722063,
      1761722072,
      1761722100,
      1761722124,
      1761722132,
      1761722168
    ],
    "wof:geomhash": "1573fe64939a332ffb33e51168c8504a",
    "wof:id": 1981799501,
    "wof:repo": "sfomuseum-data-flights-2025-10"
  },
  "bbox": [
    -122.36145,
    37.63574,
    -121.27784,
    37.97539
  ],
  "geometry": {"coordinates":[[-122.36145,37.63574],[-122.34087,37.64851],[-122.31659,37.66208],[-122.28138,37.68483],[-122.27259,37.69983],[-122.26702,37.7444],[-122.26548,37.76714],[-122.26116,37.81765],[-122.25775,37.85227],[-122.24333,37.87733],[-122.20905,37.89531],[-122.19867,37.89733],[-122.15995,37.89904],[-122.0451,37.90469],[-121.99599,37.90966],[-121.92158,37.91707],[-121.8943,37.91967],[-121.85014,37.92378],[-121.83504,37.92519],[-121.79806,37.92859],[-121.74411,37.9335],[-121.65471,37.94185],[-121.63912,37.94327],[-121.56434,37.95009],[-121.52543,37.95357],[-121.50548,37.95543],[-121.4412,37.96129],[-121.38363,37.96631],[-121.36535,37.96773],[-121.27784,37.97539]],"type":"LineString"}
}
