{
  "id": 1981720105,
  "type": "Feature",
  "properties": {
    "geom:area": 0,
    "geom:bbox": "-122.757550,37.460560,-122.135840,38.505690",
    "geom:latitude": 37.84596431971804,
    "geom:longitude": -122.50004243249346,
    "src:alt_label": "swim-approach",
    "src:geom": "swim",
    "swim:elevations": [
      7894,
      7864,
      7605,
      7305,
      7118,
      6752,
      6536,
      5983,
      5909,
      5732,
      5637,
      5316,
      4849,
      4722,
      4340,
      4056,
      3939,
      3557,
      3464,
      3332,
      3350,
      3354,
      3353,
      3353,
      3130,
      3108,
      2629,
      2400,
      2105,
      2046,
      1981,
      1828,
      1829,
      1554,
      1398,
      1267,
      1156,
      922,
      859,
      699,
      481,
      273,
      124,
      30,
      364
    ],
    "swim:geom": "approach",
    "swim:timestamps": [
      1760945276,
      1760945280,
      1760945305,
      1760945333,
      1760945352,
      1760945386,
      1760945405,
      1760945458,
      1760945464,
      1760945481,
      1760945490,
      1760945525,
      1760945569,
      1760945582,
      1760945616,
      1760945640,
      1760945653,
      1760945694,
      1760945703,
      1760945751,
      1760945776,
      1760945792,
      1760945824,
      1760945841,
      1760945877,
      1760945881,
      1760945935,
      1760945959,
      1760945997,
      1760946006,
      1760946015,
      1760946042,
      1760946060,
      1760946117,
      1760946141,
      1760946159,
      1760946199,
      1760946235,
      1760946244,
      1760946276,
      1760946315,
      1760946357,
      1760946388,
      1760946411,
      1760946421
    ],
    "wof:geomhash": "6b088cc7a8f12070de9b6c444ee18e7d",
    "wof:id": 1981720105,
    "wof:repo": "sfomuseum-data-flights-2025-10"
  },
  "bbox": [
    -122.75755,
    37.46056,
    -122.13584,
    38.50569
  ],
  "geometry": {"coordinates":[[-122.68956,38.50569],[-122.69194,38.49756],[-122.70479,38.4499],[-122.71977,38.39599],[-122.72976,38.36015],[-122.74774,38.29556],[-122.75755,38.26026],[-122.74875,38.16163],[-122.74569,38.1509],[-122.73722,38.12101],[-122.73267,38.10487],[-122.71506,38.04294],[-122.69331,37.96822],[-122.68687,37.94629],[-122.66209,37.89106],[-122.63083,37.85964],[-122.61465,37.84407],[-122.56109,37.79348],[-122.54884,37.78192],[-122.49021,37.72668],[-122.4633,37.70142],[-122.44655,37.6857],[-122.41658,37.6576],[-122.40026,37.64222],[-122.36677,37.6104],[-122.36386,37.60728],[-122.33252,37.55341],[-122.31961,37.5282],[-122.29536,37.49033],[-122.28631,37.48357],[-122.27534,37.47908],[-122.24134,37.46817],[-122.21758,37.46056],[-122.14803,37.46546],[-122.13584,37.48952],[-122.13933,37.50844],[-122.16495,37.54042],[-122.19551,37.56194],[-122.2047,37.56479],[-122.23511,37.57478],[-122.27143,37.58597],[-122.3088,37.5964],[-122.33485,37.60465],[-122.35344,37.61196],[-122.36009,37.61627]],"type":"LineString"}
}
