{
  "id": 1981649837,
  "type": "Feature",
  "properties": {
    "geom:area": 0,
    "geom:bbox": "-122.755770,37.421490,-122.109120,38.397060",
    "geom:latitude": 37.80086754641471,
    "geom:longitude": -122.46937103717147,
    "src:alt_label": "swim-approach",
    "src:geom": "swim",
    "swim:elevations": [
      7529,
      7129,
      6872,
      6617,
      6451,
      5999,
      5748,
      5288,
      5188,
      4738,
      4386,
      4046,
      3935,
      3624,
      3413,
      3350,
      3353,
      3353,
      3353,
      3330,
      3074,
      3014,
      2734,
      2532,
      2282,
      1945,
      1731,
      1620,
      1332,
      1146,
      960,
      914,
      822,
      702,
      527,
      455,
      340,
      171,
      150,
      31
    ],
    "swim:geom": "approach",
    "swim:timestamps": [
      1760272460,
      1760272498,
      1760272526,
      1760272547,
      1760272564,
      1760272599,
      1760272626,
      1760272674,
      1760272682,
      1760272729,
      1760272758,
      1760272790,
      1760272801,
      1760272833,
      1760272868,
      1760272902,
      1760272935,
      1760272955,
      1760272987,
      1760273017,
      1760273068,
      1760273075,
      1760273116,
      1760273144,
      1760273179,
      1760273214,
      1760273244,
      1760273261,
      1760273300,
      1760273325,
      1760273356,
      1760273382,
      1760273418,
      1760273441,
      1760273479,
      1760273496,
      1760273521,
      1760273578,
      1760273583,
      1760273618
    ],
    "wof:geomhash": "d29bead09f4025b1575e974ba3abe460",
    "wof:id": 1981649837,
    "wof:repo": "sfomuseum-data-flights-2025-10"
  },
  "bbox": [
    -122.75577,
    37.42149,
    -122.10912,
    38.39706
  ],
  "geometry": {"coordinates":[[-122.59028,38.39706],[-122.64758,38.34132],[-122.68892,38.30127],[-122.71919,38.27174],[-122.74203,38.24739],[-122.75577,38.18562],[-122.74197,38.13761],[-122.71844,38.05548],[-122.7143,38.04103],[-122.69151,37.96252],[-122.67753,37.91442],[-122.64185,37.86961],[-122.62629,37.85499],[-122.58367,37.81485],[-122.54018,37.77381],[-122.49904,37.735],[-122.45951,37.69779],[-122.43628,37.67598],[-122.40004,37.64181],[-122.37009,37.61236],[-122.33684,37.55635],[-122.33151,37.54779],[-122.30383,37.50264],[-122.28446,37.47338],[-122.24187,37.45201],[-122.19657,37.43372],[-122.15636,37.42149],[-122.13501,37.42692],[-122.10912,37.46082],[-122.1147,37.485],[-122.13712,37.50995],[-122.16108,37.5277],[-122.19731,37.54401],[-122.21956,37.55335],[-122.2545,37.56811],[-122.26995,37.57459],[-122.28949,37.58278],[-122.32946,37.59919],[-122.33247,37.60061],[-122.35614,37.61081]],"type":"LineString"}
}
