{
  "id": 1981767739,
  "type": "Feature",
  "properties": {
    "geom:area": 0,
    "geom:bbox": "-122.458333,37.633333,-74.083333,42.622222",
    "geom:latitude": 40.78009773619279,
    "geom:longitude": -97.96818625590632,
    "src:alt_label": "swim-path",
    "src:geom": "swim",
    "swim:altitudes": [
      "004",
      "004",
      "004",
      "102",
      "102",
      "102",
      "137",
      "137",
      "137",
      "137",
      "196",
      "196",
      "196",
      "261",
      "261",
      "261",
      "261",
      "270C",
      "270C",
      "270C",
      "270C",
      "270C",
      "270C",
      "270C",
      "270C",
      "270C",
      "270C",
      "270C",
      "270C",
      "270C",
      "270C",
      "270C",
      "270C",
      "270C",
      "270C",
      "270C",
      "270C",
      "270C",
      "270C",
      "270C",
      "270C",
      "283",
      "283",
      "283",
      "283",
      "303",
      "303",
      "316",
      "316",
      "320",
      "320",
      "330",
      "336",
      "336",
      "336",
      "346",
      "346",
      "346",
      "350",
      "350",
      "350",
      "355",
      "355",
      "355",
      "355",
      "363",
      "370C",
      "370C",
      "370C",
      "370C",
      "370C",
      "370C",
      "370C",
      "370C",
      "370C",
      "370C",
      "370C",
      "370C",
      "370C",
      "370C",
      "370C",
      "370C",
      "370C",
      "370C",
      "370C",
      "370C",
      "370C",
      "370C",
      "370C",
      "370C",
      "370C",
      "370C",
      "370C",
      "370C",
      "370C",
      "370C",
      "370C",
      "370C",
      "370C",
      "370C",
      "370C",
      "370C",
      "370C",
      "370C",
      "370C",
      "370C",
      "370C",
      "370C",
      "370C",
      "370C",
      "370C",
      "370C",
      "370C",
      "370C",
      "370C",
      "370C",
      "370C",
      "370C",
      "370C",
      "370C",
      "370C",
      "370C",
      "370C",
      "370C",
      "370C",
      "370C",
      "370C",
      "370C",
      "370C",
      "370C",
      "370C",
      "370C",
      "370C",
      "370C",
      "370C",
      "370C",
      "370C",
      "370C",
      "370C",
      "370C",
      "370C",
      "370C",
      "370C",
      "370C",
      "370C",
      "370C",
      "370C",
      "370C",
      "370C",
      "370C",
      "370C",
      "370C",
      "370C",
      "370C",
      "370C",
      "370C",
      "370C",
      "370C",
      "370C",
      "370C",
      "370C",
      "370C",
      "370C",
      "370C",
      "370C",
      "370C",
      "370C",
      "370C",
      "370C",
      "370C",
      "370C",
      "370C",
      "370C",
      "370C",
      "370C",
      "370C",
      "370C",
      "370C",
      "370C",
      "370C",
      "370C",
      "370C",
      "370C",
      "370C",
      "370C",
      "370C",
      "370C",
      "370C",
      "370C",
      "370C",
      "370C",
      "370C",
      "370C",
      "370C",
      "370C",
      "370C",
      "370C",
      "370C",
      "370C",
      "370C",
      "370C",
      "370C",
      "370C",
      "370C",
      "370C",
      "370C",
      "370C",
      "370C",
      "370C",
      "370C",
      "370C",
      "370C",
      "370C",
      "370C",
      "370C",
      "370C",
      "370C",
      "370C",
      "370C",
      "370C",
      "370C",
      "370C",
      "370C",
      "370C",
      "370C",
      "370C",
      "370C",
      "370C",
      "370C",
      "370C",
      "370C",
      "370C",
      "370C",
      "370C",
      "370C",
      "370C",
      "370C",
      "370C",
      "370C",
      "370C",
      "370C",
      "370C",
      "370C",
      "370C",
      "370C",
      "370C",
      "370C",
      "370C",
      "370C",
      "370C",
      "370C",
      "370C",
      "370C",
      "370C",
      "370C",
      "370C",
      "370C",
      "370C",
      "370C",
      "370C",
      "370C",
      "370C",
      "370C",
      "370C",
      "370C",
      "370C",
      "370C",
      "370C",
      "370C",
      "370C",
      "370C",
      "370C",
      "370C",
      "370C",
      "370C",
      "370C",
      "370C",
      "370C",
      "370C",
      "370C",
      "370C",
      "370C",
      "370C",
      "370C",
      "370C",
      "370C",
      "370C",
      "370C",
      "370C",
      "370C",
      "370C",
      "370C",
      "370C",
      "370C",
      "370C",
      "370C",
      "370C",
      "370C",
      "370C",
      "370C",
      "370C",
      "370C",
      "370C",
      "370C",
      "370",
      "360",
      "346",
      "346",
      "346",
      "346",
      "330C",
      "324",
      "324",
      "309",
      "309",
      "309",
      "303",
      "290",
      "279",
      "271C",
      "270C",
      "270C",
      "270",
      "270",
      "270",
      "270",
      "270",
      "270",
      "270",
      "258",
      "258",
      "174",
      "174",
      "116",
      "116",
      "116",
      "101",
      "101",
      "087",
      "070C",
      "070C",
      "070C",
      "063",
      "063",
      "063",
      "050",
      "050",
      "050",
      "050",
      "050",
      "050",
      "050",
      "050",
      "036",
      "036",
      "036",
      "027",
      "021",
      "021",
      "021",
      "018",
      "018",
      "70"
    ],
    "swim:geom": "path",
    "swim:speeds": [
      168,
      168,
      168,
      322,
      322,
      322,
      400,
      400,
      400,
      400,
      459,
      459,
      459,
      490,
      490,
      490,
      490,
      495,
      495,
      495,
      507,
      507,
      507,
      506,
      506,
      506,
      506,
      512,
      494,
      494,
      494,
      494,
      486,
      486,
      484,
      484,
      496,
      491,
      491,
      491,
      491,
      492,
      492,
      492,
      492,
      505,
      505,
      510,
      510,
      513,
      513,
      519,
      525,
      525,
      525,
      529,
      529,
      529,
      541,
      541,
      541,
      546,
      546,
      546,
      546,
      545,
      541,
      541,
      541,
      541,
      539,
      539,
      534,
      534,
      534,
      534,
      533,
      533,
      533,
      533,
      533,
      534,
      534,
      536,
      536,
      536,
      536,
      536,
      536,
      535,
      535,
      534,
      534,
      534,
      534,
      525,
      523,
      523,
      523,
      523,
      523,
      521,
      521,
      517,
      517,
      517,
      517,
      517,
      517,
      519,
      519,
      519,
      519,
      519,
      519,
      519,
      518,
      518,
      516,
      516,
      514,
      514,
      514,
      513,
      513,
      510,
      510,
      510,
      510,
      509,
      504,
      504,
      504,
      504,
      504,
      503,
      503,
      491,
      491,
      491,
      491,
      491,
      486,
      476,
      476,
      476,
      475,
      475,
      475,
      474,
      474,
      474,
      474,
      473,
      473,
      473,
      471,
      471,
      468,
      468,
      466,
      466,
      466,
      465,
      465,
      465,
      465,
      465,
      464,
      464,
      464,
      464,
      467,
      468,
      468,
      468,
      467,
      467,
      467,
      469,
      469,
      470,
      470,
      470,
      470,
      472,
      472,
      472,
      472,
      473,
      473,
      473,
      474,
      474,
      474,
      474,
      473,
      473,
      473,
      472,
      472,
      472,
      472,
      472,
      471,
      471,
      471,
      471,
      471,
      471,
      471,
      471,
      476,
      476,
      476,
      477,
      477,
      479,
      479,
      480,
      480,
      480,
      480,
      482,
      482,
      482,
      482,
      490,
      490,
      490,
      490,
      492,
      496,
      496,
      498,
      504,
      504,
      505,
      510,
      516,
      516,
      518,
      518,
      521,
      523,
      521,
      521,
      525,
      525,
      527,
      528,
      528,
      536,
      536,
      539,
      539,
      541,
      541,
      552,
      556,
      556,
      556,
      556,
      562,
      562,
      562,
      562,
      562,
      584,
      584,
      584,
      584,
      578,
      578,
      578,
      578,
      579,
      579,
      579,
      582,
      582,
      582,
      582,
      582,
      582,
      582,
      579,
      578,
      577,
      575,
      572,
      572,
      572,
      572,
      567,
      567,
      565,
      565,
      565,
      565,
      566,
      566,
      566,
      565,
      543,
      545,
      548,
      548,
      548,
      548,
      557,
      558,
      558,
      555,
      555,
      555,
      550,
      531,
      528,
      517,
      512,
      512,
      514,
      515,
      515,
      517,
      517,
      517,
      517,
      509,
      509,
      415,
      415,
      297,
      297,
      297,
      293,
      293,
      285,
      268,
      268,
      268,
      270,
      270,
      270,
      259,
      259,
      255,
      255,
      241,
      237,
      237,
      233,
      224,
      224,
      224,
      165,
      160,
      160,
      160,
      148,
      148,
      148
    ],
    "swim:timestamps": [
      1761427135,
      1761427135,
      1761427135,
      1761427408,
      1761427408,
      1761427408,
      1761427528,
      1761427528,
      1761427528,
      1761427528,
      1761427708,
      1761427708,
      1761427708,
      1761427948,
      1761427948,
      1761427948,
      1761427948,
      1761428068,
      1761428068,
      1761428068,
      1761428369,
      1761428369,
      1761428369,
      1761428393,
      1761428393,
      1761428393,
      1761428393,
      1761428513,
      1761428573,
      1761428573,
      1761428573,
      1761428573,
      1761428633,
      1761428633,
      1761428669,
      1761428669,
      1761428874,
      1761428969,
      1761428969,
      1761428969,
      1761428969,
      1761429054,
      1761429054,
      1761429054,
      1761429054,
      1761429150,
      1761429150,
      1761429210,
      1761429210,
      1761429234,
      1761429234,
      1761429294,
      1761429330,
      1761429330,
      1761429330,
      1761429390,
      1761429390,
      1761429390,
      1761429474,
      1761429474,
      1761429474,
      1761429510,
      1761429510,
      1761429510,
      1761429510,
      1761429535,
      1761429835,
      1761429835,
      1761429835,
      1761429835,
      1761430135,
      1761430135,
      1761430256,
      1761430256,
      1761430256,
      1761430256,
      1761430316,
      1761430316,
      1761430316,
      1761430316,
      1761430316,
      1761430674,
      1761430674,
      1761430735,
      1761430735,
      1761430735,
      1761430795,
      1761430795,
      1761430795,
      1761430855,
      1761430855,
      1761430915,
      1761430915,
      1761430915,
      1761430915,
      1761431185,
      1761431217,
      1761431217,
      1761431245,
      1761431245,
      1761431245,
      1761431277,
      1761431277,
      1761431546,
      1761431546,
      1761431546,
      1761431546,
      1761431546,
      1761431546,
      1761431697,
      1761431697,
      1761431697,
      1761431697,
      1761431936,
      1761431936,
      1761431936,
      1761432056,
      1761432056,
      1761432176,
      1761432176,
      1761432236,
      1761432236,
      1761432236,
      1761432267,
      1761432267,
      1761432357,
      1761432357,
      1761432357,
      1761432357,
      1761432417,
      1761432627,
      1761432627,
      1761432627,
      1761432627,
      1761432627,
      1761432687,
      1761432687,
      1761433348,
      1761433348,
      1761433348,
      1761433348,
      1761433348,
      1761433468,
      1761433708,
      1761433708,
      1761433708,
      1761433769,
      1761433829,
      1761433829,
      1761434009,
      1761434009,
      1761434009,
      1761434009,
      1761434069,
      1761434069,
      1761434069,
      1761434129,
      1761434129,
      1761434249,
      1761434249,
      1761434369,
      1761434369,
      1761434369,
      1761434429,
      1761434429,
      1761434429,
      1761434489,
      1761434489,
      1761434550,
      1761434550,
      1761434550,
      1761434550,
      1761434859,
      1761434910,
      1761434910,
      1761434910,
      1761434919,
      1761434919,
      1761434919,
      1761434970,
      1761434970,
      1761435030,
      1761435030,
      1761435030,
      1761435090,
      1761435280,
      1761435280,
      1761435280,
      1761435280,
      1761435340,
      1761435340,
      1761435340,
      1761435391,
      1761435400,
      1761435451,
      1761435451,
      1761435520,
      1761435520,
      1761435520,
      1761435571,
      1761435640,
      1761435640,
      1761435640,
      1761435640,
      1761435820,
      1761435820,
      1761435820,
      1761435820,
      1761435880,
      1761435880,
      1761435880,
      1761435880,
      1761436301,
      1761436301,
      1761436301,
      1761436361,
      1761436361,
      1761436481,
      1761436481,
      1761436541,
      1761436541,
      1761436541,
      1761436541,
      1761436661,
      1761436661,
      1761436661,
      1761436661,
      1761436947,
      1761436947,
      1761436947,
      1761436947,
      1761437007,
      1761437127,
      1761437127,
      1761437202,
      1761437368,
      1761437368,
      1761437382,
      1761437548,
      1761437668,
      1761437668,
      1761437743,
      1761437743,
      1761437848,
      1761437908,
      1761437923,
      1761437923,
      1761437983,
      1761438043,
      1761438103,
      1761438163,
      1761438163,
      1761438269,
      1761438269,
      1761438329,
      1761438329,
      1761438389,
      1761438389,
      1761438629,
      1761438749,
      1761438749,
      1761438749,
      1761438749,
      1761438870,
      1761438870,
      1761438870,
      1761438870,
      1761438870,
      1761439244,
      1761439244,
      1761439244,
      1761439244,
      1761439350,
      1761439350,
      1761439350,
      1761439350,
      1761439410,
      1761439410,
      1761439410,
      1761439530,
      1761439530,
      1761439604,
      1761439604,
      1761439604,
      1761439604,
      1761439650,
      1761439785,
      1761439845,
      1761439891,
      1761439965,
      1761440071,
      1761440071,
      1761440085,
      1761440085,
      1761440325,
      1761440325,
      1761440445,
      1761440505,
      1761440505,
      1761440505,
      1761440866,
      1761440914,
      1761440914,
      1761440974,
      1761441046,
      1761441154,
      1761441226,
      1761441226,
      1761441226,
      1761441226,
      1761441466,
      1761441646,
      1761441646,
      1761441766,
      1761441766,
      1761441766,
      1761441815,
      1761441935,
      1761442067,
      1761442123,
      1761442175,
      1761442175,
      1761442364,
      1761442415,
      1761442415,
      1761442475,
      1761442475,
      1761442475,
      1761442484,
      1761442544,
      1761442544,
      1761442956,
      1761442956,
      1761443144,
      1761443144,
      1761443144,
      1761443204,
      1761443204,
      1761443256,
      1761443384,
      1761443436,
      1761443436,
      1761443498,
      1761443498,
      1761443498,
      1761443617,
      1761443617,
      1761443624,
      1761443624,
      1761443677,
      1761443683,
      1761443683,
      1761443750,
      1761443857,
      1761443857,
      1761443857,
      1761444050,
      1761444097,
      1761444097,
      1761444097,
      1761444116,
      1761444116,
      1761444277
    ],
    "wof:geomhash": "65dbe1460b5c2b9b32460e2b814f2192",
    "wof:id": 1981767739,
    "wof:repo": "sfomuseum-data-flights-2025-10"
  },
  "bbox": [
    -122.45833333333334,
    37.63333333333333,
    -74.08333333333333,
    42.62222222222222
  ],
  "geometry": {"coordinates":[[-122.4,37.63333333333333],[-122.4,37.63333333333333],[-122.4,37.63333333333333],[-122.45833333333334,37.83305555555556],[-122.45833333333334,37.83305555555556],[-122.45833333333334,37.83305555555556],[-122.21305555555556,37.897777777777776],[-122.21305555555556,37.897777777777776],[-122.21305555555556,37.897777777777776],[-122.21305555555556,37.897777777777776],[-121.7538888888889,38.02027777777778],[-121.7538888888889,38.02027777777778],[-121.7538888888889,38.02027777777778],[-121.12777777777777,38.18277777777777],[-121.12777777777777,38.18277777777777],[-121.12777777777777,38.18277777777777],[-121.12777777777777,38.18277777777777],[-120.78888888888889,38.24111111111111],[-120.78888888888889,38.24111111111111],[-120.78888888888889,38.24111111111111],[-119.91000000000001,38.36138888888889],[-119.91000000000001,38.36138888888889],[-119.91000000000001,38.36138888888889],[-119.86166666666666,38.368611111111115],[-119.86166666666666,38.368611111111115],[-119.86166666666666,38.368611111111115],[-119.86166666666666,38.368611111111115],[-119.505,38.41111111111111],[-119.33805555555556,38.43333333333333],[-119.33805555555556,38.43333333333333],[-119.33805555555556,38.43333333333333],[-119.33805555555556,38.43333333333333],[-119.17166666666667,38.45666666666667],[-119.17166666666667,38.45666666666667],[-119.03861111111111,38.47416666666667],[-119.03861111111111,38.47416666666667],[-118.45916666666668,38.54527777777778],[-118.18472222222222,38.57777777777778],[-118.18472222222222,38.57777777777778],[-118.18472222222222,38.57777777777778],[-118.18472222222222,38.57777777777778],[-117.96944444444445,38.60333333333333],[-117.96944444444445,38.60333333333333],[-117.96944444444445,38.60333333333333],[-117.96944444444445,38.60333333333333],[-117.68194444444445,38.63611111111111],[-117.68194444444445,38.63611111111111],[-117.49972222222222,38.656666666666666],[-117.49972222222222,38.656666666666666],[-117.42861111111111,38.664722222222224],[-117.42861111111111,38.664722222222224],[-117.24388888888889,38.68861111111111],[-117.13277777777778,38.70722222222223],[-117.13277777777778,38.70722222222223],[-117.13277777777778,38.70722222222223],[-116.94500000000001,38.73916666666667],[-116.94500000000001,38.73916666666667],[-116.94500000000001,38.73916666666667],[-116.68277777777779,38.78333333333333],[-116.68277777777779,38.78333333333333],[-116.68277777777779,38.78333333333333],[-116.56527777777778,38.80277777777778],[-116.56527777777778,38.80277777777778],[-116.56527777777778,38.80277777777778],[-116.56527777777778,38.80277777777778],[-116.49333333333334,38.81472222222222],[-115.54972222222221,38.965833333333336],[-115.54972222222221,38.965833333333336],[-115.54972222222221,38.965833333333336],[-115.54972222222221,38.965833333333336],[-114.60277777777777,39.10944444444445],[-114.60277777777777,39.10944444444445],[-114.2275,39.163888888888884],[-114.2275,39.163888888888884],[-114.2275,39.163888888888884],[-114.2275,39.163888888888884],[-114.0411111111111,39.190555555555555],[-114.0411111111111,39.190555555555555],[-114.0411111111111,39.190555555555555],[-114.0411111111111,39.190555555555555],[-114.0411111111111,39.190555555555555],[-112.91861111111112,39.35472222222222],[-112.91861111111112,39.35472222222222],[-112.73166666666667,39.38527777777778],[-112.73166666666667,39.38527777777778],[-112.73166666666667,39.38527777777778],[-112.5411111111111,39.41555555555556],[-112.5411111111111,39.41555555555556],[-112.5411111111111,39.41555555555556],[-112.35444444444444,39.44499999999999],[-112.35444444444444,39.44499999999999],[-112.16638888888889,39.47416666666667],[-112.16638888888889,39.47416666666667],[-112.16638888888889,39.47416666666667],[-112.16638888888889,39.47416666666667],[-111.35111111111111,39.62444444444444],[-111.25194444444445,39.64277777777778],[-111.25194444444445,39.64277777777778],[-111.1675,39.65833333333333],[-111.1675,39.65833333333333],[-111.1675,39.65833333333333],[-111.05722222222222,39.67861111111111],[-111.05722222222222,39.67861111111111],[-110.2475,39.89611111111111],[-110.2475,39.89611111111111],[-110.2475,39.89611111111111],[-110.2475,39.89611111111111],[-110.2475,39.89611111111111],[-110.2475,39.89611111111111],[-109.8236111111111,40.01416666666667],[-109.8236111111111,40.01416666666667],[-109.8236111111111,40.01416666666667],[-109.8236111111111,40.01416666666667],[-109.11083333333333,40.20805555555556],[-109.11083333333333,40.20805555555556],[-109.11083333333333,40.20805555555556],[-108.75277777777778,40.303888888888885],[-108.75277777777778,40.303888888888885],[-108.39333333333335,40.39833333333333],[-108.39333333333335,40.39833333333333],[-108.22083333333333,40.44305555555555],[-108.22083333333333,40.44305555555555],[-108.22083333333333,40.44305555555555],[-108.14611111111111,40.46222222222222],[-108.14611111111111,40.46222222222222],[-107.8611111111111,40.50888888888889],[-107.8611111111111,40.50888888888889],[-107.8611111111111,40.50888888888889],[-107.8611111111111,40.50888888888889],[-107.67861111111111,40.52027777777778],[-107.05777777777777,40.556666666666665],[-107.05777777777777,40.556666666666665],[-107.05777777777777,40.556666666666665],[-107.05777777777777,40.556666666666665],[-107.05777777777777,40.556666666666665],[-106.87583333333333,40.56666666666667],[-106.87583333333333,40.56666666666667],[-104.89111111111112,40.66305555555555],[-104.89111111111112,40.66305555555555],[-104.89111111111112,40.66305555555555],[-104.89111111111112,40.66305555555555],[-104.89111111111112,40.66305555555555],[-104.54166666666667,40.70805555555556],[-103.85138888888888,40.793055555555554],[-103.85138888888888,40.793055555555554],[-103.85138888888888,40.793055555555554],[-103.67750000000001,40.81361111111111],[-103.5075,40.83388888888889],[-103.5075,40.83388888888889],[-102.9925,40.89277777777778],[-102.9925,40.89277777777778],[-102.9925,40.89277777777778],[-102.9925,40.89277777777778],[-102.81972222222223,40.91222222222222],[-102.81972222222223,40.91222222222222],[-102.81972222222223,40.91222222222222],[-102.65027777777779,40.93083333333333],[-102.65027777777779,40.93083333333333],[-102.31027777777777,40.9675],[-102.31027777777777,40.9675],[-101.97083333333333,41],[-101.97083333333333,41],[-101.97083333333333,41],[-101.80166666666666,41.003055555555555],[-101.80166666666666,41.003055555555555],[-101.80166666666666,41.003055555555555],[-101.62944444444443,41.005],[-101.62944444444443,41.005],[-101.46111111111111,41.007222222222225],[-101.46111111111111,41.007222222222225],[-101.46111111111111,41.007222222222225],[-101.46111111111111,41.007222222222225],[-100.58138888888888,41.015277777777776],[-100.42305555555556,41.01361111111111],[-100.42305555555556,41.01361111111111],[-100.42305555555556,41.01361111111111],[-100.40861111111111,41.01638888888889],[-100.40861111111111,41.01638888888889],[-100.40861111111111,41.01638888888889],[-100.24944444444445,41.013888888888886],[-100.24944444444445,41.013888888888886],[-100.07555555555555,41.01361111111111],[-100.07555555555555,41.01361111111111],[-100.07555555555555,41.01361111111111],[-99.90277777777779,41.013333333333335],[-99.36361111111111,41.01083333333333],[-99.36361111111111,41.01083333333333],[-99.36361111111111,41.01083333333333],[-99.36361111111111,41.01083333333333],[-99.19,41.00944444444445],[-99.19,41.00944444444445],[-99.19,41.00944444444445],[-99.03388888888888,41.007777777777775],[-98.99027777777778,41.0075],[-98.85944444444443,41.00694444444444],[-98.85944444444443,41.00694444444444],[-98.64555555555556,41.005833333333335],[-98.64555555555556,41.005833333333335],[-98.64555555555556,41.005833333333335],[-98.5075,41.005],[-98.29861111111111,41.003055555555555],[-98.29861111111111,41.003055555555555],[-98.29861111111111,41.003055555555555],[-98.29861111111111,41.003055555555555],[-97.78194444444445,41.018055555555556],[-97.78194444444445,41.018055555555556],[-97.78194444444445,41.018055555555556],[-97.78194444444445,41.018055555555556],[-97.60916666666667,41.032222222222224],[-97.60916666666667,41.032222222222224],[-97.60916666666667,41.032222222222224],[-97.60916666666667,41.032222222222224],[-96.40277777777779,41.16],[-96.40277777777779,41.16],[-96.40277777777779,41.16],[-96.22555555555556,41.18111111111111],[-96.22555555555556,41.18111111111111],[-95.87777777777777,41.221944444444446],[-95.87777777777777,41.221944444444446],[-95.70083333333334,41.2425],[-95.70083333333334,41.2425],[-95.70083333333334,41.2425],[-95.70083333333334,41.2425],[-95.36638888888888,41.280277777777776],[-95.36638888888888,41.280277777777776],[-95.36638888888888,41.280277777777776],[-95.36638888888888,41.280277777777776],[-94.50361111111111,41.37305555555555],[-94.50361111111111,41.37305555555555],[-94.50361111111111,41.37305555555555],[-94.50361111111111,41.37305555555555],[-94.32416666666666,41.39138888888889],[-93.96000000000001,41.42777777777778],[-93.96000000000001,41.42777777777778],[-93.73861111111111,41.44944444444444],[-93.2175,41.49861111111111],[-93.2175,41.49861111111111],[-93.18111111111112,41.50194444444445],[-92.66722222222222,41.54805555555556],[-92.28861111111111,41.58027777777778],[-92.28861111111111,41.58027777777778],[-92.03916666666666,41.600833333333334],[-92.03916666666666,41.600833333333334],[-91.71361111111112,41.62694444444445],[-91.5225,41.641666666666666],[-91.48305555555555,41.644444444444446],[-91.48305555555555,41.644444444444446],[-91.2875,41.65888888888889],[-91.095,41.67361111111111],[-90.89916666666667,41.687777777777775],[-90.66333333333334,41.70388888888889],[-90.66333333333334,41.70388888888889],[-90.33416666666666,41.72694444444445],[-90.33416666666666,41.72694444444445],[-90.13388888888889,41.74],[-90.13388888888889,41.74],[-89.93333333333334,41.75277777777778],[-89.93333333333334,41.75277777777778],[-89.11277777777777,41.80138888888889],[-88.69694444444445,41.82361111111111],[-88.69694444444445,41.82361111111111],[-88.69694444444445,41.82361111111111],[-88.69694444444445,41.82361111111111],[-88.27888888888889,41.84444444444445],[-88.27888888888889,41.84444444444445],[-88.27888888888889,41.84444444444445],[-88.27888888888889,41.84444444444445],[-88.27888888888889,41.84444444444445],[-86.93972222222223,41.900277777777774],[-86.93972222222223,41.900277777777774],[-86.93972222222223,41.900277777777774],[-86.93972222222223,41.900277777777774],[-86.56805555555555,41.91416666666667],[-86.56805555555555,41.91416666666667],[-86.56805555555555,41.91416666666667],[-86.56805555555555,41.91416666666667],[-86.35222222222221,41.921388888888885],[-86.35222222222221,41.921388888888885],[-86.35222222222221,41.921388888888885],[-85.91361111111112,41.93416666666666],[-85.91361111111112,41.93416666666666],[-85.65416666666667,41.941111111111105],[-85.65416666666667,41.941111111111105],[-85.65416666666667,41.941111111111105],[-85.65416666666667,41.941111111111105],[-85.47833333333334,41.945277777777775],[-84.99861111111112,41.950833333333335],[-84.78388888888888,41.94916666666666],[-84.60749999999999,41.94777777777777],[-84.35499999999999,41.94583333333333],[-83.96916666666667,41.94194444444444],[-83.96916666666667,41.94194444444444],[-83.93805555555556,41.94138888888889],[-83.93805555555556,41.94138888888889],[-83.10194444444444,41.915277777777774],[-83.10194444444444,41.915277777777774],[-82.68583333333333,41.900555555555556],[-82.47500000000001,41.89222222222222],[-82.47500000000001,41.89222222222222],[-82.47500000000001,41.89222222222222],[-81.19305555555556,41.83416666666667],[-81.05833333333334,41.82833333333333],[-81.05833333333334,41.82833333333333],[-80.85027777777778,41.815555555555555],[-80.57722222222222,41.85305555555556],[-80.26666666666667,41.94333333333333],[-80.00638888888889,42.01611111111111],[-80.00638888888889,42.01611111111111],[-80.00638888888889,42.01611111111111],[-80.00638888888889,42.01611111111111],[-79.23916666666666,42.23111111111111],[-78.66777777777779,42.38194444444444],[-78.66777777777779,42.38194444444444],[-78.26444444444445,42.44499999999999],[-78.26444444444445,42.44499999999999],[-78.26444444444445,42.44499999999999],[-78.10277777777777,42.4675],[-77.70861111111111,42.519999999999996],[-77.28611111111111,42.574444444444445],[-77.09083333333332,42.59916666666667],[-76.90833333333335,42.62222222222222],[-76.90833333333335,42.62222222222222],[-76.3586111111111,42.541666666666664],[-76.20027777777779,42.46944444444445],[-76.20027777777779,42.46944444444445],[-76.03527777777778,42.394444444444446],[-76.03527777777778,42.394444444444446],[-76.03527777777778,42.394444444444446],[-76.01888888888888,42.386944444444445],[-75.85666666666665,42.31305555555555],[-75.85666666666665,42.31305555555555],[-74.88388888888889,41.88111111111111],[-74.88388888888889,41.88111111111111],[-74.57083333333333,41.68944444444444],[-74.57083333333333,41.68944444444444],[-74.57083333333333,41.68944444444444],[-74.4863888888889,41.63777777777778],[-74.4863888888889,41.63777777777778],[-74.41416666666667,41.59305555555556],[-74.37027777777777,41.45888888888889],[-74.39833333333334,41.39555555555555],[-74.39833333333334,41.39555555555555],[-74.4,41.31666666666667],[-74.4,41.31666666666667],[-74.4,41.31666666666667],[-74.31388888888888,41.19694444444444],[-74.31388888888888,41.19694444444444],[-74.3,41.18333333333333],[-74.3,41.18333333333333],[-74.2725,41.135555555555555],[-74.26666666666667,41.13333333333333],[-74.26666666666667,41.13333333333333],[-74.21666666666667,41.06666666666667],[-74.16000000000001,40.966944444444444],[-74.16000000000001,40.966944444444444],[-74.16000000000001,40.966944444444444],[-74.08333333333333,40.81666666666667],[-74.10388888888889,40.78805555555555],[-74.10388888888889,40.78805555555555],[-74.10388888888889,40.78805555555555],[-74.11666666666666,40.766666666666666],[-74.11666666666666,40.766666666666666],[-74.17527777777778,40.67583333333333]],"type":"LineString"}
}
