{
  "id": 1981720619,
  "type": "Feature",
  "properties": {
    "geom:area": 0,
    "geom:bbox": "-122.350000,37.497500,-78.494722,43.236667",
    "geom:latitude": 40.61938149638739,
    "geom:longitude": -100.4095154479498,
    "src:alt_label": "swim-path",
    "src:geom": "swim",
    "swim:altitudes": [
      "201",
      "201",
      "201",
      "201",
      "201",
      "217",
      "217",
      "217",
      "243",
      "243",
      "256",
      "256",
      "256",
      "256",
      "256",
      "256",
      "256",
      "256",
      "336",
      "336",
      "336",
      "336",
      "336",
      "336",
      "336",
      "336",
      "340C",
      "340C",
      "340C",
      "340C",
      "340C",
      "340C",
      "340C",
      "340C",
      "340C",
      "340C",
      "340C",
      "340C",
      "340C",
      "340C",
      "340C",
      "340C",
      "340C",
      "340C",
      "340C",
      "340C",
      "340C",
      "340C",
      "340C",
      "340C",
      "340C",
      "340C",
      "340C",
      "340C",
      "340C",
      "340C",
      "340C",
      "340C",
      "340C",
      "340C",
      "340C",
      "340C",
      "340C",
      "340C",
      "340C",
      "340C",
      "340C",
      "340C",
      "340C",
      "340C",
      "340C",
      "340C",
      "340C",
      "340C",
      "340C",
      "340C",
      "340C",
      "340C",
      "340C",
      "340C",
      "340C",
      "340C",
      "340C",
      "340C",
      "340C",
      "340C",
      "340C",
      "340C",
      "340C",
      "340C",
      "340C",
      "340C",
      "340C",
      "340C",
      "340C",
      "340C",
      "340C",
      "340C",
      "340C",
      "340C",
      "340C",
      "340C",
      "340C",
      "340C",
      "340C",
      "340C",
      "340C",
      "340C",
      "340C",
      "340C",
      "340C",
      "340C",
      "340C",
      "340C",
      "340C",
      "340C",
      "340C",
      "340C",
      "340C",
      "340C",
      "340C",
      "340C",
      "340C",
      "340C",
      "340C",
      "340C",
      "340C",
      "340C",
      "340C",
      "340C",
      "340C",
      "340C",
      "340C",
      "340C",
      "340C",
      "340C",
      "340C",
      "340C",
      "340C",
      "340C",
      "340C",
      "340C",
      "340C",
      "340C",
      "340C",
      "340C",
      "340C",
      "340C",
      "340C",
      "340C",
      "340C",
      "340C",
      "340C",
      "340C",
      "340C",
      "340C",
      "340C",
      "340C",
      "340C",
      "340C",
      "340C",
      "340C",
      "340C",
      "340C",
      "340C",
      "340C",
      "340C",
      "340C",
      "340C",
      "340C",
      "340C",
      "340C",
      "340C",
      "340C",
      "340C",
      "340C",
      "340C",
      "340C",
      "340C",
      "340C",
      "340C",
      "340C",
      "340C",
      "340C",
      "340C",
      "340C",
      "340C",
      "340C",
      "340C",
      "340C",
      "340C",
      "340C",
      "340C",
      "340C",
      "340C",
      "340C",
      "340C",
      "340C",
      "340C",
      "340C",
      "340C",
      "340C",
      "340C",
      "340C",
      "340C",
      "340C",
      "340C",
      "340C",
      "340C",
      "340C",
      "340C",
      "340C",
      "340C",
      "340C",
      "340C",
      "340C",
      "340C",
      "340C",
      "340C",
      "340C",
      "340C",
      "340C",
      "340C",
      "340C",
      "340C",
      "340C",
      "340C",
      "340C",
      "340C",
      "340C",
      "340C",
      "340C",
      "340C",
      "340C",
      "340C",
      "340C",
      "340C",
      "340C",
      "340C",
      "340C",
      "340C",
      "340C",
      "340C",
      "340C",
      "340C",
      "340C",
      "340C",
      "340C",
      "340",
      "340",
      "340",
      "340",
      "340",
      "340",
      "340",
      "340",
      "340",
      "360C",
      "360C",
      "360C",
      "360C",
      "360C",
      "360C",
      "360C",
      "360C",
      "360C",
      "360C",
      "360C",
      "360C",
      "360C",
      "360C",
      "360C",
      "360C",
      "360C",
      "360C",
      "360C",
      "360C",
      "360C",
      "360C",
      "360C",
      "360C",
      "360C",
      "360C",
      "360C",
      "360C",
      "360C",
      "360C",
      "360C",
      "360C",
      "360C",
      "360C",
      "360C",
      "360C",
      "360C",
      "360C",
      "360C",
      "360C",
      "360C",
      "360C",
      "360C",
      "360C",
      "360C",
      "360C",
      "360C",
      "360C",
      "360C",
      "360C",
      "360C",
      "360C",
      "360C",
      "360C",
      "360C",
      "360C",
      "360C",
      "360C",
      "360C",
      "360C",
      "360C",
      "360C",
      "360C",
      "360C",
      "360C",
      "360C",
      "360C",
      "360C",
      "360C",
      "360C",
      "360C",
      "360C",
      "360C",
      "360C",
      "360C",
      "360C",
      "360C",
      "360C",
      "360C",
      "360C",
      "360C",
      "360C",
      "360C",
      "360C",
      "360C",
      "360C",
      "360C",
      "360C",
      "360C",
      "360C",
      "360C",
      "360C",
      "360C",
      "360C",
      "360C",
      "360C",
      "360C",
      "360C",
      "360C",
      "360C",
      "360C",
      "360C",
      "360C",
      "360C",
      "360C",
      "360C",
      "360C",
      "360C",
      "360C",
      "360C",
      "360C",
      "360C",
      "360C",
      "360C",
      "360C",
      "360C",
      "360C",
      "360C",
      "360C",
      "360C",
      "360C",
      "360C",
      "360C",
      "360C",
      "360C",
      "360C",
      "360C",
      "360C",
      "360C",
      "360C",
      "360C",
      "360C",
      "360C",
      "360C",
      "360C",
      "360C",
      "360C",
      "360C",
      "360C",
      "360C",
      "360C",
      "360C",
      "360C",
      "360C",
      "360C",
      "360C",
      "360C",
      "348",
      "348",
      "348",
      "348",
      "299",
      "299",
      "290",
      "290",
      "290",
      "290",
      "270",
      "270",
      "270",
      "228",
      "228",
      "228",
      "188",
      "149",
      "149",
      "149",
      "122",
      "096",
      "096",
      "096",
      "096",
      "074",
      "060",
      "060",
      "060",
      "060",
      "024",
      "024",
      "018",
      "018",
      "018",
      "001",
      "001",
      "001",
      "001"
    ],
    "swim:geom": "path",
    "swim:speeds": [
      348,
      348,
      348,
      348,
      348,
      359,
      359,
      359,
      363,
      363,
      371,
      371,
      371,
      371,
      371,
      371,
      371,
      371,
      395,
      395,
      395,
      395,
      395,
      395,
      395,
      395,
      396,
      396,
      396,
      396,
      395,
      395,
      395,
      395,
      394,
      394,
      394,
      394,
      393,
      393,
      393,
      393,
      393,
      393,
      393,
      393,
      393,
      393,
      396,
      396,
      396,
      396,
      396,
      396,
      396,
      396,
      395,
      395,
      395,
      395,
      396,
      396,
      396,
      396,
      396,
      396,
      396,
      396,
      396,
      396,
      396,
      395,
      395,
      395,
      395,
      393,
      393,
      391,
      391,
      391,
      390,
      390,
      390,
      390,
      390,
      390,
      389,
      389,
      389,
      389,
      389,
      394,
      394,
      394,
      393,
      393,
      394,
      394,
      393,
      393,
      393,
      393,
      393,
      393,
      393,
      393,
      393,
      392,
      392,
      392,
      392,
      388,
      388,
      388,
      387,
      387,
      387,
      387,
      387,
      387,
      387,
      388,
      388,
      388,
      388,
      389,
      389,
      392,
      392,
      392,
      392,
      385,
      385,
      382,
      382,
      381,
      381,
      392,
      392,
      392,
      392,
      396,
      396,
      396,
      396,
      396,
      398,
      398,
      398,
      398,
      398,
      401,
      401,
      401,
      401,
      401,
      401,
      405,
      405,
      408,
      408,
      408,
      408,
      408,
      408,
      408,
      411,
      411,
      411,
      409,
      409,
      405,
      405,
      405,
      403,
      403,
      403,
      403,
      403,
      402,
      400,
      400,
      400,
      400,
      400,
      393,
      393,
      393,
      393,
      393,
      393,
      393,
      393,
      393,
      393,
      393,
      393,
      393,
      393,
      393,
      393,
      393,
      400,
      400,
      400,
      400,
      400,
      399,
      399,
      399,
      399,
      399,
      400,
      400,
      400,
      400,
      400,
      399,
      399,
      399,
      399,
      399,
      402,
      402,
      402,
      402,
      402,
      402,
      402,
      402,
      406,
      406,
      406,
      406,
      406,
      406,
      406,
      406,
      399,
      399,
      399,
      399,
      399,
      399,
      399,
      399,
      399,
      399,
      400,
      400,
      400,
      400,
      400,
      400,
      400,
      400,
      400,
      394,
      394,
      394,
      394,
      394,
      394,
      394,
      397,
      397,
      397,
      395,
      395,
      395,
      395,
      395,
      395,
      383,
      383,
      383,
      383,
      383,
      383,
      380,
      380,
      380,
      380,
      380,
      380,
      380,
      380,
      380,
      394,
      394,
      394,
      394,
      403,
      403,
      403,
      407,
      407,
      407,
      407,
      407,
      407,
      407,
      408,
      408,
      408,
      408,
      408,
      406,
      406,
      406,
      406,
      406,
      406,
      406,
      406,
      412,
      412,
      412,
      412,
      412,
      412,
      412,
      412,
      412,
      412,
      412,
      436,
      436,
      436,
      436,
      436,
      436,
      436,
      433,
      433,
      433,
      433,
      433,
      433,
      436,
      436,
      436,
      436,
      436,
      436,
      436,
      436,
      436,
      435,
      435,
      435,
      435,
      431,
      431,
      431,
      431,
      431,
      441,
      441,
      441,
      479,
      479,
      479,
      479,
      479,
      446,
      446,
      446,
      446,
      447,
      447,
      447,
      447,
      447,
      455,
      455,
      455,
      455,
      455,
      455,
      455,
      455,
      458,
      458,
      458,
      458,
      459,
      459,
      459,
      461,
      461,
      461,
      461,
      461,
      464,
      464,
      464,
      464,
      464,
      464,
      464,
      464,
      464,
      464,
      465,
      465,
      465,
      465,
      461,
      461,
      453,
      453,
      453,
      453,
      438,
      438,
      438,
      410,
      410,
      410,
      390,
      371,
      371,
      371,
      337,
      288,
      288,
      288,
      288,
      265,
      246,
      246,
      246,
      246,
      191,
      191,
      180,
      180,
      180,
      151,
      151,
      151,
      151
    ],
    "swim:timestamps": [
      1760991433,
      1760991433,
      1760991433,
      1760991433,
      1760991433,
      1760991493,
      1760991493,
      1760991493,
      1760991614,
      1760991614,
      1760991674,
      1760991674,
      1760991674,
      1760991674,
      1760991674,
      1760991674,
      1760991674,
      1760991674,
      1760992154,
      1760992154,
      1760992154,
      1760992154,
      1760992154,
      1760992154,
      1760992154,
      1760992154,
      1760992455,
      1760992455,
      1760992455,
      1760992455,
      1760992635,
      1760992635,
      1760992635,
      1760992635,
      1760992756,
      1760992756,
      1760992756,
      1760992756,
      1760992816,
      1760992816,
      1760992816,
      1760992816,
      1760992996,
      1760992996,
      1760992996,
      1760992996,
      1760992996,
      1760992996,
      1760993477,
      1760993477,
      1760993477,
      1760993477,
      1760993477,
      1760993477,
      1760993477,
      1760993477,
      1760993657,
      1760993657,
      1760993657,
      1760993657,
      1760993939,
      1760993939,
      1760993939,
      1760993939,
      1760993939,
      1760994119,
      1760994119,
      1760994119,
      1760994119,
      1760994179,
      1760994179,
      1760994198,
      1760994198,
      1760994198,
      1760994198,
      1760994359,
      1760994359,
      1760994438,
      1760994438,
      1760994438,
      1760994679,
      1760994679,
      1760994679,
      1760994679,
      1760994679,
      1760994679,
      1760994720,
      1760994720,
      1760994720,
      1760994960,
      1760994960,
      1760995140,
      1760995140,
      1760995140,
      1760995159,
      1760995159,
      1760995200,
      1760995200,
      1760995219,
      1760995219,
      1760995320,
      1760995320,
      1760995320,
      1760995441,
      1760995441,
      1760995441,
      1760995441,
      1760995501,
      1760995501,
      1760995501,
      1760995501,
      1760995921,
      1760995921,
      1760995921,
      1760996041,
      1760996041,
      1760996041,
      1760996222,
      1760996222,
      1760996222,
      1760996222,
      1760996282,
      1760996282,
      1760996282,
      1760996282,
      1760996506,
      1760996506,
      1760996566,
      1760996566,
      1760996566,
      1760996566,
      1760996626,
      1760996626,
      1760996702,
      1760996702,
      1760996762,
      1760996762,
      1760997123,
      1760997123,
      1760997123,
      1760997123,
      1760997227,
      1760997227,
      1760997227,
      1760997227,
      1760997227,
      1760997287,
      1760997287,
      1760997287,
      1760997303,
      1760997303,
      1760997408,
      1760997408,
      1760997604,
      1760997604,
      1760997604,
      1760997604,
      1760997768,
      1760997768,
      1760997828,
      1760997828,
      1760997828,
      1760997828,
      1760997828,
      1760997828,
      1760997828,
      1760997948,
      1760997948,
      1760997948,
      1760998024,
      1760998024,
      1760998189,
      1760998189,
      1760998189,
      1760998264,
      1760998264,
      1760998264,
      1760998264,
      1760998264,
      1760998309,
      1760998429,
      1760998429,
      1760998429,
      1760998429,
      1760998429,
      1760999090,
      1760999090,
      1760999090,
      1760999090,
      1760999090,
      1760999090,
      1760999090,
      1760999210,
      1760999210,
      1760999210,
      1760999210,
      1760999210,
      1760999210,
      1760999210,
      1760999210,
      1760999210,
      1760999210,
      1761000290,
      1761000290,
      1761000290,
      1761000290,
      1761000290,
      1761000350,
      1761000350,
      1761000350,
      1761000350,
      1761000350,
      1761000532,
      1761000532,
      1761000532,
      1761000532,
      1761000532,
      1761000589,
      1761000589,
      1761000589,
      1761000589,
      1761000589,
      1761000710,
      1761000710,
      1761000710,
      1761000770,
      1761000770,
      1761000770,
      1761000770,
      1761000770,
      1761000890,
      1761000890,
      1761000890,
      1761000890,
      1761000890,
      1761000890,
      1761000890,
      1761000890,
      1761001431,
      1761001431,
      1761001431,
      1761001431,
      1761001431,
      1761001431,
      1761001431,
      1761001431,
      1761001431,
      1761001431,
      1761001792,
      1761001792,
      1761001792,
      1761001792,
      1761001792,
      1761001792,
      1761001792,
      1761001792,
      1761001792,
      1761002332,
      1761002332,
      1761002332,
      1761002332,
      1761002332,
      1761002332,
      1761002332,
      1761002452,
      1761002452,
      1761002452,
      1761002632,
      1761002632,
      1761002632,
      1761002632,
      1761002632,
      1761002632,
      1761002873,
      1761002873,
      1761002873,
      1761002873,
      1761002873,
      1761002873,
      1761003173,
      1761003173,
      1761003173,
      1761003173,
      1761003173,
      1761003173,
      1761003173,
      1761003173,
      1761003173,
      1761003594,
      1761003594,
      1761003594,
      1761003594,
      1761003774,
      1761003774,
      1761003774,
      1761003894,
      1761003894,
      1761003894,
      1761003894,
      1761003894,
      1761003894,
      1761003894,
      1761003954,
      1761003954,
      1761003954,
      1761003954,
      1761003954,
      1761004254,
      1761004254,
      1761004254,
      1761004254,
      1761004254,
      1761004254,
      1761004254,
      1761004254,
      1761004615,
      1761004615,
      1761004615,
      1761004615,
      1761004615,
      1761004675,
      1761004675,
      1761004675,
      1761004675,
      1761004675,
      1761004675,
      1761005396,
      1761005396,
      1761005396,
      1761005396,
      1761005396,
      1761005396,
      1761005396,
      1761005696,
      1761005696,
      1761005696,
      1761005696,
      1761005696,
      1761005696,
      1761005936,
      1761005936,
      1761005936,
      1761005996,
      1761005996,
      1761005996,
      1761005996,
      1761005996,
      1761005996,
      1761006117,
      1761006117,
      1761006117,
      1761006117,
      1761006177,
      1761006177,
      1761006177,
      1761006177,
      1761006177,
      1761006717,
      1761006717,
      1761006717,
      1761007019,
      1761007019,
      1761007019,
      1761007019,
      1761007019,
      1761007139,
      1761007139,
      1761007139,
      1761007139,
      1761007319,
      1761007319,
      1761007319,
      1761007319,
      1761007319,
      1761007619,
      1761007619,
      1761007619,
      1761007619,
      1761007619,
      1761007619,
      1761007619,
      1761007619,
      1761008160,
      1761008160,
      1761008160,
      1761008160,
      1761008219,
      1761008219,
      1761008219,
      1761008340,
      1761008340,
      1761008340,
      1761008340,
      1761008340,
      1761008701,
      1761008701,
      1761008701,
      1761008821,
      1761008821,
      1761008821,
      1761008821,
      1761008821,
      1761008821,
      1761008821,
      1761009001,
      1761009001,
      1761009001,
      1761009001,
      1761009121,
      1761009121,
      1761009138,
      1761009138,
      1761009138,
      1761009138,
      1761009197,
      1761009197,
      1761009197,
      1761009318,
      1761009318,
      1761009318,
      1761009438,
      1761009558,
      1761009558,
      1761009558,
      1761009662,
      1761009782,
      1761009782,
      1761009782,
      1761009782,
      1761009902,
      1761009984,
      1761009984,
      1761009984,
      1761009984,
      1761010202,
      1761010202,
      1761010217,
      1761010217,
      1761010217,
      1761010332,
      1761010332,
      1761010332,
      1761010332
    ],
    "wof:geomhash": "59ed5f951c86ac3445a666c2814253a2",
    "wof:id": 1981720619,
    "wof:repo": "sfomuseum-data-flights-2025-10"
  },
  "bbox": [
    -122.35,
    37.4975,
    -78.49472222222222,
    43.236666666666665
  ],
  "geometry": {"coordinates":[[-78.49472222222222,38.97777777777778],[-78.49472222222222,38.97777777777778],[-78.49472222222222,38.97777777777778],[-78.49472222222222,38.97777777777778],[-78.49472222222222,38.97777777777778],[-78.62416666666665,38.98583333333333],[-78.62416666666665,38.98583333333333],[-78.62416666666665,38.98583333333333],[-78.88527777777779,39.00111111111111],[-78.88527777777779,39.00111111111111],[-79.02305555555556,39.010555555555555],[-79.02305555555556,39.010555555555555],[-79.02305555555556,39.010555555555555],[-79.02305555555556,39.010555555555555],[-79.02305555555556,39.010555555555555],[-79.02305555555556,39.010555555555555],[-79.02305555555556,39.010555555555555],[-79.02305555555556,39.010555555555555],[-80.17472222222223,39.081388888888895],[-80.17472222222223,39.081388888888895],[-80.17472222222223,39.081388888888895],[-80.17472222222223,39.081388888888895],[-80.17472222222223,39.081388888888895],[-80.17472222222223,39.081388888888895],[-80.17472222222223,39.081388888888895],[-80.17472222222223,39.081388888888895],[-80.86888888888888,39.16638888888889],[-80.86888888888888,39.16638888888889],[-80.86888888888888,39.16638888888889],[-80.86888888888888,39.16638888888889],[-81.2713888888889,39.27027777777778],[-81.2713888888889,39.27027777777778],[-81.2713888888889,39.27027777777778],[-81.2713888888889,39.27027777777778],[-81.54027777777777,39.33861111111111],[-81.54027777777777,39.33861111111111],[-81.54027777777777,39.33861111111111],[-81.54027777777777,39.33861111111111],[-81.66722222222222,39.370555555555555],[-81.66722222222222,39.370555555555555],[-81.66722222222222,39.370555555555555],[-81.66722222222222,39.370555555555555],[-82.0736111111111,39.47222222222222],[-82.0736111111111,39.47222222222222],[-82.0736111111111,39.47222222222222],[-82.0736111111111,39.47222222222222],[-82.0736111111111,39.47222222222222],[-82.0736111111111,39.47222222222222],[-83.16333333333334,39.73555555555556],[-83.16333333333334,39.73555555555556],[-83.16333333333334,39.73555555555556],[-83.16333333333334,39.73555555555556],[-83.16333333333334,39.73555555555556],[-83.16333333333334,39.73555555555556],[-83.16333333333334,39.73555555555556],[-83.16333333333334,39.73555555555556],[-83.57416666666666,39.83166666666667],[-83.57416666666666,39.83166666666667],[-83.57416666666666,39.83166666666667],[-83.57416666666666,39.83166666666667],[-84.22472222222223,39.980555555555554],[-84.22472222222223,39.980555555555554],[-84.22472222222223,39.980555555555554],[-84.22472222222223,39.980555555555554],[-84.22472222222223,39.980555555555554],[-84.63694444444445,40.072500000000005],[-84.63694444444445,40.072500000000005],[-84.63694444444445,40.072500000000005],[-84.63694444444445,40.072500000000005],[-84.77527777777777,40.10305555555556],[-84.77527777777777,40.10305555555556],[-84.81083333333333,40.111111111111114],[-84.81083333333333,40.111111111111114],[-84.81083333333333,40.111111111111114],[-84.81083333333333,40.111111111111114],[-85.18472222222222,40.19222222222222],[-85.18472222222222,40.19222222222222],[-85.35749999999999,40.22944444444445],[-85.35749999999999,40.22944444444445],[-85.35749999999999,40.22944444444445],[-85.88166666666666,40.38583333333333],[-85.88166666666666,40.38583333333333],[-85.88166666666666,40.38583333333333],[-85.88166666666666,40.38583333333333],[-85.88166666666666,40.38583333333333],[-85.88166666666666,40.38583333333333],[-85.97722222222222,40.41444444444444],[-85.97722222222222,40.41444444444444],[-85.97722222222222,40.41444444444444],[-86.50333333333333,40.571111111111115],[-86.50333333333333,40.571111111111115],[-86.905,40.68888888888888],[-86.905,40.68888888888888],[-86.905,40.68888888888888],[-86.93138888888889,40.69638888888888],[-86.93138888888889,40.69638888888888],[-87.04388888888889,40.72888888888889],[-87.04388888888889,40.72888888888889],[-87.06805555555555,40.73583333333333],[-87.06805555555555,40.73583333333333],[-87.31222222222222,40.80611111111111],[-87.31222222222222,40.80611111111111],[-87.31222222222222,40.80611111111111],[-87.58333333333333,40.88305555555556],[-87.58333333333333,40.88305555555556],[-87.58333333333333,40.88305555555556],[-87.58333333333333,40.88305555555556],[-87.71638888888889,40.92055555555555],[-87.71638888888889,40.92055555555555],[-87.71638888888889,40.92055555555555],[-87.71638888888889,40.92055555555555],[-88.635,41.23166666666667],[-88.635,41.23166666666667],[-88.635,41.23166666666667],[-88.89194444444445,41.323888888888895],[-88.89194444444445,41.323888888888895],[-88.89194444444445,41.323888888888895],[-89.25805555555556,41.45416666666667],[-89.25805555555556,41.45416666666667],[-89.25805555555556,41.45416666666667],[-89.25805555555556,41.45416666666667],[-89.41250000000001,41.50861111111111],[-89.41250000000001,41.50861111111111],[-89.41250000000001,41.50861111111111],[-89.41250000000001,41.50861111111111],[-89.87138888888889,41.66833333333333],[-89.87138888888889,41.66833333333333],[-90.02472222222222,41.721111111111114],[-90.02472222222222,41.721111111111114],[-90.02472222222222,41.721111111111114],[-90.02472222222222,41.721111111111114],[-90.15138888888889,41.76694444444444],[-90.15138888888889,41.76694444444444],[-90.3086111111111,41.81805555555556],[-90.3086111111111,41.81805555555556],[-90.4363888888889,41.861666666666665],[-90.4363888888889,41.861666666666665],[-91.20305555555557,42.16916666666666],[-91.20305555555557,42.16916666666666],[-91.20305555555557,42.16916666666666],[-91.20305555555557,42.16916666666666],[-91.43694444444445,42.26694444444444],[-91.43694444444445,42.26694444444444],[-91.43694444444445,42.26694444444444],[-91.43694444444445,42.26694444444444],[-91.43694444444445,42.26694444444444],[-91.57,42.322500000000005],[-91.57,42.322500000000005],[-91.57,42.322500000000005],[-91.59527777777777,42.33305555555556],[-91.59527777777777,42.33305555555556],[-91.83388888888888,42.431666666666665],[-91.83388888888888,42.431666666666665],[-92.26805555555555,42.595],[-92.26805555555555,42.595],[-92.26805555555555,42.595],[-92.26805555555555,42.595],[-92.62777777777777,42.72138888888889],[-92.62777777777777,42.72138888888889],[-92.76777777777778,42.769999999999996],[-92.76777777777778,42.769999999999996],[-92.76777777777778,42.769999999999996],[-92.76777777777778,42.769999999999996],[-92.76777777777778,42.769999999999996],[-92.76777777777778,42.769999999999996],[-92.76777777777778,42.769999999999996],[-93.05027777777778,42.867222222222225],[-93.05027777777778,42.867222222222225],[-93.05027777777778,42.867222222222225],[-93.245,42.93388888888889],[-93.245,42.93388888888889],[-93.60805555555555,43.056666666666665],[-93.60805555555555,43.056666666666665],[-93.60805555555555,43.056666666666665],[-93.80027777777778,43.12138888888889],[-93.80027777777778,43.12138888888889],[-93.80027777777778,43.12138888888889],[-93.80027777777778,43.12138888888889],[-93.80027777777778,43.12138888888889],[-93.88388888888889,43.149166666666666],[-94.16555555555556,43.236666666666665],[-94.16555555555556,43.236666666666665],[-94.16555555555556,43.236666666666665],[-94.16555555555556,43.236666666666665],[-94.16555555555556,43.236666666666665],[-95.7875,43.14555555555555],[-95.7875,43.14555555555555],[-95.7875,43.14555555555555],[-95.7875,43.14555555555555],[-95.7875,43.14555555555555],[-95.7875,43.14555555555555],[-95.7875,43.14555555555555],[-96.08444444444444,43.11555555555556],[-96.08444444444444,43.11555555555556],[-96.08444444444444,43.11555555555556],[-96.08444444444444,43.11555555555556],[-96.08444444444444,43.11555555555556],[-96.08444444444444,43.11555555555556],[-96.08444444444444,43.11555555555556],[-96.08444444444444,43.11555555555556],[-96.08444444444444,43.11555555555556],[-96.08444444444444,43.11555555555556],[-98.76694444444445,42.80277777777778],[-98.76694444444445,42.80277777777778],[-98.76694444444445,42.80277777777778],[-98.76694444444445,42.80277777777778],[-98.76694444444445,42.80277777777778],[-98.91666666666667,42.78333333333333],[-98.91666666666667,42.78333333333333],[-98.91666666666667,42.78333333333333],[-98.91666666666667,42.78333333333333],[-98.91666666666667,42.78333333333333],[-99.39305555555556,42.72027777777778],[-99.39305555555556,42.72027777777778],[-99.39305555555556,42.72027777777778],[-99.39305555555556,42.72027777777778],[-99.39305555555556,42.72027777777778],[-99.535,42.700833333333335],[-99.535,42.700833333333335],[-99.535,42.700833333333335],[-99.535,42.700833333333335],[-99.535,42.700833333333335],[-99.83722222222222,42.65888888888889],[-99.83722222222222,42.65888888888889],[-99.83722222222222,42.65888888888889],[-99.985,42.63916666666667],[-99.985,42.63916666666667],[-99.985,42.63916666666667],[-99.985,42.63916666666667],[-99.985,42.63916666666667],[-100.285,42.59666666666667],[-100.285,42.59666666666667],[-100.285,42.59666666666667],[-100.285,42.59666666666667],[-100.285,42.59666666666667],[-100.285,42.59666666666667],[-100.285,42.59666666666667],[-100.285,42.59666666666667],[-101.6,42.39833333333333],[-101.6,42.39833333333333],[-101.6,42.39833333333333],[-101.6,42.39833333333333],[-101.6,42.39833333333333],[-101.6,42.39833333333333],[-101.6,42.39833333333333],[-101.6,42.39833333333333],[-101.6,42.39833333333333],[-101.6,42.39833333333333],[-102.47972222222222,42.260555555555555],[-102.47972222222222,42.260555555555555],[-102.47972222222222,42.260555555555555],[-102.47972222222222,42.260555555555555],[-102.47972222222222,42.260555555555555],[-102.47972222222222,42.260555555555555],[-102.47972222222222,42.260555555555555],[-102.47972222222222,42.260555555555555],[-102.47972222222222,42.260555555555555],[-103.76472222222222,42.041666666666664],[-103.76472222222222,42.041666666666664],[-103.76472222222222,42.041666666666664],[-103.76472222222222,42.041666666666664],[-103.76472222222222,42.041666666666664],[-103.76472222222222,42.041666666666664],[-103.76472222222222,42.041666666666664],[-104.05305555555556,41.98694444444445],[-104.05305555555556,41.98694444444445],[-104.05305555555556,41.98694444444445],[-104.47916666666667,41.882777777777775],[-104.47916666666667,41.882777777777775],[-104.47916666666667,41.882777777777775],[-104.47916666666667,41.882777777777775],[-104.47916666666667,41.882777777777775],[-104.47916666666667,41.882777777777775],[-105.02805555555555,41.748333333333335],[-105.02805555555555,41.748333333333335],[-105.02805555555555,41.748333333333335],[-105.02805555555555,41.748333333333335],[-105.02805555555555,41.748333333333335],[-105.02805555555555,41.748333333333335],[-105.69472222222223,41.5775],[-105.69472222222223,41.5775],[-105.69472222222223,41.5775],[-105.69472222222223,41.5775],[-105.69472222222223,41.5775],[-105.69472222222223,41.5775],[-105.69472222222223,41.5775],[-105.69472222222223,41.5775],[-105.69472222222223,41.5775],[-106.64361111111111,41.33277777777778],[-106.64361111111111,41.33277777777778],[-106.64361111111111,41.33277777777778],[-106.64361111111111,41.33277777777778],[-107.05111111111111,41.20194444444445],[-107.05111111111111,41.20194444444445],[-107.05111111111111,41.20194444444445],[-107.32944444444443,41.11138888888889],[-107.32944444444443,41.11138888888889],[-107.32944444444443,41.11138888888889],[-107.32944444444443,41.11138888888889],[-107.32944444444443,41.11138888888889],[-107.32944444444443,41.11138888888889],[-107.32944444444443,41.11138888888889],[-107.4725,41.06472222222222],[-107.4725,41.06472222222222],[-107.4725,41.06472222222222],[-107.4725,41.06472222222222],[-107.4725,41.06472222222222],[-108.15527777777778,40.83722222222222],[-108.15527777777778,40.83722222222222],[-108.15527777777778,40.83722222222222],[-108.15527777777778,40.83722222222222],[-108.15527777777778,40.83722222222222],[-108.15527777777778,40.83722222222222],[-108.15527777777778,40.83722222222222],[-108.15527777777778,40.83722222222222],[-108.97972222222222,40.555277777777775],[-108.97972222222222,40.555277777777775],[-108.97972222222222,40.555277777777775],[-108.97972222222222,40.555277777777775],[-108.97972222222222,40.555277777777775],[-109.10749999999999,40.51083333333333],[-109.10749999999999,40.51083333333333],[-109.10749999999999,40.51083333333333],[-109.10749999999999,40.51083333333333],[-109.10749999999999,40.51083333333333],[-109.10749999999999,40.51083333333333],[-110.82666666666667,39.907222222222224],[-110.82666666666667,39.907222222222224],[-110.82666666666667,39.907222222222224],[-110.82666666666667,39.907222222222224],[-110.82666666666667,39.907222222222224],[-110.82666666666667,39.907222222222224],[-110.82666666666667,39.907222222222224],[-111.52888888888889,39.65833333333333],[-111.52888888888889,39.65833333333333],[-111.52888888888889,39.65833333333333],[-111.52888888888889,39.65833333333333],[-111.52888888888889,39.65833333333333],[-111.52888888888889,39.65833333333333],[-112.09694444444445,39.45277777777778],[-112.09694444444445,39.45277777777778],[-112.09694444444445,39.45277777777778],[-112.23833333333333,39.40083333333333],[-112.23833333333333,39.40083333333333],[-112.23833333333333,39.40083333333333],[-112.23833333333333,39.40083333333333],[-112.23833333333333,39.40083333333333],[-112.23833333333333,39.40083333333333],[-112.51972222222223,39.29944444444444],[-112.51972222222223,39.29944444444444],[-112.51972222222223,39.29944444444444],[-112.51972222222223,39.29944444444444],[-112.66777777777779,39.26583333333333],[-112.66777777777779,39.26583333333333],[-112.66777777777779,39.26583333333333],[-112.66777777777779,39.26583333333333],[-112.66777777777779,39.26583333333333],[-114.02305555555556,38.950833333333335],[-114.02305555555556,38.950833333333335],[-114.02305555555556,38.950833333333335],[-114.76916666666666,38.77027777777778],[-114.76916666666666,38.77027777777778],[-114.76916666666666,38.77027777777778],[-114.76916666666666,38.77027777777778],[-114.76916666666666,38.77027777777778],[-115.06805555555555,38.695277777777775],[-115.06805555555555,38.695277777777775],[-115.06805555555555,38.695277777777775],[-115.06805555555555,38.695277777777775],[-115.51666666666667,38.58416666666667],[-115.51666666666667,38.58416666666667],[-115.51666666666667,38.58416666666667],[-115.51666666666667,38.58416666666667],[-115.51666666666667,38.58416666666667],[-116.28194444444445,38.38444444444444],[-116.28194444444445,38.38444444444444],[-116.28194444444445,38.38444444444444],[-116.28194444444445,38.38444444444444],[-116.28194444444445,38.38444444444444],[-116.28194444444445,38.38444444444444],[-116.28194444444445,38.38444444444444],[-116.28194444444445,38.38444444444444],[-117.66944444444445,38.026944444444446],[-117.66944444444445,38.026944444444446],[-117.66944444444445,38.026944444444446],[-117.66944444444445,38.026944444444446],[-117.82472222222222,37.99777777777778],[-117.82472222222222,37.99777777777778],[-117.82472222222222,37.99777777777778],[-118.15027777777779,37.963055555555556],[-118.15027777777779,37.963055555555556],[-118.15027777777779,37.963055555555556],[-118.15027777777779,37.963055555555556],[-118.15027777777779,37.963055555555556],[-119.11861111111111,37.85527777777778],[-119.11861111111111,37.85527777777778],[-119.11861111111111,37.85527777777778],[-119.44333333333334,37.81722222222223],[-119.44333333333334,37.81722222222223],[-119.44333333333334,37.81722222222223],[-119.44333333333334,37.81722222222223],[-119.44333333333334,37.81722222222223],[-119.44333333333334,37.81722222222223],[-119.44333333333334,37.81722222222223],[-119.89444444444445,37.76277777777778],[-119.89444444444445,37.76277777777778],[-119.89444444444445,37.76277777777778],[-119.89444444444445,37.76277777777778],[-120.21888888888888,37.722500000000004],[-120.21888888888888,37.722500000000004],[-120.28333333333333,37.71666666666667],[-120.28333333333333,37.71666666666667],[-120.28333333333333,37.71666666666667],[-120.28333333333333,37.71666666666667],[-120.43333333333334,37.7],[-120.43333333333334,37.7],[-120.43333333333334,37.7],[-120.73333333333333,37.666666666666664],[-120.73333333333333,37.666666666666664],[-120.73333333333333,37.666666666666664],[-121.01666666666667,37.63333333333333],[-121.26666666666667,37.583333333333336],[-121.26666666666667,37.583333333333336],[-121.26666666666667,37.583333333333336],[-121.45777777777778,37.57027777777778],[-121.66305555555556,37.541666666666664],[-121.66305555555556,37.541666666666664],[-121.66305555555556,37.541666666666664],[-121.66305555555556,37.541666666666664],[-121.84722222222221,37.4975],[-121.98333333333333,37.5],[-121.98333333333333,37.5],[-121.98333333333333,37.5],[-121.98333333333333,37.5],[-122.22722222222222,37.57222222222222],[-122.22722222222222,37.57222222222222],[-122.25,37.583333333333336],[-122.25,37.583333333333336],[-122.25,37.583333333333336],[-122.35,37.61666666666667],[-122.35,37.61666666666667],[-122.35,37.61666666666667],[-122.35,37.61666666666667]],"type":"LineString"}
}
