{
  "id": 1981722355,
  "type": "Feature",
  "properties": {
    "geom:area": 0,
    "geom:bbox": "-122.737222,38.098889,-121.843056,47.684167",
    "geom:latitude": 43.048514495126945,
    "geom:longitude": -122.16994528987188,
    "src:alt_label": "swim-path",
    "src:geom": "swim",
    "swim:altitudes": [
      "161",
      "161",
      "161",
      "161",
      "161",
      "252",
      "252",
      "252",
      "252",
      "282",
      "282",
      "282",
      "282",
      "296",
      "296",
      "296",
      "314",
      "314",
      "314",
      "314",
      "314",
      "314",
      "360C",
      "360C",
      "360C",
      "360C",
      "360C",
      "360C",
      "360C",
      "360C",
      "360C",
      "360C",
      "360C",
      "360C",
      "360C",
      "360C",
      "360C",
      "360C",
      "360C",
      "360C",
      "360C",
      "360C",
      "360C",
      "360C",
      "360C",
      "360C",
      "360C",
      "360C",
      "360C",
      "360C",
      "360C",
      "360C",
      "360C",
      "360C",
      "360C",
      "360C",
      "360C",
      "360C",
      "360C",
      "360C",
      "360C",
      "360C",
      "360C",
      "360C",
      "360C",
      "360C",
      "360C",
      "360C",
      "360C",
      "360C",
      "360C",
      "360C",
      "360C",
      "360C",
      "360C",
      "360C",
      "360C",
      "360C",
      "360C",
      "360C",
      "360C",
      "360C",
      "360C",
      "360C",
      "360C",
      "360C",
      "360C",
      "360C",
      "360C",
      "360C",
      "360C",
      "360C",
      "360C",
      "360C",
      "360C",
      "360C",
      "360C",
      "360C",
      "360",
      "360",
      "360",
      "360",
      "360",
      "323",
      "323",
      "323",
      "323",
      "216",
      "216",
      "184",
      "184",
      "184",
      "181",
      "181",
      "181",
      "181",
      "181",
      "167",
      "167",
      "151",
      "151",
      "102",
      "086",
      "086",
      "086",
      "063",
      "063",
      "063",
      "058",
      "048",
      "048",
      "048",
      "032",
      "032",
      "032",
      "032",
      "030",
      "030",
      "020",
      "020",
      "020",
      "020",
      "020",
      "016",
      "016",
      "016",
      "004",
      "004",
      "004"
    ],
    "swim:geom": "path",
    "swim:speeds": [
      377,
      377,
      377,
      377,
      377,
      423,
      423,
      423,
      423,
      443,
      443,
      443,
      443,
      455,
      455,
      455,
      456,
      456,
      456,
      456,
      456,
      456,
      446,
      446,
      446,
      446,
      444,
      444,
      442,
      442,
      442,
      442,
      439,
      439,
      439,
      439,
      439,
      436,
      436,
      436,
      436,
      435,
      435,
      435,
      435,
      435,
      434,
      434,
      434,
      434,
      434,
      434,
      434,
      434,
      434,
      434,
      434,
      434,
      434,
      437,
      437,
      437,
      437,
      436,
      436,
      436,
      436,
      436,
      436,
      436,
      421,
      421,
      421,
      421,
      421,
      421,
      421,
      422,
      422,
      422,
      422,
      422,
      421,
      421,
      421,
      421,
      417,
      417,
      417,
      417,
      417,
      417,
      417,
      417,
      417,
      417,
      417,
      417,
      417,
      417,
      417,
      417,
      417,
      413,
      413,
      413,
      413,
      370,
      370,
      335,
      335,
      335,
      339,
      339,
      339,
      339,
      339,
      366,
      366,
      347,
      347,
      284,
      260,
      260,
      260,
      247,
      247,
      247,
      248,
      244,
      244,
      244,
      209,
      209,
      209,
      209,
      185,
      185,
      167,
      167,
      167,
      167,
      167,
      152,
      152,
      152,
      145,
      145,
      145
    ],
    "swim:timestamps": [
      1760985619,
      1760985619,
      1760985619,
      1760985619,
      1760985619,
      1760985913,
      1760985913,
      1760985913,
      1760985913,
      1760986034,
      1760986034,
      1760986034,
      1760986034,
      1760986094,
      1760986094,
      1760986094,
      1760986154,
      1760986154,
      1760986154,
      1760986154,
      1760986154,
      1760986154,
      1760986460,
      1760986460,
      1760986460,
      1760986460,
      1760986634,
      1760986634,
      1760986695,
      1760986695,
      1760986695,
      1760986695,
      1760986881,
      1760986881,
      1760986881,
      1760986881,
      1760986881,
      1760987061,
      1760987061,
      1760987061,
      1760987061,
      1760987121,
      1760987121,
      1760987121,
      1760987121,
      1760987121,
      1760987421,
      1760987421,
      1760987421,
      1760987421,
      1760987421,
      1760987421,
      1760987421,
      1760987421,
      1760987776,
      1760987776,
      1760987776,
      1760987776,
      1760987776,
      1760987957,
      1760987957,
      1760987957,
      1760987957,
      1760988137,
      1760988137,
      1760988137,
      1760988137,
      1760988137,
      1760988137,
      1760988137,
      1760988497,
      1760988497,
      1760988497,
      1760988497,
      1760988497,
      1760988497,
      1760988497,
      1760988738,
      1760988738,
      1760988738,
      1760988738,
      1760988738,
      1760988858,
      1760988858,
      1760988858,
      1760988858,
      1760989038,
      1760989038,
      1760989038,
      1760989158,
      1760989158,
      1760989158,
      1760989158,
      1760989158,
      1760989158,
      1760989218,
      1760989218,
      1760989218,
      1760989459,
      1760989459,
      1760989459,
      1760989459,
      1760989459,
      1760989639,
      1760989639,
      1760989639,
      1760989639,
      1760989939,
      1760989939,
      1760990048,
      1760990048,
      1760990048,
      1760990060,
      1760990060,
      1760990060,
      1760990060,
      1760990060,
      1760990120,
      1760990120,
      1760990186,
      1760990186,
      1760990420,
      1760990504,
      1760990504,
      1760990504,
      1760990624,
      1760990624,
      1760990624,
      1760990661,
      1760990721,
      1760990721,
      1760990721,
      1760990841,
      1760990841,
      1760990841,
      1760990841,
      1760990961,
      1760990961,
      1760991081,
      1760991081,
      1760991081,
      1760991081,
      1760991081,
      1760991105,
      1760991105,
      1760991105,
      1760991201,
      1760991201,
      1760991201
    ],
    "wof:geomhash": "f0711de140c8f3f1078adde73286e12d",
    "wof:id": 1981722355,
    "wof:repo": "sfomuseum-data-flights-2025-10"
  },
  "bbox": [
    -122.73722222222223,
    38.098888888888894,
    -121.84305555555555,
    47.68416666666666
  ],
  "geometry": {"coordinates":[[-122.15444444444445,38.098888888888894],[-122.15444444444445,38.098888888888894],[-122.15444444444445,38.098888888888894],[-122.15444444444445,38.098888888888894],[-122.15444444444445,38.098888888888894],[-121.97638888888889,38.61805555555556],[-121.97638888888889,38.61805555555556],[-121.97638888888889,38.61805555555556],[-121.97638888888889,38.61805555555556],[-121.84305555555555,38.86666666666667],[-121.84305555555555,38.86666666666667],[-121.84305555555555,38.86666666666667],[-121.84305555555555,38.86666666666667],[-121.8475,38.99333333333333],[-121.8475,38.99333333333333],[-121.8475,38.99333333333333],[-121.84833333333333,39.12027777777778],[-121.84833333333333,39.12027777777778],[-121.84833333333333,39.12027777777778],[-121.84833333333333,39.12027777777778],[-121.84833333333333,39.12027777777778],[-121.84833333333333,39.12027777777778],[-121.87138888888889,39.73888888888889],[-121.87138888888889,39.73888888888889],[-121.87138888888889,39.73888888888889],[-121.87138888888889,39.73888888888889],[-121.88444444444445,40.10527777777778],[-121.88444444444445,40.10527777777778],[-121.88861111111112,40.22638888888889],[-121.88861111111112,40.22638888888889],[-121.88861111111112,40.22638888888889],[-121.88861111111112,40.22638888888889],[-121.9025,40.61416666666667],[-121.9025,40.61416666666667],[-121.9025,40.61416666666667],[-121.9025,40.61416666666667],[-121.9025,40.61416666666667],[-121.91555555555556,40.97527777777778],[-121.91555555555556,40.97527777777778],[-121.91555555555556,40.97527777777778],[-121.91555555555556,40.97527777777778],[-121.91972222222223,41.095555555555556],[-121.91972222222223,41.095555555555556],[-121.91972222222223,41.095555555555556],[-121.91972222222223,41.095555555555556],[-121.91972222222223,41.095555555555556],[-121.94194444444445,41.705555555555556],[-121.94194444444445,41.705555555555556],[-121.94194444444445,41.705555555555556],[-121.94194444444445,41.705555555555556],[-121.94194444444445,41.705555555555556],[-121.94194444444445,41.705555555555556],[-121.94194444444445,41.705555555555556],[-121.94194444444445,41.705555555555556],[-121.9675,42.39055555555556],[-121.9675,42.39055555555556],[-121.9675,42.39055555555556],[-121.9675,42.39055555555556],[-121.9675,42.39055555555556],[-121.98222222222222,42.77972222222222],[-121.98222222222222,42.77972222222222],[-121.98222222222222,42.77972222222222],[-121.98222222222222,42.77972222222222],[-121.9961111111111,43.1425],[-121.9961111111111,43.1425],[-121.9961111111111,43.1425],[-121.9961111111111,43.1425],[-121.9961111111111,43.1425],[-121.9961111111111,43.1425],[-121.9961111111111,43.1425],[-122.11777777777777,43.830555555555556],[-122.11777777777777,43.830555555555556],[-122.11777777777777,43.830555555555556],[-122.11777777777777,43.830555555555556],[-122.11777777777777,43.830555555555556],[-122.11777777777777,43.830555555555556],[-122.11777777777777,43.830555555555556],[-122.2286111111111,44.29138888888889],[-122.2286111111111,44.29138888888889],[-122.2286111111111,44.29138888888889],[-122.2286111111111,44.29138888888889],[-122.2286111111111,44.29138888888889],[-122.28444444444445,44.52027777777778],[-122.28444444444445,44.52027777777778],[-122.28444444444445,44.52027777777778],[-122.28444444444445,44.52027777777778],[-122.36833333333333,44.861666666666665],[-122.36833333333333,44.861666666666665],[-122.36833333333333,44.861666666666665],[-122.42472222222223,45.08777777777778],[-122.42472222222223,45.08777777777778],[-122.42472222222223,45.08777777777778],[-122.42472222222223,45.08777777777778],[-122.42472222222223,45.08777777777778],[-122.42472222222223,45.08777777777778],[-122.45333333333333,45.20194444444445],[-122.45333333333333,45.20194444444445],[-122.45333333333333,45.20194444444445],[-122.56805555555555,45.655],[-122.56805555555555,45.655],[-122.56805555555555,45.655],[-122.56805555555555,45.655],[-122.56805555555555,45.655],[-122.6525,45.995],[-122.6525,45.995],[-122.6525,45.995],[-122.6525,45.995],[-122.73,46.53916666666667],[-122.73,46.53916666666667],[-122.73694444444445,46.72138888888889],[-122.73694444444445,46.72138888888889],[-122.73694444444445,46.72138888888889],[-122.73722222222223,46.74],[-122.73722222222223,46.74],[-122.73722222222223,46.74],[-122.73722222222223,46.74],[-122.73722222222223,46.74],[-122.68722222222223,46.82833333333333],[-122.68722222222223,46.82833333333333],[-122.58583333333333,46.91861111111111],[-122.58583333333333,46.91861111111111],[-122.47444444444444,47.227222222222224],[-122.45944444444444,47.33083333333334],[-122.45944444444444,47.33083333333334],[-122.45944444444444,47.33083333333334],[-122.45527777777778,47.469722222222224],[-122.45527777777778,47.469722222222224],[-122.45527777777778,47.469722222222224],[-122.45527777777778,47.504444444444445],[-122.45555555555556,47.57222222222222],[-122.45555555555556,47.57222222222222],[-122.45555555555556,47.57222222222222],[-122.4175,47.68416666666666],[-122.4175,47.68416666666666],[-122.4175,47.68416666666666],[-122.4175,47.68416666666666],[-122.31666666666666,47.6375],[-122.31666666666666,47.6375],[-122.31722222222221,47.541666666666664],[-122.31722222222221,47.541666666666664],[-122.31722222222221,47.541666666666664],[-122.31722222222221,47.541666666666664],[-122.31722222222221,47.541666666666664],[-122.31944444444444,47.51972222222222],[-122.31944444444444,47.51972222222222],[-122.31944444444444,47.51972222222222],[-122.31805555555555,47.459722222222226],[-122.31805555555555,47.459722222222226],[-122.31805555555555,47.459722222222226]],"type":"LineString"}
}
