{
  "id": 1981767491,
  "type": "Feature",
  "properties": {
    "geom:area": 0,
    "geom:bbox": "-122.480000,20.680000,-105.250000,37.660000",
    "geom:latitude": 29.900800941107512,
    "geom:longitude": -113.14137433830486,
    "src:alt_label": "swim-route",
    "src:geom": "swim",
    "swim:geom": "route",
    "wof:geomhash": "493b56562909c869d50665d622d35f0b",
    "wof:id": 1981767491,
    "wof:repo": "sfomuseum-data-flights-2025-10"
  },
  "bbox": [
    -122.48,
    20.68,
    -105.25,
    37.66
  ],
  "geometry": {"coordinates":[[-122.38,37.62],[-122.48,37.66],[-122.48,37.65],[-122.48,37.64],[-122.48,37.57],[-122.48,37.57],[-122.48,37.54],[-122.47,37.49],[-122.47,37.49],[-122.46,37.48],[-122.44,37.46],[-122.34,37.39],[-122.19,37.28],[-122.15,37.25],[-122.09,37.21],[-122,37.14],[-121.83,37.01],[-121.82,37],[-121.79,36.98],[-121.64,36.87],[-121.47,36.74],[-121.38,36.68],[-121.37,36.67],[-121.2,36.54],[-121.11,36.47],[-121.06,36.43],[-121.01,36.39],[-120.79,36.24],[-120.26,35.87],[-120.11,35.75],[-119.98,35.65],[-119.3,35.18],[-118.55,34.65],[-118.09,34.32],[-117.74,34.07],[-117.53,33.92],[-116.84,33.35],[-116.59,33.14],[-115.68,32.67],[-115.65,32.65],[-114.95,32.28],[-114.97,32.27],[-115,32.24],[-114.79,32.13],[-114.58,32.02],[-113.3,31.37],[-112.82,30.88],[-112.61,30.69],[-111.36,29.41],[-111.05,29.1],[-110.22,27.93],[-110.14,27.82],[-110.03,27.67],[-109.84,27.39],[-109.48,27.01],[-109.28,26.75],[-108.72,26.17],[-108.58,25.82],[-108.48,25.72],[-107.93,24.87],[-107.8,24.22],[-106.85,23.17],[-106.55,22.61],[-106.3,22.52],[-106.26,22.44],[-106.16,22.27],[-105.72,21.8],[-105.5,21.5],[-105.32,20.84],[-105.25,20.68],[-105.25,20.68]],"type":"LineString"}
}
