{
  "id": 1981754179,
  "type": "Feature",
  "properties": {
    "geom:area": 0,
    "geom:bbox": "-122.216667,37.491944,-70.969167,43.321944",
    "geom:latitude": 41.582171869235744,
    "geom:longitude": -96.7126828899799,
    "src:alt_label": "swim-path",
    "src:geom": "swim",
    "swim:altitudes": [
      "133",
      "154",
      "154",
      "154",
      "168",
      "210",
      "210",
      "210",
      "210",
      "261",
      "261",
      "320C",
      "320C",
      "320C",
      "320C",
      "320C",
      "320C",
      "320C",
      "320C",
      "320C",
      "320C",
      "320C",
      "320C",
      "320C",
      "320C",
      "320C",
      "320C",
      "320C",
      "320C",
      "320C",
      "320C",
      "320C",
      "320C",
      "320C",
      "320C",
      "320C",
      "320C",
      "320C",
      "320C",
      "320C",
      "320C",
      "320C",
      "320C",
      "320C",
      "320C",
      "320C",
      "320C",
      "320C",
      "320C",
      "320C",
      "320C",
      "321C",
      "320C",
      "320C",
      "320C",
      "320C",
      "320C",
      "320C",
      "320C",
      "320C",
      "320C",
      "320C",
      "320C",
      "320C",
      "320C",
      "320C",
      "320C",
      "320C",
      "320C",
      "320C",
      "321C",
      "321C",
      "321C",
      "320C",
      "320C",
      "320C",
      "320C",
      "320C",
      "320C",
      "320C",
      "320C",
      "320C",
      "320C",
      "320C",
      "320C",
      "320C",
      "320C",
      "320C",
      "320C",
      "320C",
      "325",
      "325",
      "331",
      "331",
      "331",
      "340C",
      "340C",
      "340C",
      "340C",
      "340C",
      "340C",
      "340C",
      "340C",
      "340C",
      "340C",
      "340C",
      "340C",
      "340C",
      "340C",
      "340C",
      "340C",
      "340C",
      "340C",
      "340C",
      "340C",
      "340C",
      "340C",
      "340C",
      "340C",
      "340C",
      "340C",
      "340C",
      "340C",
      "340C",
      "340C",
      "340C",
      "340C",
      "340C",
      "340C",
      "340C",
      "340C",
      "340C",
      "340C",
      "340C",
      "340C",
      "340C",
      "340C",
      "340C",
      "340C",
      "340C",
      "340C",
      "340C",
      "340C",
      "340C",
      "340C",
      "340C",
      "340C",
      "340C",
      "340C",
      "340C",
      "340C",
      "340C",
      "340C",
      "340C",
      "340C",
      "340C",
      "340C",
      "340C",
      "340C",
      "340C",
      "340C",
      "340C",
      "340C",
      "340C",
      "340C",
      "340C",
      "340C",
      "340C",
      "340C",
      "340C",
      "340C",
      "340C",
      "340C",
      "340C",
      "340C",
      "340C",
      "340C",
      "340C",
      "340C",
      "340C",
      "340C",
      "340C",
      "340C",
      "340C",
      "340C",
      "340C",
      "340C",
      "340C",
      "340C",
      "340C",
      "340C",
      "340C",
      "340C",
      "340C",
      "340C",
      "340C",
      "340C",
      "340C",
      "340C",
      "360C",
      "360C",
      "360C",
      "360C",
      "360C",
      "360C",
      "360C",
      "360C",
      "360C",
      "360C",
      "360C",
      "360C",
      "360C",
      "360C",
      "360C",
      "360C",
      "360C",
      "360C",
      "360C",
      "360C",
      "360C",
      "360C",
      "360C",
      "360C",
      "360C",
      "360C",
      "360C",
      "360C",
      "360C",
      "360C",
      "360C",
      "360C",
      "360C",
      "360C",
      "360C",
      "360C",
      "360C",
      "360C",
      "360C",
      "360C",
      "360C",
      "360C",
      "360C",
      "360C",
      "360C",
      "360C",
      "360C",
      "360C",
      "360C",
      "350",
      "341C",
      "341C",
      "341C",
      "341C",
      "340",
      "339",
      "339",
      "264",
      "264",
      "254",
      "254",
      "254",
      "196",
      "196",
      "175",
      "166",
      "152",
      "152",
      "095",
      "095",
      "095",
      "077",
      "071",
      "071",
      "071",
      "031",
      "029",
      "029",
      "029",
      "024",
      "024"
    ],
    "swim:geom": "path",
    "swim:speeds": [
      382,
      389,
      389,
      389,
      395,
      407,
      407,
      407,
      407,
      424,
      424,
      411,
      411,
      412,
      412,
      412,
      412,
      415,
      415,
      415,
      414,
      415,
      415,
      417,
      417,
      417,
      416,
      416,
      412,
      412,
      412,
      412,
      412,
      412,
      389,
      389,
      388,
      388,
      392,
      392,
      392,
      393,
      393,
      393,
      402,
      402,
      402,
      402,
      401,
      401,
      406,
      406,
      407,
      407,
      407,
      406,
      407,
      405,
      404,
      400,
      400,
      400,
      397,
      393,
      391,
      391,
      391,
      390,
      390,
      390,
      393,
      393,
      393,
      397,
      396,
      398,
      398,
      397,
      399,
      399,
      399,
      399,
      399,
      399,
      398,
      397,
      397,
      397,
      396,
      396,
      397,
      397,
      397,
      397,
      397,
      399,
      399,
      403,
      403,
      403,
      404,
      404,
      403,
      403,
      403,
      401,
      401,
      399,
      399,
      398,
      398,
      398,
      398,
      401,
      401,
      401,
      401,
      402,
      402,
      402,
      402,
      402,
      402,
      404,
      409,
      409,
      409,
      409,
      408,
      408,
      408,
      408,
      415,
      419,
      419,
      422,
      422,
      422,
      422,
      431,
      431,
      431,
      438,
      439,
      439,
      440,
      440,
      443,
      443,
      443,
      443,
      446,
      446,
      449,
      449,
      449,
      451,
      451,
      453,
      451,
      459,
      459,
      459,
      459,
      459,
      459,
      463,
      463,
      464,
      464,
      464,
      461,
      468,
      468,
      468,
      467,
      467,
      467,
      468,
      468,
      468,
      473,
      473,
      473,
      473,
      473,
      479,
      479,
      479,
      479,
      482,
      482,
      483,
      483,
      483,
      483,
      481,
      477,
      477,
      478,
      478,
      478,
      478,
      477,
      477,
      477,
      477,
      474,
      469,
      468,
      468,
      468,
      467,
      467,
      467,
      467,
      467,
      467,
      460,
      460,
      460,
      459,
      459,
      459,
      459,
      457,
      457,
      452,
      452,
      446,
      446,
      446,
      446,
      446,
      434,
      434,
      433,
      433,
      434,
      433,
      433,
      434,
      434,
      428,
      428,
      428,
      419,
      419,
      420,
      422,
      422,
      422,
      422,
      425,
      425,
      425,
      409,
      409,
      391,
      391,
      391,
      356,
      356,
      345,
      349,
      329,
      329,
      279,
      279,
      279,
      252,
      248,
      248,
      248,
      222,
      199,
      199,
      199,
      188,
      188
    ],
    "swim:timestamps": [
      1761333521,
      1761333581,
      1761333581,
      1761333581,
      1761333641,
      1761333821,
      1761333821,
      1761333821,
      1761333821,
      1761334122,
      1761334122,
      1761334662,
      1761334662,
      1761334722,
      1761334722,
      1761334722,
      1761334722,
      1761334913,
      1761334913,
      1761334913,
      1761335273,
      1761335323,
      1761335323,
      1761335443,
      1761335443,
      1761335443,
      1761335634,
      1761335634,
      1761335874,
      1761335874,
      1761335984,
      1761335984,
      1761335984,
      1761335984,
      1761337340,
      1761337340,
      1761337460,
      1761337460,
      1761337700,
      1761337700,
      1761337700,
      1761337941,
      1761337941,
      1761337941,
      1761338241,
      1761338241,
      1761338241,
      1761338241,
      1761338361,
      1761338361,
      1761338454,
      1761338505,
      1761338542,
      1761338542,
      1761338542,
      1761338565,
      1761338602,
      1761338685,
      1761338745,
      1761338782,
      1761338782,
      1761338782,
      1761338865,
      1761338902,
      1761338935,
      1761338935,
      1761338935,
      1761338985,
      1761339022,
      1761339022,
      1761339106,
      1761339106,
      1761339115,
      1761339295,
      1761339323,
      1761339346,
      1761339346,
      1761339383,
      1761339406,
      1761339563,
      1761339563,
      1761339563,
      1761339563,
      1761339563,
      1761339656,
      1761339836,
      1761339836,
      1761339836,
      1761340007,
      1761340007,
      1761340247,
      1761340247,
      1761340307,
      1761340307,
      1761340307,
      1761340557,
      1761340557,
      1761340677,
      1761340677,
      1761340677,
      1761340857,
      1761340857,
      1761340917,
      1761340917,
      1761340917,
      1761341037,
      1761341037,
      1761341389,
      1761341389,
      1761341638,
      1761341638,
      1761341638,
      1761341638,
      1761341869,
      1761341869,
      1761341929,
      1761341929,
      1761342049,
      1761342049,
      1761342049,
      1761342049,
      1761342110,
      1761342110,
      1761342239,
      1761342419,
      1761342419,
      1761342419,
      1761342419,
      1761342891,
      1761342891,
      1761342891,
      1761342891,
      1761343191,
      1761343371,
      1761343371,
      1761343551,
      1761343551,
      1761343551,
      1761343551,
      1761344092,
      1761344092,
      1761344092,
      1761344393,
      1761344434,
      1761344434,
      1761344494,
      1761344494,
      1761344614,
      1761344614,
      1761344614,
      1761344633,
      1761344735,
      1761344735,
      1761344873,
      1761344873,
      1761344873,
      1761344915,
      1761344915,
      1761345032,
      1761345053,
      1761345272,
      1761345272,
      1761345272,
      1761345332,
      1761345332,
      1761345332,
      1761345756,
      1761345756,
      1761345816,
      1761345816,
      1761345816,
      1761345870,
      1761346056,
      1761346056,
      1761346056,
      1761346110,
      1761346110,
      1761346110,
      1761346116,
      1761346116,
      1761346116,
      1761346591,
      1761346591,
      1761346591,
      1761346591,
      1761346591,
      1761346892,
      1761346892,
      1761346892,
      1761346892,
      1761346958,
      1761347132,
      1761347198,
      1761347198,
      1761347198,
      1761347198,
      1761347498,
      1761347618,
      1761347618,
      1761347853,
      1761347859,
      1761347859,
      1761347859,
      1761348093,
      1761348093,
      1761348093,
      1761348093,
      1761348274,
      1761348394,
      1761348460,
      1761348460,
      1761348460,
      1761348520,
      1761348520,
      1761348634,
      1761348634,
      1761348634,
      1761348634,
      1761349127,
      1761349127,
      1761349127,
      1761349187,
      1761349187,
      1761349187,
      1761349187,
      1761349367,
      1761349488,
      1761349608,
      1761349608,
      1761349788,
      1761349788,
      1761349788,
      1761349788,
      1761349788,
      1761351075,
      1761351075,
      1761351110,
      1761351110,
      1761351350,
      1761351435,
      1761351435,
      1761351651,
      1761351651,
      1761351831,
      1761351831,
      1761351831,
      1761352036,
      1761352036,
      1761352277,
      1761352337,
      1761352337,
      1761352337,
      1761352337,
      1761352457,
      1761352577,
      1761352577,
      1761352781,
      1761352781,
      1761352817,
      1761352817,
      1761352817,
      1761352966,
      1761352966,
      1761353027,
      1761353058,
      1761353087,
      1761353087,
      1761353298,
      1761353298,
      1761353298,
      1761353382,
      1761353418,
      1761353418,
      1761353418,
      1761353621,
      1761353658,
      1761353658,
      1761353658,
      1761353681,
      1761353681
    ],
    "wof:geomhash": "7f89a1e621a706bfce646f617b8c32bb",
    "wof:id": 1981754179,
    "wof:repo": "sfomuseum-data-flights-2025-10"
  },
  "bbox": [
    -122.21666666666667,
    37.49194444444444,
    -70.96916666666667,
    43.32194444444445
  ],
  "geometry": {"coordinates":[[-70.96916666666667,42.6325],[-71.0911111111111,42.69194444444444],[-71.0911111111111,42.69194444444444],[-71.0911111111111,42.69194444444444],[-71.21694444444445,42.75277777777778],[-71.66166666666668,42.82361111111111],[-71.66166666666668,42.82361111111111],[-71.66166666666668,42.82361111111111],[-71.66166666666668,42.82361111111111],[-72.43277777777779,42.905],[-72.43277777777779,42.905],[-73.82916666666667,43.00555555555555],[-73.82916666666667,43.00555555555555],[-73.985,43.00888888888889],[-73.985,43.00888888888889],[-73.985,43.00888888888889],[-73.985,43.00888888888889],[-74.4888888888889,43.02361111111111],[-74.4888888888889,43.02361111111111],[-74.4888888888889,43.02361111111111],[-75.43583333333333,43.061388888888885],[-75.56166666666667,43.06472222222222],[-75.56166666666667,43.06472222222222],[-75.87972222222221,43.07277777777778],[-75.87972222222221,43.07277777777778],[-75.87972222222221,43.07277777777778],[-76.38388888888889,43.08361111111111],[-76.38388888888889,43.08361111111111],[-76.99722222222222,43.118611111111115],[-76.99722222222222,43.118611111111115],[-77.27472222222222,43.144444444444446],[-77.27472222222222,43.144444444444446],[-77.27472222222222,43.144444444444446],[-77.27472222222222,43.144444444444446],[-80.72888888888889,43.31583333333333],[-80.72888888888889,43.31583333333333],[-81.02694444444444,43.318333333333335],[-81.02694444444444,43.318333333333335],[-81.60444444444444,43.32194444444445],[-81.60444444444444,43.32194444444445],[-81.60444444444444,43.32194444444445],[-82.20138888888889,43.32194444444445],[-82.20138888888889,43.32194444444445],[-82.20138888888889,43.32194444444445],[-82.95805555555556,43.231388888888894],[-82.95805555555556,43.231388888888894],[-82.95805555555556,43.231388888888894],[-82.95805555555556,43.231388888888894],[-83.25944444444444,43.19361111111111],[-83.25944444444444,43.19361111111111],[-83.51194444444444,43.16111111111111],[-83.63666666666667,43.14527777777778],[-83.74222222222222,43.13166666666667],[-83.74222222222222,43.13166666666667],[-83.74222222222222,43.13166666666667],[-83.78694444444444,43.12583333333333],[-83.89111111111112,43.11194444444445],[-84.08972222222222,43.08555555555556],[-84.23777777777778,43.065555555555555],[-84.33805555555556,43.051944444444445],[-84.33805555555556,43.051944444444445],[-84.33805555555556,43.051944444444445],[-84.53416666666666,43.025],[-84.61916666666666,43.019999999999996],[-84.71000000000001,43.02361111111111],[-84.71000000000001,43.02361111111111],[-84.71000000000001,43.02361111111111],[-84.82777777777777,43.028888888888886],[-84.91444444444446,43.0325],[-84.91444444444446,43.0325],[-85.12472222222222,43.04194444444444],[-85.12472222222222,43.04194444444444],[-85.15333333333334,43.043055555555554],[-85.6061111111111,43.061388888888885],[-85.66388888888889,43.06361111111111],[-85.72833333333334,43.066111111111105],[-85.72833333333334,43.066111111111105],[-85.81638888888888,43.06916666666667],[-85.87638888888888,43.07138888888889],[-86.285,43.08555555555556],[-86.285,43.08555555555556],[-86.285,43.08555555555556],[-86.285,43.08555555555556],[-86.285,43.08555555555556],[-86.49805555555555,43.0925],[-86.94833333333334,43.105555555555554],[-86.94833333333334,43.105555555555554],[-86.94833333333334,43.105555555555554],[-87.37805555555555,43.11611111111111],[-87.37805555555555,43.11611111111111],[-87.995,43.12861111111111],[-87.995,43.12861111111111],[-88.13444444444445,43.130833333333335],[-88.13444444444445,43.130833333333335],[-88.13444444444445,43.130833333333335],[-88.7713888888889,43.14],[-88.7713888888889,43.14],[-89.07805555555555,43.14277777777778],[-89.07805555555555,43.14277777777778],[-89.07805555555555,43.14277777777778],[-89.53999999999999,43.14527777777778],[-89.53999999999999,43.14527777777778],[-89.69277777777778,43.14611111111111],[-89.69277777777778,43.14611111111111],[-89.69277777777778,43.14611111111111],[-89.99638888888889,43.145833333333336],[-89.99638888888889,43.145833333333336],[-90.87805555555555,43.14194444444444],[-90.87805555555555,43.14194444444444],[-91.50916666666667,43.13472222222222],[-91.50916666666667,43.13472222222222],[-91.50916666666667,43.13472222222222],[-91.50916666666667,43.13472222222222],[-92.11222222222221,43.124722222222225],[-92.11222222222221,43.124722222222225],[-92.26444444444445,43.12166666666667],[-92.26444444444445,43.12166666666667],[-92.56944444444444,43.115],[-92.56944444444444,43.115],[-92.56944444444444,43.115],[-92.56944444444444,43.115],[-92.72111111111111,43.11138888888889],[-92.72111111111111,43.11138888888889],[-93.02555555555556,43.103611111111114],[-93.52083333333333,43.07666666666667],[-93.52083333333333,43.07666666666667],[-93.52083333333333,43.07666666666667],[-93.52083333333333,43.07666666666667],[-94.72027777777778,42.95777777777778],[-94.72027777777778,42.95777777777778],[-94.72027777777778,42.95777777777778],[-94.72027777777778,42.95777777777778],[-95.49472222222222,42.87388888888889],[-95.96694444444445,42.82027777777778],[-95.96694444444445,42.82027777777778],[-96.43916666666667,42.76416666666667],[-96.43916666666667,42.76416666666667],[-96.43916666666667,42.76416666666667],[-96.43916666666667,42.76416666666667],[-97.83999999999999,42.58638888888889],[-97.83999999999999,42.58638888888889],[-97.83999999999999,42.58638888888889],[-98.65944444444445,42.47416666666667],[-98.78666666666666,42.45444444444445],[-98.78666666666666,42.45444444444445],[-98.94972222222222,42.42638888888889],[-98.94972222222222,42.42638888888889],[-99.27333333333333,42.37166666666667],[-99.27333333333333,42.37166666666667],[-99.27333333333333,42.37166666666667],[-99.30722222222222,42.365833333333335],[-99.60083333333333,42.31527777777777],[-99.60083333333333,42.31527777777777],[-99.96305555555556,42.251666666666665],[-99.96305555555556,42.251666666666665],[-99.96305555555556,42.251666666666665],[-100.09888888888888,42.227222222222224],[-100.09888888888888,42.227222222222224],[-100.41000000000001,42.169444444444444],[-100.45416666666667,42.163333333333334],[-101.06888888888888,42.0475],[-101.06888888888888,42.0475],[-101.06888888888888,42.0475],[-101.235,42.01638888888889],[-101.235,42.01638888888889],[-101.235,42.01638888888889],[-102.40166666666667,41.79],[-102.40166666666667,41.79],[-102.56805555555555,41.756388888888885],[-102.56805555555555,41.756388888888885],[-102.56805555555555,41.756388888888885],[-102.73555555555555,41.72166666666667],[-103.23916666666666,41.617777777777775],[-103.23916666666666,41.617777777777775],[-103.23916666666666,41.617777777777775],[-103.4075,41.58111111111111],[-103.4075,41.58111111111111],[-103.4075,41.58111111111111],[-103.4063888888889,41.5825],[-103.4063888888889,41.5825],[-103.4063888888889,41.5825],[-104.755,41.28805555555555],[-104.755,41.28805555555555],[-104.755,41.28805555555555],[-104.755,41.28805555555555],[-104.755,41.28805555555555],[-105.59694444444445,41.094166666666666],[-105.59694444444445,41.094166666666666],[-105.59694444444445,41.094166666666666],[-105.59694444444445,41.094166666666666],[-105.77166666666666,41.053888888888885],[-106.27555555555556,40.93611111111111],[-106.44472222222223,40.89805555555556],[-106.44472222222223,40.89805555555556],[-106.44472222222223,40.89805555555556],[-106.44472222222223,40.89805555555556],[-107.28416666666666,40.7],[-107.61694444444444,40.61944444444445],[-107.61694444444444,40.61944444444445],[-108.28416666666666,40.45472222222222],[-108.28666666666666,40.45416666666667],[-108.28666666666666,40.45416666666667],[-108.28666666666666,40.45416666666667],[-108.93611111111112,40.28916666666667],[-108.93611111111112,40.28916666666667],[-108.93611111111112,40.28916666666667],[-108.93611111111112,40.28916666666667],[-109.42194444444445,40.16277777777778],[-109.7388888888889,40.07916666666667],[-109.92944444444444,40.02833333333333],[-109.92944444444444,40.02833333333333],[-109.92944444444444,40.02833333333333],[-110.08999999999999,39.985],[-110.08999999999999,39.985],[-110.37555555555555,39.907777777777774],[-110.37555555555555,39.907777777777774],[-110.37555555555555,39.907777777777774],[-110.37555555555555,39.907777777777774],[-111.64750000000001,39.551944444444445],[-111.64750000000001,39.551944444444445],[-111.64750000000001,39.551944444444445],[-111.80277777777778,39.507222222222225],[-111.80277777777778,39.507222222222225],[-111.80277777777778,39.507222222222225],[-111.80277777777778,39.507222222222225],[-112.26527777777778,39.37277777777778],[-112.57083333333333,39.28722222222222],[-112.88166666666666,39.218611111111116],[-112.88166666666666,39.218611111111116],[-113.33944444444444,39.11527777777778],[-113.33944444444444,39.11527777777778],[-113.33944444444444,39.11527777777778],[-113.33944444444444,39.11527777777778],[-113.33944444444444,39.11527777777778],[-116.53583333333333,38.333333333333336],[-116.53583333333333,38.333333333333336],[-116.61972222222222,38.31111111111111],[-116.61972222222222,38.31111111111111],[-117.19638888888889,38.15861111111111],[-117.39277777777778,38.10583333333334],[-117.39277777777778,38.10583333333334],[-117.91777777777779,37.988055555555555],[-117.91777777777779,37.988055555555555],[-118.36555555555555,37.939722222222215],[-118.36555555555555,37.939722222222215],[-118.36555555555555,37.939722222222215],[-118.86333333333333,37.884166666666665],[-118.86333333333333,37.884166666666665],[-119.45527777777778,37.81583333333333],[-119.60111111111111,37.79833333333333],[-119.60111111111111,37.79833333333333],[-119.60111111111111,37.79833333333333],[-119.60111111111111,37.79833333333333],[-119.89861111111112,37.76222222222222],[-120.19305555555556,37.72555555555556],[-120.19305555555556,37.72555555555556],[-120.7,37.666666666666664],[-120.7,37.666666666666664],[-120.7725,37.65555555555555],[-120.7725,37.65555555555555],[-120.7725,37.65555555555555],[-121.1,37.61666666666667],[-121.1,37.61666666666667],[-121.21666666666667,37.6],[-121.26083333333334,37.5925],[-121.33333333333333,37.583333333333336],[-121.33333333333333,37.583333333333336],[-121.69472222222223,37.533055555555556],[-121.69472222222223,37.533055555555556],[-121.69472222222223,37.533055555555556],[-121.83333333333333,37.5],[-121.86944444444444,37.49194444444444],[-121.86944444444444,37.49194444444444],[-121.86944444444444,37.49194444444444],[-122.15,37.55],[-122.1825,37.55777777777777],[-122.1825,37.55777777777777],[-122.1825,37.55777777777777],[-122.21666666666667,37.56666666666667],[-122.21666666666667,37.56666666666667]],"type":"LineString"}
}
