{
  "id": 1981783425,
  "type": "Feature",
  "properties": {
    "geom:area": 0,
    "geom:bbox": "-122.212500,37.718611,-71.010000,42.757222",
    "geom:latitude": 40.95810675109111,
    "geom:longitude": -96.3584058912246,
    "src:alt_label": "swim-path",
    "src:geom": "swim",
    "swim:altitudes": [
      "055",
      "055",
      "055",
      "055",
      "055",
      "055",
      "131",
      "131",
      "131",
      "131",
      "131",
      "131",
      "152",
      "152",
      "152",
      "152",
      "152",
      "180",
      "180",
      "180",
      "197",
      "197",
      "197",
      "219",
      "219",
      "219",
      "219",
      "219",
      "219",
      "219",
      "219",
      "242",
      "242",
      "242",
      "242",
      "242",
      "242",
      "292",
      "292",
      "292",
      "292",
      "292",
      "292",
      "292",
      "292",
      "292",
      "291C",
      "291C",
      "291C",
      "291C",
      "291C",
      "291C",
      "291C",
      "291C",
      "291C",
      "290C",
      "290C",
      "290C",
      "290C",
      "290C",
      "290C",
      "290C",
      "290C",
      "290C",
      "290C",
      "303",
      "303",
      "303",
      "303",
      "303",
      "303",
      "303",
      "348C",
      "348C",
      "348C",
      "348C",
      "348C",
      "348C",
      "350C",
      "350C",
      "350C",
      "350C",
      "350C",
      "350C",
      "350C",
      "350C",
      "350C",
      "350C",
      "350C",
      "350C",
      "350C",
      "350C",
      "350C",
      "350C",
      "350C",
      "350C",
      "350C",
      "350C",
      "350C",
      "350C",
      "350C",
      "350C",
      "350C",
      "350C",
      "350C",
      "350C",
      "350C",
      "350C",
      "350C",
      "351C",
      "351C",
      "351C",
      "351C",
      "350C",
      "350C",
      "350C",
      "350C",
      "350C",
      "350C",
      "350C",
      "350C",
      "350C",
      "350C",
      "350C",
      "350C",
      "350C",
      "350C",
      "350C",
      "350C",
      "350C",
      "350C",
      "350C",
      "350C",
      "350C",
      "350C",
      "350C",
      "350C",
      "350C",
      "350C",
      "350C",
      "350C",
      "350C",
      "350C",
      "350C",
      "350C",
      "350C",
      "350C",
      "350C",
      "350C",
      "350C",
      "350C",
      "350C",
      "350C",
      "350C",
      "350C",
      "350C",
      "350C",
      "350C",
      "350C",
      "350C",
      "350C",
      "350C",
      "350C",
      "350C",
      "350C",
      "350C",
      "350C",
      "350C",
      "350C",
      "350C",
      "350C",
      "350C",
      "350C",
      "350C",
      "350C",
      "350C",
      "350C",
      "350C",
      "350C",
      "350C",
      "350C",
      "350C",
      "350C",
      "350C",
      "350C",
      "350C",
      "364",
      "364",
      "370C",
      "370C",
      "370C",
      "370C",
      "370C",
      "370C",
      "370C",
      "370C",
      "370C",
      "370C",
      "370C",
      "370C",
      "370C",
      "370C",
      "370C",
      "370C",
      "370C",
      "370C",
      "370C",
      "370C",
      "370C",
      "371C",
      "371C",
      "370C",
      "370C",
      "370C",
      "370C",
      "370C",
      "370C",
      "370C",
      "370C",
      "370C",
      "370C",
      "370C",
      "370C",
      "370C",
      "370C",
      "370C",
      "370C",
      "370C",
      "370C",
      "370C",
      "370C",
      "370C",
      "370C",
      "370C",
      "370C",
      "370C",
      "370C",
      "370C",
      "370C",
      "370C",
      "370C",
      "370C",
      "370C",
      "370C",
      "370C",
      "370C",
      "370C",
      "370C",
      "370C",
      "370C",
      "370C",
      "370C",
      "370C",
      "370C",
      "370C",
      "370C",
      "370C",
      "370C",
      "370C",
      "370C",
      "370C",
      "370C",
      "370C",
      "370C",
      "370C",
      "370C",
      "370C",
      "370C",
      "370C",
      "370C",
      "370C",
      "370C",
      "370C",
      "370C",
      "370C",
      "370C",
      "370C",
      "370C",
      "370C",
      "370C",
      "370C",
      "370C",
      "370C",
      "370C",
      "370C",
      "370C",
      "370C",
      "370C",
      "370C",
      "370C",
      "370C",
      "370C",
      "370C",
      "370C",
      "370C",
      "370C",
      "370C",
      "370C",
      "370C",
      "370C",
      "370C",
      "370C",
      "370C",
      "370C",
      "370C",
      "370C",
      "370C",
      "370C",
      "370C",
      "370C",
      "370C",
      "370C",
      "370C",
      "370C",
      "370C",
      "370C",
      "370C",
      "370C",
      "370C",
      "370C",
      "370C",
      "370C",
      "370C",
      "370C",
      "370C",
      "370C",
      "370C",
      "370C",
      "370C",
      "370C",
      "370C",
      "370C",
      "370C",
      "370C",
      "370C",
      "370C",
      "370C",
      "370C",
      "370C",
      "370C",
      "370C",
      "370C",
      "370C",
      "370C",
      "370C",
      "370C",
      "370C",
      "370C",
      "370C",
      "370C",
      "370C",
      "370C",
      "370C",
      "370C",
      "371C",
      "371C",
      "371C",
      "371C",
      "370C",
      "370C",
      "370C",
      "370C",
      "370C",
      "370C",
      "370C",
      "370C",
      "370C",
      "370C",
      "370C",
      "370C",
      "370C",
      "370C",
      "370C",
      "370C",
      "370C",
      "370C",
      "370C",
      "370C",
      "370C",
      "370C",
      "370C",
      "370C",
      "370C",
      "370C",
      "370C",
      "370C",
      "370C",
      "370C",
      "370C",
      "370C",
      "370C",
      "370C",
      "370C",
      "370C",
      "370C",
      "370C",
      "370C",
      "370C",
      "370C",
      "370C",
      "370C",
      "370C",
      "370C",
      "370C",
      "370C",
      "370C",
      "370C",
      "370C",
      "370C",
      "370C",
      "370C",
      "370C",
      "370C",
      "370C",
      "370C",
      "295",
      "295",
      "295",
      "295",
      "295",
      "295",
      "295",
      "295",
      "295",
      "251",
      "251",
      "251",
      "251",
      "229",
      "229",
      "229",
      "229",
      "229",
      "229",
      "229",
      "217",
      "217",
      "217",
      "141",
      "141",
      "141",
      "141",
      "141",
      "133",
      "133",
      "133",
      "093",
      "093",
      "089",
      "089",
      "089",
      "089",
      "089",
      "089",
      "076",
      "076",
      "076",
      "076",
      "076",
      "069",
      "069",
      "069",
      "069",
      "031",
      "031",
      "030",
      "030",
      "030",
      "030",
      "030",
      "030",
      "030",
      "030",
      "030",
      "030",
      "030",
      "030",
      "030",
      "016",
      "016",
      "016",
      "016",
      "016",
      "016",
      "016",
      "016",
      "016"
    ],
    "swim:geom": "path",
    "swim:speeds": [
      264,
      264,
      264,
      264,
      264,
      264,
      393,
      393,
      393,
      393,
      393,
      393,
      405,
      405,
      405,
      405,
      405,
      441,
      441,
      441,
      452,
      452,
      452,
      480,
      480,
      480,
      480,
      480,
      480,
      480,
      480,
      487,
      487,
      487,
      487,
      487,
      487,
      523,
      523,
      523,
      523,
      523,
      523,
      523,
      523,
      523,
      527,
      527,
      527,
      527,
      527,
      527,
      527,
      527,
      527,
      527,
      527,
      527,
      527,
      526,
      526,
      526,
      526,
      526,
      526,
      517,
      517,
      517,
      517,
      517,
      517,
      517,
      517,
      517,
      517,
      517,
      517,
      517,
      516,
      516,
      516,
      516,
      516,
      516,
      516,
      521,
      521,
      521,
      521,
      521,
      523,
      523,
      523,
      523,
      527,
      532,
      532,
      532,
      532,
      532,
      532,
      532,
      534,
      534,
      539,
      539,
      539,
      539,
      539,
      550,
      550,
      550,
      550,
      551,
      551,
      551,
      553,
      553,
      553,
      557,
      557,
      557,
      557,
      555,
      555,
      555,
      559,
      559,
      559,
      561,
      561,
      561,
      561,
      561,
      561,
      561,
      569,
      569,
      569,
      569,
      569,
      569,
      569,
      569,
      572,
      572,
      572,
      572,
      572,
      572,
      572,
      570,
      570,
      570,
      570,
      570,
      570,
      569,
      569,
      569,
      569,
      569,
      569,
      569,
      569,
      570,
      570,
      570,
      569,
      569,
      569,
      569,
      569,
      569,
      572,
      572,
      572,
      572,
      572,
      572,
      572,
      572,
      572,
      572,
      572,
      572,
      510,
      510,
      511,
      511,
      511,
      511,
      511,
      511,
      511,
      511,
      511,
      511,
      511,
      512,
      512,
      512,
      512,
      516,
      516,
      516,
      516,
      517,
      517,
      517,
      517,
      514,
      514,
      514,
      514,
      514,
      514,
      514,
      514,
      497,
      497,
      497,
      497,
      497,
      497,
      497,
      497,
      497,
      492,
      492,
      492,
      492,
      492,
      492,
      482,
      482,
      482,
      482,
      482,
      482,
      482,
      482,
      477,
      477,
      477,
      477,
      477,
      477,
      477,
      477,
      477,
      468,
      468,
      468,
      456,
      456,
      456,
      456,
      459,
      459,
      459,
      459,
      459,
      460,
      460,
      460,
      460,
      460,
      460,
      460,
      457,
      457,
      457,
      457,
      457,
      457,
      458,
      458,
      458,
      457,
      457,
      457,
      457,
      457,
      457,
      457,
      457,
      458,
      458,
      458,
      458,
      458,
      458,
      458,
      458,
      447,
      447,
      447,
      447,
      446,
      446,
      446,
      446,
      446,
      446,
      442,
      442,
      442,
      442,
      442,
      442,
      442,
      444,
      444,
      444,
      444,
      444,
      444,
      449,
      449,
      449,
      449,
      449,
      449,
      449,
      449,
      449,
      449,
      449,
      449,
      448,
      448,
      450,
      450,
      450,
      452,
      452,
      452,
      452,
      452,
      452,
      456,
      456,
      457,
      457,
      457,
      457,
      457,
      460,
      460,
      463,
      463,
      463,
      463,
      465,
      465,
      465,
      465,
      465,
      465,
      465,
      482,
      482,
      482,
      482,
      482,
      482,
      482,
      482,
      482,
      482,
      482,
      482,
      475,
      475,
      475,
      475,
      475,
      475,
      475,
      476,
      476,
      476,
      476,
      473,
      473,
      473,
      473,
      473,
      475,
      475,
      475,
      475,
      476,
      476,
      476,
      479,
      479,
      479,
      483,
      483,
      483,
      483,
      485,
      485,
      485,
      485,
      485,
      486,
      486,
      486,
      486,
      486,
      486,
      486,
      484,
      484,
      484,
      484,
      484,
      484,
      484,
      484,
      484,
      473,
      473,
      473,
      473,
      441,
      441,
      441,
      441,
      441,
      441,
      441,
      389,
      389,
      389,
      347,
      347,
      347,
      347,
      347,
      291,
      291,
      291,
      232,
      232,
      235,
      235,
      235,
      235,
      235,
      235,
      225,
      225,
      225,
      225,
      225,
      226,
      226,
      226,
      226,
      225,
      225,
      196,
      196,
      173,
      173,
      173,
      167,
      167,
      167,
      170,
      170,
      170,
      170,
      170,
      168,
      168,
      168,
      168,
      168,
      168,
      168,
      168,
      168
    ],
    "swim:timestamps": [
      1761574550,
      1761574550,
      1761574550,
      1761574550,
      1761574550,
      1761574550,
      1761574790,
      1761574790,
      1761574790,
      1761574790,
      1761574790,
      1761574790,
      1761574850,
      1761574850,
      1761574850,
      1761574850,
      1761574850,
      1761574970,
      1761574970,
      1761574970,
      1761575030,
      1761575030,
      1761575030,
      1761575150,
      1761575150,
      1761575150,
      1761575150,
      1761575150,
      1761575150,
      1761575150,
      1761575150,
      1761575330,
      1761575330,
      1761575330,
      1761575330,
      1761575330,
      1761575330,
      1761575631,
      1761575631,
      1761575631,
      1761575631,
      1761575631,
      1761575631,
      1761575631,
      1761575631,
      1761575631,
      1761576494,
      1761576494,
      1761576494,
      1761576494,
      1761576494,
      1761576494,
      1761576494,
      1761576494,
      1761576494,
      1761576674,
      1761576674,
      1761576674,
      1761576674,
      1761576772,
      1761576772,
      1761576772,
      1761576772,
      1761576772,
      1761576772,
      1761576914,
      1761576914,
      1761576914,
      1761576914,
      1761576914,
      1761576914,
      1761576914,
      1761577155,
      1761577155,
      1761577155,
      1761577155,
      1761577155,
      1761577155,
      1761577215,
      1761577215,
      1761577215,
      1761577215,
      1761577215,
      1761577215,
      1761577215,
      1761577816,
      1761577816,
      1761577816,
      1761577816,
      1761577816,
      1761577936,
      1761577936,
      1761577936,
      1761577936,
      1761578056,
      1761578176,
      1761578176,
      1761578176,
      1761578176,
      1761578236,
      1761578236,
      1761578236,
      1761578297,
      1761578297,
      1761578405,
      1761578405,
      1761578405,
      1761578405,
      1761578405,
      1761578706,
      1761578706,
      1761578706,
      1761578706,
      1761578766,
      1761578766,
      1761578766,
      1761578826,
      1761578826,
      1761578826,
      1761578946,
      1761578946,
      1761578946,
      1761578946,
      1761579066,
      1761579066,
      1761579078,
      1761579138,
      1761579138,
      1761579138,
      1761579246,
      1761579246,
      1761579246,
      1761579378,
      1761579378,
      1761579378,
      1761579378,
      1761579607,
      1761579607,
      1761579607,
      1761579607,
      1761579607,
      1761579607,
      1761579607,
      1761579607,
      1761579847,
      1761579847,
      1761579847,
      1761579847,
      1761579847,
      1761579847,
      1761579847,
      1761579907,
      1761579907,
      1761579907,
      1761579907,
      1761579907,
      1761579907,
      1761579967,
      1761579967,
      1761579967,
      1761579967,
      1761579967,
      1761580208,
      1761580208,
      1761580208,
      1761580268,
      1761580268,
      1761580268,
      1761580328,
      1761580328,
      1761580328,
      1761580328,
      1761580328,
      1761580328,
      1761580628,
      1761580628,
      1761580628,
      1761580628,
      1761580628,
      1761580628,
      1761580628,
      1761580628,
      1761580628,
      1761580628,
      1761580628,
      1761580628,
      1761581590,
      1761581590,
      1761581659,
      1761581659,
      1761581659,
      1761581659,
      1761581659,
      1761581659,
      1761581830,
      1761581830,
      1761581830,
      1761581830,
      1761581830,
      1761581839,
      1761581839,
      1761581839,
      1761581839,
      1761582010,
      1761582010,
      1761582010,
      1761582010,
      1761582079,
      1761582079,
      1761582190,
      1761582190,
      1761582250,
      1761582250,
      1761582250,
      1761582260,
      1761582260,
      1761582260,
      1761582260,
      1761582260,
      1761582680,
      1761582680,
      1761582680,
      1761582680,
      1761582680,
      1761582680,
      1761582680,
      1761582680,
      1761582680,
      1761582920,
      1761582920,
      1761582920,
      1761582920,
      1761582920,
      1761582920,
      1761583041,
      1761583041,
      1761583041,
      1761583041,
      1761583041,
      1761583041,
      1761583041,
      1761583041,
      1761583762,
      1761583762,
      1761583762,
      1761583762,
      1761583762,
      1761583762,
      1761583762,
      1761583762,
      1761583762,
      1761583876,
      1761583876,
      1761583876,
      1761584002,
      1761584002,
      1761584002,
      1761584002,
      1761584176,
      1761584176,
      1761584176,
      1761584176,
      1761584176,
      1761584297,
      1761584297,
      1761584297,
      1761584297,
      1761584297,
      1761584297,
      1761584297,
      1761584663,
      1761584663,
      1761584663,
      1761584663,
      1761584663,
      1761584663,
      1761585198,
      1761585198,
      1761585198,
      1761585258,
      1761585258,
      1761585258,
      1761585318,
      1761585318,
      1761585318,
      1761585318,
      1761585318,
      1761585558,
      1761585558,
      1761585558,
      1761585558,
      1761585558,
      1761585558,
      1761585558,
      1761585558,
      1761585859,
      1761585859,
      1761585859,
      1761585859,
      1761585919,
      1761585919,
      1761585919,
      1761585919,
      1761585919,
      1761585919,
      1761586339,
      1761586339,
      1761586339,
      1761586339,
      1761586339,
      1761586339,
      1761586339,
      1761586483,
      1761586483,
      1761586483,
      1761586483,
      1761586483,
      1761586483,
      1761586880,
      1761586880,
      1761586880,
      1761586880,
      1761586880,
      1761586904,
      1761586904,
      1761586904,
      1761586904,
      1761586904,
      1761586904,
      1761586904,
      1761586940,
      1761586940,
      1761587241,
      1761587241,
      1761587241,
      1761587361,
      1761587361,
      1761587361,
      1761587361,
      1761587361,
      1761587361,
      1761587742,
      1761587742,
      1761587802,
      1761587802,
      1761587802,
      1761587802,
      1761587802,
      1761587862,
      1761587862,
      1761587922,
      1761587922,
      1761587922,
      1761587922,
      1761587983,
      1761587983,
      1761587983,
      1761587983,
      1761588043,
      1761588043,
      1761588043,
      1761589064,
      1761589064,
      1761589064,
      1761589064,
      1761589064,
      1761589064,
      1761589064,
      1761589064,
      1761589064,
      1761589064,
      1761589245,
      1761589245,
      1761589358,
      1761589358,
      1761589358,
      1761589358,
      1761589358,
      1761589358,
      1761589358,
      1761589425,
      1761589425,
      1761589425,
      1761589425,
      1761589659,
      1761589659,
      1761589659,
      1761589659,
      1761589659,
      1761589725,
      1761589725,
      1761589725,
      1761589725,
      1761589779,
      1761589779,
      1761589779,
      1761589906,
      1761589906,
      1761589906,
      1761590146,
      1761590146,
      1761590146,
      1761590146,
      1761590200,
      1761590200,
      1761590200,
      1761590200,
      1761590200,
      1761590320,
      1761590320,
      1761590320,
      1761590320,
      1761590320,
      1761590320,
      1761590320,
      1761590920,
      1761590920,
      1761590920,
      1761590920,
      1761590920,
      1761590920,
      1761590920,
      1761590920,
      1761590920,
      1761591161,
      1761591161,
      1761591161,
      1761591161,
      1761591221,
      1761591221,
      1761591221,
      1761591221,
      1761591221,
      1761591221,
      1761591221,
      1761591281,
      1761591281,
      1761591281,
      1761591543,
      1761591543,
      1761591543,
      1761591543,
      1761591543,
      1761591603,
      1761591603,
      1761591603,
      1761591783,
      1761591783,
      1761591822,
      1761591822,
      1761591822,
      1761591822,
      1761591822,
      1761591822,
      1761591958,
      1761591958,
      1761591958,
      1761591958,
      1761591958,
      1761592018,
      1761592018,
      1761592018,
      1761592018,
      1761592482,
      1761592482,
      1761592498,
      1761592498,
      1761592542,
      1761592542,
      1761592542,
      1761592564,
      1761592564,
      1761592564,
      1761592603,
      1761592603,
      1761592603,
      1761592603,
      1761592603,
      1761592723,
      1761592723,
      1761592723,
      1761592723,
      1761592723,
      1761592723,
      1761592723,
      1761592723,
      1761592723
    ],
    "wof:geomhash": "9f0e1ec7f74f6281f7b14cff3fa19215",
    "wof:id": 1981783425,
    "wof:repo": "sfomuseum-data-flights-2025-10"
  },
  "bbox": [
    -122.2125,
    37.718611111111116,
    -71.01,
    42.757222222222225
  ],
  "geometry": {"coordinates":[[-122.2125,37.718611111111116],[-122.2125,37.718611111111116],[-122.2125,37.718611111111116],[-122.2125,37.718611111111116],[-122.2125,37.718611111111116],[-122.2125,37.718611111111116],[-121.80749999999999,37.86277777777778],[-121.80749999999999,37.86277777777778],[-121.80749999999999,37.86277777777778],[-121.80749999999999,37.86277777777778],[-121.80749999999999,37.86277777777778],[-121.80749999999999,37.86277777777778],[-121.66805555555555,37.88861111111111],[-121.66805555555555,37.88861111111111],[-121.66805555555555,37.88861111111111],[-121.66805555555555,37.88861111111111],[-121.66805555555555,37.88861111111111],[-121.38722222222223,37.94],[-121.38722222222223,37.94],[-121.38722222222223,37.94],[-121.23138888888889,37.96805555555556],[-121.23138888888889,37.96805555555556],[-121.23138888888889,37.96805555555556],[-120.90861111111111,38.021388888888886],[-120.90861111111111,38.021388888888886],[-120.90861111111111,38.021388888888886],[-120.90861111111111,38.021388888888886],[-120.90861111111111,38.021388888888886],[-120.90861111111111,38.021388888888886],[-120.90861111111111,38.021388888888886],[-120.90861111111111,38.021388888888886],[-120.4088888888889,38.097500000000004],[-120.4088888888889,38.097500000000004],[-120.4088888888889,38.097500000000004],[-120.4088888888889,38.097500000000004],[-120.4088888888889,38.097500000000004],[-120.4088888888889,38.097500000000004],[-119.51861111111111,38.227222222222224],[-119.51861111111111,38.227222222222224],[-119.51861111111111,38.227222222222224],[-119.51861111111111,38.227222222222224],[-119.51861111111111,38.227222222222224],[-119.51861111111111,38.227222222222224],[-119.51861111111111,38.227222222222224],[-119.51861111111111,38.227222222222224],[-119.51861111111111,38.227222222222224],[-116.89361111111111,38.51611111111111],[-116.89361111111111,38.51611111111111],[-116.89361111111111,38.51611111111111],[-116.89361111111111,38.51611111111111],[-116.89361111111111,38.51611111111111],[-116.89361111111111,38.51611111111111],[-116.89361111111111,38.51611111111111],[-116.89361111111111,38.51611111111111],[-116.89361111111111,38.51611111111111],[-116.36388888888888,38.507222222222225],[-116.36388888888888,38.507222222222225],[-116.36388888888888,38.507222222222225],[-116.36388888888888,38.507222222222225],[-116.02722222222222,38.50277777777778],[-116.02722222222222,38.50277777777778],[-116.02722222222222,38.50277777777778],[-116.02722222222222,38.50277777777778],[-116.02722222222222,38.50277777777778],[-116.02722222222222,38.50277777777778],[-115.62916666666666,38.552499999999995],[-115.62916666666666,38.552499999999995],[-115.62916666666666,38.552499999999995],[-115.62916666666666,38.552499999999995],[-115.62916666666666,38.552499999999995],[-115.62916666666666,38.552499999999995],[-115.62916666666666,38.552499999999995],[-114.87722222222222,38.655],[-114.87722222222222,38.655],[-114.87722222222222,38.655],[-114.87722222222222,38.655],[-114.87722222222222,38.655],[-114.87722222222222,38.655],[-114.69833333333334,38.67861111111111],[-114.69833333333334,38.67861111111111],[-114.69833333333334,38.67861111111111],[-114.69833333333334,38.67861111111111],[-114.69833333333334,38.67861111111111],[-114.69833333333334,38.67861111111111],[-114.69833333333334,38.67861111111111],[-112.90833333333335,38.994166666666665],[-112.90833333333335,38.994166666666665],[-112.90833333333335,38.994166666666665],[-112.90833333333335,38.994166666666665],[-112.90833333333335,38.994166666666665],[-112.55472222222222,39.08555555555556],[-112.55472222222222,39.08555555555556],[-112.55472222222222,39.08555555555556],[-112.55472222222222,39.08555555555556],[-112.19583333333334,39.17722222222222],[-111.83555555555554,39.268055555555556],[-111.83555555555554,39.268055555555556],[-111.83555555555554,39.268055555555556],[-111.83555555555554,39.268055555555556],[-111.6538888888889,39.31305555555555],[-111.6538888888889,39.31305555555555],[-111.6538888888889,39.31305555555555],[-111.47,39.35861111111111],[-111.47,39.35861111111111],[-111.12972222222221,39.44166666666666],[-111.12972222222221,39.44166666666666],[-111.12972222222221,39.44166666666666],[-111.12972222222221,39.44166666666666],[-111.12972222222221,39.44166666666666],[-110.17222222222223,39.60166666666667],[-110.17222222222223,39.60166666666667],[-110.17222222222223,39.60166666666667],[-110.17222222222223,39.60166666666667],[-109.97500000000001,39.62777777777778],[-109.97500000000001,39.62777777777778],[-109.97500000000001,39.62777777777778],[-109.77944444444444,39.65361111111111],[-109.77944444444444,39.65361111111111],[-109.77944444444444,39.65361111111111],[-109.38305555555554,39.70416666666667],[-109.38305555555554,39.70416666666667],[-109.38305555555554,39.70416666666667],[-109.38305555555554,39.70416666666667],[-108.98444444444445,39.75361111111111],[-108.98444444444445,39.75361111111111],[-108.94444444444444,39.75861111111111],[-108.7388888888889,39.78361111111111],[-108.7388888888889,39.78361111111111],[-108.7388888888889,39.78361111111111],[-108.3761111111111,39.82666666666667],[-108.3761111111111,39.82666666666667],[-108.3761111111111,39.82666666666667],[-107.95055555555555,39.87583333333333],[-107.95055555555555,39.87583333333333],[-107.95055555555555,39.87583333333333],[-107.95055555555555,39.87583333333333],[-107.16111111111111,39.96277777777778],[-107.16111111111111,39.96277777777778],[-107.16111111111111,39.96277777777778],[-107.16111111111111,39.96277777777778],[-107.16111111111111,39.96277777777778],[-107.16111111111111,39.96277777777778],[-107.16111111111111,39.96277777777778],[-107.16111111111111,39.96277777777778],[-106.3536111111111,40.04555555555555],[-106.3536111111111,40.04555555555555],[-106.3536111111111,40.04555555555555],[-106.3536111111111,40.04555555555555],[-106.3536111111111,40.04555555555555],[-106.3536111111111,40.04555555555555],[-106.3536111111111,40.04555555555555],[-106.15166666666667,40.065555555555555],[-106.15166666666667,40.065555555555555],[-106.15166666666667,40.065555555555555],[-106.15166666666667,40.065555555555555],[-106.15166666666667,40.065555555555555],[-106.15166666666667,40.065555555555555],[-105.9475,40.08527777777778],[-105.9475,40.08527777777778],[-105.9475,40.08527777777778],[-105.9475,40.08527777777778],[-105.9475,40.08527777777778],[-105.13194444444444,40.16027777777778],[-105.13194444444444,40.16027777777778],[-105.13194444444444,40.16027777777778],[-104.92722222222223,40.17805555555555],[-104.92722222222223,40.17805555555555],[-104.92722222222223,40.17805555555555],[-104.71972222222223,40.19583333333333],[-104.71972222222223,40.19583333333333],[-104.71972222222223,40.19583333333333],[-104.71972222222223,40.19583333333333],[-104.71972222222223,40.19583333333333],[-104.71972222222223,40.19583333333333],[-103.68388888888889,40.278888888888886],[-103.68388888888889,40.278888888888886],[-103.68388888888889,40.278888888888886],[-103.68388888888889,40.278888888888886],[-103.68388888888889,40.278888888888886],[-103.68388888888889,40.278888888888886],[-103.68388888888889,40.278888888888886],[-103.68388888888889,40.278888888888886],[-103.68388888888889,40.278888888888886],[-103.68388888888889,40.278888888888886],[-103.68388888888889,40.278888888888886],[-103.68388888888889,40.278888888888886],[-100.56638888888888,40.636944444444445],[-100.56638888888888,40.636944444444445],[-100.33361111111111,40.67944444444444],[-100.33361111111111,40.67944444444444],[-100.33361111111111,40.67944444444444],[-100.33361111111111,40.67944444444444],[-100.33361111111111,40.67944444444444],[-100.33361111111111,40.67944444444444],[-99.84583333333333,40.76722222222222],[-99.84583333333333,40.76722222222222],[-99.84583333333333,40.76722222222222],[-99.84583333333333,40.76722222222222],[-99.84583333333333,40.76722222222222],[-99.81694444444445,40.7725],[-99.81694444444445,40.7725],[-99.81694444444445,40.7725],[-99.81694444444445,40.7725],[-99.26694444444445,40.868611111111115],[-99.26694444444445,40.868611111111115],[-99.26694444444445,40.868611111111115],[-99.26694444444445,40.868611111111115],[-99.06305555555555,40.90333333333333],[-99.06305555555555,40.90333333333333],[-98.71694444444445,40.96138888888889],[-98.71694444444445,40.96138888888889],[-98.53833333333333,40.99111111111111],[-98.53833333333333,40.99111111111111],[-98.53833333333333,40.99111111111111],[-98.51027777777777,40.99583333333334],[-98.51027777777777,40.99583333333334],[-98.51027777777777,40.99583333333334],[-98.51027777777777,40.99583333333334],[-98.51027777777777,40.99583333333334],[-97.25916666666667,41.19444444444444],[-97.25916666666667,41.19444444444444],[-97.25916666666667,41.19444444444444],[-97.25916666666667,41.19444444444444],[-97.25916666666667,41.19444444444444],[-97.25916666666667,41.19444444444444],[-97.25916666666667,41.19444444444444],[-97.25916666666667,41.19444444444444],[-97.25916666666667,41.19444444444444],[-96.53888888888889,41.30222222222222],[-96.53888888888889,41.30222222222222],[-96.53888888888889,41.30222222222222],[-96.53888888888889,41.30222222222222],[-96.53888888888889,41.30222222222222],[-96.53888888888889,41.30222222222222],[-96.18388888888889,41.353611111111114],[-96.18388888888889,41.353611111111114],[-96.18388888888889,41.353611111111114],[-96.18388888888889,41.353611111111114],[-96.18388888888889,41.353611111111114],[-96.18388888888889,41.353611111111114],[-96.18388888888889,41.353611111111114],[-96.18388888888889,41.353611111111114],[-94.10638888888889,41.63055555555555],[-94.10638888888889,41.63055555555555],[-94.10638888888889,41.63055555555555],[-94.10638888888889,41.63055555555555],[-94.10638888888889,41.63055555555555],[-94.10638888888889,41.63055555555555],[-94.10638888888889,41.63055555555555],[-94.10638888888889,41.63055555555555],[-94.10638888888889,41.63055555555555],[-93.76333333333334,41.6725],[-93.76333333333334,41.6725],[-93.76333333333334,41.6725],[-93.42583333333334,41.71277777777778],[-93.42583333333334,41.71277777777778],[-93.42583333333334,41.71277777777778],[-93.42583333333334,41.71277777777778],[-92.93472222222222,41.769444444444446],[-92.93472222222222,41.769444444444446],[-92.93472222222222,41.769444444444446],[-92.93472222222222,41.769444444444446],[-92.93472222222222,41.769444444444446],[-92.59666666666666,41.80694444444444],[-92.59666666666666,41.80694444444444],[-92.59666666666666,41.80694444444444],[-92.59666666666666,41.80694444444444],[-92.59666666666666,41.80694444444444],[-92.59666666666666,41.80694444444444],[-92.59666666666666,41.80694444444444],[-91.55138888888888,41.91722222222222],[-91.55138888888888,41.91722222222222],[-91.55138888888888,41.91722222222222],[-91.55138888888888,41.91722222222222],[-91.55138888888888,41.91722222222222],[-91.55138888888888,41.91722222222222],[-90.03277777777778,42.05972222222222],[-90.03277777777778,42.05972222222222],[-90.03277777777778,42.05972222222222],[-89.87583333333333,42.073055555555555],[-89.87583333333333,42.073055555555555],[-89.87583333333333,42.073055555555555],[-89.7063888888889,42.087500000000006],[-89.7063888888889,42.087500000000006],[-89.7063888888889,42.087500000000006],[-89.7063888888889,42.087500000000006],[-89.7063888888889,42.087500000000006],[-89.02944444444444,42.1425],[-89.02944444444444,42.1425],[-89.02944444444444,42.1425],[-89.02944444444444,42.1425],[-89.02944444444444,42.1425],[-89.02944444444444,42.1425],[-89.02944444444444,42.1425],[-89.02944444444444,42.1425],[-88.19222222222223,42.20472222222222],[-88.19222222222223,42.20472222222222],[-88.19222222222223,42.20472222222222],[-88.19222222222223,42.20472222222222],[-88.02388888888889,42.21638888888889],[-88.02388888888889,42.21638888888889],[-88.02388888888889,42.21638888888889],[-88.02388888888889,42.21638888888889],[-88.02388888888889,42.21638888888889],[-88.02388888888889,42.21638888888889],[-86.87555555555555,42.34388888888889],[-86.87555555555555,42.34388888888889],[-86.87555555555555,42.34388888888889],[-86.87555555555555,42.34388888888889],[-86.87555555555555,42.34388888888889],[-86.87555555555555,42.34388888888889],[-86.87555555555555,42.34388888888889],[-86.50055555555555,42.38333333333333],[-86.50055555555555,42.38333333333333],[-86.50055555555555,42.38333333333333],[-86.50055555555555,42.38333333333333],[-86.50055555555555,42.38333333333333],[-86.50055555555555,42.38333333333333],[-85.36416666666666,42.498333333333335],[-85.36416666666666,42.498333333333335],[-85.36416666666666,42.498333333333335],[-85.36416666666666,42.498333333333335],[-85.36416666666666,42.498333333333335],[-85.29944444444445,42.50416666666667],[-85.29944444444445,42.50416666666667],[-85.29944444444445,42.50416666666667],[-85.29944444444445,42.50416666666667],[-85.29944444444445,42.50416666666667],[-85.29944444444445,42.50416666666667],[-85.29944444444445,42.50416666666667],[-85.19916666666667,42.51361111111111],[-85.19916666666667,42.51361111111111],[-84.35972222222222,42.57083333333334],[-84.35972222222222,42.57083333333334],[-84.35972222222222,42.57083333333334],[-84.01888888888888,42.5825],[-84.01888888888888,42.5825],[-84.01888888888888,42.5825],[-84.01888888888888,42.5825],[-84.01888888888888,42.5825],[-84.01888888888888,42.5825],[-82.93916666666667,42.61222222222222],[-82.93916666666667,42.61222222222222],[-82.76416666666667,42.61611111111111],[-82.76416666666667,42.61611111111111],[-82.76416666666667,42.61611111111111],[-82.76416666666667,42.61611111111111],[-82.76416666666667,42.61611111111111],[-82.5886111111111,42.61972222222222],[-82.5886111111111,42.61972222222222],[-82.41444444444446,42.62305555555555],[-82.41444444444446,42.62305555555555],[-82.41444444444446,42.62305555555555],[-82.41444444444446,42.62305555555555],[-82.23666666666666,42.62638888888889],[-82.23666666666666,42.62638888888889],[-82.23666666666666,42.62638888888889],[-82.23666666666666,42.62638888888889],[-82.06305555555555,42.62916666666667],[-82.06305555555555,42.62916666666667],[-82.06305555555555,42.62916666666667],[-79.00138888888888,42.69972222222222],[-79.00138888888888,42.69972222222222],[-79.00138888888888,42.69972222222222],[-79.00138888888888,42.69972222222222],[-79.00138888888888,42.69972222222222],[-79.00138888888888,42.69972222222222],[-79.00138888888888,42.69972222222222],[-79.00138888888888,42.69972222222222],[-79.00138888888888,42.69972222222222],[-79.00138888888888,42.69972222222222],[-78.45472222222223,42.71555555555556],[-78.45472222222223,42.71555555555556],[-78.1325,42.723888888888894],[-78.1325,42.723888888888894],[-78.1325,42.723888888888894],[-78.1325,42.723888888888894],[-78.1325,42.723888888888894],[-78.1325,42.723888888888894],[-78.1325,42.723888888888894],[-77.91694444444445,42.72888888888889],[-77.91694444444445,42.72888888888889],[-77.91694444444445,42.72888888888889],[-77.91694444444445,42.72888888888889],[-77.23027777777779,42.742222222222225],[-77.23027777777779,42.742222222222225],[-77.23027777777779,42.742222222222225],[-77.23027777777779,42.742222222222225],[-77.23027777777779,42.742222222222225],[-77.04583333333333,42.745],[-77.04583333333333,42.745],[-77.04583333333333,42.745],[-77.04583333333333,42.745],[-76.86833333333333,42.7475],[-76.86833333333333,42.7475],[-76.86833333333333,42.7475],[-76.50138888888888,42.751666666666665],[-76.50138888888888,42.751666666666665],[-76.50138888888888,42.751666666666665],[-75.73694444444445,42.75694444444444],[-75.73694444444445,42.75694444444444],[-75.73694444444445,42.75694444444444],[-75.73694444444445,42.75694444444444],[-75.59222222222222,42.757222222222225],[-75.59222222222222,42.757222222222225],[-75.59222222222222,42.757222222222225],[-75.59222222222222,42.757222222222225],[-75.59222222222222,42.757222222222225],[-75.22916666666667,42.757222222222225],[-75.22916666666667,42.757222222222225],[-75.22916666666667,42.757222222222225],[-75.22916666666667,42.757222222222225],[-75.22916666666667,42.757222222222225],[-75.22916666666667,42.757222222222225],[-75.22916666666667,42.757222222222225],[-73.3888888888889,42.743611111111115],[-73.3888888888889,42.743611111111115],[-73.3888888888889,42.743611111111115],[-73.3888888888889,42.743611111111115],[-73.3888888888889,42.743611111111115],[-73.3888888888889,42.743611111111115],[-73.3888888888889,42.743611111111115],[-73.3888888888889,42.743611111111115],[-73.3888888888889,42.743611111111115],[-72.66722222222222,42.68861111111111],[-72.66722222222222,42.68861111111111],[-72.66722222222222,42.68861111111111],[-72.66722222222222,42.68861111111111],[-72.50027777777778,42.66861111111111],[-72.50027777777778,42.66861111111111],[-72.50027777777778,42.66861111111111],[-72.50027777777778,42.66861111111111],[-72.50027777777778,42.66861111111111],[-72.50027777777778,42.66861111111111],[-72.50027777777778,42.66861111111111],[-72.34694444444445,42.64972222222222],[-72.34694444444445,42.64972222222222],[-72.34694444444445,42.64972222222222],[-71.75,42.583333333333336],[-71.75,42.583333333333336],[-71.75,42.583333333333336],[-71.75,42.583333333333336],[-71.75,42.583333333333336],[-71.63333333333334,42.56666666666667],[-71.63333333333334,42.56666666666667],[-71.63333333333334,42.56666666666667],[-71.36666666666666,42.56666666666667],[-71.36666666666666,42.56666666666667],[-71.31277777777777,42.566111111111105],[-71.31277777777777,42.566111111111105],[-71.31277777777777,42.566111111111105],[-71.31277777777777,42.566111111111105],[-71.31277777777777,42.566111111111105],[-71.31277777777777,42.566111111111105],[-71.11666666666666,42.6],[-71.11666666666666,42.6],[-71.11666666666666,42.6],[-71.11666666666666,42.6],[-71.11666666666666,42.6],[-71.03333333333333,42.6],[-71.03333333333333,42.6],[-71.03333333333333,42.6],[-71.03333333333333,42.6],[-71.01,42.14722222222222],[-71.01,42.14722222222222],[-71.03333333333333,42.13333333333333],[-71.03333333333333,42.13333333333333],[-71.07249999999999,42.15277777777778],[-71.07249999999999,42.15277777777778],[-71.07249999999999,42.15277777777778],[-71.08333333333333,42.166666666666664],[-71.08333333333333,42.166666666666664],[-71.08333333333333,42.166666666666664],[-71.0775,42.19833333333333],[-71.0775,42.19833333333333],[-71.0775,42.19833333333333],[-71.0775,42.19833333333333],[-71.0775,42.19833333333333],[-71.04222222222222,42.28805555555555],[-71.04222222222222,42.28805555555555],[-71.04222222222222,42.28805555555555],[-71.04222222222222,42.28805555555555],[-71.04222222222222,42.28805555555555],[-71.04222222222222,42.28805555555555],[-71.04222222222222,42.28805555555555],[-71.04222222222222,42.28805555555555],[-71.04222222222222,42.28805555555555]],"type":"LineString"}
}
