{
  "id": 1981588517,
  "type": "Feature",
  "properties": {
    "geom:area": 0,
    "geom:bbox": "-122.363060,36.728740,-121.883820,37.614190",
    "geom:latitude": 37.222535427148905,
    "geom:longitude": -122.07068564613712,
    "src:alt_label": "swim-approach",
    "src:geom": "swim",
    "swim:elevations": [
      4893,
      4586,
      4304,
      4059,
      3779,
      3671,
      3392,
      3160,
      3058,
      2792,
      2559,
      2473,
      2415,
      2420,
      2430,
      2393,
      2073,
      1886,
      1806,
      1705,
      1526,
      1482,
      1278,
      1066,
      936,
      773,
      757,
      578,
      360,
      211,
      171,
      32,
      72
    ],
    "swim:geom": "approach",
    "swim:timestamps": [
      1759648045,
      1759648075,
      1759648102,
      1759648126,
      1759648167,
      1759648187,
      1759648226,
      1759648254,
      1759648273,
      1759648311,
      1759648347,
      1759648370,
      1759648400,
      1759648437,
      1759648443,
      1759648483,
      1759648524,
      1759648558,
      1759648582,
      1759648611,
      1759648648,
      1759648655,
      1759648692,
      1759648726,
      1759648750,
      1759648797,
      1759648800,
      1759648834,
      1759648880,
      1759648917,
      1759648931,
      1759648973,
      1759648985
    ],
    "wof:geomhash": "455a5794877129a7bc75c5b67feb7e8a",
    "wof:id": 1981588517,
    "wof:repo": "sfomuseum-data-flights-2025-10"
  },
  "bbox": [
    -122.36306,
    36.72874,
    -121.88382,
    37.61419
  ],
  "geometry": {"coordinates":[[-121.88382,36.72874],[-121.90304,36.77442],[-121.91482,36.81645],[-121.92552,36.85409],[-121.94238,36.91425],[-121.95052,36.94335],[-121.96986,36.99487],[-121.98404,37.03143],[-121.99335,37.05463],[-122.0121,37.10347],[-122.02985,37.14857],[-122.04075,37.17632],[-122.0541,37.21035],[-122.06906,37.24918],[-122.07146,37.25544],[-122.08786,37.29708],[-122.10473,37.33972],[-122.11787,37.37498],[-122.11371,37.39889],[-122.106,37.42609],[-122.10114,37.45864],[-122.10426,37.46355],[-122.13102,37.48929],[-122.15833,37.51055],[-122.1772,37.52539],[-122.21606,37.55141],[-122.21896,37.5527],[-122.25193,37.567],[-122.29132,37.58363],[-122.31797,37.59488],[-122.32762,37.59887],[-122.35638,37.61086],[-122.36306,37.61419]],"type":"LineString"}
}
