{
  "id": 1981757377,
  "type": "Feature",
  "properties": {
    "geom:area": 0,
    "geom:bbox": "-122.394722,35.802778,-115.255556,37.445278",
    "geom:latitude": 36.96773433654065,
    "geom:longitude": -118.63206188625355,
    "src:alt_label": "swim-path",
    "src:geom": "swim",
    "swim:altitudes": [
      "137",
      "137",
      "137",
      "160",
      "160",
      "228",
      "228",
      "228",
      "228",
      "297",
      "328C",
      "328C",
      "328C",
      "328C",
      "330C",
      "330C",
      "330C",
      "330C",
      "330C",
      "330C",
      "330C",
      "330C",
      "330C",
      "330C",
      "330C",
      "310C",
      "310C",
      "310C",
      "310C",
      "310",
      "310",
      "310",
      "310",
      "310",
      "310",
      "310",
      "310",
      "310",
      "310",
      "310",
      "310",
      "310",
      "290",
      "274",
      "270",
      "270",
      "270",
      "252",
      "221",
      "221",
      "197",
      "197",
      "180",
      "180",
      "180",
      "167",
      "148",
      "125",
      "098",
      "098",
      "098",
      "098",
      "068",
      "058",
      "058",
      "058",
      "058"
    ],
    "swim:geom": "path",
    "swim:speeds": [
      395,
      395,
      395,
      416,
      416,
      453,
      453,
      453,
      453,
      487,
      485,
      485,
      485,
      485,
      479,
      479,
      469,
      469,
      459,
      459,
      447,
      445,
      445,
      445,
      445,
      449,
      449,
      449,
      449,
      449,
      449,
      450,
      450,
      450,
      450,
      449,
      448,
      448,
      448,
      447,
      447,
      447,
      436,
      424,
      422,
      422,
      422,
      410,
      416,
      416,
      422,
      422,
      417,
      417,
      417,
      407,
      390,
      384,
      309,
      309,
      309,
      309,
      232,
      210,
      210,
      210,
      210
    ],
    "swim:timestamps": [
      1761353070,
      1761353070,
      1761353070,
      1761353130,
      1761353130,
      1761353310,
      1761353310,
      1761353310,
      1761353310,
      1761353550,
      1761353670,
      1761353670,
      1761353670,
      1761353670,
      1761353911,
      1761353911,
      1761353971,
      1761353971,
      1761354211,
      1761354211,
      1761354451,
      1761354571,
      1761354571,
      1761354571,
      1761354571,
      1761354872,
      1761354872,
      1761354872,
      1761354932,
      1761355172,
      1761355172,
      1761355238,
      1761355238,
      1761355238,
      1761355238,
      1761355292,
      1761355352,
      1761355352,
      1761355358,
      1761355412,
      1761355412,
      1761355412,
      1761355478,
      1761355532,
      1761355538,
      1761355538,
      1761355538,
      1761355598,
      1761355704,
      1761355704,
      1761355778,
      1761355778,
      1761355838,
      1761355838,
      1761355838,
      1761355887,
      1761355947,
      1761356019,
      1761356199,
      1761356199,
      1761356199,
      1761356199,
      1761356379,
      1761356434,
      1761356434,
      1761356434,
      1761356434
    ],
    "wof:geomhash": "aebc1a5e527cb0f5b44ab200a22f4d80",
    "wof:id": 1981757377,
    "wof:repo": "sfomuseum-data-flights-2025-10"
  },
  "bbox": [
    -122.39472222222223,
    35.80277777777778,
    -115.25555555555556,
    37.445277777777775
  ],
  "geometry": {"coordinates":[[-122.39472222222223,37.445277777777775],[-122.39472222222223,37.445277777777775],[-122.39472222222223,37.445277777777775],[-122.25694444444444,37.41694444444444],[-122.25694444444444,37.41694444444444],[-121.79472222222222,37.32027777777778],[-121.79472222222222,37.32027777777778],[-121.79472222222222,37.32027777777778],[-121.79472222222222,37.32027777777778],[-121.15,37.18222222222222],[-120.82444444444444,37.11083333333333],[-120.82444444444444,37.11083333333333],[-120.82444444444444,37.11083333333333],[-120.82444444444444,37.11083333333333],[-120.18333333333334,36.967222222222226],[-120.18333333333334,36.967222222222226],[-120.03222222222222,36.9325],[-120.03222222222222,36.9325],[-119.42972222222222,37.04972222222222],[-119.42972222222222,37.04972222222222],[-118.85249999999999,37.234722222222224],[-118.55222222222221,37.28972222222222],[-118.55222222222221,37.28972222222222],[-118.55222222222221,37.28972222222222],[-118.55222222222221,37.28972222222222],[-117.7775,37.34666666666667],[-117.7775,37.34666666666667],[-117.7775,37.34666666666667],[-117.62194444444444,37.35722222222223],[-117.0611111111111,37.234722222222224],[-117.0611111111111,37.234722222222224],[-116.92222222222223,37.13444444444444],[-116.92222222222223,37.13444444444444],[-116.92222222222223,37.13444444444444],[-116.92222222222223,37.13444444444444],[-116.84083333333332,37.059999999999995],[-116.75194444444445,36.95666666666667],[-116.75194444444445,36.95666666666667],[-116.73416666666667,36.936388888888885],[-116.66416666666667,36.85472222222222],[-116.66416666666667,36.85472222222222],[-116.66416666666667,36.85472222222222],[-116.56277777777777,36.73527777777778],[-116.49361111111111,36.65694444444444],[-116.47416666666666,36.63972222222222],[-116.47416666666666,36.63972222222222],[-116.47416666666666,36.63972222222222],[-116.36888888888888,36.56444444444444],[-116.18333333333334,36.43277777777777],[-116.18333333333334,36.43277777777777],[-116.05,36.338055555555556],[-116.05,36.338055555555556],[-115.94305555555556,36.26111111111111],[-115.94305555555556,36.26111111111111],[-115.94305555555556,36.26111111111111],[-115.85555555555555,36.203611111111115],[-115.7525,36.12833333333333],[-115.69916666666667,36.01222222222222],[-115.5075,35.80277777777778],[-115.5075,35.80277777777778],[-115.5075,35.80277777777778],[-115.5075,35.80277777777778],[-115.28388888888888,35.87694444444445],[-115.25555555555556,35.92833333333333],[-115.25555555555556,35.92833333333333],[-115.25555555555556,35.92833333333333],[-115.25555555555556,35.92833333333333]],"type":"LineString"}
}
