{
  "id": 1981599753,
  "type": "Feature",
  "properties": {
    "geom:area": 0,
    "geom:bbox": "-122.366190,37.628360,-122.114490,38.503960",
    "geom:latitude": 38.03229145342869,
    "geom:longitude": -122.17930712863318,
    "src:alt_label": "swim-takeoff",
    "src:geom": "swim",
    "swim:elevations": [
      152,
      483,
      623,
      664,
      928,
      1114,
      1550,
      2001,
      2461,
      2637,
      2983,
      3304,
      3421,
      3963,
      4304,
      4570,
      4807,
      4872,
      5019,
      5358,
      5759,
      6168,
      6344,
      6498,
      6811,
      7099,
      7252
    ],
    "swim:geom": "takeoff",
    "swim:timestamps": [
      1759739967,
      1759739987,
      1759739998,
      1759740001,
      1759740036,
      1759740058,
      1759740087,
      1759740114,
      1759740148,
      1759740162,
      1759740197,
      1759740235,
      1759740247,
      1759740293,
      1759740317,
      1759740338,
      1759740356,
      1759740364,
      1759740377,
      1759740401,
      1759740438,
      1759740477,
      1759740493,
      1759740509,
      1759740538,
      1759740563,
      1759740581
    ],
    "wof:geomhash": "a901bb9d3d632d9e04611066fcfd18c7",
    "wof:id": 1981599753,
    "wof:repo": "sfomuseum-data-flights-2025-10"
  },
  "bbox": [
    -122.36619,
    37.62836,
    -122.11449,
    38.50396
  ],
  "geometry": {"coordinates":[[-122.36619,37.62836],[-122.35315,37.6407],[-122.34444,37.64541],[-122.34196,37.64674],[-122.30901,37.66534],[-122.28423,37.67973],[-122.24804,37.70017],[-122.21648,37.72337],[-122.20616,37.76744],[-122.20315,37.78698],[-122.19549,37.83377],[-122.18665,37.88806],[-122.18346,37.90681],[-122.17112,37.98299],[-122.16432,38.02459],[-122.15852,38.06078],[-122.1533,38.09194],[-122.15109,38.10476],[-122.14727,38.12746],[-122.14021,38.17021],[-122.12933,38.23596],[-122.11761,38.30786],[-122.11449,38.33726],[-122.11517,38.36614],[-122.11885,38.42081],[-122.1222,38.46962],[-122.12462,38.50396]],"type":"LineString"}
}
