{
  "id": 1997538839,
  "type": "Feature",
  "properties": {
    "geom:area": 0,
    "geom:bbox": "-122.358333,37.640556,-104.683333,39.750000",
    "geom:latitude": 38.429620062013576,
    "geom:longitude": -113.39826495236743,
    "src:alt_label": "swim-path",
    "src:geom": "swim",
    "swim:altitudes": [
      "009",
      "009",
      "009",
      "095",
      "095",
      "095",
      "095",
      "095",
      "095",
      "095",
      "177",
      "177",
      "177",
      "177",
      "177",
      "177",
      "177",
      "195",
      "195",
      "195",
      "195",
      "195",
      "195",
      "195",
      "195",
      "324",
      "324",
      "324",
      "324",
      "324",
      "324",
      "324",
      "324",
      "324",
      "349C",
      "349C",
      "349C",
      "349C",
      "349C",
      "349C",
      "349C",
      "349C",
      "349C",
      "349C",
      "349C",
      "349C",
      "349C",
      "349C",
      "349C",
      "349C",
      "349C",
      "349C",
      "349C",
      "349C",
      "349C",
      "349C",
      "349C",
      "349C",
      "349C",
      "349C",
      "349C",
      "349C",
      "349C",
      "349C",
      "349C",
      "349C",
      "349C",
      "349C",
      "349C",
      "349C",
      "349C",
      "349C",
      "349C",
      "349C",
      "349C",
      "349C",
      "349C",
      "349C",
      "349C",
      "349C",
      "349C",
      "349C",
      "349C",
      "349C",
      "349C",
      "349C",
      "349C",
      "349C",
      "349C",
      "349C",
      "349C",
      "349C",
      "349C",
      "349C",
      "349C",
      "349C",
      "349C",
      "349C",
      "349C",
      "349C",
      "349C",
      "349C",
      "349C",
      "349C",
      "349C",
      "349C",
      "349C",
      "349C",
      "349C",
      "349C",
      "349C",
      "349C",
      "349C",
      "349C",
      "349C",
      "349C",
      "349C",
      "349C",
      "349C",
      "349C",
      "349C",
      "349C",
      "349C",
      "349C",
      "349C",
      "349C",
      "349C",
      "349C",
      "349C",
      "349C",
      "349C",
      "349C",
      "349C",
      "349C",
      "349C",
      "349C",
      "349C",
      "349C",
      "349C",
      "349C",
      "349C",
      "349C",
      "349C",
      "349C",
      "349C",
      "349C",
      "349C",
      "349C",
      "349C",
      "349C",
      "349C",
      "349C",
      "349C",
      "349C",
      "349C",
      "349C",
      "349C",
      "349",
      "349",
      "349",
      "349",
      "349",
      "349",
      "349",
      "303",
      "303",
      "303",
      "303",
      "303",
      "303",
      "303",
      "303",
      "303",
      "303",
      "177",
      "177",
      "177",
      "177",
      "177",
      "151",
      "151",
      "151",
      "151",
      "151",
      "129",
      "129",
      "129",
      "129",
      "129",
      "075",
      "075",
      "075",
      "075",
      "075",
      "075",
      "075",
      "075",
      "075",
      "075",
      "075"
    ],
    "swim:geom": "path",
    "swim:speeds": [
      180,
      180,
      180,
      293,
      293,
      293,
      293,
      293,
      293,
      293,
      396,
      396,
      396,
      396,
      396,
      396,
      396,
      414,
      414,
      414,
      414,
      414,
      414,
      414,
      414,
      473,
      473,
      473,
      473,
      473,
      473,
      473,
      473,
      473,
      473,
      473,
      473,
      472,
      472,
      472,
      472,
      472,
      472,
      472,
      472,
      470,
      470,
      470,
      470,
      470,
      470,
      470,
      472,
      472,
      472,
      472,
      472,
      472,
      474,
      474,
      480,
      480,
      480,
      480,
      480,
      480,
      480,
      480,
      480,
      479,
      479,
      479,
      479,
      479,
      472,
      472,
      472,
      472,
      472,
      472,
      472,
      472,
      472,
      472,
      472,
      472,
      473,
      473,
      473,
      473,
      473,
      473,
      473,
      477,
      477,
      477,
      477,
      477,
      477,
      477,
      479,
      479,
      479,
      479,
      479,
      479,
      480,
      480,
      480,
      480,
      480,
      480,
      479,
      479,
      479,
      479,
      479,
      479,
      479,
      479,
      479,
      479,
      479,
      479,
      479,
      479,
      479,
      479,
      478,
      478,
      478,
      477,
      477,
      477,
      477,
      477,
      473,
      473,
      473,
      470,
      470,
      470,
      470,
      470,
      470,
      470,
      470,
      470,
      470,
      470,
      471,
      471,
      471,
      471,
      464,
      464,
      464,
      468,
      468,
      468,
      468,
      468,
      468,
      468,
      459,
      459,
      459,
      459,
      459,
      459,
      459,
      459,
      459,
      459,
      348,
      348,
      348,
      348,
      348,
      334,
      334,
      334,
      334,
      334,
      309,
      309,
      309,
      309,
      309,
      200,
      200,
      200,
      200,
      200,
      200,
      200,
      200,
      200,
      200,
      200
    ],
    "swim:timestamps": [
      1761839449,
      1761839449,
      1761839449,
      1761839689,
      1761839689,
      1761839689,
      1761839689,
      1761839689,
      1761839689,
      1761839689,
      1761839929,
      1761839929,
      1761839929,
      1761839929,
      1761839929,
      1761839929,
      1761839929,
      1761839989,
      1761839989,
      1761839989,
      1761839989,
      1761839989,
      1761839989,
      1761839989,
      1761839989,
      1761840466,
      1761840466,
      1761840466,
      1761840466,
      1761840466,
      1761840466,
      1761840466,
      1761840466,
      1761840466,
      1761840826,
      1761840826,
      1761840826,
      1761840890,
      1761840890,
      1761840890,
      1761840890,
      1761840890,
      1761840890,
      1761840890,
      1761840890,
      1761841187,
      1761841187,
      1761841187,
      1761841187,
      1761841247,
      1761841247,
      1761841247,
      1761841427,
      1761841427,
      1761841427,
      1761841427,
      1761841427,
      1761841427,
      1761841491,
      1761841491,
      1761841668,
      1761841668,
      1761841668,
      1761841668,
      1761841728,
      1761841728,
      1761841728,
      1761841728,
      1761841728,
      1761841852,
      1761841852,
      1761841852,
      1761841852,
      1761841852,
      1761842209,
      1761842209,
      1761842209,
      1761842209,
      1761842209,
      1761842389,
      1761842389,
      1761842389,
      1761842389,
      1761842389,
      1761842389,
      1761842389,
      1761842449,
      1761842449,
      1761842449,
      1761842449,
      1761842449,
      1761842449,
      1761842449,
      1761842810,
      1761842810,
      1761842810,
      1761842810,
      1761842810,
      1761842810,
      1761842810,
      1761843110,
      1761843110,
      1761843110,
      1761843110,
      1761843110,
      1761843110,
      1761843290,
      1761843290,
      1761843290,
      1761843290,
      1761843290,
      1761843290,
      1761843411,
      1761843411,
      1761843411,
      1761843579,
      1761843579,
      1761843579,
      1761843579,
      1761843579,
      1761843579,
      1761843699,
      1761843699,
      1761843699,
      1761843819,
      1761843819,
      1761843819,
      1761843819,
      1761844059,
      1761844059,
      1761844059,
      1761844072,
      1761844072,
      1761844072,
      1761844072,
      1761844072,
      1761844192,
      1761844192,
      1761844192,
      1761844312,
      1761844312,
      1761844312,
      1761844312,
      1761844360,
      1761844360,
      1761844360,
      1761844360,
      1761844420,
      1761844420,
      1761844420,
      1761844492,
      1761844492,
      1761844492,
      1761844492,
      1761844780,
      1761844780,
      1761844780,
      1761844960,
      1761844960,
      1761844960,
      1761844960,
      1761844960,
      1761844960,
      1761844960,
      1761845201,
      1761845201,
      1761845201,
      1761845201,
      1761845201,
      1761845201,
      1761845201,
      1761845201,
      1761845201,
      1761845201,
      1761845982,
      1761845982,
      1761845982,
      1761845982,
      1761845982,
      1761846102,
      1761846102,
      1761846102,
      1761846102,
      1761846102,
      1761846246,
      1761846246,
      1761846246,
      1761846246,
      1761846246,
      1761846609,
      1761846609,
      1761846609,
      1761846609,
      1761846609,
      1761846609,
      1761846609,
      1761846609,
      1761846609,
      1761846609,
      1761846609
    ],
    "wof:geomhash": "c0b5ef38027e79eec724f5b7b80929e1",
    "wof:id": 1997538839,
    "wof:repo": "sfomuseum-data-flights-2025-10"
  },
  "bbox": [
    -122.35833333333333,
    37.64055555555556,
    -104.68333333333334,
    39.75
  ],
  "geometry": {"coordinates":[[-122.35833333333333,37.64055555555556],[-122.35833333333333,37.64055555555556],[-122.35833333333333,37.64055555555556],[-122.08333333333333,37.78611111111111],[-122.08333333333333,37.78611111111111],[-122.08333333333333,37.78611111111111],[-122.08333333333333,37.78611111111111],[-122.08333333333333,37.78611111111111],[-122.08333333333333,37.78611111111111],[-122.08333333333333,37.78611111111111],[-121.58194444444445,37.90472222222222],[-121.58194444444445,37.90472222222222],[-121.58194444444445,37.90472222222222],[-121.58194444444445,37.90472222222222],[-121.58194444444445,37.90472222222222],[-121.58194444444445,37.90472222222222],[-121.58194444444445,37.90472222222222],[-121.4413888888889,37.93055555555555],[-121.4413888888889,37.93055555555555],[-121.4413888888889,37.93055555555555],[-121.4413888888889,37.93055555555555],[-121.4413888888889,37.93055555555555],[-121.4413888888889,37.93055555555555],[-121.4413888888889,37.93055555555555],[-121.4413888888889,37.93055555555555],[-120.20138888888889,38.1275],[-120.20138888888889,38.1275],[-120.20138888888889,38.1275],[-120.20138888888889,38.1275],[-120.20138888888889,38.1275],[-120.20138888888889,38.1275],[-120.20138888888889,38.1275],[-120.20138888888889,38.1275],[-120.20138888888889,38.1275],[-119.22,38.26861111111111],[-119.22,38.26861111111111],[-119.22,38.26861111111111],[-119.0225,38.295833333333334],[-119.0225,38.295833333333334],[-119.0225,38.295833333333334],[-119.0225,38.295833333333334],[-119.0225,38.295833333333334],[-119.0225,38.295833333333334],[-119.0225,38.295833333333334],[-119.0225,38.295833333333334],[-118.2238888888889,38.40277777777778],[-118.2238888888889,38.40277777777778],[-118.2238888888889,38.40277777777778],[-118.2238888888889,38.40277777777778],[-118.05916666666667,38.42388888888889],[-118.05916666666667,38.42388888888889],[-118.05916666666667,38.42388888888889],[-117.55916666666667,38.48694444444445],[-117.55916666666667,38.48694444444445],[-117.55916666666667,38.48694444444445],[-117.55916666666667,38.48694444444445],[-117.55916666666667,38.48694444444445],[-117.55916666666667,38.48694444444445],[-117.38944444444445,38.50805555555556],[-117.38944444444445,38.50805555555556],[-116.87722222222222,38.51027777777778],[-116.87722222222222,38.51027777777778],[-116.87722222222222,38.51027777777778],[-116.87722222222222,38.51027777777778],[-116.70444444444445,38.50555555555555],[-116.70444444444445,38.50555555555555],[-116.70444444444445,38.50555555555555],[-116.70444444444445,38.50555555555555],[-116.70444444444445,38.50555555555555],[-116.36555555555555,38.495555555555555],[-116.36555555555555,38.495555555555555],[-116.36555555555555,38.495555555555555],[-116.36555555555555,38.495555555555555],[-116.36555555555555,38.495555555555555],[-115.35666666666665,38.46027777777778],[-115.35666666666665,38.46027777777778],[-115.35666666666665,38.46027777777778],[-115.35666666666665,38.46027777777778],[-115.35666666666665,38.46027777777778],[-114.88416666666667,38.440555555555555],[-114.88416666666667,38.440555555555555],[-114.88416666666667,38.440555555555555],[-114.88416666666667,38.440555555555555],[-114.88416666666667,38.440555555555555],[-114.88416666666667,38.440555555555555],[-114.88416666666667,38.440555555555555],[-114.71694444444445,38.433055555555555],[-114.71694444444445,38.433055555555555],[-114.71694444444445,38.433055555555555],[-114.71694444444445,38.433055555555555],[-114.71694444444445,38.433055555555555],[-114.71694444444445,38.433055555555555],[-114.71694444444445,38.433055555555555],[-113.7088888888889,38.38333333333333],[-113.7088888888889,38.38333333333333],[-113.7088888888889,38.38333333333333],[-113.7088888888889,38.38333333333333],[-113.7088888888889,38.38333333333333],[-113.7088888888889,38.38333333333333],[-113.7088888888889,38.38333333333333],[-112.8461111111111,38.33388888888889],[-112.8461111111111,38.33388888888889],[-112.8461111111111,38.33388888888889],[-112.8461111111111,38.33388888888889],[-112.8461111111111,38.33388888888889],[-112.8461111111111,38.33388888888889],[-112.33888888888889,38.30166666666666],[-112.33888888888889,38.30166666666666],[-112.33888888888889,38.30166666666666],[-112.33888888888889,38.30166666666666],[-112.33888888888889,38.30166666666666],[-112.33888888888889,38.30166666666666],[-112.00222222222222,38.27916666666667],[-112.00222222222222,38.27916666666667],[-112.00222222222222,38.27916666666667],[-111.52666666666667,38.24583333333334],[-111.52666666666667,38.24583333333334],[-111.52666666666667,38.24583333333334],[-111.52666666666667,38.24583333333334],[-111.52666666666667,38.24583333333334],[-111.52666666666667,38.24583333333334],[-111.19277777777778,38.221111111111114],[-111.19277777777778,38.221111111111114],[-111.19277777777778,38.221111111111114],[-110.85555555555555,38.195277777777775],[-110.85555555555555,38.195277777777775],[-110.85555555555555,38.195277777777775],[-110.85555555555555,38.195277777777775],[-110.18722222222223,38.14083333333333],[-110.18722222222223,38.14083333333333],[-110.18722222222223,38.14083333333333],[-110.1538888888889,38.138333333333335],[-110.1538888888889,38.138333333333335],[-110.1538888888889,38.138333333333335],[-110.1538888888889,38.138333333333335],[-110.1538888888889,38.138333333333335],[-109.82249999999999,38.12833333333333],[-109.82249999999999,38.12833333333333],[-109.82249999999999,38.12833333333333],[-109.49333333333334,38.118611111111115],[-109.49333333333334,38.118611111111115],[-109.49333333333334,38.118611111111115],[-109.49333333333334,38.118611111111115],[-109.36166666666666,38.114444444444445],[-109.36166666666666,38.114444444444445],[-109.36166666666666,38.114444444444445],[-109.36166666666666,38.114444444444445],[-109.19694444444445,38.10916666666667],[-109.19694444444445,38.10916666666667],[-109.19694444444445,38.10916666666667],[-108.99638888888889,38.102222222222224],[-108.99638888888889,38.102222222222224],[-108.99638888888889,38.102222222222224],[-108.99638888888889,38.102222222222224],[-108.28694444444444,38.35444444444445],[-108.28694444444444,38.35444444444445],[-108.28694444444444,38.35444444444445],[-107.8425,38.52444444444444],[-107.8425,38.52444444444444],[-107.8425,38.52444444444444],[-107.8425,38.52444444444444],[-107.8425,38.52444444444444],[-107.8425,38.52444444444444],[-107.8425,38.52444444444444],[-107.255,38.745555555555555],[-107.255,38.745555555555555],[-107.255,38.745555555555555],[-107.255,38.745555555555555],[-107.255,38.745555555555555],[-107.255,38.745555555555555],[-107.255,38.745555555555555],[-107.255,38.745555555555555],[-107.255,38.745555555555555],[-107.255,38.745555555555555],[-105.46277777777777,39.401666666666664],[-105.46277777777777,39.401666666666664],[-105.46277777777777,39.401666666666664],[-105.46277777777777,39.401666666666664],[-105.46277777777777,39.401666666666664],[-105.22277777777778,39.41777777777777],[-105.22277777777778,39.41777777777777],[-105.22277777777778,39.41777777777777],[-105.22277777777778,39.41777777777777],[-105.22277777777778,39.41777777777777],[-104.93333333333334,39.416666666666664],[-104.93333333333334,39.416666666666664],[-104.93333333333334,39.416666666666664],[-104.93333333333334,39.416666666666664],[-104.93333333333334,39.416666666666664],[-104.68333333333334,39.75],[-104.68333333333334,39.75],[-104.68333333333334,39.75],[-104.68333333333334,39.75],[-104.68333333333334,39.75],[-104.68333333333334,39.75],[-104.68333333333334,39.75],[-104.68333333333334,39.75],[-104.68333333333334,39.75],[-104.68333333333334,39.75],[-104.68333333333334,39.75]],"type":"LineString"}
}
