{
  "id": 1981767239,
  "type": "Feature",
  "properties": {
    "geom:area": 0,
    "geom:bbox": "-122.415000,35.761944,-115.173056,37.639444",
    "geom:latitude": 36.82225920790678,
    "geom:longitude": -118.61811894930361,
    "src:alt_label": "swim-path",
    "src:geom": "swim",
    "swim:altitudes": [
      "074",
      "099",
      "099",
      "099",
      "099",
      "099",
      "099",
      "115",
      "115",
      "136",
      "141",
      "141",
      "164",
      "183",
      "183",
      "205",
      "228",
      "228",
      "245",
      "276",
      "276",
      "310C",
      "310C",
      "310C",
      "310C",
      "310C",
      "310C",
      "310C",
      "310C",
      "310C",
      "310C",
      "310C",
      "310C",
      "310C",
      "310C",
      "310C",
      "310C",
      "310C",
      "310C",
      "310C",
      "310C",
      "310",
      "310",
      "310",
      "310",
      "310",
      "310",
      "310",
      "310",
      "310",
      "310",
      "310",
      "310",
      "304",
      "304",
      "302",
      "302",
      "289",
      "289",
      "289",
      "289",
      "285",
      "231",
      "231",
      "231",
      "196",
      "196",
      "196",
      "184",
      "184",
      "184",
      "178",
      "138",
      "123",
      "123",
      "117",
      "115",
      "115",
      "115",
      "115",
      "115",
      "098",
      "098",
      "098",
      "080",
      "080",
      "080",
      "080",
      "080",
      "050",
      "050",
      "050",
      "050",
      "050",
      "024",
      "024",
      "024",
      "024",
      "024"
    ],
    "swim:geom": "path",
    "swim:speeds": [
      278,
      305,
      305,
      305,
      305,
      305,
      305,
      355,
      355,
      338,
      372,
      372,
      389,
      377,
      377,
      402,
      434,
      434,
      447,
      466,
      466,
      496,
      496,
      496,
      495,
      495,
      495,
      491,
      489,
      489,
      486,
      485,
      485,
      485,
      485,
      485,
      482,
      482,
      482,
      477,
      477,
      476,
      476,
      475,
      475,
      475,
      474,
      474,
      473,
      473,
      473,
      473,
      473,
      474,
      474,
      474,
      474,
      468,
      468,
      468,
      468,
      465,
      427,
      427,
      427,
      399,
      399,
      399,
      355,
      355,
      355,
      343,
      324,
      315,
      315,
      287,
      276,
      276,
      276,
      276,
      276,
      248,
      248,
      248,
      248,
      248,
      248,
      250,
      250,
      222,
      222,
      222,
      222,
      222,
      155,
      155,
      155,
      155,
      155
    ],
    "swim:timestamps": [
      1761395709,
      1761395769,
      1761395769,
      1761395769,
      1761395769,
      1761395769,
      1761395769,
      1761395829,
      1761395829,
      1761395880,
      1761395889,
      1761395889,
      1761395949,
      1761396000,
      1761396000,
      1761396060,
      1761396129,
      1761396129,
      1761396189,
      1761396309,
      1761396309,
      1761396601,
      1761396601,
      1761396601,
      1761396721,
      1761396721,
      1761396721,
      1761396789,
      1761396901,
      1761396901,
      1761397029,
      1761397081,
      1761397081,
      1761397081,
      1761397089,
      1761397089,
      1761397201,
      1761397201,
      1761397209,
      1761397269,
      1761397269,
      1761397561,
      1761397561,
      1761397569,
      1761397569,
      1761397569,
      1761397621,
      1761397621,
      1761397630,
      1761397630,
      1761397630,
      1761397750,
      1761397750,
      1761397861,
      1761397861,
      1761397870,
      1761397870,
      1761397922,
      1761397922,
      1761397922,
      1761397922,
      1761397930,
      1761398102,
      1761398102,
      1761398102,
      1761398205,
      1761398205,
      1761398205,
      1761398282,
      1761398282,
      1761398282,
      1761398308,
      1761398462,
      1761398522,
      1761398522,
      1761398556,
      1761398582,
      1761398582,
      1761398582,
      1761398582,
      1761398582,
      1761398677,
      1761398677,
      1761398677,
      1761398822,
      1761398822,
      1761398822,
      1761398882,
      1761398882,
      1761399030,
      1761399030,
      1761399030,
      1761399030,
      1761399030,
      1761399183,
      1761399183,
      1761399183,
      1761399183,
      1761399183
    ],
    "wof:geomhash": "98a0e400a24808220cb3bd8269646b83",
    "wof:id": 1981767239,
    "wof:repo": "sfomuseum-data-flights-2025-10"
  },
  "bbox": [
    -122.415,
    35.761944444444445,
    -115.17305555555556,
    37.63944444444444
  ],
  "geometry": {"coordinates":[[-122.415,37.63944444444444],[-122.3175,37.61],[-122.3175,37.61],[-122.3175,37.61],[-122.3175,37.61],[-122.3175,37.61],[-122.3175,37.61],[-122.20666666666666,37.57916666666667],[-122.20666666666666,37.57916666666667],[-122.10666666666665,37.549166666666665],[-122.08388888888888,37.54472222222222],[-122.08388888888888,37.54472222222222],[-121.95666666666666,37.50888888888889],[-121.84861111111111,37.47638888888889],[-121.84861111111111,37.47638888888889],[-121.7125,37.436388888888885],[-121.5425,37.39055555555556],[-121.5425,37.39055555555556],[-121.39694444444446,37.34861111111111],[-121.08805555555556,37.25833333333333],[-121.08805555555556,37.25833333333333],[-120.28166666666667,37.14527777777778],[-120.28166666666667,37.14527777777778],[-120.28166666666667,37.14527777777778],[-119.92305555555556,37.10333333333333],[-119.92305555555556,37.10333333333333],[-119.92305555555556,37.10333333333333],[-119.73916666666666,37.081944444444446],[-119.43916666666667,37.045833333333334],[-119.43916666666667,37.045833333333334],[-119.07,37.00083333333333],[-118.93861111111111,36.98416666666667],[-118.93861111111111,36.98416666666667],[-118.93861111111111,36.98416666666667],[-118.9038888888889,36.97972222222222],[-118.9038888888889,36.97972222222222],[-118.59138888888889,36.94027777777777],[-118.59138888888889,36.94027777777777],[-118.57444444444444,36.93805555555555],[-118.39666666666668,36.915],[-118.39666666666668,36.915],[-117.63694444444445,36.77166666666667],[-117.63694444444445,36.77166666666667],[-117.60166666666666,36.76111111111111],[-117.60166666666666,36.76111111111111],[-117.60166666666666,36.76111111111111],[-117.485,36.72666666666667],[-117.485,36.72666666666667],[-117.44666666666667,36.71527777777778],[-117.44666666666667,36.71527777777778],[-117.44666666666667,36.71527777777778],[-117.14111111111112,36.62388888888889],[-117.14111111111112,36.62388888888889],[-116.86888888888888,36.54138888888889],[-116.86888888888888,36.54138888888889],[-116.83555555555554,36.53138888888889],[-116.83555555555554,36.53138888888889],[-116.71583333333334,36.495],[-116.71583333333334,36.495],[-116.71583333333334,36.495],[-116.71583333333334,36.495],[-116.68361111111112,36.485],[-116.29138888888889,36.36416666666667],[-116.29138888888889,36.36416666666667],[-116.29138888888889,36.36416666666667],[-116.05305555555556,36.29055555555556],[-116.05305555555556,36.29055555555556],[-116.05305555555556,36.29055555555556],[-115.90611111111112,36.236666666666665],[-115.90611111111112,36.236666666666665],[-115.90611111111112,36.236666666666665],[-115.86472222222221,36.20916666666667],[-115.70472222222223,36.025],[-115.67111111111112,35.94222222222222],[-115.67111111111112,35.94222222222222],[-115.6525,35.894444444444446],[-115.64083333333333,35.86666666666667],[-115.64083333333333,35.86666666666667],[-115.64083333333333,35.86666666666667],[-115.64083333333333,35.86666666666667],[-115.64083333333333,35.86666666666667],[-115.59222222222222,35.761944444444445],[-115.59222222222222,35.761944444444445],[-115.59222222222222,35.761944444444445],[-115.39500000000001,35.763888888888886],[-115.39500000000001,35.763888888888886],[-115.39500000000001,35.763888888888886],[-115.33888888888889,35.81638888888889],[-115.33888888888889,35.81638888888889],[-115.23833333333333,35.9575],[-115.23833333333333,35.9575],[-115.23833333333333,35.9575],[-115.23833333333333,35.9575],[-115.23833333333333,35.9575],[-115.17305555555556,36.07027777777778],[-115.17305555555556,36.07027777777778],[-115.17305555555556,36.07027777777778],[-115.17305555555556,36.07027777777778],[-115.17305555555556,36.07027777777778]],"type":"LineString"}
}
