{
  "id": 1981561159,
  "type": "Feature",
  "properties": {
    "geom:area": 0,
    "geom:bbox": "-122.356180,37.504370,-121.246080,37.613060",
    "geom:latitude": 37.55161623491154,
    "geom:longitude": -121.80610006105063,
    "src:alt_label": "swim-approach",
    "src:geom": "swim",
    "swim:elevations": [
      5118,
      4973,
      4928,
      4612,
      4348,
      4058,
      3758,
      3473,
      3307,
      3119,
      3046,
      3048,
      3048,
      2901,
      2563,
      2417,
      2165,
      2050,
      1883,
      1829,
      1829,
      1487,
      1347,
      1199,
      1104,
      962,
      740,
      580,
      549,
      435,
      302,
      183,
      140,
      25
    ],
    "swim:geom": "approach",
    "swim:timestamps": [
      1759405088,
      1759405106,
      1759405111,
      1759405148,
      1759405178,
      1759405216,
      1759405253,
      1759405288,
      1759405312,
      1759405338,
      1759405370,
      1759405389,
      1759405421,
      1759405449,
      1759405494,
      1759405509,
      1759405545,
      1759405575,
      1759405606,
      1759405644,
      1759405653,
      1759405705,
      1759405732,
      1759405763,
      1759405776,
      1759405805,
      1759405847,
      1759405878,
      1759405901,
      1759405930,
      1759405968,
      1759405999,
      1759406012,
      1759406041
    ],
    "wof:geomhash": "1201aa67ecf7cb07a66859ba14f4dc60",
    "wof:id": 1981561159,
    "wof:repo": "sfomuseum-data-flights-2025-10"
  },
  "bbox": [
    -122.35618,
    37.50437,
    -121.24608,
    37.61306
  ],
  "geometry": {"coordinates":[[-121.24608,37.59497],[-121.27665,37.59094],[-121.28688,37.58979],[-121.352,37.58254],[-121.40555,37.57636],[-121.4722,37.56864],[-121.53732,37.56099],[-121.59595,37.55412],[-121.63374,37.5482],[-121.67228,37.55363],[-121.71286,37.58008],[-121.73428,37.59366],[-121.77119,37.58572],[-121.78015,37.55947],[-121.79196,37.51817],[-121.80706,37.5107],[-121.85143,37.50985],[-121.88839,37.51034],[-121.92874,37.51042],[-121.97624,37.50852],[-121.98773,37.50804],[-122.05434,37.50515],[-122.08722,37.50437],[-122.12123,37.51435],[-122.13509,37.5202],[-122.16602,37.53326],[-122.20788,37.55068],[-122.23683,37.56302],[-122.25676,37.57134],[-122.27903,37.58068],[-122.3061,37.59208],[-122.32713,37.60096],[-122.33575,37.60457],[-122.35618,37.61306]],"type":"LineString"}
}
