{
  "id": 1981583963,
  "type": "Feature",
  "properties": {
    "geom:area": 0,
    "geom:bbox": "-122.555560,36.745820,-122.361010,37.702890",
    "geom:latitude": 37.249891971816915,
    "geom:longitude": -122.47315278721975,
    "src:alt_label": "swim-takeoff",
    "src:geom": "swim",
    "swim:elevations": [
      122,
      487,
      1000,
      1096,
      1346,
      1752,
      2193,
      2581,
      2995,
      3556,
      3926,
      4325,
      4582,
      5208,
      5400,
      5629,
      6020,
      6229,
      6594,
      6834,
      6894,
      7030,
      7542,
      7769,
      7890
    ],
    "swim:geom": "takeoff",
    "swim:timestamps": [
      1759599234,
      1759599263,
      1759599298,
      1759599307,
      1759599349,
      1759599381,
      1759599405,
      1759599428,
      1759599454,
      1759599501,
      1759599534,
      1759599559,
      1759599576,
      1759599624,
      1759599655,
      1759599681,
      1759599714,
      1759599731,
      1759599766,
      1759599791,
      1759599797,
      1759599810,
      1759599868,
      1759599895,
      1759599913
    ],
    "wof:geomhash": "b6640e68b963264d68dd8f49cb35b556",
    "wof:id": 1981583963,
    "wof:repo": "sfomuseum-data-flights-2025-10"
  },
  "bbox": [
    -122.55556,
    36.74582,
    -122.36101,
    37.70289
  ],
  "geometry": {"coordinates":[[-122.36811,37.63014],[-122.36101,37.65237],[-122.36283,37.67997],[-122.36363,37.68715],[-122.40508,37.70289],[-122.43388,37.67134],[-122.43699,37.63932],[-122.44179,37.60824],[-122.44883,37.57232],[-122.46344,37.50548],[-122.4747,37.45135],[-122.48292,37.41008],[-122.48859,37.38111],[-122.50511,37.29814],[-122.51659,37.24216],[-122.52685,37.19193],[-122.54003,37.12652],[-122.54655,37.09399],[-122.55556,37.02159],[-122.53752,36.97139],[-122.52975,36.96006],[-122.51174,36.93572],[-122.43259,36.82743],[-122.39324,36.776],[-122.36226,36.74582]],"type":"LineString"}
}
