{
  "id": 1997543273,
  "type": "Feature",
  "properties": {
    "geom:area": 0,
    "geom:bbox": "-123.473230,37.262820,-122.128770,37.614190",
    "geom:latitude": 37.35894548721849,
    "geom:longitude": -122.69121249664646,
    "src:alt_label": "swim-approach",
    "src:geom": "swim",
    "swim:elevations": [
      4905,
      4759,
      4380,
      4096,
      3856,
      3432,
      3349,
      3262,
      3195,
      3136,
      3048,
      3048,
      3048,
      3048,
      3048,
      3025,
      2950,
      2825,
      2590,
      2438,
      2438,
      2438,
      2439,
      2389,
      2240,
      1707,
      1361,
      942,
      925,
      915,
      915,
      788,
      594,
      473,
      410,
      271,
      109,
      0
    ],
    "swim:geom": "approach",
    "swim:timestamps": [
      1761976287,
      1761976302,
      1761976341,
      1761976371,
      1761976395,
      1761976437,
      1761976452,
      1761976485,
      1761976512,
      1761976530,
      1761976581,
      1761976611,
      1761976647,
      1761976677,
      1761976705,
      1761976729,
      1761976749,
      1761976770,
      1761976809,
      1761976854,
      1761976881,
      1761976905,
      1761976948,
      1761976972,
      1761976987,
      1761977031,
      1761977061,
      1761977097,
      1761977103,
      1761977143,
      1761977176,
      1761977204,
      1761977246,
      1761977275,
      1761977290,
      1761977320,
      1761977363,
      1761977385
    ],
    "wof:geomhash": "215feffc7da191804b6f2a8444f91897",
    "wof:id": 1997543273,
    "wof:repo": "sfomuseum-data-flights-2025-10"
  },
  "bbox": [
    -123.47323,
    37.26282,
    -122.12877,
    37.61419
  ],
  "geometry": {"coordinates":[[-123.47323,37.3055],[-123.43771,37.30279],[-123.34586,37.29564],[-123.27623,37.29032],[-123.22122,37.2861],[-123.12626,37.27857],[-123.09283,37.27583],[-123.02252,37.27035],[-122.96819,37.26618],[-122.93368,37.26337],[-122.8426,37.26282],[-122.79406,37.2739],[-122.73607,37.28743],[-122.68773,37.29878],[-122.64178,37.30945],[-122.60316,37.31841],[-122.57157,37.32576],[-122.53807,37.33347],[-122.47636,37.34759],[-122.40679,37.36365],[-122.36508,37.37328],[-122.32834,37.38169],[-122.2659,37.39611],[-122.23246,37.40366],[-122.21378,37.40797],[-122.16059,37.42681],[-122.1366,37.45081],[-122.12877,37.48546],[-122.13002,37.49104],[-122.15034,37.52178],[-122.17911,37.53859],[-122.20615,37.54981],[-122.24558,37.5667],[-122.27197,37.57774],[-122.28371,37.58284],[-122.30786,37.59278],[-122.34235,37.6073],[-122.35845,37.61419]],"type":"LineString"}
}
