{
  "id": 1981802499,
  "type": "Feature",
  "properties": {
    "geom:area": 0,
    "geom:bbox": "-122.316667,33.350833,-111.847222,37.600000",
    "geom:latitude": 34.83530484149264,
    "geom:longitude": -117.45224853443649,
    "src:alt_label": "swim-path",
    "src:geom": "swim",
    "swim:altitudes": [
      "056",
      "056",
      "072",
      "093",
      "120",
      "121",
      "121",
      "140",
      "179",
      "224",
      "236",
      "253",
      "277",
      "277",
      "305",
      "305",
      "340C",
      "340C",
      "340C",
      "340C",
      "340C",
      "340C",
      "340C",
      "340C",
      "340C",
      "340C",
      "340C",
      "340C",
      "340C",
      "340C",
      "340C",
      "340C",
      "340C",
      "340C",
      "340C",
      "340C",
      "340C",
      "340C",
      "340C",
      "340C",
      "340C",
      "340C",
      "340C",
      "340C",
      "340C",
      "340C",
      "340C",
      "340C",
      "340C",
      "340C",
      "340C",
      "340C",
      "340C",
      "340C",
      "340",
      "340",
      "340",
      "340",
      "340",
      "241",
      "241",
      "241",
      "241",
      "170",
      "170",
      "164",
      "131",
      "113",
      "080",
      "080",
      "063",
      "028",
      "028",
      "011",
      "008",
      "008"
    ],
    "swim:geom": "path",
    "swim:speeds": [
      242,
      242,
      272,
      269,
      304,
      362,
      362,
      359,
      393,
      415,
      425,
      444,
      452,
      452,
      446,
      446,
      427,
      427,
      427,
      428,
      430,
      430,
      430,
      430,
      430,
      432,
      432,
      432,
      432,
      434,
      433,
      433,
      433,
      433,
      433,
      433,
      433,
      433,
      432,
      436,
      441,
      441,
      441,
      437,
      437,
      435,
      435,
      435,
      434,
      434,
      430,
      427,
      427,
      427,
      427,
      427,
      428,
      428,
      426,
      408,
      408,
      408,
      408,
      358,
      358,
      360,
      336,
      276,
      253,
      253,
      201,
      196,
      196,
      149,
      143,
      143
    ],
    "swim:timestamps": [
      1761885100,
      1761885100,
      1761885160,
      1761885217,
      1761885337,
      1761885340,
      1761885340,
      1761885397,
      1761885520,
      1761885700,
      1761885758,
      1761885940,
      1761886060,
      1761886060,
      1761886179,
      1761886179,
      1761886479,
      1761886479,
      1761886479,
      1761886659,
      1761886840,
      1761886840,
      1761886900,
      1761886900,
      1761886960,
      1761887080,
      1761887080,
      1761887080,
      1761887080,
      1761887260,
      1761887380,
      1761887440,
      1761887440,
      1761887681,
      1761887681,
      1761887741,
      1761887741,
      1761887741,
      1761887801,
      1761888041,
      1761888169,
      1761888169,
      1761888169,
      1761888289,
      1761888289,
      1761888349,
      1761888409,
      1761888522,
      1761888642,
      1761888642,
      1761888762,
      1761888882,
      1761888882,
      1761888882,
      1761889154,
      1761889154,
      1761889214,
      1761889214,
      1761889334,
      1761889574,
      1761889574,
      1761889574,
      1761889574,
      1761889787,
      1761889787,
      1761889814,
      1761889934,
      1761890054,
      1761890234,
      1761890234,
      1761890355,
      1761890535,
      1761890535,
      1761890655,
      1761890669,
      1761890669
    ],
    "wof:geomhash": "4aae46f2b564b79360b5b9fe7857ae68",
    "wof:id": 1981802499,
    "wof:repo": "sfomuseum-data-flights-2025-10"
  },
  "bbox": [
    -122.31666666666666,
    33.350833333333334,
    -111.84722222222221,
    37.6
  ],
  "geometry": {"coordinates":[[-111.84722222222221,33.4],[-111.84722222222221,33.4],[-111.89444444444445,33.350833333333334],[-111.98333333333333,33.36361111111111],[-112.19055555555556,33.3925],[-112.20333333333333,33.394444444444446],[-112.20333333333333,33.394444444444446],[-112.31666666666666,33.409444444444446],[-112.58166666666666,33.4475],[-112.97638888888889,33.48583333333333],[-113.11472222222221,33.51555555555556],[-113.5375,33.64472222222222],[-113.83944444444444,33.651111111111106],[-113.83944444444444,33.651111111111106],[-114.11333333333333,33.71388888888889],[-114.11333333333333,33.71388888888889],[-114.79944444444445,33.88361111111111],[-114.79944444444445,33.88361111111111],[-114.79944444444445,33.88361111111111],[-115.21111111111111,33.983333333333334],[-115.62388888888889,34.081944444444446],[-115.62388888888889,34.081944444444446],[-115.76222222222222,34.114444444444445],[-115.76222222222222,34.114444444444445],[-115.9025,34.1475],[-116.18416666666667,34.213055555555556],[-116.18416666666667,34.213055555555556],[-116.18416666666667,34.213055555555556],[-116.18416666666667,34.213055555555556],[-116.60638888888889,34.309999999999995],[-116.8875,34.373333333333335],[-117.02777777777777,34.40472222222222],[-117.02777777777777,34.40472222222222],[-117.59333333333333,34.52972222222222],[-117.59333333333333,34.52972222222222],[-117.73333333333333,34.56027777777778],[-117.73333333333333,34.56027777777778],[-117.73333333333333,34.56027777777778],[-117.87555555555555,34.59111111111111],[-118.41000000000001,34.788888888888884],[-118.67666666666668,34.915277777777774],[-118.67666666666668,34.915277777777774],[-118.67666666666668,34.915277777777774],[-118.93166666666667,35.03527777777778],[-118.93166666666667,35.03527777777778],[-119.06,35.09527777777778],[-119.18777777777778,35.15472222222222],[-119.44444444444444,35.27361111111111],[-119.70194444444445,35.39194444444444],[-119.70194444444445,35.39194444444444],[-119.95277777777778,35.50611111111111],[-120.21333333333334,35.62416666666667],[-120.21333333333334,35.62416666666667],[-120.21333333333334,35.62416666666667],[-120.73666666666666,35.89972222222222],[-120.73666666666666,35.89972222222222],[-120.87583333333333,35.98694444444445],[-120.87583333333333,35.98694444444445],[-121.10749999999999,36.13138888888889],[-121.56222222222222,36.411944444444444],[-121.56222222222222,36.411944444444444],[-121.56222222222222,36.411944444444444],[-121.56222222222222,36.411944444444444],[-121.86666666666666,36.7],[-121.86666666666666,36.7],[-121.88083333333333,36.725],[-121.94194444444445,36.91277777777778],[-121.99777777777778,37.066944444444445],[-122.07972222222222,37.276666666666664],[-122.07972222222222,37.276666666666664],[-122.12222222222222,37.385555555555555],[-122.18583333333333,37.53972222222222],[-122.18583333333333,37.53972222222222],[-122.29527777777777,37.585],[-122.31666666666666,37.6],[-122.31666666666666,37.6]],"type":"LineString"}
}
