{
  "id": 1981637399,
  "type": "Feature",
  "properties": {
    "geom:area": 0,
    "geom:bbox": "-123.493160,37.633040,-122.409390,37.731620",
    "geom:latitude": 37.69917195083494,
    "geom:longitude": -122.9474947514684,
    "src:alt_label": "swim-takeoff",
    "src:geom": "swim",
    "swim:elevations": [
      343,
      627,
      1002,
      1171,
      1377,
      1676,
      1793,
      2073,
      2190,
      2924,
      2970,
      3275,
      3505,
      3676,
      3925,
      4202,
      4604,
      5098,
      5159,
      5630,
      5726,
      6153
    ],
    "swim:geom": "takeoff",
    "swim:timestamps": [
      1760095375,
      1760095396,
      1760095431,
      1760095465,
      1760095495,
      1760095523,
      1760095532,
      1760095553,
      1760095561,
      1760095616,
      1760095620,
      1760095668,
      1760095705,
      1760095730,
      1760095752,
      1760095779,
      1760095816,
      1760095856,
      1760095862,
      1760095918,
      1760095928,
      1760095978
    ],
    "wof:geomhash": "e0b70aa6304487946c9ca3fc4e4afd7e",
    "wof:id": 1981637399,
    "wof:repo": "sfomuseum-data-flights-2025-10"
  },
  "bbox": [
    -123.49316,
    37.63304,
    -122.40939,
    37.73162
  ],
  "geometry": {"coordinates":[[-122.40939,37.63304],[-122.42935,37.64206],[-122.4636,37.65722],[-122.4993,37.6723],[-122.53955,37.67684],[-122.58194,37.67929],[-122.59634,37.68017],[-122.62962,37.68233],[-122.64255,37.68316],[-122.73027,37.68863],[-122.73663,37.68905],[-122.81804,37.69358],[-122.89065,37.69792],[-122.94191,37.70102],[-122.98965,37.70387],[-123.0474,37.70712],[-123.12962,37.71181],[-123.2185,37.71672],[-123.23124,37.71744],[-123.35664,37.7245],[-123.37858,37.72565],[-123.49316,37.73162]],"type":"LineString"}
}
