{
  "id": 1981718065,
  "type": "Feature",
  "properties": {
    "geom:area": 0,
    "geom:bbox": "-159.340000,21.750000,-122.280000,37.830000",
    "geom:latitude": 31.391192235761466,
    "geom:longitude": -141.4017320305126,
    "src:alt_label": "swim-route",
    "src:geom": "swim",
    "swim:geom": "route",
    "wof:geomhash": "905070ca4807e50163186dfc6601cc4a",
    "wof:id": 1981718065,
    "wof:repo": "sfomuseum-data-flights-2025-10"
  },
  "bbox": [
    -159.34,
    21.75,
    -122.28,
    37.83
  ],
  "geometry": {"coordinates":[[-159.34,21.98],[-159.34,21.97],[-159.26,21.92],[-159.19,21.88],[-159.12,21.84],[-158.97,21.76],[-158.95,21.75],[-158.95,21.75],[-158.95,21.76],[-158.84,21.85],[-158.76,21.92],[-158.72,21.96],[-158.58,22.08],[-158.43,22.21],[-158.35,22.68],[-158,22.92],[-158,22.92],[-157.74,23.1],[-156.32,24.04],[-155.82,24.35],[-155.3,24.68],[-155.28,24.69],[-155.25,24.72],[-155.21,24.74],[-154.7,25.05],[-152.88,26.19],[-152.13,26.63],[-149,28.42],[-147.57,29.19],[-146.29,29.86],[-144.57,30.73],[-144,31],[-143.69,31.15],[-141.92,31.98],[-141.45,32.2],[-141.05,32.38],[-139.27,33.16],[-137.77,33.78],[-137.01,34.09],[-135.87,34.54],[-134.7,34.98],[-133.43,35.43],[-132.82,35.66],[-130.36,36.48],[-128.69,37.01],[-127,37.51],[-126.99,37.51],[-125.83,37.83],[-124.7,37.54],[-124.38,37.46],[-124.29,37.43],[-124.11,37.38],[-123.93,37.34],[-123.86,37.32],[-123.81,37.3],[-123.58,37.27],[-123.53,37.26],[-123.13,37.19],[-122.96,37.24],[-122.86,37.26],[-122.84,37.26],[-122.84,37.26],[-122.76,37.28],[-122.67,37.3],[-122.66,37.3],[-122.54,37.33],[-122.5,37.34],[-122.3,37.39],[-122.28,37.39],[-122.3,37.43],[-122.31,37.46],[-122.34,37.54],[-122.37,37.6],[-122.37,37.61],[-122.38,37.62]],"type":"LineString"}
}
