{
  "id": 1981685919,
  "type": "Feature",
  "properties": {
    "geom:area": 0,
    "geom:bbox": "-122.470270,36.729440,-121.309770,37.714290",
    "geom:latitude": 37.21512611131959,
    "geom:longitude": -121.9971161583844,
    "src:alt_label": "swim-takeoff",
    "src:geom": "swim",
    "swim:elevations": [
      358,
      611,
      779,
      1018,
      1545,
      2089,
      2241,
      2545,
      2804,
      3026,
      3117,
      3245,
      3382,
      3590,
      4035,
      4278,
      4525,
      4674,
      4948,
      5107,
      5263,
      5370,
      5506,
      5839,
      5900,
      6169,
      6324,
      6676,
      6778,
      6888,
      7133,
      7327
    ],
    "swim:geom": "takeoff",
    "swim:timestamps": [
      1760659785,
      1760659819,
      1760659847,
      1760659865,
      1760659906,
      1760659945,
      1760659961,
      1760659985,
      1760660006,
      1760660029,
      1760660068,
      1760660095,
      1760660119,
      1760660140,
      1760660184,
      1760660218,
      1760660248,
      1760660270,
      1760660306,
      1760660330,
      1760660351,
      1760660366,
      1760660387,
      1760660429,
      1760660437,
      1760660474,
      1760660498,
      1760660547,
      1760660565,
      1760660582,
      1760660628,
      1760660662
    ],
    "wof:geomhash": "9062665ffd5783a178eb2fd557d0b897",
    "wof:id": 1981685919,
    "wof:repo": "sfomuseum-data-flights-2025-10"
  },
  "bbox": [
    -122.47027,
    36.72944,
    -121.30977,
    37.71429
  ],
  "geometry": {"coordinates":[[-122.3613,37.6432],[-122.36163,37.6744],[-122.37181,37.70251],[-122.39437,37.71429],[-122.45089,37.69379],[-122.45871,37.64257],[-122.46126,37.62117],[-122.46464,37.58764],[-122.46756,37.5577],[-122.47027,37.52436],[-122.44188,37.47043],[-122.39952,37.44144],[-122.35813,37.41531],[-122.32103,37.39166],[-122.24184,37.34054],[-122.17987,37.30048],[-122.12441,37.26437],[-122.08493,37.23869],[-122.01641,37.19421],[-121.97013,37.16411],[-121.92941,37.1376],[-121.90022,37.11849],[-121.85906,37.09157],[-121.77686,37.03778],[-121.76114,37.02745],[-121.68684,36.9787],[-121.6391,36.94739],[-121.54274,36.88376],[-121.50666,36.85988],[-121.47284,36.83756],[-121.37807,36.77479],[-121.30977,36.72944]],"type":"LineString"}
}
