{
  "id": 1981783689,
  "type": "Feature",
  "properties": {
    "geom:area": 0,
    "geom:bbox": "-122.368056,33.949722,-118.228889,37.630278",
    "geom:latitude": 35.668722110059946,
    "geom:longitude": -120.26496149948336,
    "src:alt_label": "swim-path",
    "src:geom": "swim",
    "swim:altitudes": [
      "007",
      "007",
      "007",
      "007",
      "007",
      "007",
      "007",
      "007",
      "007",
      "007",
      "178",
      "178",
      "178",
      "178",
      "198",
      "198",
      "198",
      "198",
      "198",
      "198",
      "198",
      "198",
      "295",
      "295",
      "295",
      "295",
      "295",
      "295",
      "295",
      "295",
      "323",
      "323",
      "323",
      "323",
      "323",
      "323",
      "323",
      "350C",
      "350C",
      "350C",
      "350C",
      "350C",
      "350C",
      "350C",
      "350C",
      "350C",
      "350C",
      "350C",
      "350C",
      "350C",
      "350C",
      "350C",
      "350C",
      "350",
      "350",
      "350",
      "350",
      "350",
      "350",
      "350",
      "350",
      "350",
      "350",
      "350",
      "318",
      "318",
      "318",
      "318",
      "318",
      "318",
      "289",
      "289",
      "289",
      "289",
      "289",
      "250",
      "250",
      "250",
      "250",
      "170",
      "170",
      "170",
      "168",
      "168",
      "168",
      "168",
      "151",
      "151",
      "151",
      "151",
      "151",
      "124",
      "124",
      "124",
      "115",
      "115",
      "102",
      "102",
      "102",
      "102",
      "102",
      "089",
      "089",
      "077",
      "077",
      "077",
      "075",
      "075",
      "075",
      "075",
      "075",
      "075",
      "075",
      "057",
      "057",
      "057",
      "046",
      "046",
      "046",
      "046",
      "046",
      "037",
      "036",
      "036",
      "036",
      "005",
      "005",
      "005",
      "001",
      "001",
      "001",
      "001",
      "001",
      "001",
      "001"
    ],
    "swim:geom": "path",
    "swim:speeds": [
      152,
      152,
      152,
      152,
      152,
      152,
      152,
      152,
      152,
      152,
      369,
      369,
      369,
      369,
      382,
      382,
      382,
      382,
      382,
      382,
      382,
      382,
      491,
      491,
      491,
      491,
      491,
      491,
      491,
      491,
      502,
      502,
      502,
      502,
      502,
      502,
      502,
      487,
      487,
      487,
      486,
      486,
      486,
      486,
      486,
      486,
      484,
      484,
      484,
      484,
      484,
      484,
      484,
      480,
      480,
      480,
      478,
      478,
      478,
      477,
      477,
      477,
      477,
      477,
      474,
      474,
      474,
      474,
      474,
      474,
      473,
      473,
      473,
      473,
      473,
      446,
      446,
      446,
      446,
      372,
      372,
      372,
      375,
      375,
      375,
      375,
      366,
      366,
      366,
      366,
      366,
      325,
      325,
      325,
      315,
      315,
      277,
      277,
      277,
      277,
      277,
      250,
      250,
      247,
      247,
      247,
      240,
      240,
      240,
      240,
      240,
      240,
      240,
      201,
      201,
      201,
      177,
      177,
      177,
      177,
      177,
      177,
      170,
      170,
      170,
      136,
      136,
      136,
      130,
      130,
      130,
      130,
      130,
      130,
      130
    ],
    "swim:timestamps": [
      1761621108,
      1761621108,
      1761621108,
      1761621108,
      1761621108,
      1761621108,
      1761621108,
      1761621108,
      1761621108,
      1761621108,
      1761621468,
      1761621468,
      1761621468,
      1761621468,
      1761621524,
      1761621524,
      1761621524,
      1761621524,
      1761621524,
      1761621524,
      1761621524,
      1761621524,
      1761621885,
      1761621885,
      1761621885,
      1761621885,
      1761621885,
      1761621885,
      1761621885,
      1761621885,
      1761622005,
      1761622005,
      1761622005,
      1761622005,
      1761622005,
      1761622005,
      1761622005,
      1761622189,
      1761622189,
      1761622189,
      1761622369,
      1761622369,
      1761622369,
      1761622369,
      1761622369,
      1761622369,
      1761622486,
      1761622486,
      1761622486,
      1761622486,
      1761622486,
      1761622486,
      1761622486,
      1761622606,
      1761622606,
      1761622606,
      1761622666,
      1761622666,
      1761622666,
      1761622730,
      1761622730,
      1761622730,
      1761622730,
      1761622730,
      1761622966,
      1761622966,
      1761622966,
      1761622966,
      1761622966,
      1761622966,
      1761623026,
      1761623026,
      1761623026,
      1761623026,
      1761623026,
      1761623147,
      1761623147,
      1761623147,
      1761623147,
      1761623316,
      1761623316,
      1761623316,
      1761623327,
      1761623327,
      1761623327,
      1761623327,
      1761623394,
      1761623394,
      1761623394,
      1761623394,
      1761623394,
      1761623514,
      1761623514,
      1761623514,
      1761623567,
      1761623567,
      1761623634,
      1761623634,
      1761623634,
      1761623634,
      1761623634,
      1761623747,
      1761623747,
      1761623808,
      1761623808,
      1761623808,
      1761623815,
      1761623815,
      1761623815,
      1761623815,
      1761623815,
      1761623815,
      1761623815,
      1761623928,
      1761623928,
      1761623928,
      1761623994,
      1761623994,
      1761623994,
      1761623994,
      1761623994,
      1761624048,
      1761624054,
      1761624054,
      1761624054,
      1761624288,
      1761624288,
      1761624288,
      1761624348,
      1761624348,
      1761624348,
      1761624348,
      1761624348,
      1761624348,
      1761624348
    ],
    "wof:geomhash": "e5591318cbdd135501490de7fd417cc9",
    "wof:id": 1981783689,
    "wof:repo": "sfomuseum-data-flights-2025-10"
  },
  "bbox": [
    -122.36805555555554,
    33.94972222222222,
    -118.22888888888889,
    37.63027777777778
  ],
  "geometry": {"coordinates":[[-122.36805555555554,37.63027777777778],[-122.36805555555554,37.63027777777778],[-122.36805555555554,37.63027777777778],[-122.36805555555554,37.63027777777778],[-122.36805555555554,37.63027777777778],[-122.36805555555554,37.63027777777778],[-122.36805555555554,37.63027777777778],[-122.36805555555554,37.63027777777778],[-122.36805555555554,37.63027777777778],[-122.36805555555554,37.63027777777778],[-122.33666666666666,37.44166666666666],[-122.33666666666666,37.44166666666666],[-122.33666666666666,37.44166666666666],[-122.33666666666666,37.44166666666666],[-122.24138888888889,37.36],[-122.24138888888889,37.36],[-122.24138888888889,37.36],[-122.24138888888889,37.36],[-122.24138888888889,37.36],[-122.24138888888889,37.36],[-122.24138888888889,37.36],[-122.24138888888889,37.36],[-121.5525,36.81888888888889],[-121.5525,36.81888888888889],[-121.5525,36.81888888888889],[-121.5525,36.81888888888889],[-121.5525,36.81888888888889],[-121.5525,36.81888888888889],[-121.5525,36.81888888888889],[-121.5525,36.81888888888889],[-121.30583333333333,36.62166666666667],[-121.30583333333333,36.62166666666667],[-121.30583333333333,36.62166666666667],[-121.30583333333333,36.62166666666667],[-121.30583333333333,36.62166666666667],[-121.30583333333333,36.62166666666667],[-121.30583333333333,36.62166666666667],[-120.93194444444445,36.34],[-120.93194444444445,36.34],[-120.93194444444445,36.34],[-120.55277777777778,36.075],[-120.55277777777778,36.075],[-120.55277777777778,36.075],[-120.55277777777778,36.075],[-120.55277777777778,36.075],[-120.55277777777778,36.075],[-120.30472222222222,35.89722222222222],[-120.30472222222222,35.89722222222222],[-120.30472222222222,35.89722222222222],[-120.30472222222222,35.89722222222222],[-120.30472222222222,35.89722222222222],[-120.30472222222222,35.89722222222222],[-120.30472222222222,35.89722222222222],[-120.11694444444444,35.67722222222222],[-120.11694444444444,35.67722222222222],[-120.11694444444444,35.67722222222222],[-120.03,35.56222222222222],[-120.03,35.56222222222222],[-120.03,35.56222222222222],[-119.94416666666667,35.44833333333333],[-119.94416666666667,35.44833333333333],[-119.94416666666667,35.44833333333333],[-119.94416666666667,35.44833333333333],[-119.94416666666667,35.44833333333333],[-119.59027777777777,35.0375],[-119.59027777777777,35.0375],[-119.59027777777777,35.0375],[-119.59027777777777,35.0375],[-119.59027777777777,35.0375],[-119.59027777777777,35.0375],[-119.47416666666666,34.911944444444444],[-119.47416666666666,34.911944444444444],[-119.47416666666666,34.911944444444444],[-119.47416666666666,34.911944444444444],[-119.47416666666666,34.911944444444444],[-119.30888888888889,34.7275],[-119.30888888888889,34.7275],[-119.30888888888889,34.7275],[-119.30888888888889,34.7275],[-119.06666666666666,34.45],[-119.06666666666666,34.45],[-119.06666666666666,34.45],[-119.05666666666666,34.43888888888888],[-119.05666666666666,34.43888888888888],[-119.05666666666666,34.43888888888888],[-119.05666666666666,34.43888888888888],[-118.96666666666667,34.333333333333336],[-118.96666666666667,34.333333333333336],[-118.96666666666667,34.333333333333336],[-118.96666666666667,34.333333333333336],[-118.96666666666667,34.333333333333336],[-118.83333333333333,34.18333333333333],[-118.83333333333333,34.18333333333333],[-118.83333333333333,34.18333333333333],[-118.77555555555556,34.132222222222225],[-118.77555555555556,34.132222222222225],[-118.7,34.05],[-118.7,34.05],[-118.7,34.05],[-118.7,34.05],[-118.7,34.05],[-118.55777777777777,34.01972222222222],[-118.55777777777777,34.01972222222222],[-118.47638888888889,34.01166666666666],[-118.47638888888889,34.01166666666666],[-118.47638888888889,34.01166666666666],[-118.46666666666667,34.016666666666666],[-118.46666666666667,34.016666666666666],[-118.46666666666667,34.016666666666666],[-118.46666666666667,34.016666666666666],[-118.46666666666667,34.016666666666666],[-118.46666666666667,34.016666666666666],[-118.46666666666667,34.016666666666666],[-118.33472222222221,34.02972222222222],[-118.33472222222221,34.02972222222222],[-118.33472222222221,34.02972222222222],[-118.26666666666667,34.03333333333333],[-118.26666666666667,34.03333333333333],[-118.26666666666667,34.03333333333333],[-118.26666666666667,34.03333333333333],[-118.26666666666667,34.03333333333333],[-118.22888888888889,34.01111111111111],[-118.23333333333333,34],[-118.23333333333333,34],[-118.23333333333333,34],[-118.38,33.95444444444445],[-118.38,33.95444444444445],[-118.38,33.95444444444445],[-118.42583333333334,33.94972222222222],[-118.42583333333334,33.94972222222222],[-118.42583333333334,33.94972222222222],[-118.42583333333334,33.94972222222222],[-118.42583333333334,33.94972222222222],[-118.42583333333334,33.94972222222222],[-118.42583333333334,33.94972222222222]],"type":"LineString"}
}
