{
  "id": 1981703013,
  "type": "Feature",
  "properties": {
    "geom:area": 0,
    "geom:bbox": "-122.360380,37.463700,-121.269850,37.683670",
    "geom:latitude": 37.56823870471344,
    "geom:longitude": -121.83659380621687,
    "src:alt_label": "swim-approach",
    "src:geom": "swim",
    "swim:elevations": [
      4665,
      4556,
      4448,
      4158,
      4071,
      4034,
      3813,
      3687,
      3431,
      3188,
      3132,
      3047,
      3037,
      3075,
      3050,
      3072,
      3057,
      3048,
      3048,
      3048,
      2771,
      2743,
      2743,
      2743,
      2743,
      2743,
      2619,
      2476,
      2438,
      2438,
      2375,
      2153,
      2015,
      1903,
      1815,
      1799,
      1522,
      1518,
      1261,
      1034,
      971,
      791,
      647,
      515,
      393,
      213,
      134,
      0
    ],
    "swim:geom": "approach",
    "swim:timestamps": [
      1760807218,
      1760807240,
      1760807258,
      1760807299,
      1760807316,
      1760807321,
      1760807356,
      1760807377,
      1760807413,
      1760807451,
      1760807463,
      1760807483,
      1760807494,
      1760807538,
      1760807576,
      1760807605,
      1760807610,
      1760807619,
      1760807642,
      1760807680,
      1760807724,
      1760807757,
      1760807761,
      1760807787,
      1760807814,
      1760807837,
      1760807873,
      1760807895,
      1760807929,
      1760807952,
      1760807978,
      1760808018,
      1760808042,
      1760808061,
      1760808083,
      1760808094,
      1760808148,
      1760808155,
      1760808196,
      1760808236,
      1760808245,
      1760808278,
      1760808311,
      1760808341,
      1760808373,
      1760808409,
      1760808433,
      1760808463
    ],
    "wof:geomhash": "9bd0c9773778bbfa8d68cdfc6b4e4027",
    "wof:id": 1981703013,
    "wof:repo": "sfomuseum-data-flights-2025-10"
  },
  "bbox": [
    -122.36038,
    37.4637,
    -121.26985,
    37.68367
  ],
  "geometry": {"coordinates":[[-121.26985,37.59175],[-121.30882,37.58734],[-121.33989,37.58403],[-121.40923,37.576],[-121.43745,37.57263],[-121.44536,37.5717],[-121.49851,37.56564],[-121.53085,37.5619],[-121.58402,37.55545],[-121.64059,37.54956],[-121.65672,37.55312],[-121.68193,37.56617],[-121.69412,37.57395],[-121.73162,37.61466],[-121.76359,37.6496],[-121.80143,37.66269],[-121.80877,37.66418],[-121.82161,37.66685],[-121.85313,37.67324],[-121.90583,37.68367],[-121.95191,37.6569],[-121.96225,37.62146],[-121.96354,37.61707],[-121.95949,37.58968],[-121.9313,37.5673],[-121.90599,37.5529],[-121.85775,37.53672],[-121.82834,37.52676],[-121.79817,37.50034],[-121.80547,37.47677],[-121.83769,37.4637],[-121.89173,37.47375],[-121.9239,37.48052],[-121.95002,37.48616],[-121.97867,37.49243],[-121.99203,37.49603],[-122.05521,37.51667],[-122.06355,37.51926],[-122.11062,37.53447],[-122.15435,37.54869],[-122.16288,37.55145],[-122.19674,37.56238],[-122.22943,37.57314],[-122.25916,37.5823],[-122.28834,37.59092],[-122.31815,37.59973],[-122.33762,37.60573],[-122.36038,37.61465]],"type":"LineString"}
}
