{
  "id": 1981654419,
  "type": "Feature",
  "properties": {
    "geom:area": 0,
    "geom:bbox": "-122.516140,36.749790,-122.102510,37.706810",
    "geom:latitude": 37.244941332319506,
    "geom:longitude": -122.38061940258052,
    "src:alt_label": "swim-takeoff",
    "src:geom": "swim",
    "swim:elevations": [
      122,
      628,
      765,
      1131,
      1273,
      1582,
      1823,
      2557,
      3415,
      3705,
      4036,
      4152,
      4468,
      4690,
      5558,
      5782,
      6384,
      6638,
      7234,
      7329,
      7774,
      8034,
      8505,
      8634,
      8897,
      9105,
      9375,
      9554,
      9751
    ],
    "swim:geom": "takeoff",
    "swim:timestamps": [
      1760336932,
      1760336966,
      1760336975,
      1760337006,
      1760337023,
      1760337054,
      1760337068,
      1760337105,
      1760337145,
      1760337177,
      1760337204,
      1760337210,
      1760337228,
      1760337240,
      1760337291,
      1760337308,
      1760337355,
      1760337372,
      1760337412,
      1760337420,
      1760337460,
      1760337484,
      1760337534,
      1760337546,
      1760337574,
      1760337598,
      1760337628,
      1760337643,
      1760337660
    ],
    "wof:geomhash": "d37adb15f3167859eb5eed9a2b3b35ff",
    "wof:id": 1981654419,
    "wof:repo": "sfomuseum-data-flights-2025-10"
  },
  "bbox": [
    -122.51614,
    36.74979,
    -122.10251,
    37.70681
  ],
  "geometry": {"coordinates":[[-122.36853,37.62975],[-122.36368,37.65391],[-122.36351,37.66018],[-122.36171,37.68239],[-122.36835,37.69624],[-122.40411,37.70681],[-122.42248,37.69902],[-122.44333,37.65356],[-122.45288,37.60075],[-122.46161,37.55565],[-122.46926,37.51355],[-122.47122,37.5039],[-122.47687,37.47483],[-122.48048,37.45537],[-122.49565,37.37213],[-122.50082,37.34312],[-122.51614,37.26032],[-122.50958,37.22972],[-122.45726,37.16467],[-122.44622,37.15159],[-122.39189,37.08606],[-122.3593,37.04778],[-122.28706,36.96486],[-122.26894,36.94389],[-122.22772,36.89624],[-122.19405,36.85685],[-122.14955,36.80469],[-122.12779,36.77915],[-122.10251,36.74979]],"type":"LineString"}
}
