{
  "id": 1981586867,
  "type": "Feature",
  "properties": {
    "geom:area": 0,
    "geom:bbox": "-122.345360,37.492070,-121.251840,37.608590",
    "geom:latitude": 37.545871007093474,
    "geom:longitude": -121.80320686829319,
    "src:alt_label": "swim-approach",
    "src:geom": "swim",
    "swim:elevations": [
      4572,
      4304,
      4013,
      3866,
      3690,
      3273,
      3130,
      3056,
      2889,
      2739,
      2612,
      2416,
      2225,
      2001,
      1912,
      1821,
      1513,
      1431,
      1140,
      1058,
      831,
      686,
      638,
      470,
      373,
      272,
      81
    ],
    "swim:geom": "approach",
    "swim:timestamps": [
      1759669496,
      1759669526,
      1759669557,
      1759669573,
      1759669594,
      1759669639,
      1759669675,
      1759669703,
      1759669729,
      1759669755,
      1759669772,
      1759669813,
      1759669844,
      1759669888,
      1759669909,
      1759669927,
      1759669975,
      1759669989,
      1759670038,
      1759670054,
      1759670092,
      1759670121,
      1759670133,
      1759670174,
      1759670197,
      1759670222,
      1759670265
    ],
    "wof:geomhash": "e9768a2dfbeeec6dc9e4b3a08174af4f",
    "wof:id": 1981586867,
    "wof:repo": "sfomuseum-data-flights-2025-10"
  },
  "bbox": [
    -122.34536,
    37.49207,
    -121.25184,
    37.60859
  ],
  "geometry": {"coordinates":[[-121.25184,37.59429],[-121.3103,37.58682],[-121.37103,37.58032],[-121.40216,37.57686],[-121.4418,37.57247],[-121.52614,37.56228],[-121.59214,37.55454],[-121.63927,37.54736],[-121.68116,37.53726],[-121.72212,37.52748],[-121.74957,37.52101],[-121.8136,37.50577],[-121.85921,37.49441],[-121.92616,37.49207],[-121.95917,37.49296],[-121.98626,37.49506],[-122.05095,37.51496],[-122.06787,37.52046],[-122.12916,37.54051],[-122.1474,37.54642],[-122.19085,37.56034],[-122.22028,37.56969],[-122.23102,37.57321],[-122.26711,37.58474],[-122.28749,37.59053],[-122.30868,37.59697],[-122.34536,37.60859]],"type":"LineString"}
}
