{
  "id": 1981680353,
  "type": "Feature",
  "properties": {
    "geom:area": 0,
    "geom:bbox": "-122.469250,36.724540,-121.302390,37.716510",
    "geom:latitude": 37.216975381633254,
    "geom:longitude": -121.99832926922358,
    "src:alt_label": "swim-takeoff",
    "src:geom": "swim",
    "swim:elevations": [
      183,
      589,
      912,
      1148,
      1258,
      1629,
      2066,
      2236,
      2847,
      2982,
      3375,
      3510,
      3598,
      3840,
      4237,
      4498,
      4779,
      5031,
      5283,
      5536,
      5644,
      6089,
      6294,
      6391,
      6596,
      6722,
      6801,
      6934,
      7218,
      7409,
      7661
    ],
    "swim:geom": "takeoff",
    "swim:timestamps": [
      1760592139,
      1760592164,
      1760592196,
      1760592235,
      1760592253,
      1760592292,
      1760592319,
      1760592337,
      1760592387,
      1760592399,
      1760592446,
      1760592476,
      1760592494,
      1760592524,
      1760592566,
      1760592593,
      1760592626,
      1760592653,
      1760592680,
      1760592713,
      1760592725,
      1760592778,
      1760592805,
      1760592820,
      1760592850,
      1760592867,
      1760592879,
      1760592902,
      1760592947,
      1760592977,
      1760593016
    ],
    "wof:geomhash": "b4b2b0a8e143f45650de895c34c49c9c",
    "wof:id": 1981680353,
    "wof:repo": "sfomuseum-data-flights-2025-10"
  },
  "bbox": [
    -122.46925,
    36.72454,
    -121.30239,
    37.71651
  ],
  "geometry": {"coordinates":[[-122.36661,37.63225],[-122.36101,37.65091],[-122.36251,37.67616],[-122.37632,37.7076],[-122.39719,37.71651],[-122.44863,37.69893],[-122.46039,37.66619],[-122.46232,37.64233],[-122.46766,37.57319],[-122.46925,37.55584],[-122.46105,37.48496],[-122.41521,37.45226],[-122.38421,37.43225],[-122.33001,37.39689],[-122.25143,37.34592],[-122.19934,37.3123],[-122.13449,37.27042],[-122.08039,37.23529],[-122.02578,37.19983],[-121.95835,37.15593],[-121.9331,37.13948],[-121.82302,37.06764],[-121.76754,37.03136],[-121.7357,37.01047],[-121.67118,36.96809],[-121.63333,36.94318],[-121.60801,36.92651],[-121.55772,36.89335],[-121.45761,36.82742],[-121.39032,36.78292],[-121.30239,36.72454]],"type":"LineString"}
}
