{
  "id": 1981783375,
  "type": "Feature",
  "properties": {
    "geom:area": 0,
    "geom:bbox": "-122.385170,37.625390,-121.279480,38.159390",
    "geom:latitude": 37.98460360803787,
    "geom:longitude": -121.95109623812236,
    "src:alt_label": "swim-takeoff",
    "src:geom": "swim",
    "swim:elevations": [
      122,
      553,
      981,
      1298,
      1537,
      1954,
      2180,
      2429,
      2636,
      3183,
      3350,
      3654,
      4100,
      4329,
      4768,
      4908,
      5345,
      5834,
      5989,
      6175,
      6464,
      6523,
      6727,
      7122,
      7244
    ],
    "swim:geom": "takeoff",
    "swim:timestamps": [
      1761603566,
      1761603596,
      1761603627,
      1761603670,
      1761603713,
      1761603743,
      1761603758,
      1761603773,
      1761603788,
      1761603833,
      1761603851,
      1761603890,
      1761603954,
      1761603972,
      1761604008,
      1761604023,
      1761604075,
      1761604134,
      1761604152,
      1761604178,
      1761604224,
      1761604233,
      1761604261,
      1761604316,
      1761604345
    ],
    "wof:geomhash": "d40de513ee8b33f2adbfb65a605ae6bb",
    "wof:id": 1981783375,
    "wof:repo": "sfomuseum-data-flights-2025-10"
  },
  "bbox": [
    -122.38517,
    37.62539,
    -121.27948,
    38.15939
  ],
  "geometry": {"coordinates":[[-122.36825,37.62539],[-122.35113,37.6433],[-122.33217,37.66015],[-122.30919,37.68747],[-122.32774,37.72999],[-122.34592,37.76362],[-122.3545,37.78086],[-122.36305,37.79822],[-122.37161,37.81551],[-122.38517,37.87218],[-122.38433,37.89578],[-122.34981,37.9441],[-122.22034,37.97342],[-122.18104,37.98156],[-122.1016,37.99749],[-122.06848,38.00404],[-121.95093,38.02785],[-121.81099,38.05534],[-121.7672,38.06412],[-121.70588,38.07634],[-121.59212,38.09883],[-121.56956,38.1032],[-121.4978,38.11725],[-121.35718,38.1445],[-121.27948,38.15939]],"type":"LineString"}
}
