{
  "id": 1981746191,
  "type": "Feature",
  "properties": {
    "geom:area": 0,
    "geom:bbox": "-122.294444,35.897778,-115.255556,37.675556",
    "geom:latitude": 37.184439701418,
    "geom:longitude": -118.78006649250965,
    "src:alt_label": "swim-path",
    "src:geom": "swim",
    "swim:altitudes": [
      "066",
      "066",
      "066",
      "066",
      "066",
      "066",
      "102",
      "102",
      "102",
      "102",
      "186",
      "186",
      "186",
      "186",
      "186",
      "186",
      "304",
      "304",
      "304",
      "304",
      "304",
      "304",
      "331",
      "331",
      "331",
      "331",
      "331",
      "331",
      "331",
      "331",
      "360C",
      "360C",
      "360C",
      "360C",
      "360C",
      "360C",
      "360C",
      "360C",
      "360C",
      "360C",
      "360C",
      "360C",
      "360C",
      "360C",
      "360C",
      "360C",
      "360C",
      "360C",
      "360C",
      "340C",
      "340C",
      "340C",
      "340C",
      "340C",
      "340C",
      "340C",
      "340C",
      "340C",
      "340C",
      "340C",
      "335",
      "335",
      "335",
      "335",
      "291",
      "291",
      "291",
      "291",
      "291",
      "291",
      "252",
      "252",
      "252",
      "252",
      "252",
      "252",
      "252",
      "252",
      "161",
      "161",
      "161",
      "161",
      "161",
      "161",
      "161",
      "118",
      "118",
      "118",
      "118",
      "118",
      "118",
      "110",
      "105",
      "105",
      "105",
      "105",
      "105",
      "105",
      "105",
      "090",
      "090",
      "090",
      "090",
      "090",
      "090",
      "090",
      "090",
      "090",
      "089",
      "089",
      "089",
      "041",
      "041",
      "041",
      "022",
      "022",
      "022",
      "011",
      "011",
      "011",
      "011",
      "011",
      "011",
      "011",
      "011",
      "011",
      "011",
      "011"
    ],
    "swim:geom": "path",
    "swim:speeds": [
      261,
      261,
      261,
      261,
      261,
      261,
      283,
      283,
      283,
      283,
      369,
      369,
      369,
      369,
      369,
      369,
      429,
      429,
      429,
      429,
      429,
      429,
      429,
      429,
      429,
      429,
      429,
      429,
      429,
      429,
      437,
      437,
      437,
      437,
      437,
      440,
      440,
      440,
      440,
      440,
      440,
      440,
      441,
      441,
      441,
      440,
      440,
      440,
      440,
      459,
      459,
      459,
      459,
      459,
      459,
      459,
      459,
      459,
      459,
      459,
      461,
      461,
      461,
      461,
      465,
      465,
      465,
      465,
      465,
      465,
      433,
      433,
      433,
      433,
      433,
      433,
      433,
      433,
      283,
      283,
      283,
      283,
      283,
      283,
      283,
      257,
      257,
      257,
      257,
      257,
      257,
      232,
      243,
      243,
      243,
      243,
      243,
      243,
      243,
      255,
      255,
      255,
      255,
      255,
      255,
      255,
      255,
      255,
      258,
      258,
      258,
      214,
      214,
      214,
      208,
      208,
      208,
      175,
      175,
      175,
      175,
      175,
      175,
      175,
      175,
      175,
      175,
      175
    ],
    "swim:timestamps": [
      1761233410,
      1761233410,
      1761233410,
      1761233410,
      1761233410,
      1761233410,
      1761233470,
      1761233470,
      1761233470,
      1761233470,
      1761233710,
      1761233710,
      1761233710,
      1761233710,
      1761233710,
      1761233710,
      1761234131,
      1761234131,
      1761234131,
      1761234131,
      1761234131,
      1761234131,
      1761234251,
      1761234251,
      1761234251,
      1761234251,
      1761234251,
      1761234251,
      1761234251,
      1761234251,
      1761234551,
      1761234551,
      1761234551,
      1761234551,
      1761234562,
      1761234863,
      1761234863,
      1761234863,
      1761234863,
      1761234863,
      1761234863,
      1761234863,
      1761234912,
      1761234912,
      1761234912,
      1761234923,
      1761234923,
      1761234923,
      1761234923,
      1761235332,
      1761235332,
      1761235332,
      1761235332,
      1761235332,
      1761235332,
      1761235332,
      1761235343,
      1761235343,
      1761235343,
      1761235343,
      1761235463,
      1761235463,
      1761235463,
      1761235463,
      1761235824,
      1761235824,
      1761235824,
      1761235824,
      1761235824,
      1761235824,
      1761236004,
      1761236004,
      1761236004,
      1761236004,
      1761236004,
      1761236004,
      1761236004,
      1761236004,
      1761236365,
      1761236365,
      1761236365,
      1761236365,
      1761236365,
      1761236365,
      1761236365,
      1761236545,
      1761236545,
      1761236545,
      1761236545,
      1761236545,
      1761236545,
      1761236665,
      1761236779,
      1761236779,
      1761236779,
      1761236779,
      1761236779,
      1761236779,
      1761236779,
      1761236893,
      1761236893,
      1761236893,
      1761236893,
      1761236893,
      1761236893,
      1761236966,
      1761236966,
      1761236966,
      1761237013,
      1761237013,
      1761237013,
      1761237326,
      1761237326,
      1761237326,
      1761237446,
      1761237446,
      1761237446,
      1761237506,
      1761237506,
      1761237506,
      1761237506,
      1761237506,
      1761237506,
      1761237506,
      1761237506,
      1761237506,
      1761237506,
      1761237506
    ],
    "wof:geomhash": "883a1116e8715ffe3d4bfb765526a44c",
    "wof:id": 1981746191,
    "wof:repo": "sfomuseum-data-flights-2025-10"
  },
  "bbox": [
    -122.29444444444444,
    35.897777777777776,
    -115.25555555555556,
    37.675555555555555
  ],
  "geometry": {"coordinates":[[-115.25555555555556,36.112500000000004],[-115.25555555555556,36.112500000000004],[-115.25555555555556,36.112500000000004],[-115.25555555555556,36.112500000000004],[-115.25555555555556,36.112500000000004],[-115.25555555555556,36.112500000000004],[-115.31527777777778,36.05583333333333],[-115.31527777777778,36.05583333333333],[-115.31527777777778,36.05583333333333],[-115.31527777777778,36.05583333333333],[-115.65944444444445,35.897777777777776],[-115.65944444444445,35.897777777777776],[-115.65944444444445,35.897777777777776],[-115.65944444444445,35.897777777777776],[-115.65944444444445,35.897777777777776],[-115.65944444444445,35.897777777777776],[-116.42111111111112,36.36638888888889],[-116.42111111111112,36.36638888888889],[-116.42111111111112,36.36638888888889],[-116.42111111111112,36.36638888888889],[-116.42111111111112,36.36638888888889],[-116.42111111111112,36.36638888888889],[-116.6111111111111,36.5475],[-116.6111111111111,36.5475],[-116.6111111111111,36.5475],[-116.6111111111111,36.5475],[-116.6111111111111,36.5475],[-116.6111111111111,36.5475],[-116.6111111111111,36.5475],[-116.6111111111111,36.5475],[-117.04833333333333,37.01916666666666],[-117.04833333333333,37.01916666666666],[-117.04833333333333,37.01916666666666],[-117.04833333333333,37.01916666666666],[-117.06694444444445,37.03916666666667],[-117.65194444444445,37.375277777777775],[-117.65194444444445,37.375277777777775],[-117.65194444444445,37.375277777777775],[-117.65194444444445,37.375277777777775],[-117.65194444444445,37.375277777777775],[-117.65194444444445,37.375277777777775],[-117.65194444444445,37.375277777777775],[-117.775,37.390277777777776],[-117.775,37.390277777777776],[-117.775,37.390277777777776],[-117.80499999999999,37.39416666666666],[-117.80499999999999,37.39416666666666],[-117.80499999999999,37.39416666666666],[-117.80499999999999,37.39416666666666],[-118.87166666666666,37.52638888888889],[-118.87166666666666,37.52638888888889],[-118.87166666666666,37.52638888888889],[-118.87166666666666,37.52638888888889],[-118.87166666666666,37.52638888888889],[-118.87166666666666,37.52638888888889],[-118.87166666666666,37.52638888888889],[-118.8863888888889,37.528055555555554],[-118.8863888888889,37.528055555555554],[-118.8863888888889,37.528055555555554],[-118.8863888888889,37.528055555555554],[-119.2363888888889,37.569722222222225],[-119.2363888888889,37.569722222222225],[-119.2363888888889,37.569722222222225],[-119.2363888888889,37.569722222222225],[-120.18583333333333,37.675555555555555],[-120.18583333333333,37.675555555555555],[-120.18583333333333,37.675555555555555],[-120.18583333333333,37.675555555555555],[-120.18583333333333,37.675555555555555],[-120.18583333333333,37.675555555555555],[-120.65305555555557,37.67027777777778],[-120.65305555555557,37.67027777777778],[-120.65305555555557,37.67027777777778],[-120.65305555555557,37.67027777777778],[-120.65305555555557,37.67027777777778],[-120.65305555555557,37.67027777777778],[-120.65305555555557,37.67027777777778],[-120.65305555555557,37.67027777777778],[-121.36722222222221,37.58111111111111],[-121.36722222222221,37.58111111111111],[-121.36722222222221,37.58111111111111],[-121.36722222222221,37.58111111111111],[-121.36722222222221,37.58111111111111],[-121.36722222222221,37.58111111111111],[-121.36722222222221,37.58111111111111],[-121.63805555555557,37.547777777777775],[-121.63805555555557,37.547777777777775],[-121.63805555555557,37.547777777777775],[-121.63805555555557,37.547777777777775],[-121.63805555555557,37.547777777777775],[-121.63805555555557,37.547777777777775],[-121.7538888888889,37.625],[-121.9,37.63333333333333],[-121.9,37.63333333333333],[-121.9,37.63333333333333],[-121.9,37.63333333333333],[-121.9,37.63333333333333],[-121.9,37.63333333333333],[-121.9,37.63333333333333],[-121.95,37.56666666666667],[-121.95,37.56666666666667],[-121.95,37.56666666666667],[-121.95,37.56666666666667],[-121.95,37.56666666666667],[-121.95,37.56666666666667],[-121.85722222222222,37.53777777777778],[-121.85722222222222,37.53777777777778],[-121.85722222222222,37.53777777777778],[-121.78333333333333,37.516666666666666],[-121.78333333333333,37.516666666666666],[-121.78333333333333,37.516666666666666],[-122.10722222222222,37.50805555555556],[-122.10722222222222,37.50805555555556],[-122.10722222222222,37.50805555555556],[-122.23555555555555,37.56222222222222],[-122.23555555555555,37.56222222222222],[-122.23555555555555,37.56222222222222],[-122.29444444444444,37.58722222222222],[-122.29444444444444,37.58722222222222],[-122.29444444444444,37.58722222222222],[-122.29444444444444,37.58722222222222],[-122.29444444444444,37.58722222222222],[-122.29444444444444,37.58722222222222],[-122.29444444444444,37.58722222222222],[-122.29444444444444,37.58722222222222],[-122.29444444444444,37.58722222222222],[-122.29444444444444,37.58722222222222],[-122.29444444444444,37.58722222222222]],"type":"LineString"}
}
