{
  "id": 1981586945,
  "type": "Feature",
  "properties": {
    "geom:area": 0,
    "geom:bbox": "-122.656930,37.552230,-122.096480,38.497190",
    "geom:latitude": 37.883596877645054,
    "geom:longitude": -122.43787800605402,
    "src:alt_label": "swim-approach",
    "src:geom": "swim",
    "swim:elevations": [
      8103,
      8012,
      7471,
      7054,
      6732,
      6589,
      6147,
      5599,
      5241,
      4960,
      4734,
      4630,
      4182,
      3908,
      3679,
      3406,
      3353,
      3353,
      3353,
      3336,
      3169,
      2930,
      2623,
      2406,
      2325,
      2083,
      1900,
      1710,
      1553,
      1489,
      1347,
      1219,
      1065,
      984,
      741,
      639,
      602,
      518,
      376,
      212,
      124,
      4
    ],
    "swim:geom": "approach",
    "swim:timestamps": [
      1759685695,
      1759685702,
      1759685755,
      1759685787,
      1759685810,
      1759685820,
      1759685854,
      1759685901,
      1759685935,
      1759685966,
      1759685990,
      1759686000,
      1759686051,
      1759686078,
      1759686105,
      1759686147,
      1759686170,
      1759686192,
      1759686233,
      1759686244,
      1759686271,
      1759686312,
      1759686350,
      1759686374,
      1759686385,
      1759686416,
      1759686437,
      1759686460,
      1759686507,
      1759686519,
      1759686537,
      1759686563,
      1759686589,
      1759686602,
      1759686650,
      1759686673,
      1759686683,
      1759686702,
      1759686735,
      1759686770,
      1759686792,
      1759686822
    ],
    "wof:geomhash": "5f5bdc6706c5ec26e819bf16fbbcc48e",
    "wof:id": 1981586945,
    "wof:repo": "sfomuseum-data-flights-2025-10"
  },
  "bbox": [
    -122.65693,
    37.55223,
    -122.09648,
    38.49719
  ],
  "geometry": {"coordinates":[[-122.48718,38.49719],[-122.49726,38.4846],[-122.53714,38.38489],[-122.55383,38.32584],[-122.56533,38.28539],[-122.57057,38.26665],[-122.58795,38.2056],[-122.61058,38.12392],[-122.62621,38.0677],[-122.64045,38.01757],[-122.65191,37.97755],[-122.65693,37.9599],[-122.65069,37.87928],[-122.61627,37.84572],[-122.58122,37.81226],[-122.52811,37.76283],[-122.50235,37.73821],[-122.47565,37.71707],[-122.41689,37.70151],[-122.40216,37.6979],[-122.36614,37.68911],[-122.3141,37.67643],[-122.26665,37.66446],[-122.23705,37.65714],[-122.22305,37.65359],[-122.18676,37.6413],[-122.16408,37.6292],[-122.13976,37.61567],[-122.09668,37.58669],[-122.09648,37.5761],[-122.10286,37.56073],[-122.12977,37.55223],[-122.15664,37.55816],[-122.1688,37.56094],[-122.21364,37.57143],[-122.23501,37.57634],[-122.24317,37.57823],[-122.2598,37.58246],[-122.28807,37.59096],[-122.31843,37.59677],[-122.33545,37.60252],[-122.35862,37.6118]],"type":"LineString"}
}
