{
  "id": 1981750889,
  "type": "Feature",
  "properties": {
    "geom:area": 0,
    "geom:bbox": "-122.557500,33.516667,-117.779167,37.633333",
    "geom:latitude": 35.08908221038752,
    "geom:longitude": -120.44864194936255,
    "src:alt_label": "swim-path",
    "src:geom": "swim",
    "swim:altitudes": [
      "006",
      "006",
      "006",
      "006",
      "135",
      "135",
      "135",
      "135",
      "135",
      "135",
      "212",
      "212",
      "228",
      "228",
      "228",
      "232",
      "248",
      "248",
      "266",
      "268",
      "268",
      "281",
      "281",
      "281",
      "309",
      "309",
      "309",
      "328",
      "328",
      "344",
      "344",
      "346",
      "346",
      "346",
      "370C",
      "370C",
      "370C",
      "370C",
      "370C",
      "370C",
      "370C",
      "370C",
      "370C",
      "370C",
      "370C",
      "370C",
      "370C",
      "370C",
      "370C",
      "370",
      "370",
      "370",
      "370",
      "370",
      "363",
      "363",
      "286",
      "286",
      "286",
      "286",
      "286",
      "172",
      "167",
      "167",
      "167",
      "155",
      "150",
      "150",
      "107",
      "107",
      "102",
      "087",
      "087",
      "087",
      "081",
      "081",
      "069",
      "069",
      "050",
      "050",
      "050",
      "050",
      "051",
      "051",
      "051",
      "050",
      "033",
      "033",
      "030",
      "030",
      "030",
      "031",
      "031",
      "030",
      "030",
      "030",
      "030",
      "030",
      "001",
      "001"
    ],
    "swim:geom": "path",
    "swim:speeds": [
      167,
      167,
      167,
      167,
      350,
      350,
      350,
      350,
      350,
      350,
      405,
      405,
      416,
      416,
      416,
      426,
      435,
      435,
      444,
      446,
      446,
      455,
      455,
      455,
      474,
      474,
      474,
      472,
      472,
      466,
      466,
      465,
      465,
      465,
      456,
      456,
      456,
      455,
      455,
      454,
      453,
      453,
      452,
      452,
      453,
      453,
      453,
      453,
      458,
      459,
      460,
      461,
      463,
      463,
      464,
      464,
      452,
      452,
      452,
      452,
      452,
      367,
      367,
      367,
      367,
      353,
      354,
      354,
      322,
      322,
      309,
      266,
      266,
      266,
      266,
      266,
      260,
      260,
      257,
      257,
      257,
      257,
      255,
      255,
      255,
      253,
      210,
      210,
      205,
      208,
      208,
      207,
      207,
      207,
      203,
      203,
      199,
      199,
      146,
      146
    ],
    "swim:timestamps": [
      1761272840,
      1761272840,
      1761272840,
      1761272840,
      1761273146,
      1761273146,
      1761273146,
      1761273146,
      1761273146,
      1761273146,
      1761273334,
      1761273334,
      1761273387,
      1761273387,
      1761273387,
      1761273394,
      1761273447,
      1761273447,
      1761273507,
      1761273514,
      1761273514,
      1761273567,
      1761273567,
      1761273567,
      1761273687,
      1761273687,
      1761273687,
      1761273747,
      1761273747,
      1761273807,
      1761273807,
      1761273815,
      1761273815,
      1761273815,
      1761274047,
      1761274047,
      1761274047,
      1761274115,
      1761274115,
      1761274175,
      1761274227,
      1761274227,
      1761274295,
      1761274295,
      1761274536,
      1761274536,
      1761274536,
      1761274536,
      1761274656,
      1761274708,
      1761274716,
      1761274776,
      1761274956,
      1761274956,
      1761275016,
      1761275016,
      1761275197,
      1761275197,
      1761275197,
      1761275197,
      1761275197,
      1761275525,
      1761275557,
      1761275557,
      1761275557,
      1761275585,
      1761275617,
      1761275617,
      1761275765,
      1761275765,
      1761275798,
      1761275885,
      1761275885,
      1761275885,
      1761275918,
      1761275918,
      1761275978,
      1761275978,
      1761276098,
      1761276098,
      1761276098,
      1761276098,
      1761276158,
      1761276158,
      1761276158,
      1761276218,
      1761276339,
      1761276339,
      1761276365,
      1761276399,
      1761276399,
      1761276459,
      1761276459,
      1761276519,
      1761276545,
      1761276545,
      1761276579,
      1761276579,
      1761276819,
      1761276819
    ],
    "wof:geomhash": "84910af4cf8eda6eafb1dd0430315dae",
    "wof:id": 1981750889,
    "wof:repo": "sfomuseum-data-flights-2025-10"
  },
  "bbox": [
    -122.55749999999999,
    33.516666666666666,
    -117.77916666666667,
    37.63333333333333
  ],
  "geometry": {"coordinates":[[-122.36666666666666,37.63333333333333],[-122.36666666666666,37.63333333333333],[-122.36666666666666,37.63333333333333],[-122.36666666666666,37.63333333333333],[-122.47305555555556,37.46388888888889],[-122.47305555555556,37.46388888888889],[-122.47305555555556,37.46388888888889],[-122.47305555555556,37.46388888888889],[-122.47305555555556,37.46388888888889],[-122.47305555555556,37.46388888888889],[-122.5411111111111,37.1225],[-122.5411111111111,37.1225],[-122.55749999999999,37.03138888888889],[-122.55749999999999,37.03138888888889],[-122.55749999999999,37.03138888888889],[-122.55444444444444,37.007777777777775],[-122.50111111111111,36.92111111111111],[-122.50111111111111,36.92111111111111],[-122.42333333333333,36.81388888888888],[-122.40972222222223,36.795833333333334],[-122.40972222222223,36.795833333333334],[-122.34388888888888,36.70666666666667],[-122.34388888888888,36.70666666666667],[-122.34388888888888,36.70666666666667],[-122.17777777777778,36.478611111111114],[-122.17777777777778,36.478611111111114],[-122.17777777777778,36.478611111111114],[-122.09583333333333,36.365],[-122.09583333333333,36.365],[-122.01611111111112,36.254444444444445],[-122.01611111111112,36.254444444444445],[-121.99888888888889,36.230555555555554],[-121.99888888888889,36.230555555555554],[-121.99888888888889,36.230555555555554],[-121.62083333333332,35.86638888888889],[-121.62083333333332,35.86638888888889],[-121.62083333333332,35.86638888888889],[-121.4738888888889,35.77388888888889],[-121.4738888888889,35.77388888888889],[-121.35277777777777,35.697222222222216],[-121.25472222222223,35.63472222222222],[-121.25472222222223,35.63472222222222],[-121.12166666666666,35.55],[-121.12166666666666,35.55],[-120.70444444444445,35.178888888888885],[-120.70444444444445,35.178888888888885],[-120.70444444444445,35.178888888888885],[-120.70444444444445,35.178888888888885],[-120.50944444444444,34.98083333333334],[-120.43916666666667,34.89416666666666],[-120.42166666666667,34.87277777777778],[-120.33388888888888,34.763888888888886],[-120.07722222222222,34.44277777777778],[-120.07722222222222,34.44277777777778],[-119.99361111111111,34.337500000000006],[-119.99361111111111,34.337500000000006],[-119.71027777777778,34.0375],[-119.71027777777778,34.0375],[-119.71027777777778,34.0375],[-119.71027777777778,34.0375],[-119.71027777777778,34.0375],[-119.05,33.71666666666667],[-119.02027777777778,33.69499999999999],[-119.02027777777778,33.69499999999999],[-119.02027777777778,33.69499999999999],[-118.95,33.666666666666664],[-118.91944444444445,33.64472222222222],[-118.91944444444445,33.64472222222222],[-118.65,33.55],[-118.65,33.55],[-118.59388888888888,33.54222222222222],[-118.46666666666667,33.516666666666666],[-118.46666666666667,33.516666666666666],[-118.46666666666667,33.516666666666666],[-118.41583333333334,33.52055555555555],[-118.41583333333334,33.52055555555555],[-118.33111111111111,33.52055555555555],[-118.33111111111111,33.52055555555555],[-118.18305555555555,33.586666666666666],[-118.18305555555555,33.586666666666666],[-118.18305555555555,33.586666666666666],[-118.18305555555555,33.586666666666666],[-118.10916666666667,33.62083333333334],[-118.10916666666667,33.62083333333334],[-118.10916666666667,33.62083333333334],[-118.03666666666666,33.65472222222222],[-117.92777777777778,33.724722222222226],[-117.92777777777778,33.724722222222226],[-117.91666666666667,33.75],[-117.89611111111111,33.77472222222222],[-117.89611111111111,33.77472222222222],[-117.86361111111111,33.82611111111112],[-117.86361111111111,33.82611111111112],[-117.82222222222222,33.868611111111115],[-117.78333333333333,33.85],[-117.78333333333333,33.85],[-117.77916666666667,33.83527777777778],[-117.77916666666667,33.83527777777778],[-117.86861111111111,33.67611111111111],[-117.86861111111111,33.67611111111111]],"type":"LineString"}
}
