{
  "id": 1981771837,
  "type": "Feature",
  "properties": {
    "geom:area": 0,
    "geom:bbox": "-122.316111,36.150000,-86.650000,38.540278",
    "geom:latitude": 37.710170912181155,
    "geom:longitude": -104.49541598300551,
    "src:alt_label": "swim-path",
    "src:geom": "swim",
    "swim:altitudes": [
      "018",
      "018",
      "019",
      "019",
      "019",
      "019",
      "043",
      "043",
      "043",
      "043",
      "043",
      "109",
      "109",
      "109",
      "163",
      "163",
      "163",
      "163",
      "163",
      "163",
      "163",
      "218",
      "218",
      "218",
      "218",
      "246",
      "246",
      "246",
      "246",
      "246",
      "246",
      "264",
      "264",
      "264",
      "264",
      "279",
      "279",
      "279",
      "279",
      "298",
      "298",
      "298",
      "298",
      "298",
      "300",
      "300",
      "300",
      "300",
      "300",
      "300",
      "300",
      "300",
      "320C",
      "320C",
      "320C",
      "320C",
      "320C",
      "320C",
      "320C",
      "320C",
      "320C",
      "320C",
      "320C",
      "320C",
      "320C",
      "320C",
      "320C",
      "320C",
      "320C",
      "320C",
      "320C",
      "320C",
      "320C",
      "320C",
      "320C",
      "320C",
      "320C",
      "320C",
      "320C",
      "320C",
      "320C",
      "320C",
      "320C",
      "320C",
      "320C",
      "320C",
      "320C",
      "320C",
      "320C",
      "320C",
      "320C",
      "320C",
      "320C",
      "320C",
      "320C",
      "320C",
      "320C",
      "320C",
      "320C",
      "320C",
      "320C",
      "320C",
      "320C",
      "320C",
      "320C",
      "320C",
      "320C",
      "320C",
      "320C",
      "320C",
      "320C",
      "320C",
      "320C",
      "320C",
      "320C",
      "320C",
      "320C",
      "320C",
      "320C",
      "320C",
      "319C",
      "319C",
      "319C",
      "319C",
      "319C",
      "320C",
      "320C",
      "320C",
      "320C",
      "320C",
      "319C",
      "319C",
      "319C",
      "319C",
      "319C",
      "320C",
      "320C",
      "320C",
      "320C",
      "320C",
      "320C",
      "320C",
      "320C",
      "320C",
      "320C",
      "320C",
      "320C",
      "320C",
      "320C",
      "320C",
      "320C",
      "320C",
      "320C",
      "320C",
      "320C",
      "320C",
      "320C",
      "320C",
      "320C",
      "320C",
      "320C",
      "320C",
      "320C",
      "320C",
      "320C",
      "320C",
      "320C",
      "300C",
      "300C",
      "300C",
      "300C",
      "300C",
      "300C",
      "300C",
      "300C",
      "300C",
      "300C",
      "300C",
      "299C",
      "299C",
      "299C",
      "299C",
      "299C",
      "299C",
      "299C",
      "299C",
      "300C",
      "300C",
      "300C",
      "300C",
      "300C",
      "300C",
      "300C",
      "300C",
      "300C",
      "300C",
      "300C",
      "300C",
      "300C",
      "300C",
      "300C",
      "300C",
      "300C",
      "300C",
      "300C",
      "300C",
      "300C",
      "300C",
      "300C",
      "300C",
      "300C",
      "300C",
      "300C",
      "300C",
      "300C",
      "300C",
      "300C",
      "300C",
      "300C",
      "300C",
      "300C",
      "300C",
      "300C",
      "300C",
      "300C",
      "300C",
      "300C",
      "300C",
      "300C",
      "300C",
      "300C",
      "300C",
      "300C",
      "300C",
      "300C",
      "300C",
      "300C",
      "300C",
      "300C",
      "300C",
      "300C",
      "300C",
      "300C",
      "300C",
      "300C",
      "300C",
      "300C",
      "300C",
      "300C",
      "300C",
      "300C",
      "300C",
      "300C",
      "300C",
      "300C",
      "300C",
      "300C",
      "300C",
      "300C",
      "300C",
      "300C",
      "300C",
      "300C",
      "300C",
      "300C",
      "300C",
      "300C",
      "300C",
      "300C",
      "300C",
      "300C",
      "300C",
      "300C",
      "300C",
      "300C",
      "300C",
      "300C",
      "300C",
      "300C",
      "300C",
      "300C",
      "300C",
      "300C",
      "300C",
      "300C",
      "300C",
      "300C",
      "300C",
      "300C",
      "300C",
      "300C",
      "300C",
      "300C",
      "300C",
      "300C",
      "300C",
      "300C",
      "300C",
      "300C",
      "300C",
      "300C",
      "300C",
      "300C",
      "300C",
      "300C",
      "300C",
      "300C",
      "300C",
      "300C",
      "300C",
      "300C",
      "300C",
      "300C",
      "300C",
      "300C",
      "300C",
      "300C",
      "300C",
      "300C",
      "300C",
      "300C",
      "300C",
      "300C",
      "300C",
      "300C",
      "300C",
      "300C",
      "300C",
      "300C",
      "300C",
      "300C",
      "300C",
      "300C",
      "300C",
      "300C",
      "300C",
      "300C",
      "300C",
      "300",
      "300",
      "300",
      "234",
      "234",
      "234",
      "129",
      "129",
      "129",
      "080",
      "080",
      "080",
      "080",
      "080",
      "080",
      "066",
      "066",
      "066",
      "066",
      "010",
      "010",
      "007",
      "007",
      "007",
      "007",
      "007",
      "007",
      "007",
      "007"
    ],
    "swim:geom": "path",
    "swim:speeds": [
      150,
      150,
      160,
      160,
      160,
      160,
      262,
      262,
      262,
      262,
      262,
      284,
      284,
      284,
      348,
      348,
      348,
      348,
      348,
      348,
      348,
      408,
      408,
      408,
      408,
      431,
      431,
      431,
      431,
      431,
      431,
      443,
      443,
      443,
      443,
      448,
      448,
      448,
      448,
      452,
      452,
      452,
      452,
      452,
      451,
      451,
      451,
      451,
      451,
      451,
      451,
      451,
      473,
      473,
      473,
      473,
      473,
      473,
      473,
      473,
      473,
      473,
      473,
      482,
      482,
      482,
      482,
      482,
      482,
      482,
      482,
      483,
      483,
      483,
      483,
      483,
      483,
      483,
      483,
      483,
      483,
      483,
      483,
      483,
      483,
      483,
      483,
      456,
      456,
      437,
      437,
      437,
      437,
      444,
      444,
      444,
      444,
      444,
      444,
      445,
      445,
      445,
      453,
      453,
      453,
      453,
      453,
      453,
      453,
      453,
      450,
      450,
      450,
      450,
      450,
      446,
      446,
      446,
      446,
      446,
      445,
      445,
      445,
      445,
      445,
      445,
      445,
      445,
      445,
      445,
      437,
      437,
      437,
      437,
      437,
      441,
      441,
      441,
      441,
      448,
      448,
      448,
      448,
      448,
      448,
      447,
      447,
      447,
      447,
      447,
      437,
      437,
      437,
      437,
      438,
      438,
      438,
      438,
      438,
      438,
      438,
      438,
      435,
      435,
      435,
      435,
      435,
      430,
      430,
      430,
      430,
      430,
      433,
      433,
      433,
      433,
      433,
      433,
      431,
      431,
      431,
      431,
      431,
      431,
      431,
      431,
      435,
      436,
      436,
      436,
      438,
      436,
      437,
      437,
      437,
      437,
      437,
      437,
      437,
      436,
      436,
      436,
      436,
      436,
      436,
      436,
      436,
      436,
      429,
      429,
      429,
      429,
      429,
      429,
      429,
      429,
      429,
      424,
      424,
      424,
      424,
      424,
      424,
      424,
      414,
      414,
      414,
      414,
      414,
      411,
      411,
      411,
      411,
      411,
      411,
      403,
      403,
      403,
      403,
      400,
      400,
      400,
      397,
      397,
      397,
      397,
      397,
      393,
      393,
      393,
      393,
      393,
      387,
      387,
      387,
      387,
      387,
      387,
      387,
      387,
      387,
      387,
      382,
      382,
      382,
      382,
      382,
      382,
      382,
      382,
      382,
      382,
      384,
      354,
      354,
      354,
      354,
      352,
      352,
      351,
      351,
      351,
      351,
      351,
      351,
      356,
      356,
      356,
      356,
      356,
      358,
      358,
      364,
      364,
      364,
      364,
      365,
      365,
      365,
      365,
      365,
      366,
      366,
      366,
      364,
      364,
      364,
      363,
      363,
      363,
      362,
      362,
      362,
      362,
      362,
      362,
      362,
      362,
      369,
      369,
      369,
      366,
      366,
      366,
      366,
      366,
      356,
      356,
      356,
      356,
      357,
      357,
      357,
      357,
      357,
      357,
      357,
      357,
      359,
      359,
      359,
      333,
      333,
      333,
      297,
      297,
      297,
      232,
      232,
      232,
      232,
      232,
      232,
      233,
      233,
      233,
      233,
      147,
      147,
      145,
      145,
      145,
      145,
      145,
      145,
      145,
      145
    ],
    "swim:timestamps": [
      1761487937,
      1761487937,
      1761487949,
      1761487949,
      1761487949,
      1761487949,
      1761488052,
      1761488052,
      1761488052,
      1761488052,
      1761488052,
      1761488172,
      1761488172,
      1761488172,
      1761488293,
      1761488293,
      1761488293,
      1761488293,
      1761488293,
      1761488293,
      1761488293,
      1761488473,
      1761488473,
      1761488473,
      1761488473,
      1761488653,
      1761488653,
      1761488653,
      1761488653,
      1761488653,
      1761488653,
      1761488773,
      1761488773,
      1761488773,
      1761488773,
      1761488891,
      1761488891,
      1761488891,
      1761488891,
      1761489014,
      1761489014,
      1761489014,
      1761489014,
      1761489014,
      1761489074,
      1761489074,
      1761489074,
      1761489074,
      1761489132,
      1761489132,
      1761489132,
      1761489132,
      1761491235,
      1761491235,
      1761491235,
      1761491235,
      1761491235,
      1761491235,
      1761491235,
      1761491235,
      1761491235,
      1761491235,
      1761491235,
      1761491776,
      1761491776,
      1761491776,
      1761491776,
      1761491776,
      1761491776,
      1761491776,
      1761491776,
      1761491956,
      1761491956,
      1761491956,
      1761491956,
      1761491956,
      1761491956,
      1761491956,
      1761491956,
      1761491956,
      1761491956,
      1761492497,
      1761492497,
      1761492497,
      1761492497,
      1761492497,
      1761492497,
      1761492661,
      1761492661,
      1761492677,
      1761492677,
      1761492677,
      1761492677,
      1761492842,
      1761492842,
      1761492857,
      1761492857,
      1761492857,
      1761492857,
      1761492902,
      1761492902,
      1761492902,
      1761493022,
      1761493022,
      1761493022,
      1761493022,
      1761493142,
      1761493142,
      1761493142,
      1761493142,
      1761493262,
      1761493262,
      1761493262,
      1761493262,
      1761493262,
      1761493338,
      1761493338,
      1761493338,
      1761493338,
      1761493338,
      1761493398,
      1761493398,
      1761493398,
      1761493398,
      1761493398,
      1761493458,
      1761493458,
      1761493458,
      1761493458,
      1761493458,
      1761493759,
      1761493759,
      1761493759,
      1761493759,
      1761493759,
      1761493863,
      1761493863,
      1761493863,
      1761493863,
      1761493983,
      1761493983,
      1761494059,
      1761494059,
      1761494059,
      1761494059,
      1761494119,
      1761494119,
      1761494119,
      1761494119,
      1761494119,
      1761494284,
      1761494284,
      1761494284,
      1761494284,
      1761494464,
      1761494464,
      1761494464,
      1761494464,
      1761494464,
      1761494464,
      1761494464,
      1761494464,
      1761494764,
      1761494764,
      1761494764,
      1761494764,
      1761494764,
      1761495125,
      1761495125,
      1761495125,
      1761495125,
      1761495125,
      1761495185,
      1761495185,
      1761495185,
      1761495185,
      1761495185,
      1761495185,
      1761495485,
      1761495485,
      1761495485,
      1761495485,
      1761495485,
      1761495485,
      1761495485,
      1761495485,
      1761495743,
      1761495863,
      1761495863,
      1761495863,
      1761495906,
      1761495923,
      1761496026,
      1761496026,
      1761496026,
      1761496026,
      1761496026,
      1761496026,
      1761496026,
      1761496103,
      1761496103,
      1761496103,
      1761496103,
      1761496163,
      1761496163,
      1761496163,
      1761496163,
      1761496163,
      1761496386,
      1761496386,
      1761496386,
      1761496386,
      1761496386,
      1761496386,
      1761496386,
      1761496386,
      1761496386,
      1761496584,
      1761496584,
      1761496584,
      1761496584,
      1761496584,
      1761496584,
      1761496584,
      1761497005,
      1761497005,
      1761497005,
      1761497005,
      1761497005,
      1761497125,
      1761497125,
      1761497125,
      1761497125,
      1761497125,
      1761497125,
      1761497305,
      1761497305,
      1761497305,
      1761497305,
      1761497408,
      1761497408,
      1761497408,
      1761497786,
      1761497786,
      1761497786,
      1761497786,
      1761497786,
      1761497846,
      1761497846,
      1761497846,
      1761497846,
      1761497846,
      1761498026,
      1761498026,
      1761498026,
      1761498026,
      1761498026,
      1761498026,
      1761498026,
      1761498026,
      1761498026,
      1761498026,
      1761498624,
      1761498624,
      1761498624,
      1761498624,
      1761498624,
      1761498624,
      1761498624,
      1761498624,
      1761498624,
      1761498624,
      1761499165,
      1761499225,
      1761499225,
      1761499225,
      1761499225,
      1761499285,
      1761499285,
      1761499526,
      1761499526,
      1761499526,
      1761499526,
      1761499526,
      1761499526,
      1761499771,
      1761499771,
      1761499771,
      1761499771,
      1761499771,
      1761499952,
      1761499952,
      1761500188,
      1761500188,
      1761500188,
      1761500188,
      1761500248,
      1761500248,
      1761500488,
      1761500488,
      1761500488,
      1761500612,
      1761500612,
      1761500612,
      1761500728,
      1761500728,
      1761500728,
      1761500793,
      1761500793,
      1761500793,
      1761500861,
      1761500861,
      1761500861,
      1761500921,
      1761500921,
      1761500921,
      1761500921,
      1761500921,
      1761501093,
      1761501093,
      1761501093,
      1761501333,
      1761501333,
      1761501333,
      1761501333,
      1761501333,
      1761501634,
      1761501634,
      1761501634,
      1761501634,
      1761501694,
      1761501694,
      1761501754,
      1761501754,
      1761501754,
      1761501754,
      1761501754,
      1761501754,
      1761501814,
      1761501814,
      1761501814,
      1761502174,
      1761502174,
      1761502174,
      1761502504,
      1761502504,
      1761502504,
      1761502775,
      1761502775,
      1761502775,
      1761502775,
      1761502775,
      1761502775,
      1761502835,
      1761502835,
      1761502835,
      1761502835,
      1761503224,
      1761503224,
      1761503256,
      1761503256,
      1761503256,
      1761503256,
      1761503256,
      1761503256,
      1761503256,
      1761503256
    ],
    "wof:geomhash": "3dedd8ed36fa361abd20e71b4e801eab",
    "wof:id": 1981771837,
    "wof:repo": "sfomuseum-data-flights-2025-10"
  },
  "bbox": [
    -122.31611111111111,
    36.15,
    -86.65,
    38.540277777777774
  ],
  "geometry": {"coordinates":[[-86.65,36.15],[-86.65,36.15],[-86.65,36.15],[-86.65,36.15],[-86.65,36.15],[-86.65,36.15],[-86.74222222222222,36.20388888888889],[-86.74222222222222,36.20388888888889],[-86.74222222222222,36.20388888888889],[-86.74222222222222,36.20388888888889],[-86.74222222222222,36.20388888888889],[-86.93555555555555,36.23111111111111],[-86.93555555555555,36.23111111111111],[-86.93555555555555,36.23111111111111],[-87.16305555555556,36.26277777777778],[-87.16305555555556,36.26277777777778],[-87.16305555555556,36.26277777777778],[-87.16305555555556,36.26277777777778],[-87.16305555555556,36.26277777777778],[-87.16305555555556,36.26277777777778],[-87.16305555555556,36.26277777777778],[-87.5436111111111,36.25083333333333],[-87.5436111111111,36.25083333333333],[-87.5436111111111,36.25083333333333],[-87.5436111111111,36.25083333333333],[-87.97444444444444,36.18611111111111],[-87.97444444444444,36.18611111111111],[-87.97444444444444,36.18611111111111],[-87.97444444444444,36.18611111111111],[-87.97444444444444,36.18611111111111],[-87.97444444444444,36.18611111111111],[-88.25555555555556,36.196666666666665],[-88.25555555555556,36.196666666666665],[-88.25555555555556,36.196666666666665],[-88.25555555555556,36.196666666666665],[-88.55694444444444,36.25388888888889],[-88.55694444444444,36.25388888888889],[-88.55694444444444,36.25388888888889],[-88.55694444444444,36.25388888888889],[-88.85888888888888,36.31194444444444],[-88.85888888888888,36.31194444444444],[-88.85888888888888,36.31194444444444],[-88.85888888888888,36.31194444444444],[-88.85888888888888,36.31194444444444],[-89.01222222222222,36.340833333333336],[-89.01222222222222,36.340833333333336],[-89.01222222222222,36.340833333333336],[-89.01222222222222,36.340833333333336],[-89.16250000000001,36.36888888888889],[-89.16250000000001,36.36888888888889],[-89.16250000000001,36.36888888888889],[-89.16250000000001,36.36888888888889],[-94.75361111111111,37.26583333333333],[-94.75361111111111,37.26583333333333],[-94.75361111111111,37.26583333333333],[-94.75361111111111,37.26583333333333],[-94.75361111111111,37.26583333333333],[-94.75361111111111,37.26583333333333],[-94.75361111111111,37.26583333333333],[-94.75361111111111,37.26583333333333],[-94.75361111111111,37.26583333333333],[-94.75361111111111,37.26583333333333],[-94.75361111111111,37.26583333333333],[-96.21833333333333,37.45444444444445],[-96.21833333333333,37.45444444444445],[-96.21833333333333,37.45444444444445],[-96.21833333333333,37.45444444444445],[-96.21833333333333,37.45444444444445],[-96.21833333333333,37.45444444444445],[-96.21833333333333,37.45444444444445],[-96.21833333333333,37.45444444444445],[-96.70805555555556,37.513333333333335],[-96.70805555555556,37.513333333333335],[-96.70805555555556,37.513333333333335],[-96.70805555555556,37.513333333333335],[-96.70805555555556,37.513333333333335],[-96.70805555555556,37.513333333333335],[-96.70805555555556,37.513333333333335],[-96.70805555555556,37.513333333333335],[-96.70805555555556,37.513333333333335],[-96.70805555555556,37.513333333333335],[-98.23472222222222,37.68333333333333],[-98.23472222222222,37.68333333333333],[-98.23472222222222,37.68333333333333],[-98.23472222222222,37.68333333333333],[-98.23472222222222,37.68333333333333],[-98.23472222222222,37.68333333333333],[-98.68722222222223,37.73027777777778],[-98.68722222222223,37.73027777777778],[-98.71361111111112,37.73222222222223],[-98.71361111111112,37.73222222222223],[-98.71361111111112,37.73222222222223],[-98.71361111111112,37.73222222222223],[-99.1463888888889,37.77388888888889],[-99.1463888888889,37.77388888888889],[-99.17472222222223,37.77777777777778],[-99.17472222222223,37.77777777777778],[-99.17472222222223,37.77777777777778],[-99.17472222222223,37.77777777777778],[-99.30305555555556,37.78916666666667],[-99.30305555555556,37.78916666666667],[-99.30305555555556,37.78916666666667],[-99.63111111111111,37.82083333333334],[-99.63111111111111,37.82083333333334],[-99.63111111111111,37.82083333333334],[-99.63111111111111,37.82083333333334],[-99.93777777777778,37.848888888888894],[-99.93777777777778,37.848888888888894],[-99.93777777777778,37.848888888888894],[-99.93777777777778,37.848888888888894],[-100.2475,37.876111111111115],[-100.2475,37.876111111111115],[-100.2475,37.876111111111115],[-100.2475,37.876111111111115],[-100.2475,37.876111111111115],[-100.43166666666667,37.89194444444444],[-100.43166666666667,37.89194444444444],[-100.43166666666667,37.89194444444444],[-100.43166666666667,37.89194444444444],[-100.43166666666667,37.89194444444444],[-100.58638888888889,37.905277777777776],[-100.58638888888889,37.905277777777776],[-100.58638888888889,37.905277777777776],[-100.58638888888889,37.905277777777776],[-100.58638888888889,37.905277777777776],[-100.73972222222223,37.918055555555554],[-100.73972222222223,37.918055555555554],[-100.73972222222223,37.918055555555554],[-100.73972222222223,37.918055555555554],[-100.73972222222223,37.918055555555554],[-101.50888888888889,37.97888888888889],[-101.50888888888889,37.97888888888889],[-101.50888888888889,37.97888888888889],[-101.50888888888889,37.97888888888889],[-101.50888888888889,37.97888888888889],[-101.7875,38],[-101.7875,38],[-101.7875,38],[-101.7875,38],[-102.10277777777777,38.022777777777776],[-102.10277777777777,38.022777777777776],[-102.31805555555555,38.03777777777778],[-102.31805555555555,38.03777777777778],[-102.31805555555555,38.03777777777778],[-102.31805555555555,38.03777777777778],[-102.47333333333333,38.04833333333333],[-102.47333333333333,38.04833333333333],[-102.47333333333333,38.04833333333333],[-102.47333333333333,38.04833333333333],[-102.47333333333333,38.04833333333333],[-102.87666666666667,38.07527777777778],[-102.87666666666667,38.07527777777778],[-102.87666666666667,38.07527777777778],[-102.87666666666667,38.07527777777778],[-103.33916666666666,38.10416666666667],[-103.33916666666666,38.10416666666667],[-103.33916666666666,38.10416666666667],[-103.33916666666666,38.10416666666667],[-103.33916666666666,38.10416666666667],[-103.33916666666666,38.10416666666667],[-103.33916666666666,38.10416666666667],[-103.33916666666666,38.10416666666667],[-104.12916666666666,38.149166666666666],[-104.12916666666666,38.149166666666666],[-104.12916666666666,38.149166666666666],[-104.12916666666666,38.149166666666666],[-104.12916666666666,38.149166666666666],[-105.0325,38.19416666666666],[-105.0325,38.19416666666666],[-105.0325,38.19416666666666],[-105.0325,38.19416666666666],[-105.0325,38.19416666666666],[-105.18583333333333,38.20111111111111],[-105.18583333333333,38.20111111111111],[-105.18583333333333,38.20111111111111],[-105.18583333333333,38.20111111111111],[-105.18583333333333,38.20111111111111],[-105.18583333333333,38.20111111111111],[-105.94527777777778,38.23277777777778],[-105.94527777777778,38.23277777777778],[-105.94527777777778,38.23277777777778],[-105.94527777777778,38.23277777777778],[-105.94527777777778,38.23277777777778],[-105.94527777777778,38.23277777777778],[-105.94527777777778,38.23277777777778],[-105.94527777777778,38.23277777777778],[-106.58138888888888,38.25388888888889],[-106.89194444444445,38.2625],[-106.89194444444445,38.2625],[-106.89194444444445,38.2625],[-107.01694444444445,38.26861111111111],[-107.04555555555555,38.2675],[-107.32166666666666,38.27722222222222],[-107.32166666666666,38.27722222222222],[-107.32166666666666,38.27722222222222],[-107.32166666666666,38.27722222222222],[-107.32166666666666,38.27722222222222],[-107.32166666666666,38.27722222222222],[-107.32166666666666,38.27722222222222],[-107.50777777777778,38.28138888888889],[-107.50777777777778,38.28138888888889],[-107.50777777777778,38.28138888888889],[-107.50777777777778,38.28138888888889],[-107.66000000000001,38.28444444444444],[-107.66000000000001,38.28444444444444],[-107.66000000000001,38.28444444444444],[-107.66000000000001,38.28444444444444],[-107.66000000000001,38.28444444444444],[-108.22611111111111,38.2975],[-108.22611111111111,38.2975],[-108.22611111111111,38.2975],[-108.22611111111111,38.2975],[-108.22611111111111,38.2975],[-108.22611111111111,38.2975],[-108.22611111111111,38.2975],[-108.22611111111111,38.2975],[-108.22611111111111,38.2975],[-108.70805555555556,38.30555555555555],[-108.70805555555556,38.30555555555555],[-108.70805555555556,38.30555555555555],[-108.70805555555556,38.30555555555555],[-108.70805555555556,38.30555555555555],[-108.70805555555556,38.30555555555555],[-108.70805555555556,38.30555555555555],[-109.74083333333333,38.31638888888889],[-109.74083333333333,38.31638888888889],[-109.74083333333333,38.31638888888889],[-109.74083333333333,38.31638888888889],[-109.74083333333333,38.31638888888889],[-110.03222222222222,38.3175],[-110.03222222222222,38.3175],[-110.03222222222222,38.3175],[-110.03222222222222,38.3175],[-110.03222222222222,38.3175],[-110.03222222222222,38.3175],[-110.45833333333334,38.318333333333335],[-110.45833333333334,38.318333333333335],[-110.45833333333334,38.318333333333335],[-110.45833333333334,38.318333333333335],[-110.71055555555556,38.31805555555556],[-110.71055555555556,38.31805555555556],[-110.71055555555556,38.31805555555556],[-111.58027777777778,38.312777777777775],[-111.58027777777778,38.312777777777775],[-111.58027777777778,38.312777777777775],[-111.58027777777778,38.312777777777775],[-111.58027777777778,38.312777777777775],[-111.74138888888889,38.31111111111111],[-111.74138888888889,38.31111111111111],[-111.74138888888889,38.31111111111111],[-111.74138888888889,38.31111111111111],[-111.74138888888889,38.31111111111111],[-112.15444444444445,38.30583333333333],[-112.15444444444445,38.30583333333333],[-112.15444444444445,38.30583333333333],[-112.15444444444445,38.30583333333333],[-112.15444444444445,38.30583333333333],[-112.15444444444445,38.30583333333333],[-112.15444444444445,38.30583333333333],[-112.15444444444445,38.30583333333333],[-112.15444444444445,38.30583333333333],[-112.15444444444445,38.30583333333333],[-113.49861111111112,38.27833333333333],[-113.49861111111112,38.27833333333333],[-113.49861111111112,38.27833333333333],[-113.49861111111112,38.27833333333333],[-113.49861111111112,38.27833333333333],[-113.49861111111112,38.27833333333333],[-113.49861111111112,38.27833333333333],[-113.49861111111112,38.27833333333333],[-113.49861111111112,38.27833333333333],[-113.49861111111112,38.27833333333333],[-114.71222222222222,38.24055555555556],[-114.83749999999999,38.23583333333333],[-114.83749999999999,38.23583333333333],[-114.83749999999999,38.23583333333333],[-114.83749999999999,38.23583333333333],[-114.9588888888889,38.236666666666665],[-114.9588888888889,38.236666666666665],[-115.35944444444443,38.46472222222223],[-115.35944444444443,38.46472222222223],[-115.35944444444443,38.46472222222223],[-115.35944444444443,38.46472222222223],[-115.35944444444443,38.46472222222223],[-115.35944444444443,38.46472222222223],[-115.80638888888889,38.540277777777774],[-115.80638888888889,38.540277777777774],[-115.80638888888889,38.540277777777774],[-115.80638888888889,38.540277777777774],[-115.80638888888889,38.540277777777774],[-116.17472222222223,38.46388888888889],[-116.17472222222223,38.46388888888889],[-116.67166666666667,38.36027777777778],[-116.67166666666667,38.36027777777778],[-116.67166666666667,38.36027777777778],[-116.67166666666667,38.36027777777778],[-116.79555555555555,38.33388888888889],[-116.79555555555555,38.33388888888889],[-117.28833333333333,38.22777777777778],[-117.28833333333333,38.22777777777778],[-117.28833333333333,38.22777777777778],[-117.55944444444444,38.16833333333333],[-117.55944444444444,38.16833333333333],[-117.55944444444444,38.16833333333333],[-117.78083333333333,38.11944444444445],[-117.78083333333333,38.11944444444445],[-117.78083333333333,38.11944444444445],[-117.92888888888889,38.08638888888889],[-117.92888888888889,38.08638888888889],[-117.92888888888889,38.08638888888889],[-118.02583333333334,38.06472222222222],[-118.02583333333334,38.06472222222222],[-118.02583333333334,38.06472222222222],[-118.17277777777778,38.031666666666666],[-118.17277777777778,38.031666666666666],[-118.17277777777778,38.031666666666666],[-118.17277777777778,38.031666666666666],[-118.17277777777778,38.031666666666666],[-118.5461111111111,37.94638888888888],[-118.5461111111111,37.94638888888888],[-118.5461111111111,37.94638888888888],[-119.05666666666666,37.862500000000004],[-119.05666666666666,37.862500000000004],[-119.05666666666666,37.862500000000004],[-119.05666666666666,37.862500000000004],[-119.05666666666666,37.862500000000004],[-119.68416666666667,37.78861111111111],[-119.68416666666667,37.78861111111111],[-119.68416666666667,37.78861111111111],[-119.68416666666667,37.78861111111111],[-119.80833333333334,37.77361111111111],[-119.80833333333334,37.77361111111111],[-119.93388888888889,37.75833333333333],[-119.93388888888889,37.75833333333333],[-119.93388888888889,37.75833333333333],[-119.93388888888889,37.75833333333333],[-119.93388888888889,37.75833333333333],[-119.93388888888889,37.75833333333333],[-120.05916666666667,37.74277777777778],[-120.05916666666667,37.74277777777778],[-120.05916666666667,37.74277777777778],[-120.82055555555556,37.650277777777774],[-120.82055555555556,37.650277777777774],[-120.82055555555556,37.650277777777774],[-121.4,37.583333333333336],[-121.4,37.583333333333336],[-121.4,37.583333333333336],[-121.79861111111111,37.509166666666665],[-121.79861111111111,37.509166666666665],[-121.79861111111111,37.509166666666665],[-121.79861111111111,37.509166666666665],[-121.79861111111111,37.509166666666665],[-121.79861111111111,37.509166666666665],[-121.8775,37.49138888888889],[-121.8775,37.49138888888889],[-121.8775,37.49138888888889],[-121.8775,37.49138888888889],[-122.3,37.6],[-122.3,37.6],[-122.31611111111111,37.599444444444444],[-122.31611111111111,37.599444444444444],[-122.31611111111111,37.599444444444444],[-122.31611111111111,37.599444444444444],[-122.31611111111111,37.599444444444444],[-122.31611111111111,37.599444444444444],[-122.31611111111111,37.599444444444444],[-122.31611111111111,37.599444444444444]],"type":"LineString"}
}
