{
  "id": 1981715555,
  "type": "Feature",
  "properties": {
    "geom:area": 0,
    "geom:bbox": "-122.618410,36.744700,-121.512440,37.667320",
    "geom:latitude": 37.22467636429566,
    "geom:longitude": -122.15843112615119,
    "src:alt_label": "swim-takeoff",
    "src:geom": "swim",
    "swim:elevations": [
      122,
      213,
      538,
      894,
      914,
      997,
      1596,
      2064,
      2364,
      2855,
      2963,
      3542,
      3702,
      3921,
      4293,
      4646,
      4868,
      5177,
      5310,
      5622,
      5852,
      6232,
      6318,
      6607,
      6739,
      6998,
      7176,
      7399,
      7905,
      7942,
      8212,
      8233
    ],
    "swim:geom": "takeoff",
    "swim:timestamps": [
      1760873156,
      1760873161,
      1760873187,
      1760873237,
      1760873269,
      1760873291,
      1760873331,
      1760873362,
      1760873383,
      1760873424,
      1760873433,
      1760873483,
      1760873506,
      1760873533,
      1760873569,
      1760873603,
      1760873626,
      1760873663,
      1760873676,
      1760873724,
      1760873742,
      1760873788,
      1760873798,
      1760873841,
      1760873859,
      1760873897,
      1760873926,
      1760873957,
      1760874025,
      1760874035,
      1760874085,
      1760874094
    ],
    "wof:geomhash": "49fba712dd9cdc8e6342bff88a47239c",
    "wof:id": 1981715555,
    "wof:repo": "sfomuseum-data-flights-2025-10"
  },
  "bbox": [
    -122.61841,
    36.7447,
    -121.51244,
    37.66732
  ],
  "geometry": {"coordinates":[[-122.38522,37.623],[-122.38919,37.62464],[-122.41014,37.63335],[-122.45285,37.65272],[-122.48809,37.66732],[-122.51986,37.66381],[-122.5643,37.6307],[-122.60506,37.60589],[-122.61841,37.58123],[-122.60558,37.52749],[-122.59884,37.51628],[-122.55348,37.45524],[-122.52117,37.43349],[-122.47973,37.40491],[-122.42463,37.36714],[-122.37023,37.33142],[-122.33287,37.30547],[-122.27378,37.26563],[-122.25221,37.25117],[-122.17019,37.19593],[-122.1386,37.17449],[-122.0609,37.12173],[-122.0437,37.11],[-121.97009,37.05988],[-121.9386,37.03841],[-121.87005,36.99159],[-121.81754,36.95559],[-121.76202,36.9175],[-121.63824,36.83242],[-121.62108,36.82022],[-121.5302,36.75704],[-121.51244,36.7447]],"type":"LineString"}
}
