{
  "id": 1981614991,
  "type": "Feature",
  "properties": {
    "geom:area": 0,
    "geom:bbox": "-122.358670,37.441380,-121.276080,37.611790",
    "geom:latitude": 37.532609067228826,
    "geom:longitude": -121.82508251144745,
    "src:alt_label": "swim-approach",
    "src:geom": "swim",
    "swim:elevations": [
      4686,
      4420,
      4202,
      4022,
      3816,
      3739,
      3702,
      3451,
      3172,
      3097,
      2929,
      2668,
      2554,
      2474,
      2438,
      2332,
      2134,
      2131,
      2047,
      1956,
      1845,
      1713,
      1431,
      1389,
      1143,
      1021,
      859,
      680,
      570,
      394,
      275,
      184,
      93,
      18
    ],
    "swim:geom": "approach",
    "swim:timestamps": [
      1759916035,
      1759916068,
      1759916091,
      1759916116,
      1759916150,
      1759916158,
      1759916162,
      1759916193,
      1759916247,
      1759916270,
      1759916290,
      1759916318,
      1759916334,
      1759916346,
      1759916383,
      1759916403,
      1759916456,
      1759916487,
      1759916500,
      1759916522,
      1759916566,
      1759916586,
      1759916634,
      1759916643,
      1759916696,
      1759916714,
      1759916742,
      1759916779,
      1759916804,
      1759916846,
      1759916873,
      1759916896,
      1759916924,
      1759916943
    ],
    "wof:geomhash": "653fa0f054a29fc8d28a5774ae51cfa1",
    "wof:id": 1981614991,
    "wof:repo": "sfomuseum-data-flights-2025-10"
  },
  "bbox": [
    -122.35867,
    37.44138,
    -121.27608,
    37.61179
  ],
  "geometry": {"coordinates":[[-121.27608,37.59085],[-121.33375,37.58442],[-121.37418,37.58012],[-121.4167,37.5752],[-121.47548,37.56828],[-121.49002,37.56665],[-121.49664,37.5659],[-121.55001,37.55956],[-121.64251,37.5619],[-121.67948,37.56486],[-121.7103,37.56491],[-121.74082,37.54565],[-121.75419,37.53156],[-121.76407,37.52108],[-121.79511,37.48809],[-121.8113,37.47089],[-121.86668,37.44138],[-121.90966,37.4443],[-121.92746,37.44539],[-121.95749,37.44755],[-122.00927,37.46384],[-122.03049,37.47331],[-122.08231,37.49545],[-122.0916,37.49948],[-122.14648,37.52258],[-122.16378,37.52987],[-122.19061,37.54117],[-122.22571,37.55602],[-122.24785,37.56527],[-122.2825,37.57994],[-122.30309,37.58855],[-122.32173,37.5965],[-122.34333,37.60546],[-122.35867,37.61179]],"type":"LineString"}
}
