{
  "id": 1981670307,
  "type": "Feature",
  "properties": {
    "geom:area": 0,
    "geom:bbox": "-122.386810,37.630290,-121.244210,37.991160",
    "geom:latitude": 37.9353212437982,
    "geom:longitude": -121.93713489845082,
    "src:alt_label": "swim-takeoff",
    "src:geom": "swim",
    "swim:elevations": [
      253,
      392,
      786,
      1017,
      1683,
      1768,
      2175,
      2348,
      2961,
      3337,
      3535,
      3833,
      4189,
      4324,
      4605,
      5207,
      5288,
      5829,
      5994,
      6428,
      6738,
      6955,
      7193,
      7487,
      7693,
      7866,
      7949,
      8079
    ],
    "swim:geom": "takeoff",
    "swim:timestamps": [
      1760509766,
      1760509775,
      1760509813,
      1760509839,
      1760509881,
      1760509888,
      1760509913,
      1760509926,
      1760509958,
      1760510002,
      1760510034,
      1760510066,
      1760510093,
      1760510108,
      1760510130,
      1760510186,
      1760510194,
      1760510248,
      1760510263,
      1760510306,
      1760510338,
      1760510362,
      1760510391,
      1760510427,
      1760510451,
      1760510474,
      1760510485,
      1760510507
    ],
    "wof:geomhash": "a5ba063cd3cfcc5cc45a92fa4b3b92d6",
    "wof:id": 1981670307,
    "wof:repo": "sfomuseum-data-flights-2025-10"
  },
  "bbox": [
    -122.38681,
    37.63029,
    -121.24421,
    37.99116
  ],
  "geometry": {"coordinates":[[-122.36537,37.63029],[-122.36119,37.63666],[-122.33169,37.66232],[-122.31048,37.68297],[-122.32327,37.72888],[-122.32871,37.73652],[-122.34541,37.76357],[-122.3527,37.77837],[-122.37111,37.81409],[-122.38681,37.86801],[-122.38108,37.91513],[-122.33709,37.95213],[-122.2805,37.96421],[-122.24766,37.96903],[-122.19914,37.97715],[-122.07065,37.9882],[-122.05138,37.98845],[-121.91926,37.98932],[-121.88196,37.9895],[-121.77338,37.9901],[-121.69066,37.99046],[-121.62921,37.99069],[-121.55496,37.9909],[-121.46026,37.9911],[-121.39658,37.99112],[-121.33386,37.99111],[-121.30501,37.99105],[-121.24421,37.99116]],"type":"LineString"}
}
