{
  "id": 1981763705,
  "type": "Feature",
  "properties": {
    "geom:area": 0,
    "geom:bbox": "-122.356890,37.492030,-121.275070,37.613360",
    "geom:latitude": 37.541944882123246,
    "geom:longitude": -121.8229005572142,
    "src:alt_label": "swim-approach",
    "src:geom": "swim",
    "swim:elevations": [
      5294,
      5039,
      4812,
      4624,
      4480,
      4360,
      4216,
      3776,
      3565,
      3287,
      3140,
      3029,
      2723,
      2596,
      2470,
      2425,
      2134,
      1425,
      1200,
      860,
      464,
      362,
      306,
      205,
      121,
      0
    ],
    "swim:geom": "approach",
    "swim:timestamps": [
      1761382707,
      1761382738,
      1761382765,
      1761382787,
      1761382806,
      1761382820,
      1761382836,
      1761382898,
      1761382940,
      1761382978,
      1761382994,
      1761383006,
      1761383036,
      1761383063,
      1761383096,
      1761383106,
      1761383144,
      1761383316,
      1761383356,
      1761383427,
      1761383509,
      1761383538,
      1761383548,
      1761383577,
      1761383600,
      1761383625
    ],
    "wof:geomhash": "12d9da2f4addfcaebd04ee665040968b",
    "wof:id": 1981763705,
    "wof:repo": "sfomuseum-data-flights-2025-10"
  },
  "bbox": [
    -122.35689,
    37.49203,
    -121.27507,
    37.61336
  ],
  "geometry": {"coordinates":[[-121.27507,37.59104],[-121.32232,37.58575],[-121.36253,37.58133],[-121.39634,37.57748],[-121.42554,37.57405],[-121.44661,37.57165],[-121.46981,37.56892],[-121.56322,37.55795],[-121.61955,37.55122],[-121.66513,37.54106],[-121.68464,37.53647],[-121.69874,37.5331],[-121.73446,37.52459],[-121.7685,37.51647],[-121.81228,37.50593],[-121.82552,37.50273],[-121.87604,37.49203],[-122.09869,37.50549],[-122.13866,37.52147],[-122.20126,37.5479],[-122.27334,37.57825],[-122.29483,37.5873],[-122.30266,37.59061],[-122.32271,37.59901],[-122.33916,37.60597],[-122.35689,37.61336]],"type":"LineString"}
}
