{
  "id": 1981759381,
  "type": "Feature",
  "properties": {
    "geom:area": 0,
    "geom:bbox": "-122.380000,35.880000,-78.790000,39.580000",
    "geom:latitude": 38.64322862934673,
    "geom:longitude": -100.22984515563206,
    "src:alt_label": "swim-route",
    "src:geom": "swim",
    "swim:geom": "route",
    "wof:geomhash": "58ae742d897e6ac82a5d5485e45fc321",
    "wof:id": 1981759381,
    "wof:repo": "sfomuseum-data-flights-2025-10"
  },
  "bbox": [
    -122.38,
    35.88,
    -78.79,
    39.58
  ],
  "geometry": {"coordinates":[[-122.38,37.62],[-122.28,37.68],[-122.27,37.69],[-122.27,37.69],[-122.21,37.72],[-122.2,37.72],[-122.2,37.73],[-122.18,37.74],[-122.17,37.74],[-122.16,37.75],[-122.11,37.77],[-122.1,37.78],[-122,37.83],[-121.94,37.85],[-121.77,37.92],[-121.75,37.93],[-121.6,37.99],[-121.45,38.04],[-121.41,38.06],[-121.35,38.09],[-121.24,38.13],[-121.21,38.14],[-121.14,38.16],[-121.12,38.17],[-121.04,38.21],[-120.96,38.27],[-120.72,38.27],[-120.57,38.28],[-120.53,38.29],[-120.23,38.36],[-119.52,38.43],[-119.3,38.46],[-119.22,38.47],[-119.01,38.51],[-118.79,38.54],[-117.29,38.73],[-115.59,38.92],[-113.32,39.14],[-112.78,39.19],[-112.45,39.21],[-112.24,39.23],[-111.7,39.27],[-110.91,39.32],[-110.12,39.37],[-110.12,39.37],[-109.67,39.4],[-109.47,39.42],[-109.43,39.44],[-109.34,39.45],[-109.14,39.47],[-108.5,39.5],[-108.31,39.51],[-107.22,39.54],[-105.17,39.58],[-104.13,39.4],[-103.79,39.28],[-103.67,39.24],[-102.91,39.25],[-99.29,39.23],[-98.76,39.18],[-98.4,39.05],[-98.23,39.07],[-97.52,38.84],[-97.41,38.84],[-97.05,38.77],[-96.37,38.82],[-96.36,38.76],[-95.41,38.8],[-95.14,38.74],[-94.72,38.78],[-94.54,38.77],[-94.5,38.77],[-92.77,38.66],[-91.31,38.61],[-90.34,38.55],[-89.87,38.49],[-88.4,38.37],[-88.15,38.35],[-86.51,38.2],[-85.58,38.1],[-85.03,38.03],[-84.78,38],[-83.06,37.76],[-81.66,37.54],[-81.35,37.49],[-81.25,37.47],[-80.8,37.4],[-80.72,37.38],[-80.46,37.34],[-80.05,37.27],[-79.93,37.25],[-79.92,37.24],[-79.91,37.24],[-79.63,37.07],[-79.48,36.97],[-79.02,36.68],[-79.01,36.67],[-78.95,36.44],[-78.94,36.43],[-78.93,36.4],[-78.93,36.38],[-78.93,36.38],[-78.92,36.34],[-78.9,36.28],[-78.89,36.24],[-78.87,36.19],[-78.84,36.06],[-78.83,36.03],[-78.83,35.97],[-78.85,35.95],[-78.89,35.92],[-78.85,35.9],[-78.79,35.88]],"type":"LineString"}
}
