{
  "id": 1981663243,
  "type": "Feature",
  "properties": {
    "geom:area": 0,
    "geom:bbox": "-122.386250,37.623810,-122.292990,38.460660",
    "geom:latitude": 38.025824385939075,
    "geom:longitude": -122.33317038412017,
    "src:alt_label": "swim-takeoff",
    "src:geom": "swim",
    "swim:elevations": [
      213,
      724,
      973,
      1143,
      1303,
      1599,
      1758,
      2063,
      3047,
      3429,
      3489,
      3706,
      4160,
      4423,
      4845,
      5347,
      5689,
      5995,
      6191,
      6450,
      6501,
      6831,
      7137,
      7303,
      7583
    ],
    "swim:geom": "takeoff",
    "swim:timestamps": [
      1760399457,
      1760399487,
      1760399508,
      1760399530,
      1760399548,
      1760399578,
      1760399593,
      1760399611,
      1760399660,
      1760399697,
      1760399707,
      1760399722,
      1760399757,
      1760399781,
      1760399808,
      1760399840,
      1760399852,
      1760399876,
      1760399894,
      1760399915,
      1760399921,
      1760399956,
      1760399986,
      1760400004,
      1760400031
    ],
    "wof:geomhash": "e30148cd7899760d68592a0765c35f18",
    "wof:id": 1981663243,
    "wof:repo": "sfomuseum-data-flights-2025-10"
  },
  "bbox": [
    -122.38625,
    37.62381,
    -122.29299,
    38.46066
  ],
  "geometry": {"coordinates":[[-122.36942,37.62381],[-122.35353,37.63917],[-122.34249,37.64953],[-122.32936,37.66164],[-122.31726,37.67257],[-122.30632,37.70093],[-122.31588,37.71706],[-122.32989,37.73668],[-122.36251,37.79602],[-122.38476,37.84556],[-122.38625,37.86292],[-122.38567,37.88769],[-122.38075,37.94651],[-122.36642,37.9878],[-122.34917,38.03462],[-122.32832,38.09124],[-122.32068,38.11213],[-122.30538,38.15379],[-122.29458,38.18612],[-122.29299,38.22625],[-122.29381,38.23796],[-122.29951,38.30647],[-122.30443,38.36729],[-122.30749,38.40427],[-122.31214,38.46066]],"type":"LineString"}
}
