{
  "id": 1981698659,
  "type": "Feature",
  "properties": {
    "geom:area": 0,
    "geom:bbox": "-122.365640,37.629330,-122.214540,38.501860",
    "geom:latitude": 38.03338287396582,
    "geom:longitude": -122.23836066468859,
    "src:alt_label": "swim-takeoff",
    "src:geom": "swim",
    "swim:elevations": [
      122,
      518,
      683,
      1089,
      1225,
      1471,
      2116,
      2307,
      2471,
      2981,
      3153,
      3554,
      3827,
      3976,
      4283,
      4511,
      4576,
      4984,
      5271,
      5495,
      5638,
      5802,
      6073,
      6089,
      6485
    ],
    "swim:geom": "takeoff",
    "swim:timestamps": [
      1760728845,
      1760728871,
      1760728883,
      1760728916,
      1760728936,
      1760728958,
      1760729007,
      1760729022,
      1760729034,
      1760729068,
      1760729084,
      1760729124,
      1760729151,
      1760729167,
      1760729210,
      1760729241,
      1760729250,
      1760729296,
      1760729331,
      1760729360,
      1760729380,
      1760729398,
      1760729427,
      1760729430,
      1760729477
    ],
    "wof:geomhash": "a891f620141713ec496b151d1c7a0c2e",
    "wof:id": 1981698659,
    "wof:repo": "sfomuseum-data-flights-2025-10"
  },
  "bbox": [
    -122.36564,
    37.62933,
    -122.21454,
    38.50186
  ],
  "geometry": {"coordinates":[[-122.36564,37.62933],[-122.34801,37.64447],[-122.33751,37.65007],[-122.30815,37.66635],[-122.28888,37.67769],[-122.26359,37.69261],[-122.21516,37.73295],[-122.21454,37.75045],[-122.21513,37.76571],[-122.21698,37.80862],[-122.21751,37.82932],[-122.21901,37.88583],[-122.22003,37.92482],[-122.22061,37.94931],[-122.22243,38.01856],[-122.22345,38.07035],[-122.22386,38.08596],[-122.22651,38.16626],[-122.22812,38.23071],[-122.22956,38.28338],[-122.2305,38.32022],[-122.23173,38.35481],[-122.23739,38.4089],[-122.23796,38.41454],[-122.24703,38.50186]],"type":"LineString"}
}
