{
  "id": 1981649545,
  "type": "Feature",
  "properties": {
    "geom:area": 0,
    "geom:bbox": "-122.361150,36.722020,-121.879120,37.613350",
    "geom:latitude": 37.21169665327732,
    "geom:longitude": -122.07062942751021,
    "src:alt_label": "swim-approach",
    "src:geom": "swim",
    "swim:elevations": [
      5420,
      5326,
      5131,
      4757,
      4555,
      4360,
      4202,
      4083,
      3868,
      3738,
      3460,
      3231,
      3004,
      2823,
      2680,
      2546,
      2426,
      2084,
      2065,
      1835,
      1652,
      1524,
      1445,
      1215,
      1066,
      891,
      880,
      770,
      655,
      577,
      484,
      307,
      222,
      119,
      92,
      435
    ],
    "swim:geom": "approach",
    "swim:timestamps": [
      1760308317,
      1760308341,
      1760308359,
      1760308407,
      1760308431,
      1760308458,
      1760308479,
      1760308494,
      1760308524,
      1760308542,
      1760308582,
      1760308615,
      1760308648,
      1760308677,
      1760308705,
      1760308726,
      1760308747,
      1760308794,
      1760308800,
      1760308844,
      1760308874,
      1760308912,
      1760308933,
      1760308977,
      1760309006,
      1760309038,
      1760309040,
      1760309067,
      1760309091,
      1760309106,
      1760309133,
      1760309179,
      1760309212,
      1760309241,
      1760309250,
      1760309280
    ],
    "wof:geomhash": "2615770adfad7924a49c0e2676a50941",
    "wof:id": 1981649545,
    "wof:repo": "sfomuseum-data-flights-2025-10"
  },
  "bbox": [
    -122.36115,
    36.72202,
    -121.87912,
    37.61335
  ],
  "geometry": {"coordinates":[[-121.87912,36.72202],[-121.89791,36.75652],[-121.90588,36.78408],[-121.92631,36.8563],[-121.93607,36.89141],[-121.94675,36.93018],[-121.95567,36.95933],[-121.96376,36.97927],[-121.97905,37.01872],[-121.98819,37.04208],[-122.00809,37.09259],[-122.02399,37.13407],[-122.03981,37.17464],[-122.05322,37.20887],[-122.06596,37.24039],[-122.07462,37.26255],[-122.08316,37.28396],[-122.10145,37.33133],[-122.10371,37.33714],[-122.1192,37.37687],[-122.12802,37.40254],[-122.13929,37.43474],[-122.14528,37.45213],[-122.15803,37.48964],[-122.16748,37.51239],[-122.18449,37.53444],[-122.18625,37.53638],[-122.2081,37.54887],[-122.23043,37.55795],[-122.24373,37.56357],[-122.26601,37.57296],[-122.29733,37.58602],[-122.31926,37.59546],[-122.3379,37.60315],[-122.34333,37.6054],[-122.36115,37.61335]],"type":"LineString"}
}
