{
  "id": 1981729321,
  "type": "Feature",
  "properties": {
    "geom:area": 0,
    "geom:bbox": "-175.150000,31.140000,180.000000,52.080000",
    "geom:latitude": 48.79794694905466,
    "geom:longitude": 3.621528306662057,
    "src:alt_label": "swim-route",
    "src:geom": "swim",
    "swim:geom": "route",
    "wof:geomhash": "4e72ca2069f58b6ebba2d6e6de7a77ee",
    "wof:id": 1981729321,
    "wof:repo": "sfomuseum-data-flights-2025-10"
  },
  "bbox": [
    -175.15,
    31.14,
    180,
    52.08
  ],
  "geometry": {"coordinates":[[[121.79,31.14],[121.92,31.17],[122.02,31.19],[122.13,31.22],[122.26,31.25],[122.45,31.29],[122.85,31.37],[123.09,31.43],[123.38,31.49],[123.56,31.52],[123.63,31.54],[123.78,31.57],[123.96,31.61],[124,31.61],[124,31.61],[125,31.83],[126.66,32.21],[128.83,32.67],[129.03,32.79],[129.14,32.85],[130.79,33.8],[131.89,34.41],[133,35],[135.05,36.05],[137.88,37.4],[139.11,37.95],[139.76,38.02],[140.92,38.14],[141.84,37.97],[145.67,37.2],[149.65,40.42],[160,45],[162.72,45.94],[162.72,45.94],[170,48],[180,50]],[[-175.15,50.58],[-172.19,50.86],[-170,51],[-160,52],[-158.75,52.05],[-157.22,52.08],[-150,52],[-148.7,51.8],[-143.65,50.85],[-142.42,50.58],[-141,50.25],[-140,50],[-138.54,49.02],[-137.58,48.35],[-135.79,47.01],[-130,42],[-128.96,40.83],[-127.97,39.65],[-127,38.47],[-126.99,38.46],[-125.5,38],[-124.54,37.61],[-124.4,37.55],[-124.31,37.51],[-124.25,37.49],[-124.02,37.39],[-123.95,37.36],[-123.81,37.3],[-123.67,37.28],[-123.61,37.27],[-123.34,37.23],[-123.13,37.19],[-122.96,37.24],[-122.86,37.26],[-122.84,37.26],[-122.84,37.26],[-122.76,37.28],[-122.71,37.29],[-122.66,37.3],[-122.63,37.31],[-122.5,37.34],[-122.44,37.36],[-122.29,37.39],[-122.28,37.39],[-122.31,37.46],[-122.34,37.54],[-122.37,37.6],[-122.37,37.61],[-122.38,37.62]]],"type":"MultiLineString"}
}
