{
  "id": 1981801087,
  "type": "Feature",
  "properties": {
    "geom:area": 0,
    "geom:bbox": "-122.300000,30.110556,-97.677222,38.396944",
    "geom:latitude": 35.482754284607076,
    "geom:longitude": -109.62629531693044,
    "src:alt_label": "swim-path",
    "src:geom": "swim",
    "swim:altitudes": [
      "027",
      "027",
      "042",
      "105",
      "181",
      "181",
      "249",
      "292",
      "292",
      "352",
      "369C",
      "370C",
      "370C",
      "370C",
      "370C",
      "370C",
      "370C",
      "370C",
      "370C",
      "370C",
      "370C",
      "370C",
      "370C",
      "370C",
      "370C",
      "370C",
      "370C",
      "370C",
      "370C",
      "370C",
      "370C",
      "370C",
      "370C",
      "370C",
      "370C",
      "370C",
      "370C",
      "370C",
      "370C",
      "370C",
      "370C",
      "370C",
      "370C",
      "370C",
      "370C",
      "370C",
      "370C",
      "370C",
      "370C",
      "370C",
      "370C",
      "370C",
      "370C",
      "370C",
      "370C",
      "370C",
      "370C",
      "370C",
      "370C",
      "370C",
      "370C",
      "370C",
      "370C",
      "370C",
      "370C",
      "370C",
      "370",
      "370",
      "370",
      "199",
      "148",
      "148",
      "148",
      "064",
      "064",
      "031",
      "013",
      "013",
      "013"
    ],
    "swim:geom": "path",
    "swim:speeds": [
      208,
      208,
      248,
      298,
      394,
      394,
      443,
      484,
      484,
      491,
      490,
      495,
      493,
      493,
      492,
      494,
      498,
      499,
      499,
      499,
      502,
      503,
      504,
      501,
      500,
      501,
      501,
      502,
      502,
      502,
      501,
      503,
      503,
      503,
      504,
      504,
      503,
      503,
      503,
      503,
      506,
      506,
      506,
      504,
      504,
      506,
      506,
      509,
      509,
      510,
      510,
      511,
      511,
      512,
      511,
      511,
      510,
      510,
      509,
      509,
      511,
      513,
      513,
      513,
      513,
      513,
      513,
      514,
      514,
      470,
      435,
      435,
      435,
      280,
      280,
      238,
      142,
      142,
      142
    ],
    "swim:timestamps": [
      1761771306,
      1761771306,
      1761771366,
      1761771546,
      1761771787,
      1761771787,
      1761772027,
      1761772246,
      1761772246,
      1761772547,
      1761772667,
      1761772787,
      1761772896,
      1761773048,
      1761773208,
      1761773388,
      1761773628,
      1761773689,
      1761773709,
      1761773749,
      1761773978,
      1761774158,
      1761774279,
      1761774350,
      1761774399,
      1761774699,
      1761774830,
      1761774879,
      1761774890,
      1761774890,
      1761775314,
      1761775615,
      1761775615,
      1761775615,
      1761775934,
      1761775934,
      1761776114,
      1761776294,
      1761776354,
      1761776354,
      1761776835,
      1761776835,
      1761776895,
      1761777075,
      1761777075,
      1761777436,
      1761777436,
      1761777736,
      1761777736,
      1761778028,
      1761778028,
      1761778088,
      1761778148,
      1761778329,
      1761778389,
      1761778397,
      1761778629,
      1761778629,
      1761778698,
      1761778758,
      1761778869,
      1761779170,
      1761779170,
      1761779170,
      1761779582,
      1761779651,
      1761779831,
      1761779891,
      1761779891,
      1761780724,
      1761780852,
      1761780852,
      1761780852,
      1761781292,
      1761781292,
      1761781445,
      1761781712,
      1761781712,
      1761781712
    ],
    "wof:geomhash": "1968e6d2f650e72e2eef93233c808e03",
    "wof:id": 1981801087,
    "wof:repo": "sfomuseum-data-flights-2025-10"
  },
  "bbox": [
    -122.3,
    30.110555555555557,
    -97.67722222222223,
    38.39694444444444
  ],
  "geometry": {"coordinates":[[-122.3,37.671388888888885],[-122.3,37.671388888888885],[-122.23416666666667,37.7075],[-121.98805555555556,37.82888888888889],[-121.47916666666667,37.92305555555555],[-121.47916666666667,37.92305555555555],[-120.89666666666668,38.02305555555555],[-120.28944444444444,38.085],[-120.28944444444444,38.085],[-119.43027777777779,38.14944444444444],[-119.08805555555556,38.174166666666665],[-118.7425,38.19638888888888],[-118.43583333333333,38.21638888888889],[-117.98333333333333,38.24388888888889],[-117.53166666666667,38.269444444444446],[-117,38.2975],[-116.2936111111111,38.33083333333334],[-116.11583333333333,38.33861111111111],[-116.07944444444443,38.34],[-115.93777777777778,38.346111111111114],[-115.26055555555556,38.37083333333334],[-114.72777777777777,38.388333333333335],[-114.37138888888889,38.39694444444444],[-114.17583333333334,38.33694444444445],[-114.0475,38.28611111111111],[-113.26444444444445,37.96888888888889],[-112.95166666666667,37.84027777777778],[-112.79305555555555,37.774166666666666],[-112.79305555555555,37.774166666666666],[-112.79305555555555,37.774166666666666],[-111.6763888888889,37.301111111111105],[-110.90777777777778,36.96555555555556],[-110.90777777777778,36.96555555555556],[-110.90777777777778,36.96555555555556],[-110.11416666666666,36.611111111111114],[-110.11416666666666,36.611111111111114],[-109.66194444444444,36.405277777777776],[-109.21333333333334,36.198055555555555],[-109.05722222222222,36.125277777777775],[-109.05722222222222,36.125277777777775],[-107.85277777777777,35.55305555555555],[-107.85277777777777,35.55305555555555],[-107.70555555555556,35.481388888888894],[-107.265,35.26611111111111],[-107.265,35.26611111111111],[-106.42750000000001,34.771388888888886],[-106.42750000000001,34.771388888888886],[-105.78,34.31111111111111],[-105.78,34.31111111111111],[-105.17166666666667,33.87],[-105.17166666666667,33.87],[-105.04166666666667,33.775],[-104.915,33.68222222222222],[-104.53083333333333,33.397777777777776],[-104.40555555555557,33.30444444444444],[-104.37583333333333,33.282222222222224],[-103.86555555555555,32.91861111111111],[-103.86555555555555,32.91861111111111],[-103.70166666666667,32.85444444444445],[-103.56083333333333,32.79944444444444],[-103.25638888888889,32.67944444444444],[-102.50333333333333,32.37861111111111],[-102.50333333333333,32.37861111111111],[-102.50333333333333,32.37861111111111],[-101.47444444444444,31.956666666666667],[-101.29472222222222,31.881666666666668],[-100.8425,31.691388888888888],[-100.69277777777778,31.6275],[-100.69277777777778,31.6275],[-98.64611111111111,30.789444444444445],[-98.34555555555555,30.703333333333333],[-98.34555555555555,30.703333333333333],[-98.34555555555555,30.703333333333333],[-97.7761111111111,30.2825],[-97.7761111111111,30.2825],[-97.76805555555555,30.110555555555557],[-97.67722222222223,30.139166666666664],[-97.67722222222223,30.139166666666664],[-97.67722222222223,30.139166666666664]],"type":"LineString"}
}
