{
  "id": 1981694317,
  "type": "Feature",
  "properties": {
    "geom:area": 0,
    "geom:bbox": "-122.355170,37.491350,-121.279330,37.612730",
    "geom:latitude": 37.545380725406844,
    "geom:longitude": -121.82198616157059,
    "src:alt_label": "swim-approach",
    "src:geom": "swim",
    "swim:elevations": [
      4338,
      4274,
      4120,
      3967,
      3755,
      3224,
      3183,
      3008,
      2980,
      2680,
      2527,
      2336,
      2317,
      2073,
      1948,
      1845,
      1633,
      1557,
      1324,
      1121,
      922,
      707,
      674,
      487,
      454,
      331,
      182,
      131,
      20
    ],
    "swim:geom": "approach",
    "swim:timestamps": [
      1760721145,
      1760721152,
      1760721168,
      1760721185,
      1760721211,
      1760721268,
      1760721275,
      1760721327,
      1760721331,
      1760721387,
      1760721415,
      1760721448,
      1760721452,
      1760721504,
      1760721538,
      1760721563,
      1760721594,
      1760721606,
      1760721634,
      1760721663,
      1760721703,
      1760721743,
      1760721754,
      1760721801,
      1760721812,
      1760721846,
      1760721896,
      1760721904,
      1760721930
    ],
    "wof:geomhash": "4f5364154bc7fd9ee1697dfa5a5f3aae",
    "wof:id": 1981694317,
    "wof:repo": "sfomuseum-data-flights-2025-10"
  },
  "bbox": [
    -122.35517,
    37.49135,
    -121.27933,
    37.61273
  ],
  "geometry": {"coordinates":[[-121.27933,37.59073],[-121.29356,37.58905],[-121.32638,37.58541],[-121.35954,37.58168],[-121.41122,37.57563],[-121.52608,37.56246],[-121.54011,37.5608],[-121.63499,37.54802],[-121.64168,37.54666],[-121.72983,37.5257],[-121.77301,37.51537],[-121.82077,37.50394],[-121.82623,37.50265],[-121.89624,37.49135],[-121.94355,37.4927],[-121.97768,37.49407],[-122.01631,37.50394],[-122.03117,37.5087],[-122.06686,37.52033],[-122.10389,37.53227],[-122.14895,37.54688],[-122.19049,37.56036],[-122.2012,37.56386],[-122.24952,37.57944],[-122.25998,37.58271],[-122.2892,37.59128],[-122.32933,37.603],[-122.33578,37.60513],[-122.35517,37.61273]],"type":"LineString"}
}
