{
  "id": 1981703507,
  "type": "Feature",
  "properties": {
    "geom:area": 0,
    "geom:bbox": "-122.469060,36.732370,-121.314600,37.706760",
    "geom:latitude": 37.210259521075,
    "geom:longitude": -121.99343650559405,
    "src:alt_label": "swim-takeoff",
    "src:geom": "swim",
    "swim:elevations": [
      244,
      669,
      699,
      1007,
      1079,
      1227,
      1549,
      1962,
      2270,
      2367,
      2685,
      2939,
      3143,
      3366,
      3635,
      3973,
      4004,
      4190,
      4256,
      4355,
      4400,
      4558,
      4853,
      5021,
      5097,
      5397,
      5457,
      5801,
      6070,
      6121,
      6512
    ],
    "swim:geom": "takeoff",
    "swim:timestamps": [
      1760794356,
      1760794402,
      1760794411,
      1760794457,
      1760794475,
      1760794513,
      1760794545,
      1760794584,
      1760794614,
      1760794627,
      1760794664,
      1760794691,
      1760794717,
      1760794745,
      1760794775,
      1760794824,
      1760794831,
      1760794883,
      1760794901,
      1760794933,
      1760794952,
      1760794987,
      1760795033,
      1760795057,
      1760795072,
      1760795121,
      1760795131,
      1760795196,
      1760795248,
      1760795256,
      1760795329
    ],
    "wof:geomhash": "14734bffa65d7d61175a00b37d599673",
    "wof:id": 1981703507,
    "wof:repo": "sfomuseum-data-flights-2025-10"
  },
  "bbox": [
    -122.46906,
    36.73237,
    -121.3146,
    37.70676
  ],
  "geometry": {"coordinates":[[-122.36561,37.63422],[-122.36165,37.67186],[-122.36177,37.68033],[-122.40175,37.70676],[-122.42247,37.69899],[-122.43878,37.65753],[-122.44715,37.61845],[-122.45781,37.56888],[-122.46593,37.53029],[-122.46906,37.51345],[-122.44333,37.47016],[-122.40759,37.44731],[-122.37304,37.42494],[-122.33632,37.40123],[-122.2942,37.37407],[-122.22733,37.33089],[-122.21663,37.32399],[-122.13837,37.27319],[-122.10844,37.25374],[-122.05439,37.21864],[-122.02127,37.19716],[-121.95852,37.15621],[-121.87481,37.10176],[-121.83114,37.07303],[-121.80283,37.05449],[-121.71163,36.99475],[-121.69281,36.98235],[-121.57075,36.90195],[-121.47153,36.83644],[-121.45666,36.8266],[-121.3146,36.73237]],"type":"LineString"}
}
