{
  "id": 1981748863,
  "type": "Feature",
  "properties": {
    "geom:area": 0,
    "geom:bbox": "-122.214660,37.719740,-121.247490,38.413140",
    "geom:latitude": 38.0862307804846,
    "geom:longitude": -121.7471249352531,
    "src:alt_label": "swim-takeoff",
    "src:geom": "swim",
    "swim:elevations": [
      1878,
      2005,
      2811,
      3203,
      3350,
      3470,
      3572,
      3781,
      4142,
      4659,
      4969,
      5236,
      5433,
      5779,
      6058,
      6340,
      6720,
      7029,
      7245,
      7347,
      7641,
      8000
    ],
    "swim:geom": "takeoff",
    "swim:timestamps": [
      1761247284,
      1761247292,
      1761247346,
      1761247372,
      1761247388,
      1761247413,
      1761247432,
      1761247448,
      1761247477,
      1761247521,
      1761247546,
      1761247565,
      1761247587,
      1761247616,
      1761247644,
      1761247672,
      1761247713,
      1761247744,
      1761247767,
      1761247779,
      1761247817,
      1761247865
    ],
    "wof:geomhash": "c1921cca7dc2667c1fe969d92d22a8e6",
    "wof:id": 1981748863,
    "wof:repo": "sfomuseum-data-flights-2025-10"
  },
  "bbox": [
    -122.21466,
    37.71974,
    -121.24749,
    38.41314
  ],
  "geometry": {"coordinates":[[-122.21466,37.71974],[-122.2059,37.72723],[-122.15477,37.78331],[-122.1285,37.81212],[-122.11232,37.83017],[-122.08457,37.86101],[-122.05933,37.88422],[-122.03373,37.90259],[-121.98585,37.935],[-121.91014,37.98668],[-121.86588,38.01633],[-121.83117,38.03953],[-121.7933,38.06524],[-121.73982,38.10107],[-121.68919,38.13467],[-121.63591,38.17043],[-121.55458,38.22094],[-121.49317,38.25884],[-121.44652,38.28814],[-121.42248,38.30327],[-121.34712,38.35083],[-121.24749,38.41314]],"type":"LineString"}
}
