{
  "id": 1981598035,
  "type": "Feature",
  "properties": {
    "geom:area": 0,
    "geom:bbox": "-123.487420,36.912920,-122.118260,37.615880",
    "geom:latitude": 37.27373819009489,
    "geom:longitude": -122.70975656843902,
    "src:alt_label": "swim-approach",
    "src:geom": "swim",
    "swim:elevations": [
      6005,
      5883,
      5486,
      5156,
      5046,
      4926,
      4457,
      4148,
      4025,
      3664,
      3339,
      3078,
      3046,
      3034,
      2983,
      2921,
      2724,
      2582,
      2467,
      2438,
      2438,
      2438,
      2438,
      2438,
      2438,
      2438,
      2327,
      2193,
      2112,
      1839,
      1732,
      1519,
      1523,
      1449,
      1168,
      1130,
      1050,
      821,
      610,
      537,
      446,
      262,
      145,
      0,
      0
    ],
    "swim:geom": "approach",
    "swim:timestamps": [
      1759818554,
      1759818575,
      1759818611,
      1759818645,
      1759818657,
      1759818670,
      1759818716,
      1759818747,
      1759818760,
      1759818796,
      1759818830,
      1759818864,
      1759818880,
      1759818925,
      1759818938,
      1759818975,
      1759819016,
      1759819045,
      1759819063,
      1759819083,
      1759819127,
      1759819152,
      1759819198,
      1759819216,
      1759819240,
      1759819271,
      1759819315,
      1759819339,
      1759819355,
      1759819401,
      1759819422,
      1759819460,
      1759819471,
      1759819503,
      1759819558,
      1759819564,
      1759819584,
      1759819617,
      1759819647,
      1759819666,
      1759819687,
      1759819732,
      1759819761,
      1759819795,
      1759819801
    ],
    "wof:geomhash": "a5c0784169dd8e11102f418805df557e",
    "wof:id": 1981598035,
    "wof:repo": "sfomuseum-data-flights-2025-10"
  },
  "bbox": [
    -123.48742,
    36.91292,
    -122.11826,
    37.61588
  ],
  "geometry": {"coordinates":[[-123.48742,36.91292],[-123.44842,36.93408],[-123.38172,36.97025],[-123.31982,37.00548],[-123.29834,37.01732],[-123.27695,37.02927],[-123.19416,37.07521],[-123.14053,37.10498],[-123.11846,37.11713],[-123.05666,37.15132],[-122.99817,37.18347],[-122.94143,37.21478],[-122.91455,37.22959],[-122.83651,37.26391],[-122.81403,37.26944],[-122.75613,37.28171],[-122.6953,37.28247],[-122.65351,37.28253],[-122.62772,37.28237],[-122.59992,37.28198],[-122.53643,37.28099],[-122.50092,37.28346],[-122.45139,37.32269],[-122.43313,37.33923],[-122.40872,37.36117],[-122.37761,37.38905],[-122.31721,37.40374],[-122.28336,37.40342],[-122.25942,37.40279],[-122.19598,37.40977],[-122.17012,37.42003],[-122.12688,37.44187],[-122.1199,37.45287],[-122.11826,37.48252],[-122.15989,37.52159],[-122.16496,37.52553],[-122.18154,37.53743],[-122.21197,37.55237],[-122.24067,37.56416],[-122.25782,37.57182],[-122.27556,37.57915],[-122.31141,37.59427],[-122.33336,37.6036],[-122.35885,37.61436],[-122.36204,37.61588]],"type":"LineString"}
}
