{
  "id": 1981648589,
  "type": "Feature",
  "properties": {
    "geom:area": 0,
    "geom:bbox": "-122.389850,36.733950,-121.887470,37.613560",
    "geom:latitude": 37.23779974021772,
    "geom:longitude": -122.15315727714328,
    "src:alt_label": "swim-approach",
    "src:geom": "swim",
    "swim:elevations": [
      5389,
      5293,
      4830,
      4651,
      4378,
      3916,
      3629,
      3381,
      3213,
      3184,
      3078,
      3048,
      3048,
      3048,
      3048,
      3048,
      3048,
      3048,
      2925,
      2893,
      2805,
      2711,
      2523,
      2345,
      2284,
      2100,
      2033,
      1978,
      1918,
      1732,
      1678,
      1550,
      1470,
      1401,
      1337,
      1187,
      1089,
      892,
      762,
      730,
      670,
      672,
      470,
      321,
      232,
      92,
      0
    ],
    "swim:geom": "approach",
    "swim:timestamps": [
      1760273840,
      1760273851,
      1760273896,
      1760273913,
      1760273941,
      1760273988,
      1760274019,
      1760274051,
      1760274083,
      1760274090,
      1760274110,
      1760274133,
      1760274159,
      1760274195,
      1760274222,
      1760274259,
      1760274271,
      1760274311,
      1760274356,
      1760274371,
      1760274404,
      1760274431,
      1760274474,
      1760274507,
      1760274521,
      1760274557,
      1760274589,
      1760274610,
      1760274636,
      1760274681,
      1760274696,
      1760274741,
      1760274776,
      1760274800,
      1760274829,
      1760274859,
      1760274874,
      1760274917,
      1760274944,
      1760274957,
      1760274980,
      1760274990,
      1760275038,
      1760275073,
      1760275098,
      1760275137,
      1760275160
    ],
    "wof:geomhash": "1fd4d2139af054b2a827fb9cfb0fd752",
    "wof:id": 1981648589,
    "wof:repo": "sfomuseum-data-flights-2025-10"
  },
  "bbox": [
    -122.38985,
    36.73395,
    -121.88747,
    37.61356
  ],
  "geometry": {"coordinates":[[-121.88747,36.73395],[-121.89589,36.74971],[-121.91601,36.82075],[-121.92342,36.84738],[-121.93562,36.89074],[-121.95635,36.96097],[-121.97298,37.00261],[-121.98945,37.04518],[-122.0041,37.08301],[-122.00711,37.09081],[-122.01526,37.11185],[-122.02474,37.13602],[-122.04865,37.15511],[-122.09736,37.16345],[-122.13253,37.16875],[-122.18316,37.17658],[-122.19878,37.179],[-122.25181,37.18722],[-122.31336,37.19669],[-122.33249,37.19966],[-122.37557,37.21015],[-122.38985,37.23509],[-122.37524,37.28083],[-122.36365,37.31393],[-122.35901,37.32829],[-122.33802,37.36156],[-122.29591,37.36259],[-122.26997,37.35295],[-122.23411,37.3532],[-122.18306,37.37844],[-122.16724,37.38729],[-122.12155,37.41264],[-122.09707,37.43588],[-122.08595,37.45462],[-122.09388,37.4773],[-122.1133,37.49742],[-122.12259,37.50718],[-122.15848,37.52903],[-122.18335,37.54016],[-122.19491,37.54524],[-122.21704,37.55461],[-122.22636,37.55851],[-122.2708,37.57721],[-122.30119,37.59006],[-122.31885,37.59745],[-122.34364,37.60788],[-122.35762,37.61356]],"type":"LineString"}
}
