{
  "id": 1981791731,
  "type": "Feature",
  "properties": {
    "geom:area": 0,
    "geom:bbox": "-122.390000,33.640000,-84.040000,39.060000",
    "geom:latitude": 37.65962457815918,
    "geom:longitude": -102.71714630539665,
    "src:alt_label": "swim-route",
    "src:geom": "swim",
    "swim:geom": "route",
    "wof:geomhash": "3f2a1ce56b39bc95dbf1cc521524cb28",
    "wof:id": 1981791731,
    "wof:repo": "sfomuseum-data-flights-2025-10"
  },
  "bbox": [
    -122.39,
    33.64,
    -84.04,
    39.06
  ],
  "geometry": {"coordinates":[[-122.38,37.62],[-122.3,37.68],[-122.32,37.71],[-122.32,37.71],[-122.34,37.75],[-122.35,37.77],[-122.35,37.77],[-122.36,37.79],[-122.39,37.84],[-122.39,37.85],[-122.39,37.86],[-122.38,37.94],[-122.31,37.96],[-122.15,37.99],[-122.1,37.99],[-122,37.99],[-121.89,37.99],[-121.81,37.99],[-121.7,37.99],[-121.69,37.99],[-121.48,37.99],[-121.36,37.99],[-121.33,37.99],[-121.3,37.99],[-121.21,37.99],[-121.1,37.99],[-120.9,38.02],[-120.81,38.04],[-120.8,38.04],[-120.69,38.05],[-120.58,38.07],[-120.28,38.12],[-119.87,38.18],[-119.18,38.27],[-117.29,38.52],[-117.28,38.52],[-113.49,38.83],[-111.76,38.93],[-110,39],[-109.98,39],[-109.56,39.02],[-108.79,39.06],[-107.87,38.91],[-107.41,38.84],[-106.91,38.75],[-106.41,38.66],[-105.66,38.53],[-105.35,38.47],[-104.43,38.29],[-103.52,38.21],[-102.8,38.14],[-102.08,38.07],[-101.6,38.02],[-100.73,37.92],[-99.53,37.86],[-97.98,37.77],[-97.58,37.75],[-94.86,37.44],[-93.15,37.22],[-91.6,36.99],[-91.03,36.91],[-90.75,36.86],[-89.34,36.63],[-87.55,36.3],[-87.32,36.26],[-87.29,36.25],[-87.15,36.23],[-87.11,36.22],[-86.68,36.14],[-86.24,35.5],[-86.22,35.48],[-86.19,35.43],[-86.03,35.27],[-85.58,34.79],[-85.43,34.64],[-85.17,34.36],[-84.97,34.14],[-84.84,34.01],[-84.82,33.99],[-84.79,33.96],[-84.76,33.92],[-84.58,33.73],[-84.43,33.73],[-84.31,33.73],[-84.26,33.73],[-84.14,33.73],[-84.06,33.73],[-84.04,33.73],[-84.21,33.69],[-84.3,33.67],[-84.4,33.64],[-84.43,33.64]],"type":"LineString"}
}
