{
  "id": 1981562677,
  "type": "Feature",
  "properties": {
    "geom:area": 0,
    "geom:bbox": "-123.505770,36.952110,-122.065890,37.610430",
    "geom:latitude": 37.29173567458382,
    "geom:longitude": -122.6903269485148,
    "src:alt_label": "swim-approach",
    "src:geom": "swim",
    "swim:elevations": [
      6135,
      5796,
      5409,
      5084,
      4890,
      4327,
      4051,
      3850,
      3455,
      3141,
      3048,
      3048,
      3048,
      3048,
      3048,
      3048,
      3048,
      3040,
      2889,
      2737,
      2599,
      2437,
      2436,
      2409,
      2322,
      2153,
      1984,
      1657,
      1602,
      1343,
      1059,
      974,
      1008,
      841,
      688,
      607,
      393,
      305,
      183,
      80,
      60
    ],
    "swim:geom": "approach",
    "swim:timestamps": [
      1759469181,
      1759469208,
      1759469238,
      1759469268,
      1759469283,
      1759469327,
      1759469349,
      1759469370,
      1759469409,
      1759469453,
      1759469486,
      1759469510,
      1759469534,
      1759469564,
      1759469588,
      1759469633,
      1759469666,
      1759469685,
      1759469715,
      1759469745,
      1759469769,
      1759469815,
      1759469847,
      1759469853,
      1759469877,
      1759469901,
      1759469920,
      1759469965,
      1759469971,
      1759470006,
      1759470058,
      1759470082,
      1759470106,
      1759470145,
      1759470176,
      1759470188,
      1759470233,
      1759470263,
      1759470297,
      1759470326,
      1759470332
    ],
    "wof:geomhash": "e22e4c9a9baa292bc073252a200f3a3b",
    "wof:id": 1981562677,
    "wof:repo": "sfomuseum-data-flights-2025-10"
  },
  "bbox": [
    -123.50577,
    36.95211,
    -122.06589,
    37.61043
  ],
  "geometry": {"coordinates":[[-123.50577,36.95211],[-123.44927,36.97952],[-123.38734,37.00931],[-123.32551,37.03894],[-123.29515,37.05345],[-123.20696,37.09546],[-123.16298,37.11647],[-123.1223,37.13571],[-123.04877,37.17029],[-122.96965,37.20754],[-122.9104,37.23545],[-122.86665,37.25444],[-122.81954,37.26766],[-122.7598,37.28181],[-122.71188,37.29323],[-122.62258,37.31417],[-122.56114,37.3282],[-122.52821,37.33573],[-122.47708,37.34751],[-122.42639,37.35915],[-122.38579,37.36826],[-122.31016,37.38591],[-122.25782,37.39803],[-122.24873,37.40012],[-122.21308,37.40806],[-122.17893,37.41575],[-122.15197,37.42186],[-122.08916,37.43625],[-122.08153,37.43933],[-122.06589,37.47213],[-122.108,37.50676],[-122.13321,37.51822],[-122.15823,37.52928],[-122.20009,37.54738],[-122.23239,37.56109],[-122.2442,37.56606],[-122.28324,37.58242],[-122.304,37.59109],[-122.32674,37.60073],[-122.34582,37.60876],[-122.34973,37.61043]],"type":"LineString"}
}
