{
  "id": 1997542765,
  "type": "Feature",
  "properties": {
    "geom:area": 0,
    "geom:bbox": "-122.083333,36.115278,-86.905833,39.785833",
    "geom:latitude": 38.59538524562924,
    "geom:longitude": -104.35538630114014,
    "src:alt_label": "swim-path",
    "src:geom": "swim",
    "swim:altitudes": [
      "098",
      "098",
      "098",
      "098",
      "098",
      "098",
      "172",
      "172",
      "172",
      "172",
      "277",
      "277",
      "277",
      "300",
      "300",
      "300",
      "300",
      "359C",
      "359C",
      "359C",
      "359C",
      "359C",
      "360C",
      "360C",
      "360C",
      "360C",
      "360C",
      "360C",
      "360C",
      "360C",
      "360C",
      "360C",
      "360C",
      "360C",
      "360C",
      "360C",
      "360C",
      "360C",
      "360C",
      "360C",
      "360C",
      "360C",
      "360C",
      "360C",
      "360C",
      "360C",
      "360C",
      "360C",
      "360C",
      "360C",
      "360C",
      "360C",
      "360C",
      "360C",
      "360C",
      "360C",
      "360C",
      "360C",
      "360C",
      "360C",
      "360C",
      "360C",
      "360C",
      "360C",
      "360C",
      "361C",
      "361C",
      "360C",
      "360C",
      "360C",
      "360C",
      "360C",
      "360C",
      "360C",
      "360C",
      "360C",
      "360C",
      "360C",
      "360C",
      "360C",
      "360C",
      "360C",
      "360C",
      "360C",
      "360C",
      "360C",
      "360C",
      "360C",
      "360C",
      "360C",
      "360C",
      "360C",
      "360C",
      "360C",
      "360C",
      "360C",
      "360C",
      "360C",
      "360C",
      "360C",
      "360C",
      "360C",
      "360C",
      "360C",
      "360C",
      "367",
      "369",
      "369",
      "369",
      "377",
      "377",
      "380C",
      "380C",
      "380C",
      "380C",
      "380C",
      "380C",
      "380C",
      "380C",
      "380C",
      "380C",
      "380C",
      "380C",
      "380C",
      "380C",
      "380C",
      "380C",
      "380C",
      "380C",
      "380C",
      "380C",
      "380C",
      "380C",
      "380C",
      "380C",
      "380C",
      "380C",
      "380C",
      "380C",
      "380C",
      "380C",
      "380C",
      "380C",
      "380C",
      "380C",
      "380C",
      "380C",
      "380C",
      "380C",
      "380C",
      "380C",
      "380C",
      "380C",
      "380C",
      "380C",
      "380C",
      "380C",
      "380C",
      "380C",
      "380C",
      "380C",
      "380C",
      "380C",
      "380C",
      "380C",
      "380C",
      "380C",
      "380C",
      "380C",
      "380C",
      "380C",
      "380C",
      "380C",
      "380C",
      "380C",
      "380C",
      "380C",
      "380C",
      "380C",
      "380C",
      "380C",
      "380C",
      "380C",
      "380C",
      "380C",
      "380C",
      "380C",
      "380C",
      "380C",
      "380C",
      "380C",
      "380C",
      "380C",
      "380C",
      "380C",
      "380C",
      "380C",
      "380C",
      "380C",
      "380C",
      "380C",
      "380C",
      "380C",
      "380C",
      "380C",
      "380C",
      "380C",
      "380C",
      "380C",
      "380C",
      "380C",
      "380C",
      "380C",
      "380C",
      "380C",
      "380C",
      "380C",
      "380C",
      "380C",
      "380C",
      "380C",
      "380C",
      "380C",
      "380C",
      "380",
      "380",
      "360C",
      "360C",
      "360C",
      "360C",
      "360C",
      "360C",
      "360C",
      "360C",
      "360C",
      "360C",
      "360",
      "360",
      "360",
      "360",
      "355",
      "355",
      "355",
      "355",
      "351",
      "351",
      "350",
      "340C",
      "340C",
      "340C",
      "340C",
      "340C",
      "340C",
      "340",
      "340",
      "328",
      "328",
      "274",
      "274",
      "259",
      "232",
      "232",
      "177",
      "177",
      "100",
      "052",
      "052",
      "052",
      "049",
      "049",
      "049"
    ],
    "swim:geom": "path",
    "swim:speeds": [
      245,
      245,
      245,
      245,
      245,
      245,
      308,
      308,
      308,
      308,
      353,
      353,
      353,
      367,
      367,
      367,
      367,
      383,
      383,
      383,
      383,
      383,
      385,
      385,
      385,
      385,
      385,
      385,
      385,
      385,
      385,
      385,
      385,
      385,
      382,
      384,
      384,
      385,
      385,
      384,
      384,
      384,
      384,
      384,
      384,
      384,
      389,
      389,
      389,
      389,
      390,
      390,
      390,
      392,
      392,
      392,
      392,
      393,
      393,
      395,
      395,
      394,
      394,
      389,
      389,
      374,
      374,
      366,
      366,
      366,
      366,
      361,
      361,
      361,
      361,
      361,
      361,
      361,
      361,
      363,
      363,
      363,
      363,
      364,
      364,
      364,
      363,
      363,
      363,
      363,
      362,
      362,
      362,
      362,
      364,
      364,
      364,
      364,
      365,
      365,
      365,
      364,
      364,
      361,
      361,
      361,
      360,
      360,
      360,
      361,
      361,
      362,
      362,
      362,
      361,
      361,
      361,
      361,
      361,
      361,
      363,
      363,
      363,
      363,
      363,
      363,
      363,
      363,
      363,
      367,
      367,
      367,
      367,
      378,
      378,
      378,
      378,
      374,
      374,
      380,
      380,
      380,
      380,
      380,
      380,
      384,
      384,
      391,
      391,
      391,
      391,
      391,
      396,
      396,
      396,
      396,
      400,
      400,
      399,
      400,
      400,
      400,
      401,
      401,
      414,
      414,
      414,
      414,
      421,
      421,
      421,
      422,
      422,
      422,
      425,
      425,
      425,
      425,
      425,
      426,
      426,
      428,
      428,
      428,
      431,
      431,
      431,
      430,
      430,
      431,
      431,
      431,
      434,
      434,
      434,
      428,
      428,
      428,
      438,
      438,
      438,
      438,
      435,
      435,
      435,
      435,
      435,
      435,
      435,
      435,
      435,
      435,
      435,
      454,
      454,
      454,
      447,
      453,
      453,
      453,
      448,
      448,
      453,
      453,
      452,
      452,
      454,
      454,
      454,
      454,
      454,
      454,
      454,
      457,
      457,
      457,
      458,
      458,
      458,
      458,
      459,
      458,
      458,
      458,
      458,
      458,
      457,
      443,
      443,
      443,
      443,
      443,
      443,
      445,
      445,
      445,
      445,
      444,
      444,
      438,
      412,
      412,
      392,
      392,
      255,
      237,
      237,
      237,
      231,
      231,
      231
    ],
    "swim:timestamps": [
      1761917949,
      1761917949,
      1761917949,
      1761917949,
      1761917949,
      1761917949,
      1761918129,
      1761918129,
      1761918129,
      1761918129,
      1761918489,
      1761918489,
      1761918489,
      1761918610,
      1761918610,
      1761918610,
      1761918610,
      1761918970,
      1761918970,
      1761918970,
      1761918970,
      1761918970,
      1761919271,
      1761919271,
      1761919271,
      1761919271,
      1761919871,
      1761919871,
      1761919871,
      1761919871,
      1761919871,
      1761919871,
      1761919871,
      1761919871,
      1761920412,
      1761920472,
      1761920472,
      1761920592,
      1761920592,
      1761920773,
      1761920773,
      1761920773,
      1761920773,
      1761920773,
      1761920773,
      1761920773,
      1761921253,
      1761921253,
      1761921253,
      1761921253,
      1761921314,
      1761921314,
      1761921314,
      1761921554,
      1761921554,
      1761921554,
      1761921554,
      1761921614,
      1761921614,
      1761921734,
      1761921734,
      1761921854,
      1761921854,
      1761922155,
      1761922155,
      1761922395,
      1761922395,
      1761922455,
      1761922455,
      1761922455,
      1761922455,
      1761922515,
      1761922515,
      1761922515,
      1761922515,
      1761922515,
      1761922936,
      1761922936,
      1761922936,
      1761923116,
      1761923116,
      1761923116,
      1761923116,
      1761923297,
      1761923297,
      1761923297,
      1761923324,
      1761923324,
      1761923477,
      1761923477,
      1761923537,
      1761923537,
      1761923624,
      1761923624,
      1761923684,
      1761923684,
      1761923684,
      1761923717,
      1761923804,
      1761923804,
      1761923804,
      1761923837,
      1761923837,
      1761924018,
      1761924018,
      1761924165,
      1761924198,
      1761924198,
      1761924198,
      1761924258,
      1761924258,
      1761924345,
      1761924345,
      1761924345,
      1761924646,
      1761924646,
      1761924646,
      1761924646,
      1761924646,
      1761924646,
      1761924886,
      1761924886,
      1761925066,
      1761925066,
      1761925186,
      1761925186,
      1761925186,
      1761925186,
      1761925186,
      1761925547,
      1761925547,
      1761925547,
      1761925547,
      1761925847,
      1761925847,
      1761925847,
      1761925847,
      1761925880,
      1761925880,
      1761926087,
      1761926087,
      1761926087,
      1761926087,
      1761926087,
      1761926087,
      1761926328,
      1761926328,
      1761926662,
      1761926662,
      1761926662,
      1761926842,
      1761926842,
      1761926902,
      1761926902,
      1761926902,
      1761926902,
      1761927109,
      1761927109,
      1761927169,
      1761927263,
      1761927263,
      1761927263,
      1761927349,
      1761927349,
      1761927589,
      1761927589,
      1761927589,
      1761927589,
      1761927743,
      1761927743,
      1761927743,
      1761927924,
      1761927924,
      1761927924,
      1761928310,
      1761928310,
      1761928310,
      1761928310,
      1761928310,
      1761928344,
      1761928344,
      1761928404,
      1761928404,
      1761928404,
      1761928491,
      1761928491,
      1761928491,
      1761928551,
      1761928551,
      1761928731,
      1761928731,
      1761928731,
      1761928825,
      1761928825,
      1761928825,
      1761929066,
      1761929066,
      1761929066,
      1761929426,
      1761929426,
      1761929426,
      1761929426,
      1761929546,
      1761929546,
      1761929546,
      1761929607,
      1761929607,
      1761929607,
      1761929607,
      1761929847,
      1761929847,
      1761929847,
      1761929847,
      1761930518,
      1761930518,
      1761930518,
      1761930568,
      1761930578,
      1761930578,
      1761930638,
      1761930688,
      1761930688,
      1761930698,
      1761930698,
      1761930929,
      1761930929,
      1761931109,
      1761931179,
      1761931179,
      1761931179,
      1761931179,
      1761931229,
      1761931229,
      1761931359,
      1761931359,
      1761931359,
      1761931410,
      1761931410,
      1761931410,
      1761931410,
      1761931470,
      1761931479,
      1761931479,
      1761931479,
      1761931530,
      1761931530,
      1761931539,
      1761931710,
      1761931710,
      1761931719,
      1761931719,
      1761931830,
      1761931830,
      1761932440,
      1761932440,
      1761932500,
      1761932500,
      1761932634,
      1761932634,
      1761932681,
      1761932754,
      1761932754,
      1761932929,
      1761932929,
      1761933281,
      1761933522,
      1761933522,
      1761933522,
      1761933529,
      1761933529,
      1761933529
    ],
    "wof:geomhash": "bba106705172d724c4c08c6f4a3eaf79",
    "wof:id": 1997542765,
    "wof:repo": "sfomuseum-data-flights-2025-10"
  },
  "bbox": [
    -122.08333333333333,
    36.11527777777778,
    -86.90583333333333,
    39.78583333333333
  ],
  "geometry": {"coordinates":[[-86.90583333333333,36.11527777777778],[-86.90583333333333,36.11527777777778],[-86.90583333333333,36.11527777777778],[-86.90583333333333,36.11527777777778],[-86.90583333333333,36.11527777777778],[-86.90583333333333,36.11527777777778],[-87.19083333333333,36.211666666666666],[-87.19083333333333,36.211666666666666],[-87.19083333333333,36.211666666666666],[-87.19083333333333,36.211666666666666],[-87.8086111111111,36.45305555555556],[-87.8086111111111,36.45305555555556],[-87.8086111111111,36.45305555555556],[-88.02944444444444,36.55138888888889],[-88.02944444444444,36.55138888888889],[-88.02944444444444,36.55138888888889],[-88.02944444444444,36.55138888888889],[-88.69972222222222,36.8875],[-88.69972222222222,36.8875],[-88.69972222222222,36.8875],[-88.69972222222222,36.8875],[-88.69972222222222,36.8875],[-89.25972222222222,37.17861111111111],[-89.25972222222222,37.17861111111111],[-89.25972222222222,37.17861111111111],[-89.25972222222222,37.17861111111111],[-90.42527777777778,37.71194444444445],[-90.42527777777778,37.71194444444445],[-90.42527777777778,37.71194444444445],[-90.42527777777778,37.71194444444445],[-90.42527777777778,37.71194444444445],[-90.42527777777778,37.71194444444445],[-90.42527777777778,37.71194444444445],[-90.42527777777778,37.71194444444445],[-91.5625,37.93583333333333],[-91.72055555555556,37.96611111111111],[-91.72055555555556,37.96611111111111],[-91.98527777777778,38.01611111111111],[-91.98527777777778,38.01611111111111],[-92.38944444444445,38.09111111111111],[-92.38944444444445,38.09111111111111],[-92.38944444444445,38.09111111111111],[-92.38944444444445,38.09111111111111],[-92.38944444444445,38.09111111111111],[-92.38944444444445,38.09111111111111],[-92.38944444444445,38.09111111111111],[-93.43861111111111,38.27861111111111],[-93.43861111111111,38.27861111111111],[-93.43861111111111,38.27861111111111],[-93.43861111111111,38.27861111111111],[-93.57194444444444,38.30166666666666],[-93.57194444444444,38.30166666666666],[-93.57194444444444,38.30166666666666],[-94.13055555555555,38.39666666666667],[-94.13055555555555,38.39666666666667],[-94.13055555555555,38.39666666666667],[-94.13055555555555,38.39666666666667],[-94.26694444444445,38.41916666666666],[-94.26694444444445,38.41916666666666],[-94.54194444444444,38.46472222222223],[-94.54194444444444,38.46472222222223],[-94.81611111111111,38.50944444444445],[-94.81611111111111,38.50944444444445],[-95.49583333333334,38.61666666666667],[-95.49583333333334,38.61666666666667],[-96.0275,38.69777777777777],[-96.0275,38.69777777777777],[-96.155,38.71666666666667],[-96.155,38.71666666666667],[-96.155,38.71666666666667],[-96.155,38.71666666666667],[-96.25444444444445,38.731388888888894],[-96.25444444444445,38.731388888888894],[-96.25444444444445,38.731388888888894],[-96.25444444444445,38.731388888888894],[-96.25444444444445,38.731388888888894],[-97.14972222222222,38.86],[-97.14972222222222,38.86],[-97.14972222222222,38.86],[-97.50527777777778,38.909166666666664],[-97.50527777777778,38.909166666666664],[-97.50527777777778,38.909166666666664],[-97.50527777777778,38.909166666666664],[-97.91250000000001,38.96527777777778],[-97.91250000000001,38.96527777777778],[-97.91250000000001,38.96527777777778],[-97.98722222222223,38.97555555555556],[-97.98722222222223,38.97555555555556],[-98.29277777777777,39.016666666666666],[-98.29277777777777,39.016666666666666],[-98.42,39.03361111111111],[-98.42,39.03361111111111],[-98.62416666666665,39.06083333333333],[-98.62416666666665,39.06083333333333],[-98.75305555555556,39.0775],[-98.75305555555556,39.0775],[-98.75305555555556,39.0775],[-98.80527777777777,39.08416666666667],[-99.00527777777778,39.109722222222224],[-99.00527777777778,39.109722222222224],[-99.00527777777778,39.109722222222224],[-99.06027777777777,39.11694444444444],[-99.06027777777777,39.11694444444444],[-99.41638888888889,39.16138888888889],[-99.41638888888889,39.16138888888889],[-99.7675,39.20444444444445],[-99.84027777777777,39.213055555555556],[-99.84027777777777,39.213055555555556],[-99.84027777777777,39.213055555555556],[-99.96916666666667,39.22833333333333],[-99.96916666666667,39.22833333333333],[-100.13722222222223,39.248333333333335],[-100.13722222222223,39.248333333333335],[-100.13722222222223,39.248333333333335],[-100.78222222222222,39.31944444444445],[-100.78222222222222,39.31944444444445],[-100.78222222222222,39.31944444444445],[-100.78222222222222,39.31944444444445],[-100.78222222222222,39.31944444444445],[-100.78222222222222,39.31944444444445],[-101.29833333333333,39.373333333333335],[-101.29833333333333,39.373333333333335],[-101.68555555555555,39.41222222222222],[-101.68555555555555,39.41222222222222],[-101.94527777777778,39.437777777777775],[-101.94527777777778,39.437777777777775],[-101.94527777777778,39.437777777777775],[-101.94527777777778,39.437777777777775],[-101.94527777777778,39.437777777777775],[-102.73333333333333,39.51111111111111],[-102.73333333333333,39.51111111111111],[-102.73333333333333,39.51111111111111],[-102.73333333333333,39.51111111111111],[-103.4063888888889,39.56944444444445],[-103.4063888888889,39.56944444444445],[-103.4063888888889,39.56944444444445],[-103.4063888888889,39.56944444444445],[-103.4775,39.575833333333335],[-103.4775,39.575833333333335],[-103.94861111111112,39.61333333333334],[-103.94861111111112,39.61333333333334],[-103.94861111111112,39.61333333333334],[-103.94861111111112,39.61333333333334],[-103.94861111111112,39.61333333333334],[-103.94861111111112,39.61333333333334],[-104.49777777777778,39.65555555555555],[-104.49777777777778,39.65555555555555],[-105.28333333333333,39.709722222222226],[-105.28333333333333,39.709722222222226],[-105.28333333333333,39.709722222222226],[-105.70416666666667,39.738055555555555],[-105.70416666666667,39.738055555555555],[-105.84777777777778,39.746944444444445],[-105.84777777777778,39.746944444444445],[-105.84777777777778,39.746944444444445],[-105.84777777777778,39.746944444444445],[-106.35416666666666,39.778055555555554],[-106.35416666666666,39.778055555555554],[-106.4961111111111,39.78583333333333],[-106.71027777777778,39.76833333333333],[-106.71027777777778,39.76833333333333],[-106.71027777777778,39.76833333333333],[-106.91166666666668,39.746944444444445],[-106.91166666666668,39.746944444444445],[-107.49055555555556,39.68111111111111],[-107.49055555555556,39.68111111111111],[-107.49055555555556,39.68111111111111],[-107.49055555555556,39.68111111111111],[-107.88916666666667,39.634166666666665],[-107.88916666666667,39.634166666666665],[-107.88916666666667,39.634166666666665],[-108.33138888888888,39.58027777777778],[-108.33138888888888,39.58027777777778],[-108.33138888888888,39.58027777777778],[-109.30388888888889,39.455555555555556],[-109.30388888888889,39.455555555555556],[-109.30388888888889,39.455555555555556],[-109.30388888888889,39.455555555555556],[-109.30388888888889,39.455555555555556],[-109.39583333333334,39.44333333333333],[-109.39583333333334,39.44333333333333],[-109.54888888888888,39.422777777777775],[-109.54888888888888,39.422777777777775],[-109.54888888888888,39.422777777777775],[-109.76055555555556,39.39388888888889],[-109.76055555555556,39.39388888888889],[-109.76055555555556,39.39388888888889],[-109.91250000000001,39.37305555555555],[-109.91250000000001,39.37305555555555],[-110.36972222222222,39.311388888888885],[-110.36972222222222,39.311388888888885],[-110.36972222222222,39.311388888888885],[-110.61638888888888,39.277499999999996],[-110.61638888888888,39.277499999999996],[-110.61638888888888,39.277499999999996],[-111.22472222222223,39.19138888888889],[-111.22472222222223,39.19138888888889],[-111.22472222222223,39.19138888888889],[-112.13944444444445,39.05555555555555],[-112.13944444444445,39.05555555555555],[-112.13944444444445,39.05555555555555],[-112.13944444444445,39.05555555555555],[-112.44472222222223,39.00833333333333],[-112.44472222222223,39.00833333333333],[-112.44472222222223,39.00833333333333],[-112.59416666666667,38.985],[-112.59416666666667,38.985],[-112.59416666666667,38.985],[-112.59416666666667,38.985],[-113.19888888888889,38.88861111111111],[-113.19888888888889,38.88861111111111],[-113.19888888888889,38.88861111111111],[-113.19888888888889,38.88861111111111],[-114.91472222222222,38.59722222222222],[-114.91472222222222,38.59722222222222],[-114.91472222222222,38.59722222222222],[-115.03972222222222,38.57361111111111],[-115.07,38.56888888888889],[-115.07,38.56888888888889],[-115.22527777777778,38.54055555555556],[-115.34972222222221,38.5175],[-115.34972222222221,38.5175],[-115.3625,38.51555555555556],[-115.3625,38.51555555555556],[-115.95666666666666,38.40472222222222],[-115.95666666666666,38.40472222222222],[-116.42472222222223,38.3125],[-116.60944444444443,38.270833333333336],[-116.60944444444443,38.270833333333336],[-116.60944444444443,38.270833333333336],[-116.60944444444443,38.270833333333336],[-116.73166666666667,38.24305555555556],[-116.73166666666667,38.24305555555556],[-117.07694444444444,38.16416666666667],[-117.07694444444444,38.16416666666667],[-117.07694444444444,38.16416666666667],[-117.2063888888889,38.134166666666665],[-117.2063888888889,38.134166666666665],[-117.2063888888889,38.134166666666665],[-117.2063888888889,38.134166666666665],[-117.38027777777778,38.09388888888889],[-117.39583333333334,38.09027777777778],[-117.39583333333334,38.09027777777778],[-117.39583333333334,38.09027777777778],[-117.52222222222223,38.06111111111111],[-117.52222222222223,38.06111111111111],[-117.55722222222222,38.05277777777778],[-117.98416666666667,37.980555555555554],[-117.98416666666667,37.980555555555554],[-118.01777777777778,37.97694444444445],[-118.01777777777778,37.97694444444445],[-118.29388888888889,37.9475],[-118.29388888888889,37.9475],[-119.86722222222221,37.76583333333333],[-119.86722222222221,37.76583333333333],[-120.01916666666666,37.74722222222222],[-120.01916666666666,37.74722222222222],[-120.38333333333334,37.7],[-120.38333333333334,37.7],[-120.4825,37.68944444444444],[-120.68333333333334,37.666666666666664],[-120.68333333333334,37.666666666666664],[-121.08333333333333,37.61666666666667],[-121.08333333333333,37.61666666666667],[-121.72638888888889,37.52611111111111],[-122.05722222222222,37.50111111111111],[-122.05722222222222,37.50111111111111],[-122.05722222222222,37.50111111111111],[-122.08333333333333,37.5],[-122.08333333333333,37.5],[-122.08333333333333,37.5]],"type":"LineString"}
}
