{
  "id": 1981729225,
  "type": "Feature",
  "properties": {
    "geom:area": 0,
    "geom:bbox": "-122.266111,30.135278,-97.762222,37.680556",
    "geom:latitude": 33.998978581108126,
    "geom:longitude": -110.07604227598983,
    "src:alt_label": "swim-path",
    "src:geom": "swim",
    "swim:altitudes": [
      "059",
      "059",
      "059",
      "059",
      "117",
      "117",
      "117",
      "151",
      "151",
      "151",
      "177",
      "177",
      "177",
      "177",
      "291",
      "291",
      "291",
      "291",
      "291",
      "325",
      "325",
      "325",
      "340C",
      "340C",
      "340C",
      "340C",
      "340C",
      "340C",
      "340C",
      "340C",
      "340C",
      "340C",
      "340C",
      "340C",
      "340C",
      "340C",
      "340C",
      "340C",
      "340C",
      "340C",
      "340C",
      "340C",
      "340C",
      "340C",
      "340C",
      "340C",
      "340C",
      "340C",
      "340C",
      "340C",
      "340C",
      "340C",
      "340C",
      "340C",
      "340C",
      "340C",
      "340C",
      "340C",
      "340C",
      "340C",
      "340C",
      "340C",
      "340C",
      "340C",
      "340C",
      "340C",
      "340C",
      "340C",
      "340C",
      "340C",
      "340C",
      "340C",
      "340C",
      "340C",
      "340C",
      "340C",
      "340C",
      "340C",
      "340C",
      "340C",
      "340C",
      "340C",
      "340C",
      "340C",
      "340C",
      "340C",
      "340C",
      "340C",
      "340C",
      "340C",
      "340C",
      "340C",
      "340C",
      "340C",
      "340C",
      "340C",
      "340C",
      "340C",
      "340C",
      "340C",
      "340C",
      "340C",
      "340C",
      "340C",
      "340C",
      "340C",
      "340C",
      "340C",
      "340C",
      "340C",
      "340C",
      "340C",
      "340C",
      "340C",
      "340C",
      "340C",
      "340C",
      "340C",
      "340C",
      "340C",
      "340C",
      "340C",
      "340C",
      "340C",
      "340C",
      "340C",
      "340C",
      "340C",
      "340C",
      "340C",
      "340C",
      "340C",
      "340C",
      "340C",
      "340C",
      "340C",
      "340C",
      "340C",
      "340C",
      "340C",
      "340C",
      "340C",
      "340C",
      "340C",
      "340C",
      "340C",
      "340C",
      "340C",
      "340C",
      "340C",
      "340C",
      "340C",
      "340C",
      "340C",
      "340C",
      "340C",
      "340C",
      "340C",
      "340C",
      "340C",
      "340C",
      "340C",
      "340C",
      "340C",
      "340C",
      "340C",
      "340C",
      "340C",
      "340C",
      "340C",
      "340C",
      "340C",
      "340C",
      "340C",
      "340C",
      "340C",
      "340C",
      "340C",
      "340C",
      "340C",
      "340C",
      "340C",
      "340C",
      "340C",
      "340C",
      "340C",
      "340C",
      "340C",
      "340C",
      "340C",
      "340C",
      "340C",
      "340C",
      "340C",
      "340C",
      "340C",
      "340C",
      "340C",
      "340C",
      "340C",
      "340C",
      "340C",
      "340C",
      "340C",
      "340C",
      "340C",
      "340C",
      "340C",
      "340C",
      "340C",
      "340C",
      "340C",
      "340C",
      "340C",
      "340C",
      "340C",
      "340C",
      "340C",
      "340C",
      "340C",
      "340C",
      "340C",
      "340C",
      "340C",
      "340C",
      "340C",
      "340C",
      "340C",
      "250",
      "250",
      "250",
      "250",
      "250",
      "250",
      "204",
      "204",
      "204",
      "195",
      "157",
      "157",
      "157",
      "157",
      "157",
      "129",
      "129",
      "129",
      "129",
      "125",
      "125",
      "125",
      "097",
      "080",
      "080",
      "080",
      "080",
      "080",
      "080",
      "080",
      "080",
      "080",
      "061",
      "061",
      "061",
      "034",
      "034",
      "034",
      "034",
      "034",
      "023",
      "023",
      "023",
      "023",
      "016",
      "016",
      "016"
    ],
    "swim:geom": "path",
    "swim:speeds": [
      265,
      265,
      265,
      265,
      338,
      338,
      338,
      358,
      358,
      358,
      373,
      373,
      373,
      373,
      424,
      424,
      424,
      424,
      424,
      423,
      423,
      423,
      408,
      407,
      407,
      404,
      404,
      404,
      404,
      404,
      403,
      403,
      401,
      401,
      402,
      402,
      405,
      405,
      405,
      405,
      404,
      403,
      403,
      403,
      403,
      403,
      403,
      403,
      403,
      404,
      404,
      406,
      406,
      406,
      410,
      410,
      410,
      409,
      409,
      409,
      409,
      409,
      411,
      413,
      413,
      413,
      413,
      413,
      413,
      413,
      414,
      414,
      419,
      419,
      420,
      420,
      419,
      419,
      419,
      419,
      417,
      417,
      415,
      415,
      415,
      415,
      415,
      415,
      415,
      415,
      415,
      415,
      416,
      416,
      416,
      416,
      416,
      416,
      416,
      416,
      417,
      417,
      417,
      418,
      417,
      417,
      417,
      419,
      419,
      419,
      423,
      423,
      423,
      423,
      425,
      425,
      425,
      425,
      425,
      425,
      425,
      425,
      425,
      440,
      440,
      440,
      440,
      440,
      440,
      440,
      440,
      439,
      439,
      439,
      439,
      442,
      442,
      442,
      442,
      442,
      442,
      442,
      442,
      442,
      442,
      442,
      441,
      441,
      441,
      441,
      441,
      443,
      443,
      443,
      445,
      445,
      445,
      445,
      446,
      446,
      446,
      446,
      446,
      450,
      450,
      450,
      450,
      453,
      453,
      453,
      453,
      455,
      455,
      455,
      458,
      458,
      458,
      461,
      461,
      461,
      461,
      462,
      462,
      462,
      462,
      462,
      471,
      471,
      474,
      474,
      475,
      475,
      475,
      475,
      475,
      475,
      475,
      475,
      475,
      475,
      475,
      475,
      457,
      457,
      457,
      457,
      457,
      457,
      429,
      429,
      429,
      429,
      428,
      428,
      428,
      428,
      429,
      429,
      429,
      429,
      429,
      433,
      433,
      433,
      433,
      433,
      433,
      433,
      420,
      420,
      420,
      420,
      420,
      420,
      384,
      384,
      384,
      382,
      360,
      360,
      360,
      360,
      360,
      304,
      304,
      304,
      304,
      289,
      289,
      289,
      266,
      263,
      263,
      263,
      266,
      266,
      266,
      266,
      266,
      266,
      246,
      246,
      246,
      195,
      195,
      195,
      195,
      195,
      192,
      192,
      192,
      192,
      176,
      176,
      176
    ],
    "swim:timestamps": [
      1761044946,
      1761044946,
      1761044946,
      1761044946,
      1761045126,
      1761045126,
      1761045126,
      1761045247,
      1761045247,
      1761045247,
      1761045424,
      1761045424,
      1761045424,
      1761045424,
      1761045965,
      1761045965,
      1761045965,
      1761045965,
      1761045965,
      1761046145,
      1761046145,
      1761046145,
      1761046325,
      1761046572,
      1761046572,
      1761046686,
      1761046686,
      1761046686,
      1761046752,
      1761046752,
      1761046812,
      1761046812,
      1761046986,
      1761046992,
      1761047052,
      1761047052,
      1761047172,
      1761047172,
      1761047172,
      1761047226,
      1761047353,
      1761047407,
      1761047407,
      1761047407,
      1761047407,
      1761047467,
      1761047467,
      1761047467,
      1761047467,
      1761047593,
      1761047593,
      1761047713,
      1761047713,
      1761047713,
      1761048253,
      1761048253,
      1761048253,
      1761048313,
      1761048313,
      1761048313,
      1761048313,
      1761048313,
      1761048553,
      1761048733,
      1761048733,
      1761048733,
      1761048913,
      1761048913,
      1761048913,
      1761048913,
      1761049033,
      1761049033,
      1761049153,
      1761049153,
      1761049213,
      1761049273,
      1761049334,
      1761049334,
      1761049334,
      1761049334,
      1761049394,
      1761049394,
      1761049514,
      1761049514,
      1761049694,
      1761049694,
      1761049694,
      1761049754,
      1761049814,
      1761049814,
      1761049814,
      1761049814,
      1761049874,
      1761049874,
      1761049874,
      1761049874,
      1761049994,
      1761049994,
      1761049994,
      1761049994,
      1761050114,
      1761050114,
      1761050114,
      1761050234,
      1761050354,
      1761050354,
      1761050354,
      1761050474,
      1761050474,
      1761050474,
      1761050594,
      1761050594,
      1761050594,
      1761050594,
      1761050714,
      1761050714,
      1761050714,
      1761050714,
      1761050865,
      1761050865,
      1761050865,
      1761050865,
      1761050865,
      1761051706,
      1761051706,
      1761051706,
      1761051735,
      1761051766,
      1761051766,
      1761051766,
      1761051766,
      1761051855,
      1761051855,
      1761051855,
      1761051855,
      1761052186,
      1761052186,
      1761052186,
      1761052186,
      1761052186,
      1761052186,
      1761052216,
      1761052216,
      1761052216,
      1761052216,
      1761052307,
      1761052396,
      1761052396,
      1761052396,
      1761052396,
      1761052396,
      1761052727,
      1761052727,
      1761052727,
      1761052847,
      1761052847,
      1761052847,
      1761052847,
      1761052907,
      1761052907,
      1761052907,
      1761052907,
      1761052907,
      1761053328,
      1761053328,
      1761053328,
      1761053328,
      1761053448,
      1761053448,
      1761053448,
      1761053448,
      1761053568,
      1761053568,
      1761053568,
      1761053688,
      1761053688,
      1761053688,
      1761053787,
      1761053787,
      1761053787,
      1761053808,
      1761053928,
      1761053928,
      1761053928,
      1761053928,
      1761053928,
      1761053988,
      1761053988,
      1761054048,
      1761054048,
      1761054147,
      1761054207,
      1761054207,
      1761054207,
      1761054207,
      1761054229,
      1761054229,
      1761054229,
      1761054349,
      1761054349,
      1761054349,
      1761054349,
      1761054409,
      1761054409,
      1761054409,
      1761054409,
      1761054409,
      1761054409,
      1761054769,
      1761054769,
      1761054769,
      1761054769,
      1761054829,
      1761054829,
      1761054829,
      1761054829,
      1761054890,
      1761054890,
      1761054890,
      1761054890,
      1761054890,
      1761055168,
      1761055168,
      1761055168,
      1761055168,
      1761055168,
      1761055168,
      1761055168,
      1761055589,
      1761055589,
      1761055589,
      1761055589,
      1761055589,
      1761055589,
      1761055729,
      1761055729,
      1761055729,
      1761055769,
      1761055889,
      1761055889,
      1761055889,
      1761055889,
      1761055889,
      1761056009,
      1761056009,
      1761056009,
      1761056009,
      1761056029,
      1761056029,
      1761056029,
      1761056149,
      1761056209,
      1761056209,
      1761056209,
      1761056323,
      1761056323,
      1761056323,
      1761056323,
      1761056323,
      1761056323,
      1761056383,
      1761056383,
      1761056383,
      1761056497,
      1761056497,
      1761056497,
      1761056497,
      1761056497,
      1761056563,
      1761056563,
      1761056563,
      1761056563,
      1761056610,
      1761056610,
      1761056610
    ],
    "wof:geomhash": "16c6b119d79ddb244084ddd9b575f50f",
    "wof:id": 1981729225,
    "wof:repo": "sfomuseum-data-flights-2025-10"
  },
  "bbox": [
    -122.26611111111112,
    30.135277777777777,
    -97.76222222222222,
    37.68055555555555
  ],
  "geometry": {"coordinates":[[-97.76222222222222,30.135277777777777],[-97.76222222222222,30.135277777777777],[-97.76222222222222,30.135277777777777],[-97.76222222222222,30.135277777777777],[-98.02666666666667,30.22833333333333],[-98.02666666666667,30.22833333333333],[-98.02666666666667,30.22833333333333],[-98.24138888888889,30.298055555555557],[-98.24138888888889,30.298055555555557],[-98.24138888888889,30.298055555555557],[-98.57027777777778,30.362222222222222],[-98.57027777777778,30.362222222222222],[-98.57027777777778,30.362222222222222],[-98.57027777777778,30.362222222222222],[-99.72194444444445,30.580277777777777],[-99.72194444444445,30.580277777777777],[-99.72194444444445,30.580277777777777],[-99.72194444444445,30.580277777777777],[-99.72194444444445,30.580277777777777],[-100.12138888888889,30.66333333333333],[-100.12138888888889,30.66333333333333],[-100.12138888888889,30.66333333333333],[-100.50361111111111,30.744722222222222],[-101.02333333333333,30.852500000000003],[-101.02333333333333,30.852500000000003],[-101.2625,30.90111111111111],[-101.2625,30.90111111111111],[-101.2625,30.90111111111111],[-101.40916666666668,30.93111111111111],[-101.40916666666668,30.93111111111111],[-101.53666666666666,30.956666666666667],[-101.53666666666666,30.956666666666667],[-101.91333333333334,31.031944444444445],[-101.91583333333334,31.0325],[-102.05638888888889,31.060277777777777],[-102.05638888888889,31.060277777777777],[-102.31333333333333,31.110555555555557],[-102.31333333333333,31.110555555555557],[-102.31333333333333,31.110555555555557],[-102.40694444444445,31.128888888888888],[-102.68972222222223,31.183333333333334],[-102.79222222222222,31.202777777777776],[-102.79222222222222,31.202777777777776],[-102.79222222222222,31.202777777777776],[-102.79222222222222,31.202777777777776],[-102.91944444444445,31.22694444444444],[-102.91944444444445,31.22694444444444],[-102.91944444444445,31.22694444444444],[-102.91944444444445,31.22694444444444],[-103.20305555555557,31.280277777777776],[-103.20305555555557,31.280277777777776],[-103.46027777777778,31.328333333333333],[-103.46027777777778,31.328333333333333],[-103.46027777777778,31.328333333333333],[-104.62249999999999,31.537222222222223],[-104.62249999999999,31.537222222222223],[-104.62249999999999,31.537222222222223],[-104.75138888888888,31.559722222222224],[-104.75138888888888,31.559722222222224],[-104.75138888888888,31.559722222222224],[-104.75138888888888,31.559722222222224],[-104.75138888888888,31.559722222222224],[-105.27277777777778,31.648888888888887],[-105.68194444444445,31.717777777777776],[-105.68194444444445,31.717777777777776],[-105.68194444444445,31.717777777777776],[-106.07833333333333,31.783055555555556],[-106.07833333333333,31.783055555555556],[-106.07833333333333,31.783055555555556],[-106.07833333333333,31.783055555555556],[-106.31861111111111,31.8375],[-106.31861111111111,31.8375],[-106.56944444444444,31.981388888888887],[-106.56944444444444,31.981388888888887],[-106.6613888888889,32.034166666666664],[-106.775,32.098888888888894],[-106.88944444444445,32.16416666666667],[-106.88944444444445,32.16416666666667],[-106.88944444444445,32.16416666666667],[-106.88944444444445,32.16416666666667],[-107.02361111111111,32.24027777777778],[-107.02361111111111,32.24027777777778],[-107.24972222222222,32.36805555555556],[-107.24972222222222,32.36805555555556],[-107.57694444444444,32.551944444444445],[-107.57694444444444,32.551944444444445],[-107.57694444444444,32.551944444444445],[-107.69111111111111,32.61555555555556],[-107.80611111111111,32.67916666666667],[-107.80611111111111,32.67916666666667],[-107.80611111111111,32.67916666666667],[-107.80611111111111,32.67916666666667],[-107.92111111111112,32.74277777777778],[-107.92111111111112,32.74277777777778],[-107.92111111111112,32.74277777777778],[-107.92111111111112,32.74277777777778],[-108.15027777777779,32.86944444444445],[-108.15027777777779,32.86944444444445],[-108.15027777777779,32.86944444444445],[-108.15027777777779,32.86944444444445],[-108.38361111111112,32.99722222222222],[-108.38361111111112,32.99722222222222],[-108.38361111111112,32.99722222222222],[-108.61555555555555,33.12361111111111],[-108.8475,33.24916666666667],[-108.8475,33.24916666666667],[-108.8475,33.24916666666667],[-109.07249999999999,33.370555555555555],[-109.07249999999999,33.370555555555555],[-109.07249999999999,33.370555555555555],[-109.31388888888888,33.490833333333335],[-109.31388888888888,33.490833333333335],[-109.31388888888888,33.490833333333335],[-109.31388888888888,33.490833333333335],[-109.58166666666666,33.62138888888889],[-109.58166666666666,33.62138888888889],[-109.58166666666666,33.62138888888889],[-109.58166666666666,33.62138888888889],[-109.88166666666666,33.77305555555555],[-109.88166666666666,33.77305555555555],[-109.88166666666666,33.77305555555555],[-109.88166666666666,33.77305555555555],[-109.88166666666666,33.77305555555555],[-111.61666666666666,34.65833333333333],[-111.61666666666666,34.65833333333333],[-111.61666666666666,34.65833333333333],[-111.66666666666667,34.68472222222222],[-111.73444444444445,34.719722222222224],[-111.73444444444445,34.719722222222224],[-111.73444444444445,34.719722222222224],[-111.73444444444445,34.719722222222224],[-111.93416666666667,34.823888888888895],[-111.93416666666667,34.823888888888895],[-111.93416666666667,34.823888888888895],[-111.93416666666667,34.823888888888895],[-112.61694444444444,35.17388888888889],[-112.61694444444444,35.17388888888889],[-112.61694444444444,35.17388888888889],[-112.61694444444444,35.17388888888889],[-112.61694444444444,35.17388888888889],[-112.61694444444444,35.17388888888889],[-112.69472222222223,35.21333333333334],[-112.69472222222223,35.21333333333334],[-112.69472222222223,35.21333333333334],[-112.69472222222223,35.21333333333334],[-112.87416666666665,35.29666666666667],[-113.07388888888889,35.36888888888889],[-113.07388888888889,35.36888888888889],[-113.07388888888889,35.36888888888889],[-113.07388888888889,35.36888888888889],[-113.07388888888889,35.36888888888889],[-113.85499999999999,35.64694444444444],[-113.85499999999999,35.64694444444444],[-113.85499999999999,35.64694444444444],[-114.12805555555555,35.7425],[-114.12805555555555,35.7425],[-114.12805555555555,35.7425],[-114.12805555555555,35.7425],[-114.26972222222223,35.79194444444444],[-114.26972222222223,35.79194444444444],[-114.26972222222223,35.79194444444444],[-114.26972222222223,35.79194444444444],[-114.26972222222223,35.79194444444444],[-115.24638888888889,36.16277777777778],[-115.24638888888889,36.16277777777778],[-115.24638888888889,36.16277777777778],[-115.24638888888889,36.16277777777778],[-115.52166666666666,36.282222222222224],[-115.52166666666666,36.282222222222224],[-115.52166666666666,36.282222222222224],[-115.52166666666666,36.282222222222224],[-115.81055555555555,36.405833333333334],[-115.81055555555555,36.405833333333334],[-115.81055555555555,36.405833333333334],[-116.08583333333333,36.52305555555555],[-116.08583333333333,36.52305555555555],[-116.08583333333333,36.52305555555555],[-116.31305555555555,36.619166666666665],[-116.31305555555555,36.619166666666665],[-116.31305555555555,36.619166666666665],[-116.36972222222222,36.64277777777778],[-116.655,36.761944444444445],[-116.655,36.761944444444445],[-116.655,36.761944444444445],[-116.655,36.761944444444445],[-116.655,36.761944444444445],[-116.78694444444444,36.83638888888889],[-116.78694444444444,36.83638888888889],[-116.8963888888889,36.93527777777778],[-116.8963888888889,36.93527777777778],[-117.07305555555556,37.094722222222224],[-117.18305555555555,37.19361111111111],[-117.18305555555555,37.19361111111111],[-117.18305555555555,37.19361111111111],[-117.18305555555555,37.19361111111111],[-117.22722222222222,37.233333333333334],[-117.22722222222222,37.233333333333334],[-117.22722222222222,37.233333333333334],[-117.44888888888889,37.43083333333333],[-117.44888888888889,37.43083333333333],[-117.44888888888889,37.43083333333333],[-117.44888888888889,37.43083333333333],[-117.58583333333333,37.49888888888889],[-117.58583333333333,37.49888888888889],[-117.58583333333333,37.49888888888889],[-117.58583333333333,37.49888888888889],[-117.58583333333333,37.49888888888889],[-117.58583333333333,37.49888888888889],[-118.49638888888889,37.57138888888889],[-118.49638888888889,37.57138888888889],[-118.49638888888889,37.57138888888889],[-118.49638888888889,37.57138888888889],[-118.62694444444443,37.58111111111111],[-118.62694444444443,37.58111111111111],[-118.62694444444443,37.58111111111111],[-118.62694444444443,37.58111111111111],[-118.77722222222222,37.592222222222226],[-118.77722222222222,37.592222222222226],[-118.77722222222222,37.592222222222226],[-118.77722222222222,37.592222222222226],[-118.77722222222222,37.592222222222226],[-119.50305555555556,37.64277777777778],[-119.50305555555556,37.64277777777778],[-119.50305555555556,37.64277777777778],[-119.50305555555556,37.64277777777778],[-119.50305555555556,37.64277777777778],[-119.50305555555556,37.64277777777778],[-119.50305555555556,37.64277777777778],[-120.56611111111111,37.68055555555555],[-120.56611111111111,37.68055555555555],[-120.56611111111111,37.68055555555555],[-120.56611111111111,37.68055555555555],[-120.56611111111111,37.68055555555555],[-120.56611111111111,37.68055555555555],[-120.88333333333334,37.65],[-120.88333333333334,37.65],[-120.88333333333334,37.65],[-120.9525,37.634166666666665],[-121.22083333333333,37.598333333333336],[-121.22083333333333,37.598333333333336],[-121.22083333333333,37.598333333333336],[-121.22083333333333,37.598333333333336],[-121.22083333333333,37.598333333333336],[-121.44944444444445,37.57138888888889],[-121.44944444444445,37.57138888888889],[-121.44944444444445,37.57138888888889],[-121.44944444444445,37.57138888888889],[-121.48333333333333,37.56666666666667],[-121.48333333333333,37.56666666666667],[-121.48333333333333,37.56666666666667],[-121.66666666666667,37.53333333333333],[-121.76666666666667,37.516666666666666],[-121.76666666666667,37.516666666666666],[-121.76666666666667,37.516666666666666],[-121.93333333333334,37.5],[-121.93333333333334,37.5],[-121.93333333333334,37.5],[-121.93333333333334,37.5],[-121.93333333333334,37.5],[-121.93333333333334,37.5],[-122.01666666666667,37.5],[-122.01666666666667,37.5],[-122.01666666666667,37.5],[-122.15,37.55],[-122.15,37.55],[-122.15,37.55],[-122.15,37.55],[-122.15,37.55],[-122.21666666666667,37.56666666666667],[-122.21666666666667,37.56666666666667],[-122.21666666666667,37.56666666666667],[-122.21666666666667,37.56666666666667],[-122.26611111111112,37.58444444444444],[-122.26611111111112,37.58444444444444],[-122.26611111111112,37.58444444444444]],"type":"LineString"}
}
