{
  "id": 1981731389,
  "type": "Feature",
  "properties": {
    "date:inception_lower": "2025-10-21",
    "date:inception_upper": "2025-10-21",
    "edtf:cessation": "",
    "edtf:inception": "2025-10-21",
    "flysfo:actual_timestamp": -1,
    "flysfo:airline": "CM",
    "flysfo:base_airline": "",
    "flysfo:base_flight_number": "9250",
    "flysfo:date": "2025-10-21",
    "flysfo:estimated_timestamp": 1761056400,
    "flysfo:event": "D",
    "flysfo:flight_number": "CM1067",
    "flysfo:gate": "F17",
    "flysfo:journey": "SFO-LAX",
    "flysfo:scheduled_timestamp": 1761056700,
    "flysfo:timestamp": 1761056700,
    "geom:area": 0,
    "geom:bbox": "-122.370943,33.942593,-118.389510,37.617990",
    "geom:latitude": 35.780291500000004,
    "geom:longitude": -120.38022649999999,
    "iata:airline": "CM",
    "iata:base_airline": "",
    "icao:airline": "CMP",
    "icao:base_airline": "ANZ",
    "lbl:latitude": 37.620791,
    "lbl:longitude": -122.390014,
    "sfomuseum:airline_id": 1159284211,
    "sfomuseum:arrival_id": 102533795,
    "sfomuseum:base_flight_id": "20251021-D-ANZ-9250",
    "sfomuseum:departure_id": 102527513,
    "sfomuseum:flight_id": "20251021-D-CMP-1067",
    "sfomuseum:flight_number": [
      "CMP1067",
      "CM1067"
    ],
    "sfomuseum:placetype": "flight",
    "src:geom": "flysfo",
    "wof:belongsto": [
      1947304067,
      102527513,
      1947304451,
      102191575,
      85633793,
      102087579,
      85922583,
      554784711,
      85688637,
      1947304473,
      1947304447,
      102085387
    ],
    "wof:country": "US",
    "wof:created": 1761149574,
    "wof:geomhash": "602be2a828e3460cadf44be5b1c2e36b",
    "wof:hierarchy": [
      {
        "building_id": 1947304067,
        "campus_id": 102527513,
        "concourse_id": 1947304451,
        "continent_id": 102191575,
        "country_id": 85633793,
        "county_id": 102087579,
        "custom_id": 1981731389,
        "flight_id": 1981731389,
        "locality_id": 85922583,
        "postalcode_id": 554784711,
        "region_id": 85688637,
        "venue_id": 1947304473,
        "wing_id": 1947304447
      },
      {
        "building_id": 1947304067,
        "campus_id": 102527513,
        "concourse_id": 1947304451,
        "continent_id": 102191575,
        "country_id": 85633793,
        "county_id": 102085387,
        "custom_id": 1981731389,
        "flight_id": 1981731389,
        "region_id": 85688637,
        "venue_id": 1947304473,
        "wing_id": 1947304447
      }
    ],
    "wof:id": 1981731389,
    "wof:involves": [
      102533795,
      102527513,
      1159284211,
      1947304473,
      1159283697
    ],
    "wof:lastmodified": 1761149574,
    "wof:name": "CM1067 (SFO-LAX)",
    "wof:parent_id": 1947304473,
    "wof:placetype": "custom",
    "wof:placetype_alt": [
      "flight"
    ],
    "wof:repo": "sfomuseum-data-flights-2025-10",
    "wof:superseded_by": [],
    "wof:supersedes": []
  },
  "bbox": [
    -122.370943,
    33.942593,
    -118.38951,
    37.61799
  ],
  "geometry": {"coordinates":[[-122.370943,37.61799],[-118.38951,33.942593]],"type":"MultiPoint"}
}
