{
  "id": 1981796973,
  "type": "Feature",
  "properties": {
    "geom:area": 0,
    "geom:bbox": "-127.290278,37.540833,-122.077222,40.259167",
    "geom:latitude": 39.06538080493995,
    "geom:longitude": -124.44457659926344,
    "src:alt_label": "swim-path",
    "src:geom": "swim",
    "swim:altitudes": [
      "410C",
      "410C",
      "410C",
      "410C",
      "410C",
      "410C",
      "410C",
      "410C",
      "410C",
      "410C",
      "410C",
      "410",
      "410C",
      "410C",
      "410",
      "410",
      "410",
      "387",
      "387",
      "357",
      "347",
      "347",
      "347",
      "244",
      "244",
      "244",
      "244",
      "192",
      "177",
      "177",
      "177",
      "177",
      "060",
      "060",
      "060",
      "060",
      "060",
      "050",
      "050",
      "029",
      "020",
      "020",
      "020",
      "004",
      "004",
      "004",
      "004",
      "004"
    ],
    "swim:geom": "path",
    "swim:speeds": [
      534,
      534,
      534,
      534,
      535,
      535,
      537,
      537,
      537,
      537,
      519,
      520,
      517,
      517,
      516,
      516,
      516,
      495,
      495,
      479,
      508,
      508,
      508,
      442,
      442,
      442,
      442,
      396,
      351,
      351,
      351,
      351,
      209,
      209,
      209,
      209,
      209,
      204,
      204,
      198,
      196,
      196,
      196,
      136,
      136,
      136,
      136,
      136
    ],
    "swim:timestamps": [
      1761788259,
      1761788259,
      1761788259,
      1761788319,
      1761788379,
      1761788379,
      1761788679,
      1761788679,
      1761788679,
      1761788679,
      1761788859,
      1761788905,
      1761788980,
      1761788980,
      1761789160,
      1761789160,
      1761789160,
      1761789280,
      1761789280,
      1761789460,
      1761789520,
      1761789520,
      1761789520,
      1761789881,
      1761789881,
      1761789881,
      1761789881,
      1761790061,
      1761790116,
      1761790116,
      1761790116,
      1761790116,
      1761790655,
      1761790655,
      1761790655,
      1761790655,
      1761790655,
      1761790722,
      1761790722,
      1761790842,
      1761790902,
      1761790902,
      1761790902,
      1761791022,
      1761791022,
      1761791022,
      1761791022,
      1761791022
    ],
    "wof:geomhash": "2ffbc968667c2c418aa761f5eb31a6f2",
    "wof:id": 1981796973,
    "wof:repo": "sfomuseum-data-flights-2025-10"
  },
  "bbox": [
    -127.29027777777777,
    37.54083333333333,
    -122.07722222222222,
    40.259166666666665
  ],
  "geometry": {"coordinates":[[-127.29027777777777,40.259166666666665],[-127.29027777777777,40.259166666666665],[-127.29027777777777,40.259166666666665],[-127.11805555555554,40.195277777777775],[-126.94361111111111,40.13055555555555],[-126.94361111111111,40.13055555555555],[-126.01777777777778,39.816944444444445],[-126.01777777777778,39.816944444444445],[-126.01777777777778,39.816944444444445],[-126.01777777777778,39.816944444444445],[-125.50805555555556,39.638888888888886],[-125.38333333333334,39.583333333333336],[-125.17222222222223,39.51972222222222],[-125.17222222222223,39.51972222222222],[-124.67805555555556,39.341944444444444],[-124.67805555555556,39.341944444444444],[-124.67805555555556,39.341944444444444],[-124.35305555555556,39.223333333333336],[-124.35305555555556,39.223333333333336],[-123.88527777777779,39.050555555555555],[-123.73166666666667,38.986111111111114],[-123.73166666666667,38.986111111111114],[-123.73166666666667,38.986111111111114],[-123.02111111111111,38.42666666666666],[-123.02111111111111,38.42666666666666],[-123.02111111111111,38.42666666666666],[-123.02111111111111,38.42666666666666],[-122.75027777777778,38.163333333333334],[-122.71666666666667,38.06666666666667],[-122.71666666666667,38.06666666666667],[-122.71666666666667,38.06666666666667],[-122.71666666666667,38.06666666666667],[-122.11666666666666,37.61666666666667],[-122.11666666666666,37.61666666666667],[-122.11666666666666,37.61666666666667],[-122.11666666666666,37.61666666666667],[-122.11666666666666,37.61666666666667],[-122.07722222222222,37.57138888888889],[-122.07722222222222,37.57138888888889],[-122.18444444444445,37.54083333333333],[-122.24472222222222,37.566111111111105],[-122.24472222222222,37.566111111111105],[-122.24472222222222,37.566111111111105],[-122.34055555555555,37.60638888888889],[-122.34055555555555,37.60638888888889],[-122.34055555555555,37.60638888888889],[-122.34055555555555,37.60638888888889],[-122.34055555555555,37.60638888888889]],"type":"LineString"}
}
