{
  "id": 1981698371,
  "type": "Feature",
  "properties": {
    "geom:area": 0,
    "geom:bbox": "-122.459650,36.719730,-121.296870,37.700200",
    "geom:latitude": 37.198521674046525,
    "geom:longitude": -121.98017024741314,
    "src:alt_label": "swim-takeoff",
    "src:geom": "swim",
    "swim:elevations": [
      213,
      757,
      1103,
      1220,
      1593,
      1802,
      2291,
      2869,
      3125,
      3233,
      3486,
      3831,
      4331,
      4376,
      4534,
      4879,
      5006,
      5308,
      5690,
      5923,
      6241,
      6617,
      6653,
      6764,
      7051,
      7310,
      7543,
      7716,
      7930,
      8105,
      8311,
      8607,
      8753,
      8958,
      9189,
      9254,
      9461,
      9619
    ],
    "swim:geom": "takeoff",
    "swim:timestamps": [
      1760690831,
      1760690872,
      1760690900,
      1760690912,
      1760690949,
      1760690984,
      1760691023,
      1760691052,
      1760691069,
      1760691082,
      1760691112,
      1760691137,
      1760691172,
      1760691175,
      1760691188,
      1760691216,
      1760691225,
      1760691248,
      1760691288,
      1760691308,
      1760691348,
      1760691387,
      1760691391,
      1760691404,
      1760691446,
      1760691475,
      1760691500,
      1760691518,
      1760691540,
      1760691560,
      1760691591,
      1760691627,
      1760691649,
      1760691676,
      1760691706,
      1760691717,
      1760691735,
      1760691746
    ],
    "wof:geomhash": "523a487dee2c4dfff41149bed2e0916d",
    "wof:id": 1981698371,
    "wof:repo": "sfomuseum-data-flights-2025-10"
  },
  "bbox": [
    -122.45965,
    36.71973,
    -121.29687,
    37.7002
  ],
  "geometry": {"coordinates":[[-122.36908,37.62894],[-122.36319,37.65761],[-122.36237,37.67731],[-122.3627,37.68563],[-122.39163,37.7002],[-122.42014,37.67243],[-122.43371,37.61947],[-122.44573,37.57873],[-122.4532,37.55476],[-122.45921,37.53692],[-122.45965,37.48864],[-122.42908,37.45713],[-122.37295,37.42181],[-122.3682,37.41871],[-122.34781,37.40549],[-122.30079,37.37611],[-122.28569,37.36687],[-122.24651,37.34249],[-122.18099,37.29792],[-122.14707,37.27597],[-122.07714,37.23166],[-122.00724,37.1861],[-121.99888,37.18064],[-121.97624,37.16586],[-121.89596,37.11359],[-121.83941,37.07674],[-121.79173,37.04562],[-121.75599,37.0224],[-121.71272,36.99389],[-121.6731,36.96747],[-121.61139,36.92712],[-121.53775,36.88033],[-121.49454,36.85015],[-121.43984,36.81455],[-121.37852,36.77393],[-121.35471,36.75884],[-121.31968,36.73516],[-121.29687,36.71973]],"type":"LineString"}
}
