{
  "id": 1981637137,
  "type": "Feature",
  "properties": {
    "geom:area": 0,
    "geom:bbox": "-122.528170,37.626440,-121.283050,38.401940",
    "geom:latitude": 38.031019156103085,
    "geom:longitude": -121.98463796682026,
    "src:alt_label": "swim-takeoff",
    "src:geom": "swim",
    "swim:elevations": [
      122,
      678,
      858,
      1141,
      1428,
      1813,
      1991,
      2385,
      2803,
      2891,
      3111,
      3204,
      3356,
      3526,
      3901,
      4207,
      4494,
      4635,
      4765,
      4969,
      5146,
      5397,
      5667,
      5945,
      6028,
      6109,
      6352,
      6560,
      6760,
      6885
    ],
    "swim:geom": "takeoff",
    "swim:timestamps": [
      1760086068,
      1760086108,
      1760086122,
      1760086154,
      1760086191,
      1760086226,
      1760086239,
      1760086275,
      1760086310,
      1760086323,
      1760086352,
      1760086380,
      1760086401,
      1760086426,
      1760086466,
      1760086492,
      1760086525,
      1760086544,
      1760086558,
      1760086582,
      1760086604,
      1760086634,
      1760086667,
      1760086702,
      1760086713,
      1760086724,
      1760086757,
      1760086789,
      1760086814,
      1760086834
    ],
    "wof:geomhash": "1d1361012ea7c3ecbe0cafc14d938f50",
    "wof:id": 1981637137,
    "wof:repo": "sfomuseum-data-flights-2025-10"
  },
  "bbox": [
    -122.52817,
    37.62644,
    -121.28305,
    38.40194
  ],
  "geometry": {"coordinates":[[-122.39342,37.62644],[-122.43273,37.64313],[-122.4476,37.64948],[-122.47921,37.66322],[-122.5204,37.68576],[-122.52817,37.72878],[-122.52748,37.74572],[-122.50673,37.78975],[-122.45414,37.81726],[-122.43456,37.82694],[-122.38597,37.85098],[-122.33555,37.87572],[-122.29375,37.89622],[-122.2437,37.92122],[-122.15887,37.96316],[-122.1029,37.99054],[-122.03028,38.02616],[-121.98674,38.04755],[-121.95582,38.06289],[-121.90002,38.0904],[-121.84868,38.11552],[-121.77622,38.15067],[-121.6965,38.1891],[-121.61119,38.23005],[-121.58447,38.24285],[-121.55632,38.25635],[-121.47237,38.29658],[-121.39231,38.33705],[-121.33259,38.37171],[-121.28305,38.40194]],"type":"LineString"}
}
