{
  "id": 1981778603,
  "type": "Feature",
  "properties": {
    "geom:area": 0,
    "geom:bbox": "-122.167500,35.884444,-115.319444,37.693611",
    "geom:latitude": 37.18796723893694,
    "geom:longitude": -118.55581635568697,
    "src:alt_label": "swim-path",
    "src:geom": "swim",
    "swim:altitudes": [
      "084",
      "084",
      "084",
      "084",
      "084",
      "084",
      "084",
      "084",
      "084",
      "130",
      "130",
      "130",
      "130",
      "130",
      "206",
      "206",
      "206",
      "206",
      "206",
      "340C",
      "340C",
      "340C",
      "340C",
      "340C",
      "340C",
      "340C",
      "340C",
      "340C",
      "340C",
      "340C",
      "340C",
      "340C",
      "340C",
      "340C",
      "340C",
      "340C",
      "340C",
      "340C",
      "340C",
      "340C",
      "340C",
      "340C",
      "340C",
      "340C",
      "340C",
      "340C",
      "340C",
      "340C",
      "340C",
      "340C",
      "340C",
      "340C",
      "340C",
      "340C",
      "300C",
      "300C",
      "300C",
      "300C",
      "300",
      "300",
      "300",
      "300",
      "300",
      "300",
      "282",
      "282",
      "198",
      "198",
      "198",
      "198",
      "136",
      "136",
      "136",
      "136",
      "115",
      "115",
      "115",
      "090",
      "090",
      "090",
      "090",
      "090",
      "033",
      "033",
      "033",
      "033",
      "033",
      "033",
      "033",
      "033",
      "033",
      "033",
      "033"
    ],
    "swim:geom": "path",
    "swim:speeds": [
      296,
      296,
      296,
      296,
      296,
      296,
      296,
      296,
      296,
      338,
      338,
      338,
      338,
      338,
      343,
      343,
      343,
      343,
      343,
      393,
      393,
      393,
      393,
      394,
      394,
      394,
      394,
      394,
      397,
      397,
      397,
      397,
      400,
      400,
      400,
      400,
      402,
      402,
      402,
      402,
      402,
      402,
      401,
      401,
      401,
      401,
      401,
      401,
      401,
      399,
      399,
      399,
      399,
      399,
      394,
      394,
      394,
      394,
      375,
      375,
      375,
      375,
      375,
      375,
      371,
      371,
      334,
      334,
      334,
      334,
      331,
      331,
      331,
      331,
      330,
      330,
      330,
      233,
      233,
      233,
      233,
      233,
      191,
      191,
      191,
      191,
      191,
      191,
      191,
      191,
      191,
      191,
      191
    ],
    "swim:timestamps": [
      1761574943,
      1761574943,
      1761574943,
      1761574943,
      1761574943,
      1761574943,
      1761574943,
      1761574943,
      1761574943,
      1761575063,
      1761575063,
      1761575063,
      1761575063,
      1761575063,
      1761575243,
      1761575243,
      1761575243,
      1761575243,
      1761575243,
      1761576565,
      1761576565,
      1761576565,
      1761576565,
      1761576616,
      1761576616,
      1761576616,
      1761576616,
      1761576616,
      1761576746,
      1761576746,
      1761576746,
      1761576746,
      1761576796,
      1761576806,
      1761576806,
      1761576806,
      1761576856,
      1761576916,
      1761576916,
      1761576916,
      1761576916,
      1761576916,
      1761576986,
      1761576986,
      1761576986,
      1761576986,
      1761576986,
      1761576986,
      1761576986,
      1761577036,
      1761577036,
      1761577036,
      1761577036,
      1761577036,
      1761577457,
      1761577457,
      1761577457,
      1761577457,
      1761577697,
      1761577697,
      1761577697,
      1761577697,
      1761577697,
      1761577697,
      1761577817,
      1761577817,
      1761578051,
      1761578051,
      1761578051,
      1761578051,
      1761578231,
      1761578231,
      1761578231,
      1761578231,
      1761578297,
      1761578297,
      1761578297,
      1761578478,
      1761578478,
      1761578478,
      1761578478,
      1761578478,
      1761578778,
      1761578778,
      1761578778,
      1761578778,
      1761578778,
      1761578778,
      1761578778,
      1761578778,
      1761578778,
      1761578778,
      1761578778
    ],
    "wof:geomhash": "fd548098044ede5b8811b75de4a61a25",
    "wof:id": 1981778603,
    "wof:repo": "sfomuseum-data-flights-2025-10"
  },
  "bbox": [
    -122.1675,
    35.88444444444444,
    -115.31944444444444,
    37.69361111111111
  ],
  "geometry": {"coordinates":[[-115.31944444444444,36.047777777777775],[-115.31944444444444,36.047777777777775],[-115.31944444444444,36.047777777777775],[-115.31944444444444,36.047777777777775],[-115.31944444444444,36.047777777777775],[-115.31944444444444,36.047777777777775],[-115.31944444444444,36.047777777777775],[-115.31944444444444,36.047777777777775],[-115.31944444444444,36.047777777777775],[-115.41194444444444,35.88444444444444],[-115.41194444444444,35.88444444444444],[-115.41194444444444,35.88444444444444],[-115.41194444444444,35.88444444444444],[-115.41194444444444,35.88444444444444],[-115.73805555555556,35.92222222222222],[-115.73805555555556,35.92222222222222],[-115.73805555555556,35.92222222222222],[-115.73805555555556,35.92222222222222],[-115.73805555555556,35.92222222222222],[-117.72833333333334,37.51138888888889],[-117.72833333333334,37.51138888888889],[-117.72833333333334,37.51138888888889],[-117.72833333333334,37.51138888888889],[-117.83916666666666,37.52027777777778],[-117.83916666666666,37.52027777777778],[-117.83916666666666,37.52027777777778],[-117.83916666666666,37.52027777777778],[-117.83916666666666,37.52027777777778],[-118.14361111111111,37.544444444444444],[-118.14361111111111,37.544444444444444],[-118.14361111111111,37.544444444444444],[-118.14361111111111,37.544444444444444],[-118.25777777777778,37.55361111111111],[-118.27444444444444,37.55472222222222],[-118.27444444444444,37.55472222222222],[-118.27444444444444,37.55472222222222],[-118.39833333333334,37.564166666666665],[-118.53972222222222,37.57472222222223],[-118.53972222222222,37.57472222222223],[-118.53972222222222,37.57472222222223],[-118.53972222222222,37.57472222222223],[-118.53972222222222,37.57472222222223],[-118.7075,37.58722222222222],[-118.7075,37.58722222222222],[-118.7075,37.58722222222222],[-118.7075,37.58722222222222],[-118.7075,37.58722222222222],[-118.7075,37.58722222222222],[-118.7075,37.58722222222222],[-118.81722222222221,37.59527777777778],[-118.81722222222221,37.59527777777778],[-118.81722222222221,37.59527777777778],[-118.81722222222221,37.59527777777778],[-118.81722222222221,37.59527777777778],[-119.7786111111111,37.66083333333333],[-119.7786111111111,37.66083333333333],[-119.7786111111111,37.66083333333333],[-119.7786111111111,37.66083333333333],[-120.3111111111111,37.69361111111111],[-120.3111111111111,37.69361111111111],[-120.3111111111111,37.69361111111111],[-120.3111111111111,37.69361111111111],[-120.3111111111111,37.69361111111111],[-120.3111111111111,37.69361111111111],[-120.57249999999999,37.67972222222222],[-120.57249999999999,37.67972222222222],[-121.05,37.61666666666667],[-121.05,37.61666666666667],[-121.05,37.61666666666667],[-121.05,37.61666666666667],[-121.4,37.583333333333336],[-121.4,37.583333333333336],[-121.4,37.583333333333336],[-121.4,37.583333333333336],[-121.51611111111112,37.56361111111111],[-121.51611111111112,37.56361111111111],[-121.51611111111112,37.56361111111111],[-121.79555555555555,37.51],[-121.79555555555555,37.51],[-121.79555555555555,37.51],[-121.79555555555555,37.51],[-121.79555555555555,37.51],[-122.1675,37.53361111111111],[-122.1675,37.53361111111111],[-122.1675,37.53361111111111],[-122.1675,37.53361111111111],[-122.1675,37.53361111111111],[-122.1675,37.53361111111111],[-122.1675,37.53361111111111],[-122.1675,37.53361111111111],[-122.1675,37.53361111111111],[-122.1675,37.53361111111111],[-122.1675,37.53361111111111]],"type":"LineString"}
}
