{
  "id": 1981762345,
  "type": "Feature",
  "properties": {
    "geom:area": 0,
    "geom:bbox": "-122.266667,37.500000,-93.657500,49.846389",
    "geom:latitude": 42.39759620457915,
    "geom:longitude": -107.46047625750965,
    "src:alt_label": "swim-path",
    "src:geom": "swim",
    "swim:altitudes": [
      "360C",
      "360C",
      "360C",
      "360C",
      "360C",
      "360C",
      "360C",
      "360C",
      "360C",
      "360C",
      "360C",
      "360C",
      "360C",
      "360C",
      "360C",
      "360C",
      "360C",
      "360C",
      "360C",
      "360C",
      "360C",
      "360C",
      "360C",
      "360C",
      "360C",
      "360C",
      "360C",
      "360C",
      "360C",
      "360C",
      "360C",
      "360C",
      "360C",
      "360C",
      "360C",
      "360C",
      "360C",
      "360C",
      "360C",
      "360C",
      "360C",
      "360C",
      "360C",
      "360C",
      "360C",
      "360C",
      "360C",
      "360C",
      "360C",
      "360C",
      "360C",
      "360C",
      "360C",
      "360C",
      "360C",
      "360C",
      "360C",
      "360C",
      "360C",
      "360C",
      "360C",
      "360C",
      "360C",
      "360C",
      "360C",
      "360C",
      "360C",
      "360C",
      "360C",
      "360C",
      "360C",
      "360C",
      "360C",
      "360C",
      "360C",
      "360C",
      "360C",
      "360C",
      "360C",
      "360C",
      "360C",
      "360C",
      "360C",
      "360C",
      "360C",
      "360C",
      "360C",
      "360C",
      "360C",
      "360C",
      "360C",
      "360C",
      "360C",
      "360C",
      "360C",
      "360C",
      "360C",
      "360C",
      "360C",
      "360C",
      "360C",
      "360C",
      "360C",
      "360C",
      "360C",
      "360C",
      "360C",
      "360C",
      "360C",
      "360C",
      "360C",
      "360C",
      "360C",
      "360C",
      "360C",
      "360C",
      "360C",
      "360C",
      "360C",
      "360C",
      "360C",
      "360C",
      "360C",
      "360C",
      "360C",
      "360C",
      "360C",
      "360C",
      "360C",
      "360C",
      "360C",
      "360C",
      "360C",
      "360C",
      "341C",
      "340C",
      "340C",
      "340C",
      "340C",
      "340C",
      "340C",
      "340C",
      "340C",
      "340C",
      "300",
      "300",
      "300",
      "201",
      "201",
      "184",
      "161",
      "161",
      "161",
      "161",
      "092",
      "092",
      "077",
      "075",
      "058",
      "058",
      "058",
      "053",
      "016",
      "016",
      "016"
    ],
    "swim:geom": "path",
    "swim:speeds": [
      518,
      518,
      518,
      518,
      519,
      519,
      519,
      507,
      507,
      507,
      507,
      500,
      500,
      500,
      500,
      488,
      488,
      488,
      488,
      488,
      488,
      488,
      488,
      488,
      488,
      488,
      488,
      488,
      488,
      487,
      487,
      487,
      487,
      484,
      484,
      482,
      479,
      477,
      477,
      477,
      481,
      477,
      477,
      477,
      477,
      475,
      478,
      478,
      479,
      479,
      479,
      479,
      480,
      480,
      479,
      479,
      479,
      479,
      479,
      474,
      473,
      474,
      474,
      470,
      470,
      470,
      470,
      470,
      470,
      467,
      467,
      466,
      465,
      465,
      464,
      464,
      464,
      464,
      459,
      459,
      458,
      458,
      458,
      457,
      455,
      455,
      455,
      453,
      453,
      453,
      452,
      452,
      450,
      446,
      446,
      444,
      444,
      444,
      440,
      440,
      440,
      440,
      433,
      433,
      433,
      433,
      433,
      435,
      435,
      435,
      434,
      434,
      437,
      439,
      439,
      439,
      439,
      439,
      432,
      432,
      432,
      431,
      429,
      429,
      427,
      427,
      427,
      427,
      427,
      427,
      424,
      424,
      424,
      424,
      426,
      431,
      431,
      420,
      416,
      416,
      417,
      417,
      417,
      417,
      381,
      381,
      381,
      334,
      334,
      324,
      322,
      322,
      322,
      322,
      221,
      221,
      213,
      216,
      210,
      210,
      210,
      211,
      166,
      166,
      166
    ],
    "swim:timestamps": [
      1761411740,
      1761411740,
      1761411800,
      1761411800,
      1761411860,
      1761411860,
      1761411860,
      1761412521,
      1761412521,
      1761412521,
      1761412521,
      1761412762,
      1761412762,
      1761412762,
      1761412762,
      1761413423,
      1761413423,
      1761413423,
      1761413423,
      1761413663,
      1761413663,
      1761413723,
      1761413723,
      1761413723,
      1761413723,
      1761413783,
      1761413783,
      1761413963,
      1761413963,
      1761414143,
      1761414143,
      1761414143,
      1761414143,
      1761414384,
      1761414384,
      1761414504,
      1761414624,
      1761414744,
      1761414744,
      1761414744,
      1761414814,
      1761414874,
      1761414874,
      1761415105,
      1761415105,
      1761415115,
      1761415225,
      1761415225,
      1761415525,
      1761415525,
      1761415525,
      1761415525,
      1761415769,
      1761416070,
      1761416196,
      1761416250,
      1761416250,
      1761416250,
      1761416257,
      1761416550,
      1761416610,
      1761416677,
      1761416677,
      1761416911,
      1761416911,
      1761416911,
      1761416978,
      1761416978,
      1761416978,
      1761417338,
      1761417338,
      1761417451,
      1761417512,
      1761417572,
      1761417639,
      1761417639,
      1761417639,
      1761417639,
      1761417879,
      1761417992,
      1761418119,
      1761418119,
      1761418119,
      1761418179,
      1761418353,
      1761418353,
      1761418353,
      1761418480,
      1761418480,
      1761418480,
      1761418660,
      1761418660,
      1761418780,
      1761418961,
      1761418961,
      1761419081,
      1761419081,
      1761419081,
      1761419321,
      1761419321,
      1761419321,
      1761419321,
      1761419802,
      1761419802,
      1761419802,
      1761419802,
      1761419802,
      1761419982,
      1761419982,
      1761419982,
      1761420102,
      1761420102,
      1761420283,
      1761420343,
      1761420343,
      1761420343,
      1761420343,
      1761420343,
      1761420643,
      1761420643,
      1761420643,
      1761420668,
      1761420763,
      1761420763,
      1761421149,
      1761421149,
      1761421184,
      1761421184,
      1761421184,
      1761421509,
      1761421545,
      1761421545,
      1761421545,
      1761421545,
      1761421750,
      1761421842,
      1761421842,
      1761421962,
      1761422110,
      1761422110,
      1761422170,
      1761422170,
      1761422170,
      1761422170,
      1761422711,
      1761422711,
      1761422711,
      1761423110,
      1761423110,
      1761423169,
      1761423251,
      1761423251,
      1761423251,
      1761423251,
      1761423590,
      1761423590,
      1761423650,
      1761423672,
      1761423830,
      1761423830,
      1761423830,
      1761423852,
      1761424070,
      1761424070,
      1761424070
    ],
    "wof:geomhash": "8f69bfc1218a572387e6e2d150694ea7",
    "wof:id": 1981762345,
    "wof:repo": "sfomuseum-data-flights-2025-10"
  },
  "bbox": [
    -122.26666666666667,
    37.5,
    -93.6575,
    49.84638888888889
  ],
  "geometry": {"coordinates":[[-93.6575,49.84638888888889],[-93.6575,49.84638888888889],[-93.78583333333333,49.72527777777778],[-93.78583333333333,49.72527777777778],[-93.90861111111111,49.60888888888889],[-93.90861111111111,49.60888888888889],[-93.90861111111111,49.60888888888889],[-95.61277777777777,48.51777777777777],[-95.61277777777777,48.51777777777777],[-95.61277777777777,48.51777777777777],[-95.61277777777777,48.51777777777777],[-96.21638888888889,48.132222222222225],[-96.21638888888889,48.132222222222225],[-96.21638888888889,48.132222222222225],[-96.21638888888889,48.132222222222225],[-97.80166666666666,47.075833333333335],[-97.80166666666666,47.075833333333335],[-97.80166666666666,47.075833333333335],[-97.80166666666666,47.075833333333335],[-98.33361111111111,46.70638888888889],[-98.33361111111111,46.70638888888889],[-98.4713888888889,46.609722222222224],[-98.4713888888889,46.609722222222224],[-98.4713888888889,46.609722222222224],[-98.4713888888889,46.609722222222224],[-98.60777777777777,46.513333333333335],[-98.60777777777777,46.513333333333335],[-99.01861111111111,46.22],[-99.01861111111111,46.22],[-99.43194444444445,45.919999999999995],[-99.43194444444445,45.919999999999995],[-99.43194444444445,45.919999999999995],[-99.43194444444445,45.919999999999995],[-99.95944444444444,45.53055555555555],[-99.95944444444444,45.53055555555555],[-100.26055555555556,45.37444444444444],[-100.56777777777778,45.225],[-100.8736111111111,45.074444444444445],[-100.8736111111111,45.074444444444445],[-100.8736111111111,45.074444444444445],[-101.07111111111111,44.975],[-101.22361111111111,44.9],[-101.22361111111111,44.9],[-101.81361111111111,44.60166666666667],[-101.81361111111111,44.60166666666667],[-101.81972222222223,44.59861111111111],[-102.11388888888888,44.4475],[-102.11388888888888,44.4475],[-102.86138888888888,44.05638888888888],[-102.86138888888888,44.05638888888888],[-102.86138888888888,44.05638888888888],[-102.86138888888888,44.05638888888888],[-103.47972222222222,43.755],[-104.24138888888889,43.386944444444445],[-104.53999999999999,43.23916666666667],[-104.69194444444445,43.164722222222224],[-104.69194444444445,43.164722222222224],[-104.69194444444445,43.164722222222224],[-104.68916666666667,43.16555555555556],[-105.43,42.79333333333333],[-105.57472222222222,42.719166666666666],[-105.74916666666667,42.62972222222222],[-105.74916666666667,42.62972222222222],[-106.30444444444444,42.352222222222224],[-106.30444444444444,42.352222222222224],[-106.30444444444444,42.352222222222224],[-106.48083333333334,42.26583333333333],[-106.48083333333334,42.26583333333333],[-106.48083333333334,42.26583333333333],[-107.33888888888889,41.838055555555556],[-107.33888888888889,41.838055555555556],[-107.62583333333333,41.69194444444444],[-107.76833333333333,41.619166666666665],[-107.90861111111111,41.54694444444444],[-108.05305555555556,41.47361111111111],[-108.05305555555556,41.47361111111111],[-108.05305555555556,41.47361111111111],[-108.05305555555556,41.47361111111111],[-108.6236111111111,41.19499999999999],[-108.90805555555556,41.053888888888885],[-109.1913888888889,40.911944444444444],[-109.1913888888889,40.911944444444444],[-109.1913888888889,40.911944444444444],[-109.33027777777778,40.841944444444444],[-109.73361111111112,40.636944444444445],[-109.73361111111112,40.636944444444445],[-109.73361111111112,40.636944444444445],[-110.00805555555556,40.49861111111111],[-110.00805555555556,40.49861111111111],[-110.00805555555556,40.49861111111111],[-110.45527777777778,40.339444444444446],[-110.45527777777778,40.339444444444446],[-110.74861111111112,40.23444444444444],[-111.205,40.06944444444445],[-111.205,40.06944444444445],[-111.50583333333333,39.95916666666667],[-111.50583333333333,39.95916666666667],[-111.50583333333333,39.95916666666667],[-112.07055555555556,39.74888888888889],[-112.07055555555556,39.74888888888889],[-112.07055555555556,39.74888888888889],[-112.07055555555556,39.74888888888889],[-113.19250000000001,39.31916666666667],[-113.19250000000001,39.31916666666667],[-113.19250000000001,39.31916666666667],[-113.19250000000001,39.31916666666667],[-113.19250000000001,39.31916666666667],[-113.60833333333333,39.155833333333334],[-113.60833333333333,39.155833333333334],[-113.60833333333333,39.155833333333334],[-113.88388888888889,39.04666666666667],[-113.88388888888889,39.04666666666667],[-114.30972222222222,38.921388888888885],[-114.47083333333333,38.88027777777778],[-114.47083333333333,38.88027777777778],[-114.47083333333333,38.88027777777778],[-114.47083333333333,38.88027777777778],[-114.47083333333333,38.88027777777778],[-115.20055555555555,38.69],[-115.20055555555555,38.69],[-115.20055555555555,38.69],[-115.25777777777778,38.67444444444444],[-115.47083333333333,38.61805555555556],[-115.47083333333333,38.61805555555556],[-116.41222222222223,38.361666666666665],[-116.41222222222223,38.361666666666665],[-116.46861111111112,38.34583333333334],[-116.46861111111112,38.34583333333334],[-116.46861111111112,38.34583333333334],[-117.25194444444445,38.12555555555556],[-117.33888888888889,38.109722222222224],[-117.33888888888889,38.109722222222224],[-117.33888888888889,38.109722222222224],[-117.33888888888889,38.109722222222224],[-117.83583333333333,38.03722222222222],[-118.07527777777777,38.001666666666665],[-118.07527777777777,38.001666666666665],[-118.36555555555555,37.9575],[-118.71222222222222,37.903888888888886],[-118.71222222222222,37.903888888888886],[-118.85666666666665,37.885],[-118.85666666666665,37.885],[-118.85666666666665,37.885],[-118.85666666666665,37.885],[-120.095,37.73777777777778],[-120.095,37.73777777777778],[-120.095,37.73777777777778],[-120.93333333333334,37.63333333333333],[-120.93333333333334,37.63333333333333],[-121.03333333333333,37.61666666666667],[-121.18666666666667,37.60277777777778],[-121.18666666666667,37.60277777777778],[-121.18666666666667,37.60277777777778],[-121.18666666666667,37.60277777777778],[-121.71666666666667,37.53333333333333],[-121.71666666666667,37.53333333333333],[-121.78333333333333,37.516666666666666],[-121.80611111111111,37.507222222222225],[-122,37.5],[-122,37.5],[-122,37.5],[-122.02361111111111,37.50277777777778],[-122.26666666666667,37.56666666666667],[-122.26666666666667,37.56666666666667],[-122.26666666666667,37.56666666666667]],"type":"LineString"}
}
