{
  "id": 1997546791,
  "type": "Feature",
  "properties": {
    "geom:area": 0,
    "geom:bbox": "-122.366830,37.627500,-122.128060,37.762870",
    "geom:latitude": 37.69829635407298,
    "geom:longitude": -122.24947395988282,
    "src:alt_label": "swim-takeoff",
    "src:geom": "swim",
    "swim:elevations": [
      122,
      183,
      1100,
      1445,
      1971,
      2309,
      2713
    ],
    "swim:geom": "takeoff",
    "swim:timestamps": [
      1761924747,
      1761924753,
      1761924832,
      1761924876,
      1761924914,
      1761924938,
      1761924965
    ],
    "wof:geomhash": "e24e609f59f5a75cf4f2d6620ee61226",
    "wof:id": 1997546791,
    "wof:repo": "sfomuseum-data-flights-2025-10"
  },
  "bbox": [
    -122.36683,
    37.6275,
    -122.12806,
    37.76287
  ],
  "geometry": {"coordinates":[[-122.36683,37.6275],[-122.36367,37.63178],[-122.29798,37.67346],[-122.24829,37.70113],[-122.19767,37.72684],[-122.16477,37.74401],[-122.12806,37.76287]],"type":"LineString"}
}
