{
  "id": 1981623381,
  "type": "Feature",
  "properties": {
    "geom:area": 0,
    "geom:bbox": "-122.359900,36.723530,-121.879850,37.612410",
    "geom:latitude": 37.21252318056429,
    "geom:longitude": -122.07055878082153,
    "src:alt_label": "swim-approach",
    "src:geom": "swim",
    "swim:elevations": [
      5196,
      4958,
      4793,
      4753,
      4729,
      4427,
      4255,
      4139,
      3846,
      3695,
      3575,
      3425,
      3322,
      2819,
      2533,
      2463,
      2438,
      2335,
      2141,
      1955,
      1742,
      1675,
      1517,
      1453,
      1310,
      972,
      844,
      684,
      611,
      408,
      180,
      149,
      63
    ],
    "swim:geom": "approach",
    "swim:timestamps": [
      1760045828,
      1760045859,
      1760045878,
      1760045884,
      1760045887,
      1760045928,
      1760045955,
      1760045979,
      1760046028,
      1760046049,
      1760046062,
      1760046084,
      1760046096,
      1760046148,
      1760046176,
      1760046187,
      1760046234,
      1760046256,
      1760046279,
      1760046305,
      1760046342,
      1760046364,
      1760046411,
      1760046420,
      1760046442,
      1760046477,
      1760046499,
      1760046523,
      1760046551,
      1760046583,
      1760046626,
      1760046643,
      1760046686
    ],
    "wof:geomhash": "61c72720bc8a00f77671c46691642bf8",
    "wof:id": 1981623381,
    "wof:repo": "sfomuseum-data-flights-2025-10"
  },
  "bbox": [
    -122.3599,
    36.72353,
    -121.87985,
    37.61241
  ],
  "geometry": {"coordinates":[[-121.87985,36.72353],[-121.90179,36.76868],[-121.90976,36.79797],[-121.91241,36.80733],[-121.91375,36.81205],[-121.93143,36.87492],[-121.94242,36.91557],[-121.95203,36.94995],[-121.97626,37.01253],[-121.98656,37.03759],[-121.99321,37.05444],[-122.00354,37.08107],[-122.00934,37.09597],[-122.03469,37.16034],[-122.04926,37.19772],[-122.05516,37.21294],[-122.07997,37.27663],[-122.09123,37.30533],[-122.10353,37.33617],[-122.11692,37.37058],[-122.13293,37.417],[-122.14161,37.44255],[-122.15941,37.49381],[-122.16248,37.50248],[-122.16951,37.52257],[-122.19692,37.54429],[-122.21805,37.5527],[-122.24007,37.56201],[-122.26355,37.57188],[-122.28823,37.58242],[-122.31988,37.59562],[-122.33073,37.60007],[-122.3599,37.61241]],"type":"LineString"}
}
