{
  "id": 1981771055,
  "type": "Feature",
  "properties": {
    "geom:area": 0,
    "geom:bbox": "-122.269722,37.474722,-70.899444,43.721667",
    "geom:latitude": 41.13135137413523,
    "geom:longitude": -96.4887977427882,
    "src:alt_label": "swim-path",
    "src:geom": "swim",
    "swim:altitudes": [
      "005",
      "005",
      "005",
      "005",
      "005",
      "042",
      "042",
      "042",
      "042",
      "233",
      "233",
      "233",
      "233",
      "233",
      "233",
      "233",
      "233",
      "233",
      "233",
      "266",
      "266",
      "266",
      "266",
      "266",
      "266",
      "294",
      "294",
      "294",
      "294",
      "294",
      "294",
      "313",
      "313",
      "313",
      "313",
      "313",
      "313",
      "313",
      "313",
      "313",
      "320C",
      "320C",
      "320C",
      "320C",
      "320C",
      "320C",
      "320C",
      "320C",
      "320C",
      "320C",
      "320C",
      "320C",
      "320C",
      "320C",
      "320C",
      "320C",
      "320C",
      "320C",
      "320C",
      "320C",
      "320C",
      "320C",
      "320C",
      "320C",
      "320C",
      "320C",
      "320C",
      "320C",
      "320C",
      "321C",
      "321C",
      "321C",
      "321C",
      "321C",
      "321C",
      "321C",
      "321C",
      "321C",
      "321C",
      "321C",
      "321C",
      "320C",
      "320C",
      "320C",
      "320C",
      "320C",
      "320C",
      "320C",
      "320C",
      "320C",
      "320C",
      "320C",
      "320C",
      "320C",
      "320C",
      "320C",
      "320C",
      "320C",
      "320C",
      "320C",
      "320C",
      "321C",
      "321C",
      "321C",
      "321C",
      "321C",
      "320C",
      "320C",
      "320C",
      "320C",
      "320C",
      "320C",
      "320C",
      "320C",
      "320C",
      "320C",
      "320C",
      "320C",
      "320C",
      "320C",
      "320C",
      "320C",
      "320C",
      "320C",
      "320C",
      "320C",
      "320C",
      "320C",
      "320C",
      "320C",
      "320C",
      "320C",
      "320C",
      "320C",
      "320C",
      "321C",
      "321C",
      "321C",
      "320C",
      "320C",
      "320C",
      "320C",
      "320C",
      "320C",
      "320C",
      "320C",
      "320C",
      "320C",
      "320C",
      "320C",
      "320C",
      "320C",
      "320C",
      "320C",
      "320C",
      "320C",
      "320C",
      "320C",
      "320C",
      "320C",
      "320C",
      "320C",
      "320C",
      "320C",
      "320C",
      "321C",
      "321C",
      "321C",
      "321C",
      "320C",
      "320C",
      "320C",
      "320C",
      "320C",
      "320C",
      "320C",
      "320C",
      "320C",
      "320C",
      "320C",
      "320C",
      "320C",
      "320C",
      "320C",
      "320C",
      "320C",
      "320C",
      "320C",
      "320C",
      "320C",
      "320C",
      "321C",
      "321C",
      "321C",
      "320C",
      "320C",
      "320C",
      "320C",
      "320C",
      "320C",
      "320C",
      "320C",
      "320C",
      "320C",
      "320C",
      "320C",
      "320C",
      "320C",
      "320C",
      "320C",
      "320C",
      "320C",
      "321C",
      "321C",
      "321C",
      "321C",
      "321C",
      "321C",
      "320C",
      "320C",
      "320C",
      "320C",
      "320C",
      "320C",
      "320C",
      "320C",
      "320C",
      "320C",
      "320C",
      "320C",
      "320C",
      "320C",
      "320C",
      "332",
      "332",
      "340C",
      "340C",
      "340C",
      "340C",
      "340C",
      "340C",
      "340C",
      "340C",
      "341C",
      "341C",
      "341C",
      "341C",
      "341C",
      "341C",
      "341C",
      "341C",
      "340C",
      "340C",
      "340C",
      "341C",
      "341C",
      "341C",
      "341C",
      "341C",
      "341C",
      "340C",
      "340C",
      "340C",
      "340C",
      "340C",
      "340C",
      "340C",
      "340C",
      "340C",
      "340C",
      "340C",
      "340C",
      "340C",
      "340C",
      "340C",
      "340C",
      "341C",
      "341C",
      "341C",
      "341C",
      "340C",
      "340C",
      "340C",
      "340C",
      "340C",
      "340C",
      "340C",
      "340C",
      "340C",
      "340C",
      "340C",
      "340C",
      "340C",
      "341",
      "341",
      "341",
      "341",
      "341",
      "341",
      "340",
      "340",
      "340",
      "340",
      "360C",
      "360C",
      "360C",
      "360C",
      "360C",
      "360C",
      "360C",
      "360C",
      "360C",
      "360C",
      "360C",
      "360C",
      "360C",
      "360C",
      "360C",
      "360C",
      "360C",
      "360C",
      "360C",
      "360C",
      "360C",
      "360C",
      "360C",
      "360C",
      "360C",
      "360C",
      "360C",
      "360C",
      "360C",
      "360C",
      "360C",
      "360C",
      "360C",
      "360C",
      "360C",
      "360C",
      "360C",
      "360C",
      "360C",
      "361C",
      "361C",
      "361C",
      "361C",
      "361C",
      "348",
      "348",
      "348",
      "340C",
      "340C",
      "340C",
      "340C",
      "340C",
      "340C",
      "340C",
      "340C",
      "340C",
      "340C",
      "340C",
      "300C",
      "300C",
      "300C",
      "300C",
      "300C",
      "300C",
      "300C",
      "300C",
      "300C",
      "300C",
      "300C",
      "300C",
      "300C",
      "300C",
      "300C",
      "300C",
      "301C",
      "301C",
      "301C",
      "301C",
      "301C",
      "301C",
      "301C",
      "301C",
      "300C",
      "300C",
      "301C",
      "301C",
      "300C",
      "300C",
      "300C",
      "300C",
      "300C",
      "300C",
      "300C",
      "300C",
      "300C",
      "300C",
      "300C",
      "300C",
      "300",
      "300",
      "300",
      "300",
      "300",
      "300",
      "300",
      "300",
      "300",
      "300",
      "300",
      "300",
      "300",
      "300",
      "090",
      "090",
      "090",
      "090",
      "090",
      "090",
      "090",
      "081",
      "081",
      "081",
      "081",
      "081",
      "016",
      "016",
      "016",
      "016",
      "016",
      "016",
      "016",
      "016",
      "016",
      "016"
    ],
    "swim:geom": "path",
    "swim:speeds": [
      161,
      161,
      161,
      161,
      161,
      258,
      258,
      258,
      258,
      404,
      404,
      404,
      404,
      404,
      404,
      404,
      404,
      404,
      404,
      419,
      419,
      419,
      419,
      419,
      419,
      393,
      393,
      393,
      393,
      393,
      393,
      401,
      401,
      401,
      401,
      401,
      401,
      401,
      401,
      401,
      409,
      409,
      409,
      409,
      409,
      432,
      432,
      432,
      432,
      432,
      432,
      432,
      432,
      433,
      433,
      433,
      433,
      433,
      438,
      438,
      438,
      438,
      438,
      438,
      438,
      438,
      438,
      438,
      438,
      447,
      447,
      447,
      447,
      447,
      447,
      447,
      447,
      447,
      447,
      447,
      447,
      447,
      447,
      447,
      447,
      447,
      452,
      452,
      452,
      452,
      452,
      452,
      452,
      452,
      456,
      455,
      455,
      455,
      455,
      454,
      454,
      459,
      459,
      459,
      459,
      459,
      461,
      461,
      461,
      461,
      459,
      459,
      459,
      459,
      459,
      457,
      457,
      457,
      457,
      457,
      457,
      455,
      455,
      455,
      455,
      455,
      457,
      457,
      457,
      457,
      457,
      457,
      457,
      457,
      457,
      462,
      462,
      462,
      456,
      456,
      456,
      456,
      456,
      456,
      456,
      456,
      459,
      459,
      459,
      459,
      457,
      457,
      448,
      448,
      448,
      448,
      448,
      448,
      448,
      448,
      457,
      457,
      457,
      457,
      457,
      463,
      463,
      463,
      463,
      464,
      464,
      465,
      465,
      465,
      465,
      466,
      466,
      466,
      466,
      466,
      466,
      466,
      466,
      466,
      466,
      466,
      466,
      466,
      464,
      464,
      464,
      464,
      464,
      464,
      464,
      464,
      464,
      464,
      464,
      464,
      463,
      459,
      459,
      461,
      461,
      461,
      458,
      458,
      458,
      458,
      460,
      460,
      458,
      458,
      458,
      458,
      458,
      458,
      453,
      453,
      453,
      453,
      453,
      453,
      453,
      442,
      442,
      442,
      442,
      442,
      442,
      442,
      442,
      437,
      437,
      441,
      441,
      436,
      436,
      442,
      441,
      441,
      441,
      442,
      442,
      442,
      442,
      442,
      442,
      442,
      442,
      442,
      442,
      441,
      439,
      439,
      439,
      439,
      439,
      439,
      432,
      432,
      433,
      433,
      433,
      433,
      432,
      432,
      432,
      432,
      432,
      420,
      420,
      390,
      390,
      390,
      403,
      403,
      403,
      403,
      407,
      407,
      407,
      407,
      407,
      394,
      394,
      394,
      394,
      397,
      397,
      397,
      397,
      395,
      395,
      395,
      395,
      395,
      395,
      395,
      395,
      395,
      395,
      381,
      381,
      381,
      379,
      379,
      379,
      379,
      379,
      379,
      379,
      379,
      378,
      378,
      379,
      372,
      372,
      372,
      372,
      372,
      372,
      370,
      370,
      371,
      372,
      372,
      372,
      372,
      372,
      372,
      372,
      374,
      374,
      374,
      374,
      374,
      369,
      369,
      369,
      369,
      372,
      372,
      372,
      372,
      372,
      369,
      369,
      369,
      365,
      365,
      365,
      365,
      364,
      364,
      364,
      364,
      364,
      364,
      364,
      357,
      357,
      357,
      357,
      357,
      357,
      357,
      357,
      357,
      357,
      359,
      359,
      359,
      359,
      359,
      359,
      362,
      362,
      362,
      362,
      362,
      362,
      362,
      362,
      368,
      368,
      383,
      383,
      382,
      382,
      382,
      382,
      381,
      381,
      381,
      381,
      392,
      392,
      392,
      392,
      390,
      390,
      390,
      390,
      390,
      390,
      381,
      381,
      381,
      381,
      381,
      381,
      381,
      381,
      212,
      212,
      212,
      212,
      212,
      212,
      212,
      217,
      217,
      217,
      217,
      217,
      182,
      182,
      182,
      182,
      182,
      182,
      182,
      182,
      182,
      182
    ],
    "swim:timestamps": [
      1761489130,
      1761489130,
      1761489130,
      1761489130,
      1761489130,
      1761489253,
      1761489253,
      1761489253,
      1761489253,
      1761490034,
      1761490034,
      1761490034,
      1761490034,
      1761490034,
      1761490034,
      1761490034,
      1761490034,
      1761490034,
      1761490034,
      1761490274,
      1761490274,
      1761490274,
      1761490274,
      1761490274,
      1761490274,
      1761490395,
      1761490395,
      1761490395,
      1761490395,
      1761490395,
      1761490395,
      1761490575,
      1761490575,
      1761490575,
      1761490575,
      1761490575,
      1761490575,
      1761490575,
      1761490575,
      1761490575,
      1761491296,
      1761491296,
      1761491296,
      1761491296,
      1761491296,
      1761492072,
      1761492072,
      1761492072,
      1761492072,
      1761492072,
      1761492072,
      1761492072,
      1761492072,
      1761492193,
      1761492193,
      1761492193,
      1761492193,
      1761492193,
      1761492433,
      1761492433,
      1761492433,
      1761492433,
      1761492433,
      1761492433,
      1761492433,
      1761492433,
      1761492433,
      1761492433,
      1761492433,
      1761493094,
      1761493094,
      1761493094,
      1761493094,
      1761493094,
      1761493094,
      1761493094,
      1761493094,
      1761493094,
      1761493094,
      1761493094,
      1761493094,
      1761493455,
      1761493455,
      1761493455,
      1761493455,
      1761493455,
      1761493755,
      1761493755,
      1761493755,
      1761493755,
      1761493755,
      1761493755,
      1761493755,
      1761493755,
      1761494116,
      1761494198,
      1761494198,
      1761494198,
      1761494198,
      1761494356,
      1761494356,
      1761494536,
      1761494536,
      1761494536,
      1761494536,
      1761494536,
      1761494777,
      1761494777,
      1761494777,
      1761494777,
      1761495017,
      1761495017,
      1761495017,
      1761495017,
      1761495017,
      1761495197,
      1761495197,
      1761495197,
      1761495197,
      1761495197,
      1761495197,
      1761495463,
      1761495463,
      1761495463,
      1761495463,
      1761495463,
      1761495703,
      1761495703,
      1761495703,
      1761495703,
      1761495703,
      1761495703,
      1761495703,
      1761495703,
      1761495703,
      1761496244,
      1761496244,
      1761496244,
      1761496397,
      1761496397,
      1761496397,
      1761496397,
      1761496397,
      1761496397,
      1761496397,
      1761496397,
      1761496424,
      1761496424,
      1761496424,
      1761496424,
      1761496517,
      1761496517,
      1761496637,
      1761496637,
      1761496637,
      1761496637,
      1761496637,
      1761496637,
      1761496637,
      1761496637,
      1761497418,
      1761497418,
      1761497418,
      1761497418,
      1761497418,
      1761497718,
      1761497718,
      1761497718,
      1761497718,
      1761497806,
      1761497806,
      1761497839,
      1761497839,
      1761497839,
      1761497839,
      1761497926,
      1761497926,
      1761497926,
      1761498046,
      1761498046,
      1761498046,
      1761498046,
      1761498046,
      1761498046,
      1761498046,
      1761498046,
      1761498139,
      1761498139,
      1761498620,
      1761498620,
      1761498620,
      1761498680,
      1761498680,
      1761498680,
      1761498740,
      1761498860,
      1761498860,
      1761498860,
      1761498860,
      1761498860,
      1761498980,
      1761499280,
      1761499280,
      1761499306,
      1761499306,
      1761499306,
      1761499341,
      1761499341,
      1761499341,
      1761499341,
      1761499426,
      1761499426,
      1761499581,
      1761499581,
      1761499581,
      1761499581,
      1761499581,
      1761499581,
      1761499785,
      1761499785,
      1761499785,
      1761499785,
      1761499785,
      1761499785,
      1761499785,
      1761500328,
      1761500328,
      1761500328,
      1761500328,
      1761500328,
      1761500328,
      1761500328,
      1761500328,
      1761500508,
      1761500508,
      1761500688,
      1761500688,
      1761500728,
      1761500728,
      1761500748,
      1761500849,
      1761500849,
      1761500849,
      1761500909,
      1761500909,
      1761500909,
      1761500909,
      1761500909,
      1761500928,
      1761500928,
      1761500928,
      1761500969,
      1761500969,
      1761501089,
      1761501149,
      1761501149,
      1761501149,
      1761501149,
      1761501149,
      1761501149,
      1761501229,
      1761501229,
      1761501329,
      1761501329,
      1761501329,
      1761501329,
      1761501510,
      1761501510,
      1761501510,
      1761501510,
      1761501510,
      1761501770,
      1761501770,
      1761502190,
      1761502190,
      1761502190,
      1761502351,
      1761502351,
      1761502351,
      1761502351,
      1761502671,
      1761502671,
      1761502671,
      1761502671,
      1761502671,
      1761502731,
      1761502731,
      1761502731,
      1761502731,
      1761502952,
      1761502952,
      1761502952,
      1761502952,
      1761503271,
      1761503271,
      1761503271,
      1761503271,
      1761503271,
      1761503271,
      1761503372,
      1761503372,
      1761503433,
      1761503433,
      1761503632,
      1761503632,
      1761503632,
      1761503752,
      1761503752,
      1761503752,
      1761503752,
      1761503932,
      1761503932,
      1761503932,
      1761503932,
      1761504034,
      1761504034,
      1761504052,
      1761504353,
      1761504353,
      1761504353,
      1761504353,
      1761504353,
      1761504353,
      1761504455,
      1761504455,
      1761504533,
      1761504593,
      1761504593,
      1761504593,
      1761504593,
      1761504593,
      1761504593,
      1761504593,
      1761504695,
      1761504695,
      1761504695,
      1761504695,
      1761504695,
      1761505476,
      1761505476,
      1761505476,
      1761505476,
      1761505656,
      1761505656,
      1761505656,
      1761505656,
      1761505656,
      1761505834,
      1761505834,
      1761505834,
      1761505894,
      1761505894,
      1761505894,
      1761505894,
      1761506074,
      1761506074,
      1761506074,
      1761506074,
      1761506074,
      1761506074,
      1761506074,
      1761506916,
      1761506916,
      1761506916,
      1761506916,
      1761506916,
      1761506916,
      1761506976,
      1761506976,
      1761506976,
      1761506976,
      1761507414,
      1761507414,
      1761507414,
      1761507414,
      1761507414,
      1761507414,
      1761507654,
      1761507654,
      1761507654,
      1761507654,
      1761507714,
      1761507714,
      1761507714,
      1761507714,
      1761507757,
      1761507757,
      1761508058,
      1761508058,
      1761508135,
      1761508135,
      1761508135,
      1761508135,
      1761508255,
      1761508255,
      1761508255,
      1761508255,
      1761508435,
      1761508435,
      1761508435,
      1761508435,
      1761508675,
      1761508675,
      1761508675,
      1761508675,
      1761508675,
      1761508675,
      1761509156,
      1761509156,
      1761509156,
      1761509156,
      1761509156,
      1761509156,
      1761509156,
      1761509156,
      1761509878,
      1761509878,
      1761509878,
      1761509878,
      1761509878,
      1761509878,
      1761509878,
      1761509937,
      1761509937,
      1761509937,
      1761509937,
      1761509937,
      1761510418,
      1761510418,
      1761510418,
      1761510418,
      1761510418,
      1761510418,
      1761510418,
      1761510418,
      1761510418,
      1761510418
    ],
    "wof:geomhash": "86ded47bf1aa0c34f2ebf46bd0d7b243",
    "wof:id": 1981771055,
    "wof:repo": "sfomuseum-data-flights-2025-10"
  },
  "bbox": [
    -122.26972222222223,
    37.474722222222226,
    -70.89944444444446,
    43.72166666666667
  ],
  "geometry": {"coordinates":[[-71,42.36666666666667],[-71,42.36666666666667],[-71,42.36666666666667],[-71,42.36666666666667],[-71,42.36666666666667],[-70.89944444444446,42.4525],[-70.89944444444446,42.4525],[-70.89944444444446,42.4525],[-70.89944444444446,42.4525],[-72.10027777777778,43.1375],[-72.10027777777778,43.1375],[-72.10027777777778,43.1375],[-72.10027777777778,43.1375],[-72.10027777777778,43.1375],[-72.10027777777778,43.1375],[-72.10027777777778,43.1375],[-72.10027777777778,43.1375],[-72.10027777777778,43.1375],[-72.10027777777778,43.1375],[-72.75305555555556,43.211666666666666],[-72.75305555555556,43.211666666666666],[-72.75305555555556,43.211666666666666],[-72.75305555555556,43.211666666666666],[-72.75305555555556,43.211666666666666],[-72.75305555555556,43.211666666666666],[-73.05333333333333,43.21416666666667],[-73.05333333333333,43.21416666666667],[-73.05333333333333,43.21416666666667],[-73.05333333333333,43.21416666666667],[-73.05333333333333,43.21416666666667],[-73.05333333333333,43.21416666666667],[-73.49916666666667,43.26972222222222],[-73.49916666666667,43.26972222222222],[-73.49916666666667,43.26972222222222],[-73.49916666666667,43.26972222222222],[-73.49916666666667,43.26972222222222],[-73.49916666666667,43.26972222222222],[-73.49916666666667,43.26972222222222],[-73.49916666666667,43.26972222222222],[-73.49916666666667,43.26972222222222],[-75.31166666666667,43.54194444444444],[-75.31166666666667,43.54194444444444],[-75.31166666666667,43.54194444444444],[-75.31166666666667,43.54194444444444],[-75.31166666666667,43.54194444444444],[-77.40111111111112,43.72166666666667],[-77.40111111111112,43.72166666666667],[-77.40111111111112,43.72166666666667],[-77.40111111111112,43.72166666666667],[-77.40111111111112,43.72166666666667],[-77.40111111111112,43.72166666666667],[-77.40111111111112,43.72166666666667],[-77.40111111111112,43.72166666666667],[-77.72805555555556,43.71555555555556],[-77.72805555555556,43.71555555555556],[-77.72805555555556,43.71555555555556],[-77.72805555555556,43.71555555555556],[-77.72805555555556,43.71555555555556],[-78.39861111111112,43.69972222222222],[-78.39861111111112,43.69972222222222],[-78.39861111111112,43.69972222222222],[-78.39861111111112,43.69972222222222],[-78.39861111111112,43.69972222222222],[-78.39861111111112,43.69972222222222],[-78.39861111111112,43.69972222222222],[-78.39861111111112,43.69972222222222],[-78.39861111111112,43.69972222222222],[-78.39861111111112,43.69972222222222],[-78.39861111111112,43.69972222222222],[-80.27444444444444,43.593611111111116],[-80.27444444444444,43.593611111111116],[-80.27444444444444,43.593611111111116],[-80.27444444444444,43.593611111111116],[-80.27444444444444,43.593611111111116],[-80.27444444444444,43.593611111111116],[-80.27444444444444,43.593611111111116],[-80.27444444444444,43.593611111111116],[-80.27444444444444,43.593611111111116],[-80.27444444444444,43.593611111111116],[-80.27444444444444,43.593611111111116],[-80.27444444444444,43.593611111111116],[-81.30027777777778,43.52055555555555],[-81.30027777777778,43.52055555555555],[-81.30027777777778,43.52055555555555],[-81.30027777777778,43.52055555555555],[-81.30027777777778,43.52055555555555],[-82.1575,43.452222222222225],[-82.1575,43.452222222222225],[-82.1575,43.452222222222225],[-82.1575,43.452222222222225],[-82.1575,43.452222222222225],[-82.1575,43.452222222222225],[-82.1575,43.452222222222225],[-82.1575,43.452222222222225],[-83.1975,43.36],[-83.45055555555555,43.33583333333333],[-83.45055555555555,43.33583333333333],[-83.45055555555555,43.33583333333333],[-83.45055555555555,43.33583333333333],[-83.87555555555555,43.294999999999995],[-83.87555555555555,43.294999999999995],[-84.41222222222223,43.24055555555556],[-84.41222222222223,43.24055555555556],[-84.41222222222223,43.24055555555556],[-84.41222222222223,43.24055555555556],[-84.41222222222223,43.24055555555556],[-85.10638888888889,43.16555555555556],[-85.10638888888889,43.16555555555556],[-85.10638888888889,43.16555555555556],[-85.10638888888889,43.16555555555556],[-85.79027777777777,43.088055555555556],[-85.79027777777777,43.088055555555556],[-85.79027777777777,43.088055555555556],[-85.79027777777777,43.088055555555556],[-85.79027777777777,43.088055555555556],[-86.28555555555555,43.028888888888886],[-86.28555555555555,43.028888888888886],[-86.28555555555555,43.028888888888886],[-86.28555555555555,43.028888888888886],[-86.28555555555555,43.028888888888886],[-86.28555555555555,43.028888888888886],[-87.03555555555555,42.93611111111111],[-87.03555555555555,42.93611111111111],[-87.03555555555555,42.93611111111111],[-87.03555555555555,42.93611111111111],[-87.03555555555555,42.93611111111111],[-87.72805555555556,42.844722222222224],[-87.72805555555556,42.844722222222224],[-87.72805555555556,42.844722222222224],[-87.72805555555556,42.844722222222224],[-87.72805555555556,42.844722222222224],[-87.72805555555556,42.844722222222224],[-87.72805555555556,42.844722222222224],[-87.72805555555556,42.844722222222224],[-87.72805555555556,42.844722222222224],[-89.27527777777777,42.625],[-89.27527777777777,42.625],[-89.27527777777777,42.625],[-89.68388888888889,42.56222222222222],[-89.68388888888889,42.56222222222222],[-89.68388888888889,42.56222222222222],[-89.68388888888889,42.56222222222222],[-89.68388888888889,42.56222222222222],[-89.68388888888889,42.56222222222222],[-89.68388888888889,42.56222222222222],[-89.68388888888889,42.56222222222222],[-89.78305555555555,42.54861111111111],[-89.78305555555555,42.54861111111111],[-89.78305555555555,42.54861111111111],[-89.78305555555555,42.54861111111111],[-90.01888888888888,42.50888888888889],[-90.01888888888888,42.50888888888889],[-90.38111111111111,42.45472222222222],[-90.38111111111111,42.45472222222222],[-90.38111111111111,42.45472222222222],[-90.38111111111111,42.45472222222222],[-90.38111111111111,42.45472222222222],[-90.38111111111111,42.45472222222222],[-90.38111111111111,42.45472222222222],[-90.38111111111111,42.45472222222222],[-92.54472222222222,42.20138888888889],[-92.54472222222222,42.20138888888889],[-92.54472222222222,42.20138888888889],[-92.54472222222222,42.20138888888889],[-92.54472222222222,42.20138888888889],[-93.39611111111111,42.0925],[-93.39611111111111,42.0925],[-93.39611111111111,42.0925],[-93.39611111111111,42.0925],[-93.66916666666667,42.05638888888888],[-93.66916666666667,42.05638888888888],[-93.73944444444444,42.04694444444444],[-93.73944444444444,42.04694444444444],[-93.73944444444444,42.04694444444444],[-93.73944444444444,42.04694444444444],[-94.01222222222222,42.01],[-94.01222222222222,42.01],[-94.01222222222222,42.01],[-94.3536111111111,41.962500000000006],[-94.3536111111111,41.962500000000006],[-94.3536111111111,41.962500000000006],[-94.3536111111111,41.962500000000006],[-94.3536111111111,41.962500000000006],[-94.3536111111111,41.962500000000006],[-94.3536111111111,41.962500000000006],[-94.3536111111111,41.962500000000006],[-94.61999999999999,41.925],[-94.61999999999999,41.925],[-95.97333333333333,41.723055555555554],[-95.97333333333333,41.723055555555554],[-95.97333333333333,41.723055555555554],[-96.14027777777778,41.69694444444444],[-96.14027777777778,41.69694444444444],[-96.14027777777778,41.69694444444444],[-96.30583333333333,41.670833333333334],[-96.64027777777778,41.61694444444444],[-96.64027777777778,41.61694444444444],[-96.64027777777778,41.61694444444444],[-96.64027777777778,41.61694444444444],[-96.64027777777778,41.61694444444444],[-96.9738888888889,41.5625],[-97.80111111111111,41.422777777777775],[-97.80111111111111,41.422777777777775],[-97.88527777777779,41.408055555555556],[-97.88527777777779,41.408055555555556],[-97.88527777777779,41.408055555555556],[-97.96527777777779,41.39416666666666],[-97.96527777777779,41.39416666666666],[-97.96527777777779,41.39416666666666],[-97.96527777777779,41.39416666666666],[-98.21694444444445,41.35],[-98.21694444444445,41.35],[-98.6236111111111,41.27722222222222],[-98.6236111111111,41.27722222222222],[-98.6236111111111,41.27722222222222],[-98.6236111111111,41.27722222222222],[-98.6236111111111,41.27722222222222],[-98.6236111111111,41.27722222222222],[-99.17361111111111,41.17611111111111],[-99.17361111111111,41.17611111111111],[-99.17361111111111,41.17611111111111],[-99.17361111111111,41.17611111111111],[-99.17361111111111,41.17611111111111],[-99.17361111111111,41.17611111111111],[-99.17361111111111,41.17611111111111],[-100.62138888888889,40.89611111111111],[-100.62138888888889,40.89611111111111],[-100.62138888888889,40.89611111111111],[-100.62138888888889,40.89611111111111],[-100.62138888888889,40.89611111111111],[-100.62138888888889,40.89611111111111],[-100.62138888888889,40.89611111111111],[-100.62138888888889,40.89611111111111],[-101.06972222222223,40.805277777777775],[-101.06972222222223,40.805277777777775],[-101.53055555555555,40.709722222222226],[-101.53055555555555,40.709722222222226],[-101.61944444444444,40.69027777777777],[-101.61944444444444,40.69027777777777],[-101.68777777777778,40.676944444444445],[-101.93416666666667,40.62305555555555],[-101.93416666666667,40.62305555555555],[-101.93416666666667,40.62305555555555],[-102.09027777777777,40.58972222222222],[-102.09027777777777,40.58972222222222],[-102.09027777777777,40.58972222222222],[-102.09027777777777,40.58972222222222],[-102.09027777777777,40.58972222222222],[-102.1525,40.57777777777778],[-102.1525,40.57777777777778],[-102.1525,40.57777777777778],[-102.24388888888889,40.55722222222222],[-102.24388888888889,40.55722222222222],[-102.54916666666666,40.49],[-102.70027777777779,40.45638888888889],[-102.70027777777779,40.45638888888889],[-102.70027777777779,40.45638888888889],[-102.70027777777779,40.45638888888889],[-102.70027777777779,40.45638888888889],[-102.70027777777779,40.45638888888889],[-102.91333333333334,40.410555555555554],[-102.91333333333334,40.410555555555554],[-103.14972222222222,40.35722222222223],[-103.14972222222222,40.35722222222223],[-103.14972222222222,40.35722222222223],[-103.14972222222222,40.35722222222223],[-103.5975,40.25527777777778],[-103.5975,40.25527777777778],[-103.5975,40.25527777777778],[-103.5975,40.25527777777778],[-103.5975,40.25527777777778],[-104.23861111111111,40.105555555555554],[-104.23861111111111,40.105555555555554],[-105.22833333333334,39.865833333333335],[-105.22833333333334,39.865833333333335],[-105.22833333333334,39.865833333333335],[-105.57,39.78055555555555],[-105.57,39.78055555555555],[-105.57,39.78055555555555],[-105.57,39.78055555555555],[-106.31444444444445,39.59138888888889],[-106.31444444444445,39.59138888888889],[-106.31444444444445,39.59138888888889],[-106.31444444444445,39.59138888888889],[-106.31444444444445,39.59138888888889],[-106.44888888888889,39.55638888888888],[-106.44888888888889,39.55638888888888],[-106.44888888888889,39.55638888888888],[-106.44888888888889,39.55638888888888],[-106.9388888888889,39.42805555555555],[-106.9388888888889,39.42805555555555],[-106.9388888888889,39.42805555555555],[-106.9388888888889,39.42805555555555],[-107.67722222222223,39.28722222222222],[-107.67722222222223,39.28722222222222],[-107.67722222222223,39.28722222222222],[-107.67722222222223,39.28722222222222],[-107.67722222222223,39.28722222222222],[-107.67722222222223,39.28722222222222],[-107.9025,39.24138888888889],[-107.9025,39.24138888888889],[-108.03833333333333,39.21416666666667],[-108.03833333333333,39.21416666666667],[-108.49222222222222,39.121944444444445],[-108.49222222222222,39.121944444444445],[-108.49222222222222,39.121944444444445],[-108.75444444444445,39.0675],[-108.75444444444445,39.0675],[-108.75444444444445,39.0675],[-108.75444444444445,39.0675],[-109.15527777777778,39.006388888888885],[-109.15527777777778,39.006388888888885],[-109.15527777777778,39.006388888888885],[-109.15527777777778,39.006388888888885],[-109.36861111111111,38.97416666666667],[-109.36861111111111,38.97416666666667],[-109.41916666666667,38.96638888888889],[-110.07638888888889,38.865],[-110.07638888888889,38.865],[-110.07638888888889,38.865],[-110.07638888888889,38.865],[-110.07638888888889,38.865],[-110.07638888888889,38.865],[-110.28361111111111,38.831944444444446],[-110.28361111111111,38.831944444444446],[-110.46333333333334,38.80305555555555],[-110.59305555555555,38.78194444444444],[-110.59305555555555,38.78194444444444],[-110.59305555555555,38.78194444444444],[-110.59305555555555,38.78194444444444],[-110.59305555555555,38.78194444444444],[-110.59305555555555,38.78194444444444],[-110.59305555555555,38.78194444444444],[-110.80527777777777,38.76027777777778],[-110.80527777777777,38.76027777777778],[-110.80527777777777,38.76027777777778],[-110.80527777777777,38.76027777777778],[-110.80527777777777,38.76027777777778],[-112.4925,38.62416666666667],[-112.4925,38.62416666666667],[-112.4925,38.62416666666667],[-112.4925,38.62416666666667],[-112.88388888888889,38.58861111111111],[-112.88388888888889,38.58861111111111],[-112.88388888888889,38.58861111111111],[-112.88388888888889,38.58861111111111],[-112.88388888888889,38.58861111111111],[-113.27666666666667,38.551944444444445],[-113.27666666666667,38.551944444444445],[-113.27666666666667,38.551944444444445],[-113.40583333333333,38.53972222222222],[-113.40583333333333,38.53972222222222],[-113.40583333333333,38.53972222222222],[-113.40583333333333,38.53972222222222],[-113.78583333333333,38.5025],[-113.78583333333333,38.5025],[-113.78583333333333,38.5025],[-113.78583333333333,38.5025],[-113.78583333333333,38.5025],[-113.78583333333333,38.5025],[-113.78583333333333,38.5025],[-115.56277777777777,38.31111111111111],[-115.56277777777777,38.31111111111111],[-115.56277777777777,38.31111111111111],[-115.56277777777777,38.31111111111111],[-115.56277777777777,38.31111111111111],[-115.56277777777777,38.31111111111111],[-115.6875,38.29666666666667],[-115.6875,38.29666666666667],[-115.6875,38.29666666666667],[-115.6875,38.29666666666667],[-116.61694444444444,38.18472222222222],[-116.61694444444444,38.18472222222222],[-116.61694444444444,38.18472222222222],[-116.61694444444444,38.18472222222222],[-116.61694444444444,38.18472222222222],[-116.61694444444444,38.18472222222222],[-117.11944444444444,38.12083333333334],[-117.11944444444444,38.12083333333334],[-117.11944444444444,38.12083333333334],[-117.11944444444444,38.12083333333334],[-117.22833333333334,38.10666666666667],[-117.22833333333334,38.10666666666667],[-117.22833333333334,38.10666666666667],[-117.22833333333334,38.10666666666667],[-117.33166666666666,38.09305555555556],[-117.33166666666666,38.09305555555556],[-117.99944444444445,38.00361111111111],[-117.99944444444445,38.00361111111111],[-118.15916666666668,37.98166666666667],[-118.15916666666668,37.98166666666667],[-118.15916666666668,37.98166666666667],[-118.15916666666668,37.98166666666667],[-118.42277777777778,37.94444444444444],[-118.42277777777778,37.94444444444444],[-118.42277777777778,37.94444444444444],[-118.42277777777778,37.94444444444444],[-118.82583333333334,37.88777777777778],[-118.82583333333334,37.88777777777778],[-118.82583333333334,37.88777777777778],[-118.82583333333334,37.88777777777778],[-119.39277777777778,37.82361111111111],[-119.39277777777778,37.82361111111111],[-119.39277777777778,37.82361111111111],[-119.39277777777778,37.82361111111111],[-119.39277777777778,37.82361111111111],[-119.39277777777778,37.82361111111111],[-120.43222222222222,37.69611111111111],[-120.43222222222222,37.69611111111111],[-120.43222222222222,37.69611111111111],[-120.43222222222222,37.69611111111111],[-120.43222222222222,37.69611111111111],[-120.43222222222222,37.69611111111111],[-120.43222222222222,37.69611111111111],[-120.43222222222222,37.69611111111111],[-121.75,37.516666666666666],[-121.75,37.516666666666666],[-121.75,37.516666666666666],[-121.75,37.516666666666666],[-121.75,37.516666666666666],[-121.75,37.516666666666666],[-121.75,37.516666666666666],[-121.765,37.474722222222226],[-121.765,37.474722222222226],[-121.765,37.474722222222226],[-121.765,37.474722222222226],[-121.765,37.474722222222226],[-122.26972222222223,37.57666666666667],[-122.26972222222223,37.57666666666667],[-122.26972222222223,37.57666666666667],[-122.26972222222223,37.57666666666667],[-122.26972222222223,37.57666666666667],[-122.26972222222223,37.57666666666667],[-122.26972222222223,37.57666666666667],[-122.26972222222223,37.57666666666667],[-122.26972222222223,37.57666666666667],[-122.26972222222223,37.57666666666667]],"type":"LineString"}
}
