{
  "id": 1981687249,
  "type": "Feature",
  "properties": {
    "geom:area": 0,
    "geom:bbox": "-122.367750,37.626030,-122.213640,38.511880",
    "geom:latitude": 38.035922996592895,
    "geom:longitude": -122.23857285785567,
    "src:alt_label": "swim-takeoff",
    "src:geom": "swim",
    "swim:elevations": [
      122,
      152,
      738,
      892,
      1325,
      1891,
      2158,
      2726,
      3273,
      3321,
      3526,
      4045,
      4477,
      4722,
      5004,
      5398,
      5583,
      5953,
      6243,
      6455,
      6714,
      6968,
      7216
    ],
    "swim:geom": "takeoff",
    "swim:timestamps": [
      1760616357,
      1760616361,
      1760616418,
      1760616433,
      1760616463,
      1760616498,
      1760616513,
      1760616554,
      1760616597,
      1760616609,
      1760616638,
      1760616675,
      1760616710,
      1760616737,
      1760616761,
      1760616800,
      1760616819,
      1760616858,
      1760616890,
      1760616918,
      1760616948,
      1760616979,
      1760617007
    ],
    "wof:geomhash": "02a3c57b8c86fdc24f6dce8b567af89d",
    "wof:id": 1981687249,
    "wof:repo": "sfomuseum-data-flights-2025-10"
  },
  "bbox": [
    -122.36775,
    37.62603,
    -122.21364,
    38.51188
  ],
  "geometry": {"coordinates":[[-122.36775,37.62603],[-122.36619,37.62817],[-122.31545,37.66133],[-122.2986,37.67132],[-122.26304,37.69249],[-122.22249,37.71889],[-122.21364,37.73598],[-122.21444,37.7849],[-122.2182,37.83921],[-122.2186,37.85569],[-122.21919,37.89856],[-122.22001,37.95511],[-122.2217,38.00836],[-122.22328,38.05119],[-122.22444,38.0895],[-122.22614,38.1533],[-122.22699,38.18384],[-122.22878,38.24984],[-122.23027,38.30419],[-122.23168,38.35254],[-122.23724,38.40648],[-122.24279,38.46146],[-122.24801,38.51188]],"type":"LineString"}
}
