{
  "id": 1981771879,
  "type": "Feature",
  "properties": {
    "geom:area": 0,
    "geom:bbox": "-122.380000,37.490000,-104.670000,39.860000",
    "geom:latitude": 38.60741593663468,
    "geom:longitude": -113.50277789740431,
    "src:alt_label": "swim-route",
    "src:geom": "swim",
    "swim:geom": "route",
    "wof:geomhash": "b59b10b48d2cd9db5d33d4d4113cba4c",
    "wof:id": 1981771879,
    "wof:repo": "sfomuseum-data-flights-2025-10"
  },
  "bbox": [
    -122.38,
    37.49,
    -104.67,
    39.86
  ],
  "geometry": {"coordinates":[[-104.67,39.86],[-104.73,39.86],[-104.86,39.85],[-104.91,39.84],[-104.95,39.84],[-105.17,39.85],[-105.27,39.85],[-105.3,39.85],[-105.41,39.85],[-105.46,39.86],[-105.51,39.86],[-105.53,39.86],[-105.58,39.86],[-105.63,39.86],[-105.72,39.86],[-105.74,39.86],[-105.76,39.86],[-105.97,39.84],[-106.05,39.83],[-106.07,39.83],[-106.29,39.81],[-106.41,39.8],[-106.53,39.79],[-106.56,39.79],[-107.22,39.71],[-107.82,39.64],[-108.79,39.3],[-109.42,39.02],[-109.51,39.01],[-109.71,38.99],[-109.72,38.99],[-109.98,38.97],[-110.22,38.8],[-110.54,38.78],[-111.81,38.67],[-113.79,38.48],[-114.86,38.37],[-116.2,38.21],[-117.26,38.07],[-117.77,38],[-118.76,37.9],[-119.1,37.86],[-119.82,37.77],[-119.92,37.76],[-120.02,37.75],[-120.31,37.71],[-120.4,37.7],[-120.4,37.7],[-120.57,37.68],[-120.69,37.67],[-120.75,37.66],[-120.79,37.65],[-120.8,37.65],[-120.96,37.63],[-121,37.63],[-121.01,37.63],[-121.07,37.62],[-121.17,37.61],[-121.26,37.59],[-121.39,37.58],[-121.41,37.58],[-121.6,37.55],[-121.61,37.55],[-121.62,37.55],[-121.72,37.53],[-121.8,37.51],[-121.88,37.49],[-121.89,37.49],[-122.01,37.53],[-122.08,37.54],[-122.18,37.57],[-122.18,37.57],[-122.28,37.59],[-122.33,37.61],[-122.36,37.61],[-122.38,37.62]],"type":"LineString"}
}
