{
  "id": 1997542785,
  "type": "Feature",
  "properties": {
    "geom:area": 0,
    "geom:bbox": "-122.380000,27.980000,-82.530000,38.330000",
    "geom:latitude": 35.650936498039876,
    "geom:longitude": -101.49485629307756,
    "src:alt_label": "swim-route",
    "src:geom": "swim",
    "swim:geom": "route",
    "wof:geomhash": "e812f099a5ccb634708164730fd198f7",
    "wof:id": 1997542785,
    "wof:repo": "sfomuseum-data-flights-2025-10"
  },
  "bbox": [
    -122.38,
    27.98,
    -82.53,
    38.33
  ],
  "geometry": {"coordinates":[[-82.53,27.98],[-82.57,28.05],[-82.59,28.07],[-82.62,28.13],[-82.65,28.17],[-82.66,28.2],[-82.67,28.21],[-82.75,28.35],[-82.78,28.41],[-82.8,28.5],[-82.8,28.51],[-82.81,28.54],[-82.81,28.57],[-82.81,28.58],[-82.83,28.66],[-82.83,28.66],[-82.84,28.76],[-82.88,28.83],[-82.95,28.94],[-82.99,29],[-82.99,29],[-83.07,29.12],[-83.11,29.18],[-83.15,29.24],[-83.22,29.35],[-83.24,29.38],[-83.38,29.6],[-83.56,29.86],[-83.72,30.05],[-83.82,30.17],[-84.07,30.32],[-84.26,30.44],[-84.84,30.77],[-85,30.86],[-85.15,30.95],[-85.47,31.13],[-85.63,31.22],[-86.35,31.61],[-86.55,31.73],[-86.76,31.84],[-88,32.5],[-88.07,32.54],[-89.76,33.38],[-90,33.5],[-90.03,33.51],[-90.37,33.63],[-90.72,33.75],[-90.78,33.77],[-90.91,33.83],[-91.18,33.93],[-91.58,34.09],[-91.78,34.17],[-91.98,34.25],[-92.38,34.4],[-92.8,34.56],[-93.22,34.71],[-93.43,34.79],[-93.85,34.95],[-94,35],[-95,35.36],[-96.19,35.78],[-96.58,35.91],[-97.74,36.4],[-98,36.5],[-99.93,36.86],[-100.97,37.04],[-101.86,37.12],[-102.27,37.15],[-103.43,37.22],[-104.62,37.29],[-105.82,37.35],[-106.24,37.42],[-107.87,37.66],[-108.93,37.81],[-109.08,37.83],[-110.53,37.98],[-112.31,38.14],[-113.98,38.27],[-114.96,38.33],[-116.33,38.33],[-117.27,38.12],[-117.27,38.12],[-117.77,38],[-118.02,37.98],[-118.76,37.9],[-119.1,37.86],[-119.27,37.84],[-119.38,37.82],[-119.94,37.76],[-120.04,37.75],[-120.22,37.72],[-120.4,37.7],[-120.41,37.7],[-120.48,37.69],[-120.69,37.67],[-120.75,37.66],[-120.77,37.66],[-120.83,37.65],[-120.96,37.63],[-121,37.63],[-121.08,37.62],[-121.17,37.6],[-121.26,37.59],[-121.39,37.58],[-121.41,37.58],[-121.6,37.55],[-121.61,37.55],[-121.62,37.55],[-121.7,37.53],[-121.8,37.51],[-121.83,37.5],[-121.88,37.49],[-122.08,37.54],[-122.14,37.56],[-122.18,37.57],[-122.28,37.59],[-122.33,37.61],[-122.36,37.61],[-122.38,37.62]],"type":"LineString"}
}
