{
  "id": 1981702005,
  "type": "Feature",
  "properties": {
    "geom:area": 0,
    "geom:bbox": "-122.357050,37.491910,-121.274820,37.613470",
    "geom:latitude": 37.54573744743788,
    "geom:longitude": -121.8207074699418,
    "src:alt_label": "swim-approach",
    "src:geom": "swim",
    "swim:elevations": [
      4653,
      4293,
      4091,
      3831,
      3749,
      3196,
      3043,
      2754,
      2550,
      2437,
      2297,
      2051,
      2012,
      1807,
      1706,
      1414,
      1240,
      1029,
      933,
      699,
      637,
      576,
      487,
      384,
      321,
      115,
      16
    ],
    "swim:geom": "approach",
    "swim:timestamps": [
      1760785214,
      1760785256,
      1760785281,
      1760785313,
      1760785325,
      1760785398,
      1760785417,
      1760785458,
      1760785489,
      1760785507,
      1760785531,
      1760785576,
      1760785593,
      1760785636,
      1760785655,
      1760785696,
      1760785717,
      1760785756,
      1760785771,
      1760785822,
      1760785847,
      1760785868,
      1760785888,
      1760785917,
      1760785927,
      1760785974,
      1760785998
    ],
    "wof:geomhash": "da2e51aadd3aeae38f426ecdd81c4a97",
    "wof:id": 1981702005,
    "wof:repo": "sfomuseum-data-flights-2025-10"
  },
  "bbox": [
    -122.35705,
    37.49191,
    -121.27482,
    37.61347
  ],
  "geometry": {"coordinates":[[-121.27482,37.59124],[-121.36002,37.58163],[-121.41093,37.57583],[-121.47377,37.56847],[-121.49535,37.56594],[-121.62784,37.54936],[-121.66155,37.54176],[-121.72716,37.52616],[-121.77715,37.51426],[-121.80363,37.50793],[-121.83846,37.49965],[-121.90167,37.49191],[-121.92372,37.49242],[-121.98094,37.49488],[-122.00392,37.50073],[-122.05193,37.51603],[-122.07637,37.52391],[-122.12299,37.53894],[-122.14092,37.5447],[-122.19731,37.56282],[-122.22401,37.57139],[-122.24631,37.57858],[-122.26706,37.58411],[-122.29403,37.5911],[-122.3024,37.59374],[-122.3397,37.60672],[-122.35705,37.61347]],"type":"LineString"}
}
