{
  "id": 1981728955,
  "type": "Feature",
  "properties": {
    "geom:area": 0,
    "geom:bbox": "-123.725556,37.553056,-122.100000,48.747222",
    "geom:latitude": 42.89814682829579,
    "geom:longitude": -123.2034974295213,
    "src:alt_label": "swim-path",
    "src:geom": "swim",
    "swim:altitudes": [
      "220",
      "220",
      "220",
      "220",
      "220",
      "220",
      "281",
      "281",
      "281",
      "281",
      "281",
      "281",
      "281",
      "281",
      "281",
      "350C",
      "350C",
      "350C",
      "350C",
      "350C",
      "350C",
      "350C",
      "350C",
      "350C",
      "350C",
      "350C",
      "350C",
      "350C",
      "350C",
      "350C",
      "350C",
      "350C",
      "350C",
      "350C",
      "350C",
      "350C",
      "350C",
      "350C",
      "350C",
      "350C",
      "350C",
      "350C",
      "350C",
      "350C",
      "350C",
      "350C",
      "350C",
      "350C",
      "350C",
      "350C",
      "350C",
      "350C",
      "350C",
      "350C",
      "350C",
      "350C",
      "350C",
      "350C",
      "350C",
      "350C",
      "350C",
      "350C",
      "350C",
      "350C",
      "350C",
      "350C",
      "350C",
      "350C",
      "350C",
      "350C",
      "350C",
      "350C",
      "350C",
      "350C",
      "350C",
      "350C",
      "350C",
      "350C",
      "350C",
      "350C",
      "350C",
      "350C",
      "350C",
      "350C",
      "350C",
      "350C",
      "350C",
      "350C",
      "350C",
      "350C",
      "350C",
      "350C",
      "350C",
      "350C",
      "350C",
      "350C",
      "350C",
      "350C",
      "350C",
      "350C",
      "350C",
      "350C",
      "350C",
      "350C",
      "350C",
      "350C",
      "350C",
      "350C",
      "350C",
      "350C",
      "350C",
      "350C",
      "350C",
      "350C",
      "350C",
      "350C",
      "350C",
      "350C",
      "350C",
      "350C",
      "350C",
      "350C",
      "350C",
      "351C",
      "351C",
      "351C",
      "351C",
      "351C",
      "351C",
      "350C",
      "350C",
      "350C",
      "350C",
      "350C",
      "350C",
      "350C",
      "350C",
      "350",
      "350",
      "350",
      "350",
      "350",
      "350",
      "350",
      "350",
      "350",
      "277",
      "277",
      "277",
      "277",
      "277",
      "277",
      "277",
      "277",
      "277",
      "277",
      "277",
      "144",
      "144",
      "144",
      "144",
      "144",
      "132",
      "132",
      "132",
      "132",
      "110C",
      "110C",
      "110C",
      "110C",
      "095",
      "095",
      "095",
      "095",
      "064",
      "064",
      "064",
      "064",
      "064",
      "064",
      "042",
      "042",
      "042",
      "035",
      "035",
      "035",
      "035",
      "035",
      "014",
      "014",
      "014",
      "014",
      "014",
      "014",
      "014",
      "014",
      "014"
    ],
    "swim:geom": "path",
    "swim:speeds": [
      375,
      375,
      375,
      375,
      375,
      375,
      443,
      443,
      443,
      443,
      443,
      443,
      443,
      443,
      443,
      436,
      436,
      436,
      436,
      436,
      436,
      436,
      436,
      428,
      428,
      428,
      428,
      428,
      428,
      428,
      428,
      428,
      433,
      433,
      433,
      433,
      433,
      433,
      433,
      433,
      433,
      428,
      428,
      428,
      430,
      430,
      430,
      430,
      430,
      430,
      430,
      430,
      430,
      430,
      427,
      427,
      427,
      427,
      427,
      427,
      427,
      427,
      429,
      429,
      429,
      429,
      429,
      429,
      429,
      429,
      429,
      429,
      434,
      434,
      434,
      434,
      434,
      434,
      434,
      434,
      437,
      437,
      437,
      437,
      437,
      437,
      436,
      436,
      436,
      437,
      437,
      437,
      437,
      437,
      437,
      437,
      437,
      437,
      437,
      437,
      437,
      437,
      440,
      440,
      440,
      440,
      440,
      440,
      440,
      440,
      440,
      439,
      439,
      439,
      439,
      439,
      439,
      439,
      439,
      439,
      440,
      444,
      444,
      445,
      445,
      445,
      445,
      445,
      445,
      444,
      443,
      443,
      443,
      443,
      441,
      441,
      441,
      441,
      441,
      441,
      441,
      441,
      441,
      441,
      441,
      441,
      428,
      428,
      428,
      428,
      428,
      428,
      428,
      428,
      428,
      428,
      428,
      331,
      331,
      331,
      331,
      331,
      330,
      330,
      330,
      330,
      242,
      242,
      242,
      242,
      241,
      241,
      241,
      241,
      233,
      233,
      233,
      233,
      233,
      233,
      205,
      205,
      205,
      204,
      204,
      204,
      204,
      204,
      200,
      200,
      200,
      200,
      200,
      200,
      200,
      200,
      200
    ],
    "swim:timestamps": [
      1761056072,
      1761056072,
      1761056072,
      1761056072,
      1761056072,
      1761056072,
      1761056310,
      1761056310,
      1761056310,
      1761056310,
      1761056310,
      1761056310,
      1761056310,
      1761056310,
      1761056310,
      1761056671,
      1761056671,
      1761056671,
      1761056671,
      1761056671,
      1761056671,
      1761056671,
      1761056671,
      1761056971,
      1761056971,
      1761056971,
      1761056971,
      1761056971,
      1761056971,
      1761056971,
      1761056971,
      1761056971,
      1761057271,
      1761057271,
      1761057271,
      1761057271,
      1761057271,
      1761057271,
      1761057271,
      1761057271,
      1761057271,
      1761057872,
      1761057872,
      1761057872,
      1761058052,
      1761058052,
      1761058052,
      1761058052,
      1761058052,
      1761058052,
      1761058052,
      1761058052,
      1761058052,
      1761058052,
      1761058233,
      1761058233,
      1761058233,
      1761058233,
      1761058233,
      1761058233,
      1761058233,
      1761058233,
      1761058594,
      1761058594,
      1761058594,
      1761058594,
      1761058594,
      1761058594,
      1761058594,
      1761058594,
      1761058594,
      1761058594,
      1761059096,
      1761059096,
      1761059096,
      1761059096,
      1761059096,
      1761059096,
      1761059096,
      1761059096,
      1761059397,
      1761059397,
      1761059397,
      1761059397,
      1761059397,
      1761059397,
      1761059495,
      1761059495,
      1761059495,
      1761059577,
      1761059577,
      1761059577,
      1761059577,
      1761059577,
      1761059697,
      1761059697,
      1761059697,
      1761059697,
      1761059697,
      1761059697,
      1761059697,
      1761059697,
      1761059913,
      1761059913,
      1761059913,
      1761059937,
      1761059937,
      1761059937,
      1761059937,
      1761059997,
      1761059997,
      1761060033,
      1761060033,
      1761060117,
      1761060117,
      1761060117,
      1761060117,
      1761060117,
      1761060117,
      1761060117,
      1761060153,
      1761060298,
      1761060298,
      1761060334,
      1761060334,
      1761060334,
      1761060358,
      1761060358,
      1761060358,
      1761060574,
      1761060658,
      1761060658,
      1761060658,
      1761060658,
      1761060694,
      1761060694,
      1761060694,
      1761060718,
      1761060718,
      1761060718,
      1761060718,
      1761060718,
      1761060718,
      1761060718,
      1761060718,
      1761060718,
      1761061139,
      1761061139,
      1761061139,
      1761061139,
      1761061139,
      1761061139,
      1761061139,
      1761061139,
      1761061139,
      1761061139,
      1761061139,
      1761061574,
      1761061574,
      1761061574,
      1761061574,
      1761061574,
      1761061619,
      1761061619,
      1761061619,
      1761061619,
      1761061739,
      1761061739,
      1761061739,
      1761061739,
      1761061799,
      1761061799,
      1761061799,
      1761061799,
      1761061920,
      1761061920,
      1761061920,
      1761061920,
      1761061920,
      1761061920,
      1761062053,
      1761062053,
      1761062053,
      1761062100,
      1761062100,
      1761062100,
      1761062100,
      1761062100,
      1761062220,
      1761062220,
      1761062220,
      1761062220,
      1761062220,
      1761062220,
      1761062220,
      1761062220,
      1761062220
    ],
    "wof:geomhash": "a15c4a62c9957c6e868c1083d321e297",
    "wof:id": 1981728955,
    "wof:repo": "sfomuseum-data-flights-2025-10"
  },
  "bbox": [
    -123.72555555555556,
    37.55305555555555,
    -122.1,
    48.74722222222222
  ],
  "geometry": {"coordinates":[[-123.72555555555556,48.74722222222222],[-123.72555555555556,48.74722222222222],[-123.72555555555556,48.74722222222222],[-123.72555555555556,48.74722222222222],[-123.72555555555556,48.74722222222222],[-123.72555555555556,48.74722222222222],[-123.64694444444446,48.276666666666664],[-123.64694444444446,48.276666666666664],[-123.64694444444446,48.276666666666664],[-123.64694444444446,48.276666666666664],[-123.64694444444446,48.276666666666664],[-123.64694444444446,48.276666666666664],[-123.64694444444446,48.276666666666664],[-123.64694444444446,48.276666666666664],[-123.64694444444446,48.276666666666664],[-123.49166666666667,47.544444444444444],[-123.49166666666667,47.544444444444444],[-123.49166666666667,47.544444444444444],[-123.49166666666667,47.544444444444444],[-123.49166666666667,47.544444444444444],[-123.49166666666667,47.544444444444444],[-123.49166666666667,47.544444444444444],[-123.49166666666667,47.544444444444444],[-123.40277777777779,46.95027777777778],[-123.40277777777779,46.95027777777778],[-123.40277777777779,46.95027777777778],[-123.40277777777779,46.95027777777778],[-123.40277777777779,46.95027777777778],[-123.40277777777779,46.95027777777778],[-123.40277777777779,46.95027777777778],[-123.40277777777779,46.95027777777778],[-123.40277777777779,46.95027777777778],[-123.38361111111112,46.341944444444444],[-123.38361111111112,46.341944444444444],[-123.38361111111112,46.341944444444444],[-123.38361111111112,46.341944444444444],[-123.38361111111112,46.341944444444444],[-123.38361111111112,46.341944444444444],[-123.38361111111112,46.341944444444444],[-123.38361111111112,46.341944444444444],[-123.38361111111112,46.341944444444444],[-123.34861111111111,45.17194444444444],[-123.34861111111111,45.17194444444444],[-123.34861111111111,45.17194444444444],[-123.33777777777777,44.8075],[-123.33777777777777,44.8075],[-123.33777777777777,44.8075],[-123.33777777777777,44.8075],[-123.33777777777777,44.8075],[-123.33777777777777,44.8075],[-123.33777777777777,44.8075],[-123.33777777777777,44.8075],[-123.33777777777777,44.8075],[-123.33777777777777,44.8075],[-123.32694444444444,44.448055555555555],[-123.32694444444444,44.448055555555555],[-123.32694444444444,44.448055555555555],[-123.32694444444444,44.448055555555555],[-123.32694444444444,44.448055555555555],[-123.32694444444444,44.448055555555555],[-123.32694444444444,44.448055555555555],[-123.32694444444444,44.448055555555555],[-123.29833333333333,43.73305555555556],[-123.29833333333333,43.73305555555556],[-123.29833333333333,43.73305555555556],[-123.29833333333333,43.73305555555556],[-123.29833333333333,43.73305555555556],[-123.29833333333333,43.73305555555556],[-123.29833333333333,43.73305555555556],[-123.29833333333333,43.73305555555556],[-123.29833333333333,43.73305555555556],[-123.29833333333333,43.73305555555556],[-123.25805555555556,42.72555555555556],[-123.25805555555556,42.72555555555556],[-123.25805555555556,42.72555555555556],[-123.25805555555556,42.72555555555556],[-123.25805555555556,42.72555555555556],[-123.25805555555556,42.72555555555556],[-123.25805555555556,42.72555555555556],[-123.25805555555556,42.72555555555556],[-123.23694444444445,42.124722222222225],[-123.23694444444445,42.124722222222225],[-123.23694444444445,42.124722222222225],[-123.23694444444445,42.124722222222225],[-123.23694444444445,42.124722222222225],[-123.23694444444445,42.124722222222225],[-123.23,41.93277777777777],[-123.23,41.93277777777777],[-123.23,41.93277777777777],[-123.2238888888889,41.76305555555555],[-123.2238888888889,41.76305555555555],[-123.2238888888889,41.76305555555555],[-123.2238888888889,41.76305555555555],[-123.2238888888889,41.76305555555555],[-123.215,41.520833333333336],[-123.215,41.520833333333336],[-123.215,41.520833333333336],[-123.215,41.520833333333336],[-123.215,41.520833333333336],[-123.215,41.520833333333336],[-123.215,41.520833333333336],[-123.215,41.520833333333336],[-123.20166666666667,41.06333333333333],[-123.20166666666667,41.06333333333333],[-123.20166666666667,41.06333333333333],[-123.20055555555555,41.015],[-123.20055555555555,41.015],[-123.20055555555555,41.015],[-123.20055555555555,41.015],[-123.1975,40.89333333333333],[-123.1975,40.89333333333333],[-123.19555555555556,40.82],[-123.19555555555556,40.82],[-123.1913888888889,40.65416666666667],[-123.1913888888889,40.65416666666667],[-123.1913888888889,40.65416666666667],[-123.1913888888889,40.65416666666667],[-123.1913888888889,40.65416666666667],[-123.1913888888889,40.65416666666667],[-123.1913888888889,40.65416666666667],[-123.18944444444445,40.57277777777778],[-123.1825,40.285555555555554],[-123.1825,40.285555555555554],[-123.18027777777779,40.2],[-123.18027777777779,40.2],[-123.18027777777779,40.2],[-123.17944444444444,40.16277777777778],[-123.17944444444444,40.16277777777778],[-123.17944444444444,40.16277777777778],[-123.16250000000001,39.70333333333333],[-123.15527777777778,39.55],[-123.15527777777778,39.55],[-123.15527777777778,39.55],[-123.15527777777778,39.55],[-123.15138888888889,39.45916666666667],[-123.15138888888889,39.45916666666667],[-123.15138888888889,39.45916666666667],[-123.15,39.43222222222222],[-123.15,39.43222222222222],[-123.15,39.43222222222222],[-123.15,39.43222222222222],[-123.15,39.43222222222222],[-123.15,39.43222222222222],[-123.15,39.43222222222222],[-123.15,39.43222222222222],[-123.15,39.43222222222222],[-122.87805555555555,38.60166666666667],[-122.87805555555555,38.60166666666667],[-122.87805555555555,38.60166666666667],[-122.87805555555555,38.60166666666667],[-122.87805555555555,38.60166666666667],[-122.87805555555555,38.60166666666667],[-122.87805555555555,38.60166666666667],[-122.87805555555555,38.60166666666667],[-122.87805555555555,38.60166666666667],[-122.87805555555555,38.60166666666667],[-122.87805555555555,38.60166666666667],[-122.65,37.86666666666667],[-122.65,37.86666666666667],[-122.65,37.86666666666667],[-122.65,37.86666666666667],[-122.65,37.86666666666667],[-122.59583333333333,37.82694444444445],[-122.59583333333333,37.82694444444445],[-122.59583333333333,37.82694444444445],[-122.59583333333333,37.82694444444445],[-122.46916666666667,37.718611111111116],[-122.46916666666667,37.718611111111116],[-122.46916666666667,37.718611111111116],[-122.46916666666667,37.718611111111116],[-122.39055555555557,37.69611111111111],[-122.39055555555557,37.69611111111111],[-122.39055555555557,37.69611111111111],[-122.39055555555557,37.69611111111111],[-122.24,37.64944444444444],[-122.24,37.64944444444444],[-122.24,37.64944444444444],[-122.24,37.64944444444444],[-122.24,37.64944444444444],[-122.24,37.64944444444444],[-122.1,37.56666666666667],[-122.1,37.56666666666667],[-122.1,37.56666666666667],[-122.14277777777778,37.55305555555555],[-122.14277777777778,37.55305555555555],[-122.14277777777778,37.55305555555555],[-122.14277777777778,37.55305555555555],[-122.14277777777778,37.55305555555555],[-122.27444444444444,37.58694444444445],[-122.27444444444444,37.58694444444445],[-122.27444444444444,37.58694444444445],[-122.27444444444444,37.58694444444445],[-122.27444444444444,37.58694444444445],[-122.27444444444444,37.58694444444445],[-122.27444444444444,37.58694444444445],[-122.27444444444444,37.58694444444445],[-122.27444444444444,37.58694444444445]],"type":"LineString"}
}
