{
  "id": 1981635585,
  "type": "Feature",
  "properties": {
    "geom:area": 0,
    "geom:bbox": "-122.364470,37.631190,-121.253490,37.982200",
    "geom:latitude": 37.84307764434969,
    "geom:longitude": -121.82286327678374,
    "src:alt_label": "swim-takeoff",
    "src:geom": "swim",
    "swim:elevations": [
      152,
      366,
      793,
      1065,
      1367,
      1743,
      2382,
      2742,
      2806,
      2925,
      3317,
      3449,
      3798,
      4151,
      4467,
      4583,
      4840,
      5240,
      5298,
      5773,
      5975,
      6159
    ],
    "swim:geom": "takeoff",
    "swim:timestamps": [
      1760084658,
      1760084670,
      1760084727,
      1760084748,
      1760084771,
      1760084796,
      1760084845,
      1760084876,
      1760084881,
      1760084893,
      1760084936,
      1760084951,
      1760084997,
      1760085025,
      1760085056,
      1760085080,
      1760085108,
      1760085147,
      1760085151,
      1760085208,
      1760085229,
      1760085250
    ],
    "wof:geomhash": "8e6918bc2a7a3087bcbf31446fbb2b78",
    "wof:id": 1981635585,
    "wof:repo": "sfomuseum-data-flights-2025-10"
  },
  "bbox": [
    -122.36447,
    37.63119,
    -121.25349,
    37.9822
  ],
  "geometry": {"coordinates":[[-122.36447,37.63119],[-122.35772,37.63989],[-122.29689,37.67376],[-122.26996,37.68889],[-122.24047,37.70448],[-122.20541,37.72286],[-122.13694,37.75831],[-122.09053,37.78204],[-122.08234,37.78627],[-122.06493,37.79523],[-121.99225,37.82788],[-121.96252,37.83482],[-121.86413,37.85203],[-121.80209,37.86346],[-121.73205,37.87645],[-121.67622,37.88684],[-121.60829,37.90317],[-121.51282,37.92785],[-121.50277,37.9305],[-121.36033,37.96647],[-121.30778,37.9743],[-121.25349,37.9822]],"type":"LineString"}
}
