{
  "id": 1981619023,
  "type": "Feature",
  "properties": {
    "geom:area": 0,
    "geom:bbox": "-122.399780,37.623440,-121.255440,37.954290",
    "geom:latitude": 37.80530122281761,
    "geom:longitude": -121.84337939581863,
    "src:alt_label": "swim-takeoff",
    "src:geom": "swim",
    "swim:elevations": [
      183,
      460,
      882,
      1100,
      1326,
      1597,
      2107,
      2412,
      2825,
      3159,
      3458,
      3504,
      4000,
      4113,
      4152,
      4642,
      4931,
      5129,
      5181,
      5260,
      5348,
      5707,
      5918,
      6096,
      6096
    ],
    "swim:geom": "takeoff",
    "swim:timestamps": [
      1759950018,
      1759950038,
      1759950075,
      1759950110,
      1759950147,
      1759950169,
      1759950202,
      1759950222,
      1759950250,
      1759950278,
      1759950327,
      1759950333,
      1759950378,
      1759950387,
      1759950391,
      1759950446,
      1759950473,
      1759950493,
      1759950523,
      1759950549,
      1759950558,
      1759950595,
      1759950614,
      1759950655,
      1759950661
    ],
    "wof:geomhash": "7b3702443aad7e721949c0a63fc06d33",
    "wof:id": 1981619023,
    "wof:repo": "sfomuseum-data-flights-2025-10"
  },
  "bbox": [
    -122.39978,
    37.62344,
    -121.25544,
    37.95429
  ],
  "geometry": {"coordinates":[[-122.38631,37.62344],[-122.39978,37.63341],[-122.38572,37.65786],[-122.35039,37.66688],[-122.30413,37.6825],[-122.27273,37.69485],[-122.22402,37.71137],[-122.19368,37.71918],[-122.14913,37.72989],[-122.10252,37.74192],[-122.01005,37.76575],[-121.99793,37.76883],[-121.90336,37.79299],[-121.8856,37.79751],[-121.87733,37.79961],[-121.75616,37.83005],[-121.695,37.84536],[-121.64929,37.8568],[-121.58136,37.87386],[-121.52054,37.88889],[-121.49975,37.89404],[-121.41267,37.91557],[-121.36789,37.92658],[-121.26997,37.95072],[-121.25544,37.95429]],"type":"LineString"}
}
