{
  "id": 1981614999,
  "type": "Feature",
  "properties": {
    "geom:area": 0,
    "geom:bbox": "-122.740390,37.403310,-122.081400,38.130970",
    "geom:latitude": 37.667125160386675,
    "geom:longitude": -122.39427328709066,
    "src:alt_label": "swim-approach",
    "src:geom": "swim",
    "swim:elevations": [
      6003,
      5660,
      5127,
      4851,
      4624,
      4155,
      3968,
      3551,
      3460,
      3357,
      3353,
      3353,
      3353,
      3353,
      3317,
      3000,
      2956,
      2817,
      2656,
      2569,
      2496,
      2257,
      2141,
      2010,
      1826,
      1829,
      1829,
      1713,
      1586,
      1405,
      1302,
      1108,
      880,
      786,
      685,
      455,
      348,
      243,
      189,
      31
    ],
    "swim:geom": "approach",
    "swim:timestamps": [
      1759943612,
      1759943643,
      1759943690,
      1759943718,
      1759943739,
      1759943786,
      1759943803,
      1759943847,
      1759943855,
      1759943884,
      1759943933,
      1759943942,
      1759943977,
      1759944022,
      1759944034,
      1759944084,
      1759944091,
      1759944117,
      1759944142,
      1759944156,
      1759944182,
      1759944236,
      1759944253,
      1759944279,
      1759944320,
      1759944351,
      1759944375,
      1759944397,
      1759944421,
      1759944460,
      1759944485,
      1759944511,
      1759944565,
      1759944584,
      1759944611,
      1759944656,
      1759944687,
      1759944711,
      1759944725,
      1759944771
    ],
    "wof:geomhash": "90d32f484ab45dbb6057ef1a2dade641",
    "wof:id": 1981614999,
    "wof:repo": "sfomuseum-data-flights-2025-10"
  },
  "bbox": [
    -122.74039,
    37.40331,
    -122.0814,
    38.13097
  ],
  "geometry": {"coordinates":[[-122.74039,38.13097],[-122.72575,38.07915],[-122.70384,38.00507],[-122.69085,37.96054],[-122.68143,37.92789],[-122.63517,37.8639],[-122.61231,37.84208],[-122.55742,37.7902],[-122.54687,37.78024],[-122.51259,37.7477],[-122.46095,37.6993],[-122.45214,37.69109],[-122.42023,37.66109],[-122.37971,37.62275],[-122.3691,37.61253],[-122.33886,37.56348],[-122.3354,37.55566],[-122.32104,37.53052],[-122.30569,37.50534],[-122.29747,37.49173],[-122.28275,37.46779],[-122.24093,37.4335],[-122.22262,37.428],[-122.19516,37.41989],[-122.15357,37.40843],[-122.12047,37.40331],[-122.10121,37.41912],[-122.09189,37.43921],[-122.0814,37.46134],[-122.08859,37.49494],[-122.11259,37.50793],[-122.13787,37.51908],[-122.18746,37.53989],[-122.2038,37.54676],[-122.22836,37.55701],[-122.26787,37.57381],[-122.29284,37.58426],[-122.31121,37.59197],[-122.32177,37.59648],[-122.35618,37.61082]],"type":"LineString"}
}
