{
  "id": 1981553893,
  "type": "Feature",
  "properties": {
    "geom:area": 0,
    "geom:bbox": "-122.837630,37.361240,-122.074190,38.462360",
    "geom:latitude": 37.77427271034503,
    "geom:longitude": -122.46294067804392,
    "src:alt_label": "swim-approach",
    "src:geom": "swim",
    "swim:elevations": [
      8216,
      7903,
      7745,
      7423,
      7091,
      6595,
      6106,
      5771,
      5652,
      5194,
      4939,
      4635,
      4357,
      4285,
      4164,
      3962,
      3959,
      3481,
      3351,
      3353,
      3353,
      3279,
      3136,
      2884,
      2801,
      2681,
      2492,
      2413,
      2271,
      2086,
      1943,
      1852,
      1675,
      1524,
      1524,
      1450,
      1258,
      1218,
      1219,
      1219,
      1164,
      991,
      943,
      864,
      657,
      636,
      442,
      301,
      172,
      17,
      37
    ],
    "swim:geom": "approach",
    "swim:timestamps": [
      1759315163,
      1759315191,
      1759315203,
      1759315231,
      1759315261,
      1759315303,
      1759315346,
      1759315376,
      1759315387,
      1759315432,
      1759315454,
      1759315480,
      1759315522,
      1759315545,
      1759315567,
      1759315617,
      1759315622,
      1759315678,
      1759315700,
      1759315738,
      1759315757,
      1759315781,
      1759315808,
      1759315857,
      1759315876,
      1759315897,
      1759315934,
      1759315948,
      1759315971,
      1759315993,
      1759316006,
      1759316023,
      1759316048,
      1759316088,
      1759316109,
      1759316145,
      1759316177,
      1759316195,
      1759316245,
      1759316250,
      1759316287,
      1759316320,
      1759316333,
      1759316351,
      1759316395,
      1759316403,
      1759316448,
      1759316481,
      1759316510,
      1759316548,
      1759316554
    ],
    "wof:geomhash": "50393720ac0b8855e1ffb823c1e5e9cb",
    "wof:id": 1981553893,
    "wof:repo": "sfomuseum-data-flights-2025-10"
  },
  "bbox": [
    -122.83763,
    37.36124,
    -122.07419,
    38.46236
  ],
  "geometry": {"coordinates":[[-122.83763,38.46236],[-122.82286,38.41216],[-122.81613,38.38846],[-122.80091,38.33879],[-122.78557,38.28658],[-122.76386,38.21196],[-122.7427,38.13902],[-122.72815,38.08909],[-122.72298,38.07159],[-122.70211,37.99942],[-122.69187,37.96355],[-122.67992,37.92231],[-122.63507,37.86398],[-122.60566,37.83594],[-122.57972,37.81133],[-122.52544,37.75995],[-122.52047,37.75533],[-122.46791,37.70562],[-122.44752,37.68652],[-122.41267,37.65385],[-122.39459,37.63675],[-122.37204,37.61549],[-122.35144,37.59111],[-122.32708,37.54161],[-122.31609,37.5224],[-122.3031,37.50115],[-122.28147,37.46563],[-122.27268,37.45138],[-122.25944,37.42936],[-122.24694,37.40909],[-122.2393,37.39674],[-122.22961,37.38093],[-122.20808,37.36124],[-122.15654,37.37027],[-122.13243,37.3842],[-122.0952,37.40618],[-122.07665,37.43339],[-122.07419,37.45001],[-122.10161,37.48819],[-122.10407,37.4915],[-122.12998,37.51519],[-122.16057,37.52893],[-122.17208,37.53368],[-122.1885,37.54027],[-122.22768,37.55667],[-122.23433,37.55956],[-122.27345,37.57609],[-122.30147,37.58776],[-122.32512,37.59776],[-122.3567,37.61103],[-122.36153,37.61353]],"type":"LineString"}
}
