{
  "id": 1981598527,
  "type": "Feature",
  "properties": {
    "geom:area": 0,
    "geom:bbox": "-122.357270,37.638770,-121.247280,37.943660",
    "geom:latitude": 37.770977558472765,
    "geom:longitude": -121.79896874628845,
    "src:alt_label": "swim-takeoff",
    "src:geom": "swim",
    "swim:elevations": [
      420,
      563,
      773,
      903,
      956,
      1170,
      1667,
      1943,
      2204,
      2789,
      2968,
      3257,
      3383,
      3516,
      3769,
      4043,
      4262,
      5029,
      5203,
      5605,
      5744,
      6099,
      6143,
      6301
    ],
    "swim:geom": "takeoff",
    "swim:timestamps": [
      1759794380,
      1759794395,
      1759794443,
      1759794461,
      1759794473,
      1759794494,
      1759794535,
      1759794557,
      1759794576,
      1759794627,
      1759794642,
      1759794680,
      1759794700,
      1759794728,
      1759794766,
      1759794800,
      1759794821,
      1759794860,
      1759794878,
      1759794923,
      1759794935,
      1759794988,
      1759795000,
      1759795027
    ],
    "wof:geomhash": "46f4fe24e26c9a7a8b490ba30f43a6c9",
    "wof:id": 1981598527,
    "wof:repo": "sfomuseum-data-flights-2025-10"
  },
  "bbox": [
    -122.35727,
    37.63877,
    -121.24728,
    37.94366
  ],
  "geometry": {"coordinates":[[-122.35727,37.63877],[-122.34756,37.64774],[-122.29844,37.66043],[-122.27424,37.6614],[-122.25694,37.66216],[-122.22466,37.66402],[-122.16062,37.66882],[-122.12549,37.67158],[-122.09397,37.67442],[-122.01066,37.68815],[-121.98712,37.69631],[-121.92549,37.71719],[-121.89036,37.72893],[-121.83845,37.74642],[-121.76324,37.77172],[-121.69314,37.7953],[-121.64972,37.8098],[-121.57325,37.83541],[-121.5391,37.84681],[-121.45388,37.87519],[-121.43089,37.88286],[-121.32747,37.91714],[-121.30242,37.92545],[-121.24728,37.94366]],"type":"LineString"}
}
