{
  "id": 1981597787,
  "type": "Feature",
  "properties": {
    "geom:area": 0,
    "geom:bbox": "-122.358130,37.492550,-121.252050,37.614250",
    "geom:latitude": 37.546806185693825,
    "geom:longitude": -121.81005850897492,
    "src:alt_label": "swim-approach",
    "src:geom": "swim",
    "swim:elevations": [
      4505,
      4419,
      4234,
      4121,
      4043,
      3757,
      3623,
      3411,
      3199,
      3007,
      2589,
      2439,
      2351,
      2258,
      1922,
      1881,
      1829,
      1754,
      1650,
      1399,
      1274,
      1077,
      719,
      663,
      456,
      349,
      175,
      115,
      50
    ],
    "swim:geom": "approach",
    "swim:timestamps": [
      1759761779,
      1759761802,
      1759761838,
      1759761864,
      1759761880,
      1759761924,
      1759761940,
      1759761974,
      1759762008,
      1759762031,
      1759762078,
      1759762107,
      1759762123,
      1759762144,
      1759762197,
      1759762208,
      1759762251,
      1759762280,
      1759762294,
      1759762325,
      1759762365,
      1759762385,
      1759762431,
      1759762440,
      1759762482,
      1759762509,
      1759762546,
      1759762564,
      1759762594
    ],
    "wof:geomhash": "beffc04cc7d3634f390cf298e47968f9",
    "wof:id": 1981597787,
    "wof:repo": "sfomuseum-data-flights-2025-10"
  },
  "bbox": [
    -122.35813,
    37.49255,
    -121.25205,
    37.61425
  ],
  "geometry": {"coordinates":[[-121.25205,37.59445],[-121.29745,37.58855],[-121.36286,37.58156],[-121.40818,37.57615],[-121.43415,37.5732],[-121.50883,37.56467],[-121.53506,37.56159],[-121.59167,37.55475],[-121.64634,37.54573],[-121.6809,37.53719],[-121.75289,37.5202],[-121.79338,37.51074],[-121.81681,37.50498],[-121.84671,37.49771],[-121.92409,37.49255],[-121.9393,37.49282],[-122.00235,37.49963],[-122.04098,37.51207],[-122.05961,37.51757],[-122.10102,37.53016],[-122.14812,37.54541],[-122.16906,37.55194],[-122.21829,37.56833],[-122.22749,37.57155],[-122.27054,37.58642],[-122.29592,37.59344],[-122.32524,37.60153],[-122.33763,37.60575],[-122.35813,37.61425]],"type":"LineString"}
}
