{
  "id": 1981729029,
  "type": "Feature",
  "properties": {
    "geom:area": 0,
    "geom:bbox": "-122.357500,37.491300,-121.248430,37.613650",
    "geom:latitude": 37.54678920925649,
    "geom:longitude": -121.80786539342718,
    "src:alt_label": "swim-approach",
    "src:geom": "swim",
    "swim:elevations": [
      4605,
      4581,
      4384,
      4325,
      4054,
      3869,
      3596,
      3518,
      3419,
      3363,
      3325,
      3167,
      2891,
      2691,
      2592,
      2424,
      2359,
      2283,
      2126,
      2072,
      1922,
      1834,
      1731,
      1636,
      1515,
      1371,
      1228,
      1094,
      958,
      851,
      755,
      628,
      577,
      430,
      360,
      226,
      125,
      0
    ],
    "swim:geom": "approach",
    "swim:timestamps": [
      1761082197,
      1761082200,
      1761082227,
      1761082233,
      1761082272,
      1761082311,
      1761082344,
      1761082356,
      1761082373,
      1761082381,
      1761082391,
      1761082417,
      1761082464,
      1761082497,
      1761082515,
      1761082547,
      1761082562,
      1761082575,
      1761082614,
      1761082626,
      1761082662,
      1761082686,
      1761082706,
      1761082720,
      1761082743,
      1761082767,
      1761082796,
      1761082823,
      1761082856,
      1761082878,
      1761082900,
      1761082929,
      1761082943,
      1761082977,
      1761082992,
      1761083025,
      1761083049,
      1761083073
    ],
    "wof:geomhash": "daa52bffd5b9f9e086f1083c45dc6ce9",
    "wof:id": 1981729029,
    "wof:repo": "sfomuseum-data-flights-2025-10"
  },
  "bbox": [
    -122.3575,
    37.4913,
    -121.24843,
    37.61365
  ],
  "geometry": {"coordinates":[[-121.24843,37.59467],[-121.25472,37.59385],[-121.30637,37.58757],[-121.31797,37.58642],[-121.39176,37.57799],[-121.46339,37.56964],[-121.51906,37.56313],[-121.53751,37.56098],[-121.56483,37.55773],[-121.57667,37.55642],[-121.59194,37.55466],[-121.63091,37.54924],[-121.69719,37.53351],[-121.74294,37.52252],[-121.76736,37.51673],[-121.80841,37.5069],[-121.82634,37.50256],[-121.84281,37.4985],[-121.89293,37.4913],[-121.90835,37.49169],[-121.95464,37.49302],[-121.98548,37.4952],[-122.00986,37.50175],[-122.02797,37.50761],[-122.05466,37.51615],[-122.08223,37.52526],[-122.11418,37.53561],[-122.14086,37.54429],[-122.17084,37.554],[-122.19022,37.56032],[-122.21,37.56668],[-122.23638,37.5751],[-122.24902,37.57924],[-122.27817,37.58786],[-122.29097,37.59168],[-122.31838,37.59996],[-122.33754,37.60603],[-122.3575,37.61365]],"type":"LineString"}
}
