{
  "id": 1981798279,
  "type": "Feature",
  "properties": {
    "geom:area": 0,
    "geom:bbox": "-122.385700,37.638400,-121.252750,38.164380",
    "geom:latitude": 37.991026036349,
    "geom:longitude": -121.93268043454813,
    "src:alt_label": "swim-takeoff",
    "src:geom": "swim",
    "swim:elevations": [
      357,
      402,
      622,
      878,
      1845,
      2278,
      2394,
      2617,
      2809,
      3480,
      3598,
      3857,
      4034,
      4260,
      4583,
      4856,
      5132,
      5387,
      5416,
      5615,
      5860,
      6290,
      6439
    ],
    "swim:geom": "takeoff",
    "swim:timestamps": [
      1761780958,
      1761780961,
      1761780983,
      1761781021,
      1761781122,
      1761781161,
      1761781170,
      1761781193,
      1761781211,
      1761781313,
      1761781346,
      1761781375,
      1761781392,
      1761781415,
      1761781451,
      1761781486,
      1761781522,
      1761781556,
      1761781569,
      1761781599,
      1761781634,
      1761781700,
      1761781724
    ],
    "wof:geomhash": "b97f6b4837d222c3fbca138f611ec379",
    "wof:id": 1981798279,
    "wof:repo": "sfomuseum-data-flights-2025-10"
  },
  "bbox": [
    -122.3857,
    37.6384,
    -121.25275,
    38.16438
  ],
  "geometry": {"coordinates":[[-122.35848,37.6384],[-122.3565,37.64026],[-122.34173,37.65402],[-122.31254,37.68053],[-122.36033,37.79349],[-122.38339,37.84042],[-122.3857,37.85275],[-122.38507,37.88289],[-122.38403,37.90738],[-122.22499,37.97253],[-122.15501,37.98676],[-122.09051,37.99977],[-122.05333,38.00722],[-122.00093,38.01774],[-121.91973,38.03397],[-121.83889,38.05001],[-121.75435,38.06676],[-121.674,38.08255],[-121.64391,38.08843],[-121.56815,38.10327],[-121.48306,38.11985],[-121.31449,38.15248],[-121.25275,38.16438]],"type":"LineString"}
}
