{
  "id": 1981785379,
  "type": "Feature",
  "properties": {
    "geom:area": 0,
    "geom:bbox": "-123.476000,37.630390,-122.402220,37.730860",
    "geom:latitude": 37.698020092886146,
    "geom:longitude": -122.93556753908848,
    "src:alt_label": "swim-takeoff",
    "src:geom": "swim",
    "swim:elevations": [
      213,
      398,
      967,
      1306,
      1554,
      2495,
      2583,
      2730,
      2808,
      3121,
      3252,
      3288,
      3426,
      3492,
      3726,
      3944,
      4143,
      4477,
      4610,
      5035,
      5288
    ],
    "swim:geom": "takeoff",
    "swim:timestamps": [
      1761611332,
      1761611347,
      1761611401,
      1761611457,
      1761611482,
      1761611555,
      1761611564,
      1761611577,
      1761611583,
      1761611610,
      1761611634,
      1761611640,
      1761611664,
      1761611675,
      1761611720,
      1761611756,
      1761611780,
      1761611814,
      1761611826,
      1761611874,
      1761611907
    ],
    "wof:geomhash": "a5b5a002a6204de4ea5c96f9a6b3918d",
    "wof:id": 1981785379,
    "wof:repo": "sfomuseum-data-flights-2025-10"
  },
  "bbox": [
    -123.476,
    37.63039,
    -122.40222,
    37.73086
  ],
  "geometry": {"coordinates":[[-122.40222,37.63039],[-122.41727,37.63677],[-122.47248,37.66045],[-122.54346,37.67699],[-122.58373,37.67972],[-122.70521,37.68711],[-122.72014,37.68803],[-122.74238,37.68934],[-122.75262,37.69002],[-122.79925,37.69268],[-122.84284,37.69518],[-122.85412,37.69583],[-122.9013,37.69867],[-122.92396,37.69994],[-123.02159,37.70549],[-123.10557,37.71046],[-123.16327,37.71369],[-123.24428,37.71814],[-123.27373,37.71972],[-123.39278,37.7263],[-123.476,37.73086]],"type":"LineString"}
}
