{
  "id": 1981741541,
  "type": "Feature",
  "properties": {
    "geom:area": 0,
    "geom:bbox": "-122.721944,37.633333,-122.272778,45.630833",
    "geom:latitude": 41.675356922077896,
    "geom:longitude": -122.52361351543124,
    "src:alt_label": "swim-path",
    "src:geom": "swim",
    "swim:altitudes": [
      "009",
      "009",
      "009",
      "009",
      "155",
      "155",
      "155",
      "155",
      "300C",
      "300C",
      "300C",
      "300C",
      "300C",
      "300C",
      "301",
      "301",
      "301",
      "340C",
      "340C",
      "340C",
      "340C",
      "340C",
      "340C",
      "340C",
      "340C",
      "340C",
      "340C",
      "340C",
      "340C",
      "340C",
      "340C",
      "340C",
      "340C",
      "340C",
      "340C",
      "340C",
      "340C",
      "340C",
      "340C",
      "340C",
      "340C",
      "340C",
      "340C",
      "340C",
      "340C",
      "340C",
      "340C",
      "340C",
      "340C",
      "324",
      "324",
      "324",
      "324",
      "324",
      "165",
      "165",
      "165",
      "113",
      "113",
      "113",
      "113",
      "113",
      "016",
      "016",
      "016",
      "009",
      "009",
      "009",
      "006",
      "001",
      "001"
    ],
    "swim:geom": "path",
    "swim:speeds": [
      163,
      163,
      163,
      163,
      363,
      363,
      363,
      363,
      409,
      409,
      409,
      409,
      409,
      409,
      438,
      438,
      438,
      426,
      426,
      426,
      430,
      430,
      433,
      433,
      433,
      436,
      436,
      436,
      436,
      438,
      438,
      438,
      438,
      441,
      441,
      442,
      447,
      447,
      447,
      448,
      450,
      450,
      452,
      452,
      452,
      454,
      454,
      454,
      454,
      466,
      466,
      466,
      466,
      466,
      344,
      344,
      344,
      324,
      324,
      324,
      324,
      324,
      188,
      188,
      188,
      168,
      168,
      168,
      142,
      144,
      144
    ],
    "swim:timestamps": [
      1761163924,
      1761163924,
      1761163924,
      1761163924,
      1761164317,
      1761164317,
      1761164317,
      1761164317,
      1761164798,
      1761164798,
      1761164798,
      1761164798,
      1761164798,
      1761164798,
      1761165278,
      1761165278,
      1761165278,
      1761165458,
      1761165458,
      1761165458,
      1761165579,
      1761165579,
      1761165639,
      1761165639,
      1761165639,
      1761165759,
      1761165759,
      1761165759,
      1761165759,
      1761165879,
      1761165879,
      1761165879,
      1761165879,
      1761166059,
      1761166059,
      1761166179,
      1761166300,
      1761166300,
      1761166300,
      1761166420,
      1761166480,
      1761166480,
      1761166540,
      1761166540,
      1761166540,
      1761166600,
      1761166600,
      1761166600,
      1761166600,
      1761167141,
      1761167141,
      1761167141,
      1761167141,
      1761167141,
      1761167622,
      1761167622,
      1761167622,
      1761167862,
      1761167862,
      1761167862,
      1761167862,
      1761167862,
      1761168481,
      1761168481,
      1761168481,
      1761168523,
      1761168523,
      1761168523,
      1761168541,
      1761168583,
      1761168583
    ],
    "wof:geomhash": "b9ef5d7fc4a77624eefd7cc8f79893e4",
    "wof:id": 1981741541,
    "wof:repo": "sfomuseum-data-flights-2025-10"
  },
  "bbox": [
    -122.72194444444445,
    37.63333333333333,
    -122.27277777777778,
    45.630833333333335
  ],
  "geometry": {"coordinates":[[-122.36666666666666,37.63333333333333],[-122.36666666666666,37.63333333333333],[-122.36666666666666,37.63333333333333],[-122.36666666666666,37.63333333333333],[-122.27277777777778,38.072500000000005],[-122.27277777777778,38.072500000000005],[-122.27277777777778,38.072500000000005],[-122.27277777777778,38.072500000000005],[-122.31888888888888,38.95638888888889],[-122.31888888888888,38.95638888888889],[-122.31888888888888,38.95638888888889],[-122.31888888888888,38.95638888888889],[-122.31888888888888,38.95638888888889],[-122.31888888888888,38.95638888888889],[-122.39555555555556,39.930277777777775],[-122.39555555555556,39.930277777777775],[-122.39555555555556,39.930277777777775],[-122.4225,40.271388888888886],[-122.4225,40.271388888888886],[-122.4225,40.271388888888886],[-122.44194444444445,40.511944444444445],[-122.44194444444445,40.511944444444445],[-122.45166666666667,40.632777777777775],[-122.45166666666667,40.632777777777775],[-122.45166666666667,40.632777777777775],[-122.47166666666666,40.87583333333333],[-122.47166666666666,40.87583333333333],[-122.47166666666666,40.87583333333333],[-122.47166666666666,40.87583333333333],[-122.49166666666667,41.11944444444445],[-122.49166666666667,41.11944444444445],[-122.49166666666667,41.11944444444445],[-122.49166666666667,41.11944444444445],[-122.52277777777778,41.49583333333334],[-122.52277777777778,41.49583333333334],[-122.54333333333334,41.740833333333335],[-122.56444444444445,41.99277777777778],[-122.56444444444445,41.99277777777778],[-122.56444444444445,41.99277777777778],[-122.58583333333333,42.245],[-122.59666666666666,42.37027777777778],[-122.59666666666666,42.37027777777778],[-122.60722222222222,42.49638888888889],[-122.60722222222222,42.49638888888889],[-122.60722222222222,42.49638888888889],[-122.61833333333333,42.62305555555555],[-122.61833333333333,42.62305555555555],[-122.61833333333333,42.62305555555555],[-122.61833333333333,42.62305555555555],[-122.72194444444445,43.80083333333333],[-122.72194444444445,43.80083333333333],[-122.72194444444445,43.80083333333333],[-122.72194444444445,43.80083333333333],[-122.72194444444445,43.80083333333333],[-122.69694444444445,44.722500000000004],[-122.69694444444445,44.722500000000004],[-122.69694444444445,44.722500000000004],[-122.66000000000001,45.08583333333333],[-122.66000000000001,45.08583333333333],[-122.66000000000001,45.08583333333333],[-122.66000000000001,45.08583333333333],[-122.66000000000001,45.08583333333333],[-122.71555555555555,45.630833333333335],[-122.71555555555555,45.630833333333335],[-122.71555555555555,45.630833333333335],[-122.67694444444444,45.61666666666667],[-122.67694444444444,45.61666666666667],[-122.67694444444444,45.61666666666667],[-122.65972222222223,45.60861111111111],[-122.62694444444443,45.59722222222222],[-122.62694444444443,45.59722222222222]],"type":"LineString"}
}
