{
  "id": 1981711039,
  "type": "Feature",
  "properties": {
    "geom:area": 0,
    "geom:bbox": "-122.358460,37.491620,-121.248970,37.614230",
    "geom:latitude": 37.54688136235242,
    "geom:longitude": -121.80863627677581,
    "src:alt_label": "swim-approach",
    "src:geom": "swim",
    "swim:elevations": [
      5036,
      4880,
      4785,
      4522,
      4422,
      3978,
      3712,
      3437,
      3179,
      3045,
      3017,
      2772,
      2689,
      2441,
      2365,
      2134,
      2033,
      1887,
      1765,
      1688,
      1483,
      1307,
      1081,
      917,
      797,
      638,
      429,
      305,
      226,
      123,
      0
    ],
    "swim:geom": "approach",
    "swim:timestamps": [
      1760869237,
      1760869253,
      1760869261,
      1760869284,
      1760869296,
      1760869338,
      1760869367,
      1760869393,
      1760869428,
      1760869456,
      1760869474,
      1760869523,
      1760869537,
      1760869587,
      1760869597,
      1760869634,
      1760869658,
      1760869693,
      1760869738,
      1760869751,
      1760869789,
      1760869813,
      1760869837,
      1760869862,
      1760869880,
      1760869907,
      1760869947,
      1760869978,
      1760869997,
      1760870021,
      1760870048
    ],
    "wof:geomhash": "568357143da50c1a287c9c81bcc15af6",
    "wof:id": 1981711039,
    "wof:repo": "sfomuseum-data-flights-2025-10"
  },
  "bbox": [
    -122.35846,
    37.49162,
    -121.24897,
    37.61423
  ],
  "geometry": {"coordinates":[[-121.24897,37.59458],[-121.27655,37.59082],[-121.28979,37.58913],[-121.3301,37.58479],[-121.35,37.58265],[-121.42261,37.57445],[-121.47058,37.56894],[-121.51438,37.56378],[-121.57093,37.55709],[-121.61563,37.55186],[-121.64373,37.54621],[-121.71969,37.5282],[-121.74022,37.52327],[-121.81236,37.50598],[-121.82717,37.50247],[-121.88005,37.49162],[-121.91494,37.49217],[-121.9654,37.49333],[-122.02553,37.50692],[-122.04194,37.51201],[-122.08966,37.52754],[-122.11774,37.53643],[-122.14768,37.54614],[-122.1776,37.55599],[-122.19932,37.56316],[-122.23076,37.57354],[-122.27295,37.58656],[-122.30156,37.59456],[-122.31773,37.59955],[-122.3378,37.60584],[-122.35846,37.61423]],"type":"LineString"}
}
