{
  "id": 1997543269,
  "type": "Feature",
  "properties": {
    "geom:area": 0,
    "geom:bbox": "-123.484940,36.981170,-122.099580,37.614380",
    "geom:latitude": 37.30491620271514,
    "geom:longitude": -122.70223263111441,
    "src:alt_label": "swim-approach",
    "src:geom": "swim",
    "swim:elevations": [
      6035,
      5791,
      5547,
      5350,
      5177,
      5034,
      4710,
      4352,
      4203,
      4167,
      3791,
      3632,
      3497,
      3176,
      3044,
      2955,
      2899,
      2733,
      2647,
      2482,
      2438,
      2438,
      2438,
      2438,
      2438,
      2438,
      2438,
      2301,
      2121,
      1918,
      1870,
      1676,
      1558,
      1334,
      1095,
      941,
      913,
      727,
      613,
      412,
      285,
      213,
      185,
      88,
      0
    ],
    "swim:geom": "approach",
    "swim:timestamps": [
      1761896720,
      1761896744,
      1761896769,
      1761896792,
      1761896811,
      1761896827,
      1761896861,
      1761896901,
      1761896931,
      1761896945,
      1761896994,
      1761897013,
      1761897030,
      1761897072,
      1761897094,
      1761897148,
      1761897165,
      1761897199,
      1761897219,
      1761897249,
      1761897282,
      1761897306,
      1761897331,
      1761897346,
      1761897377,
      1761897408,
      1761897431,
      1761897471,
      1761897501,
      1761897535,
      1761897556,
      1761897598,
      1761897624,
      1761897657,
      1761897688,
      1761897716,
      1761897732,
      1761897774,
      1761897796,
      1761897836,
      1761897868,
      1761897890,
      1761897896,
      1761897921,
      1761897943
    ],
    "wof:geomhash": "769547fbd029ab8ee0301115b92e998b",
    "wof:id": 1997543269,
    "wof:repo": "sfomuseum-data-flights-2025-10"
  },
  "bbox": [
    -123.48494,
    36.98117,
    -122.09958,
    37.61438
  ],
  "geometry": {"coordinates":[[-123.48494,36.98117],[-123.44589,37.00406],[-123.40519,37.0285],[-123.36937,37.0502],[-123.33936,37.0686],[-123.314,37.08392],[-123.2603,37.11665],[-123.1984,37.15435],[-123.15224,37.18213],[-123.1293,37.19267],[-123.04552,37.21486],[-123.01198,37.22268],[-122.98257,37.22948],[-122.90791,37.24714],[-122.8705,37.25588],[-122.78056,37.27706],[-122.75251,37.28368],[-122.69741,37.29643],[-122.66509,37.30399],[-122.61636,37.31519],[-122.56366,37.32741],[-122.52511,37.3364],[-122.48444,37.34576],[-122.46048,37.35132],[-122.41115,37.36259],[-122.36507,37.37322],[-122.33172,37.38096],[-122.27137,37.39484],[-122.22833,37.40456],[-122.17931,37.41577],[-122.15026,37.42242],[-122.10959,37.44949],[-122.09958,37.47181],[-122.11514,37.49701],[-122.13613,37.51802],[-122.16327,37.53184],[-122.18027,37.53896],[-122.22304,37.55708],[-122.24464,37.56626],[-122.28221,37.58204],[-122.30688,37.59241],[-122.32282,37.59915],[-122.32706,37.60098],[-122.34476,37.60834],[-122.36005,37.61438]],"type":"LineString"}
}
