{
  "id": 1981734033,
  "type": "Feature",
  "properties": {
    "geom:area": 0,
    "geom:bbox": "-122.380000,35.170000,-80.950000,38.680000",
    "geom:latitude": 37.43606170562617,
    "geom:longitude": -101.65823680476487,
    "src:alt_label": "swim-route",
    "src:geom": "swim",
    "swim:geom": "route",
    "wof:geomhash": "206ef4032e74fbfef0fe761ec79fb6c1",
    "wof:id": 1981734033,
    "wof:repo": "sfomuseum-data-flights-2025-10"
  },
  "bbox": [
    -122.38,
    35.17,
    -80.95,
    38.68
  ],
  "geometry": {"coordinates":[[-80.95,35.21],[-81.13,35.2],[-81.18,35.2],[-81.33,35.19],[-81.35,35.19],[-81.53,35.19],[-81.57,35.19],[-81.59,35.19],[-81.63,35.19],[-82.21,35.17],[-82.52,35.25],[-83.25,35.41],[-83.25,35.41],[-83.67,35.48],[-83.76,35.49],[-84.53,35.6],[-85.2,35.68],[-85.29,35.7],[-87.48,36.06],[-88.92,36.27],[-89.04,36.29],[-90.37,36.46],[-92.23,36.67],[-92.7,36.76],[-92.88,36.79],[-93.49,36.89],[-93.94,36.96],[-94.83,37.1],[-95.05,37.13],[-96.16,37.29],[-96.61,37.36],[-96.83,37.39],[-97.73,37.5],[-98.4,37.59],[-99.65,37.77],[-100.73,37.92],[-101.6,38.02],[-103.52,38.21],[-104.43,38.29],[-105.09,38.34],[-105.42,38.37],[-105.75,38.4],[-108.13,38.58],[-109.94,38.68],[-109.98,38.68],[-111.8,38.68],[-113.18,38.67],[-113.65,38.64],[-113.89,38.63],[-114.37,38.61],[-115.09,38.56],[-116.33,38.33],[-117.27,38.12],[-117.27,38.12],[-117.77,38],[-118.76,37.9],[-119.1,37.86],[-119.61,37.8],[-119.72,37.78],[-119.82,37.77],[-119.92,37.76],[-120.02,37.75],[-120.31,37.71],[-120.4,37.7],[-120.4,37.7],[-120.57,37.68],[-120.69,37.67],[-120.75,37.66],[-120.79,37.65],[-120.8,37.65],[-120.96,37.63],[-121,37.63],[-121.01,37.63],[-121.07,37.62],[-121.17,37.61],[-121.26,37.59],[-121.39,37.58],[-121.41,37.58],[-121.6,37.55],[-121.61,37.55],[-121.62,37.55],[-121.72,37.53],[-121.8,37.51],[-121.88,37.49],[-121.89,37.49],[-122.01,37.53],[-122.08,37.54],[-122.18,37.57],[-122.18,37.57],[-122.28,37.59],[-122.33,37.61],[-122.36,37.61],[-122.38,37.62]],"type":"LineString"}
}
