{
  "id": 1981740441,
  "type": "Feature",
  "properties": {
    "geom:area": 0,
    "geom:bbox": "-123.480370,37.091310,-122.364070,37.735030",
    "geom:latitude": 37.44356596303676,
    "geom:longitude": -122.89389887498001,
    "src:alt_label": "swim-takeoff",
    "src:geom": "swim",
    "swim:elevations": [
      122,
      438,
      646,
      702,
      784,
      864,
      1395,
      1851,
      2043,
      2442,
      2846,
      2987,
      3270,
      3604,
      3705,
      4070,
      4555,
      4623,
      5146,
      5194,
      5545,
      5835,
      6083,
      6166,
      6512,
      6612,
      6856,
      6938,
      6992
    ],
    "swim:geom": "takeoff",
    "swim:timestamps": [
      1761125926,
      1761125951,
      1761125991,
      1761126002,
      1761126015,
      1761126030,
      1761126078,
      1761126113,
      1761126129,
      1761126162,
      1761126197,
      1761126211,
      1761126253,
      1761126298,
      1761126307,
      1761126343,
      1761126383,
      1761126391,
      1761126448,
      1761126452,
      1761126498,
      1761126532,
      1761126568,
      1761126580,
      1761126626,
      1761126641,
      1761126674,
      1761126690,
      1761126698
    ],
    "wof:geomhash": "30d9ea069095e1c44f344d34962e9e85",
    "wof:id": 1981740441,
    "wof:repo": "sfomuseum-data-flights-2025-10"
  },
  "bbox": [
    -123.48037,
    37.09131,
    -122.36407,
    37.73503
  ],
  "geometry": {"coordinates":[[-122.36986,37.62744],[-122.36654,37.64511],[-122.36528,37.67874],[-122.36407,37.69013],[-122.36904,37.70343],[-122.38255,37.71509],[-122.44994,37.73503],[-122.49508,37.71171],[-122.51447,37.69892],[-122.55706,37.67143],[-122.60253,37.64174],[-122.62181,37.62908],[-122.68194,37.58954],[-122.75336,37.54261],[-122.76789,37.53307],[-122.82768,37.49366],[-122.89573,37.44876],[-122.90915,37.43994],[-123.00598,37.37591],[-123.0127,37.37149],[-123.09394,37.31759],[-123.15699,37.27993],[-123.22532,37.24016],[-123.24839,37.22671],[-123.33847,37.17425],[-123.36683,37.1577],[-123.43328,37.11884],[-123.46344,37.1012],[-123.48037,37.09131]],"type":"LineString"}
}
