{
  "id": 1981593149,
  "type": "Feature",
  "properties": {
    "geom:area": 0,
    "geom:bbox": "-122.360710,37.635260,-121.264080,37.962830",
    "geom:latitude": 37.83851219427082,
    "geom:longitude": -121.82639449612883,
    "src:alt_label": "swim-takeoff",
    "src:geom": "swim",
    "swim:elevations": [
      320,
      648,
      1007,
      1045,
      1217,
      1757,
      1895,
      2307,
      2525,
      3022,
      3140,
      3321,
      3435,
      3725,
      4071,
      4270,
      4611,
      4835,
      5263,
      5409,
      5857,
      6175,
      6373,
      6399
    ],
    "swim:geom": "takeoff",
    "swim:timestamps": [
      1759655993,
      1759656016,
      1759656055,
      1759656072,
      1759656098,
      1759656134,
      1759656143,
      1759656174,
      1759656190,
      1759656230,
      1759656264,
      1759656286,
      1759656297,
      1759656321,
      1759656349,
      1759656369,
      1759656400,
      1759656430,
      1759656475,
      1759656489,
      1759656533,
      1759656568,
      1759656598,
      1759656615
    ],
    "wof:geomhash": "07adf0af7f9874439f18b04d26071fcf",
    "wof:id": 1981593149,
    "wof:repo": "sfomuseum-data-flights-2025-10"
  },
  "bbox": [
    -122.36071,
    37.63526,
    -121.26408,
    37.96283
  ],
  "geometry": {"coordinates":[[-122.36071,37.63526],[-122.3429,37.64764],[-122.31136,37.66555],[-122.29455,37.67527],[-122.26576,37.69181],[-122.21869,37.71601],[-122.2075,37.72179],[-122.16584,37.74344],[-122.14368,37.75489],[-122.08701,37.78419],[-122.03368,37.81191],[-121.99225,37.8289],[-121.9704,37.83335],[-121.92092,37.84242],[-121.86063,37.85351],[-121.81775,37.86138],[-121.7531,37.87348],[-121.68562,37.88593],[-121.58487,37.90449],[-121.55165,37.91057],[-121.45202,37.92846],[-121.37125,37.94336],[-121.30221,37.9559],[-121.26408,37.96283]],"type":"LineString"}
}
