{
  "id": 1997546793,
  "type": "Feature",
  "properties": {
    "geom:area": 0,
    "geom:bbox": "-122.380000,27.810000,-81.310000,38.650000",
    "geom:latitude": 33.83324132676419,
    "geom:longitude": -101.73325331423662,
    "src:alt_label": "swim-route",
    "src:geom": "swim",
    "swim:geom": "route",
    "wof:geomhash": "571aa55823ffbd0d5dc2e09457735b9c",
    "wof:id": 1997546793,
    "wof:repo": "sfomuseum-data-flights-2025-10"
  },
  "bbox": [
    -122.38,
    27.81,
    -81.31,
    38.65
  ],
  "geometry": {"coordinates":[[-122.38,37.62],[-122.28,37.68],[-122.27,37.69],[-122.27,37.69],[-122.21,37.72],[-122.2,37.72],[-122.2,37.73],[-122.18,37.74],[-122.17,37.74],[-122.16,37.75],[-122.11,37.77],[-122.1,37.78],[-122,37.83],[-121.93,37.84],[-121.73,37.88],[-121.7,37.88],[-121.65,37.89],[-121.57,37.91],[-121.41,37.94],[-121.34,37.95],[-121.29,37.96],[-121.17,37.98],[-121.14,37.98],[-121.1,37.99],[-121.07,38],[-121.04,38],[-120.85,38.03],[-120.84,38.05],[-120.81,38.12],[-120.78,38.19],[-120.1,38.23],[-119.81,38.27],[-119.58,38.29],[-119.19,38.33],[-118.24,38.43],[-118.1,38.45],[-117.88,38.5],[-117.78,38.53],[-117.66,38.65],[-117.29,38.62],[-116.85,38.53],[-115.94,38.53],[-114.96,38.44],[-114.33,38.4],[-113.95,38.31],[-112.57,37.97],[-112,37.83],[-111.43,37.6],[-111.23,37.51],[-110,37],[-109.2,36.82],[-108.54,36.67],[-108.05,36.45],[-107.35,36.25],[-105.44,35.66],[-103.54,35.04],[-103.29,34.95],[-102.18,34.57],[-100.34,33.9],[-98,33],[-97.78,32.94],[-97.52,32.86],[-96.36,32.5],[-95.66,32.28],[-94.61,31.79],[-94.3,31.65],[-94,31.5],[-93.86,31.43],[-92.54,30.78],[-92.27,30.64],[-92,30.5],[-91.96,30.48],[-90.55,29.8],[-90.31,29.69],[-90.11,29.59],[-89.7,29.39],[-89.5,29.29],[-89.3,29.19],[-88.7,28.88],[-88.08,28.71],[-88.01,28.69],[-86.71,28.31],[-85.26,27.88],[-85.05,27.85],[-84.83,27.81],[-83.92,27.85],[-83.81,27.86],[-83.45,27.87],[-83.39,27.88],[-83.27,27.88],[-83.26,27.88],[-83.18,27.88],[-82.98,27.88],[-82.67,27.88],[-82.42,27.88],[-82.41,27.88],[-82.37,27.89],[-82.19,27.96],[-81.98,28.05],[-81.97,28.05],[-81.97,28.05],[-81.88,28.09],[-81.88,28.09],[-81.81,28.14],[-81.8,28.15],[-81.77,28.17],[-81.7,28.21],[-81.68,28.22],[-81.54,28.3],[-81.52,28.31],[-81.46,28.34],[-81.43,28.36],[-81.38,28.39],[-81.31,28.43]],"type":"LineString"}
}
