{
  "id": 1997544997,
  "type": "Feature",
  "properties": {
    "geom:area": 0,
    "geom:bbox": "-159.333333,21.766667,-122.823611,37.591944",
    "geom:latitude": 29.998018004884997,
    "geom:longitude": -141.24815198928016,
    "src:alt_label": "swim-path",
    "src:geom": "swim",
    "swim:altitudes": [
      "108",
      "108",
      "108",
      "108",
      "108",
      "108",
      "200C",
      "200C",
      "200C",
      "200C",
      "200C",
      "200C",
      "334",
      "334",
      "334",
      "334",
      "345",
      "345",
      "345",
      "345",
      "345",
      "360C",
      "360C",
      "360C",
      "360C",
      "360C",
      "360C",
      "360C",
      "360C",
      "360C",
      "360C",
      "360C",
      "390",
      "390",
      "390",
      "390",
      "390",
      "390",
      "390",
      "390",
      "390",
      "390",
      "390",
      "390",
      "390",
      "390",
      "390",
      "390",
      "390",
      "390",
      "390",
      "390",
      "390",
      "390",
      "390T",
      "390T",
      "390T",
      "390T",
      "390T",
      "390T",
      "390T",
      "049T",
      "023T",
      "023T",
      "015T",
      "015T",
      "015T",
      "015T"
    ],
    "swim:geom": "path",
    "swim:speeds": [
      307,
      307,
      307,
      307,
      307,
      307,
      430,
      430,
      430,
      430,
      430,
      430,
      481,
      481,
      481,
      481,
      481,
      481,
      481,
      481,
      481,
      473,
      473,
      473,
      473,
      473,
      471,
      471,
      471,
      471,
      471,
      471,
      460,
      460,
      460,
      460,
      460,
      460,
      460,
      460,
      460,
      460,
      460,
      460,
      460,
      460,
      460,
      460,
      460,
      460,
      460,
      460,
      460,
      460,
      470,
      470,
      470,
      470,
      470,
      470,
      470,
      280,
      160,
      160,
      140,
      140,
      140,
      140
    ],
    "swim:timestamps": [
      1761921303,
      1761921303,
      1761921303,
      1761921303,
      1761921303,
      1761921303,
      1761921598,
      1761921598,
      1761921598,
      1761921598,
      1761921598,
      1761921598,
      1761922084,
      1761922084,
      1761922084,
      1761922084,
      1761922144,
      1761922144,
      1761922144,
      1761922144,
      1761922144,
      1761922504,
      1761922504,
      1761922504,
      1761922504,
      1761922504,
      1761922624,
      1761922624,
      1761922624,
      1761922624,
      1761922624,
      1761922624,
      1761934818,
      1761934818,
      1761934939,
      1761934939,
      1761934939,
      1761934939,
      1761934939,
      1761935119,
      1761935119,
      1761935119,
      1761935240,
      1761935240,
      1761935240,
      1761935421,
      1761935421,
      1761935421,
      1761935421,
      1761935421,
      1761935721,
      1761935721,
      1761935721,
      1761935721,
      1761936263,
      1761936263,
      1761936263,
      1761936263,
      1761936263,
      1761936263,
      1761936263,
      1761937587,
      1761937827,
      1761937827,
      1761937887,
      1761937887,
      1761937887,
      1761937887
    ],
    "wof:geomhash": "d6adf405e0e5c2c67c7533a8c41318d3",
    "wof:id": 1997544997,
    "wof:repo": "sfomuseum-data-flights-2025-10"
  },
  "bbox": [
    -159.33333333333334,
    21.766666666666666,
    -122.8236111111111,
    37.591944444444444
  ],
  "geometry": {"coordinates":[[-122.8236111111111,37.591944444444444],[-122.8236111111111,37.591944444444444],[-122.8236111111111,37.591944444444444],[-122.8236111111111,37.591944444444444],[-122.8236111111111,37.591944444444444],[-122.8236111111111,37.591944444444444],[-123.45,37.416666666666664],[-123.45,37.416666666666664],[-123.45,37.416666666666664],[-123.45,37.416666666666664],[-123.45,37.416666666666664],[-123.45,37.416666666666664],[-124.715,37.080555555555556],[-124.715,37.080555555555556],[-124.715,37.080555555555556],[-124.715,37.080555555555556],[-124.87249999999999,37.03611111111111],[-124.87249999999999,37.03611111111111],[-124.87249999999999,37.03611111111111],[-124.87249999999999,37.03611111111111],[-124.87249999999999,37.03611111111111],[-125.80833333333334,36.77972222222222],[-125.80833333333334,36.77972222222222],[-125.80833333333334,36.77972222222222],[-125.80833333333334,36.77972222222222],[-125.80833333333334,36.77972222222222],[-126.11638888888888,36.69416666666666],[-126.11638888888888,36.69416666666666],[-126.11638888888888,36.69416666666666],[-126.11638888888888,36.69416666666666],[-126.11638888888888,36.69416666666666],[-126.11638888888888,36.69416666666666],[-153.83333333333334,24.533333333333335],[-153.83333333333334,24.533333333333335],[-154.06666666666666,24.4],[-154.06666666666666,24.4],[-154.06666666666666,24.4],[-154.06666666666666,24.4],[-154.06666666666666,24.4],[-154.43333333333334,24.2],[-154.43333333333334,24.2],[-154.43333333333334,24.2],[-154.66666666666666,24.083333333333332],[-154.66666666666666,24.083333333333332],[-154.66666666666666,24.083333333333332],[-155.05,23.9],[-155.05,23.9],[-155.05,23.9],[-155.05,23.9],[-155.05,23.9],[-155.66666666666666,23.583333333333332],[-155.66666666666666,23.583333333333332],[-155.66666666666666,23.583333333333332],[-155.66666666666666,23.583333333333332],[-156.76666666666668,23.033333333333335],[-156.76666666666668,23.033333333333335],[-156.76666666666668,23.033333333333335],[-156.76666666666668,23.033333333333335],[-156.76666666666668,23.033333333333335],[-156.76666666666668,23.033333333333335],[-156.76666666666668,23.033333333333335],[-159.15,21.766666666666666],[-159.33333333333334,21.833333333333332],[-159.33333333333334,21.833333333333332],[-159.33333333333334,21.883333333333333],[-159.33333333333334,21.883333333333333],[-159.33333333333334,21.883333333333333],[-159.33333333333334,21.883333333333333]],"type":"LineString"}
}
