{
  "id": 1981653033,
  "type": "Feature",
  "properties": {
    "geom:area": 0,
    "geom:bbox": "-122.369190,37.623940,-121.264630,37.962290",
    "geom:latitude": 37.835594195550314,
    "geom:longitude": -121.83260830997577,
    "src:alt_label": "swim-takeoff",
    "src:geom": "swim",
    "swim:elevations": [
      122,
      852,
      1067,
      1443,
      1836,
      2172,
      2452,
      2738,
      3137,
      3294,
      3394,
      3654,
      4336,
      4533,
      4936,
      5200,
      5286,
      5656,
      5945,
      6061,
      6347
    ],
    "swim:geom": "takeoff",
    "swim:timestamps": [
      1760301512,
      1760301565,
      1760301596,
      1760301622,
      1760301643,
      1760301661,
      1760301678,
      1760301700,
      1760301738,
      1760301775,
      1760301791,
      1760301813,
      1760301866,
      1760301885,
      1760301919,
      1760301957,
      1760301965,
      1760301996,
      1760302025,
      1760302042,
      1760302073
    ],
    "wof:geomhash": "b58175c96686326e710695dc82c37554",
    "wof:id": 1981653033,
    "wof:repo": "sfomuseum-data-flights-2025-10"
  },
  "bbox": [
    -122.36919,
    37.62394,
    -121.26463,
    37.96229
  ],
  "geometry": {"coordinates":[[-122.36919,37.62394],[-122.33084,37.65319],[-122.29802,37.67214],[-122.2645,37.6911],[-122.23514,37.70605],[-122.21021,37.71896],[-122.18703,37.73126],[-122.15545,37.74791],[-122.09601,37.77928],[-122.02858,37.81421],[-121.99525,37.82781],[-121.94269,37.83832],[-121.81477,37.86156],[-121.76735,37.8704],[-121.68041,37.88667],[-121.5812,37.9048],[-121.55916,37.90883],[-121.47686,37.92385],[-121.39825,37.93816],[-121.35281,37.94636],[-121.26463,37.96229]],"type":"LineString"}
}
