{
  "id": 1981671361,
  "type": "Feature",
  "properties": {
    "geom:area": 0,
    "geom:bbox": "-123.463710,37.630980,-122.403860,37.727510",
    "geom:latitude": 37.69716109318152,
    "geom:longitude": -122.93006366984052,
    "src:alt_label": "swim-takeoff",
    "src:geom": "swim",
    "swim:elevations": [
      368,
      578,
      610,
      768,
      1292,
      1398,
      1849,
      2332,
      2448,
      2616,
      2920,
      3101,
      3427,
      3606,
      3894,
      3964,
      4296,
      4476,
      4875,
      4922,
      5463,
      5584,
      5846
    ],
    "swim:geom": "takeoff",
    "swim:timestamps": [
      1760480635,
      1760480660,
      1760480677,
      1760480708,
      1760480755,
      1760480764,
      1760480802,
      1760480846,
      1760480855,
      1760480871,
      1760480901,
      1760480918,
      1760480950,
      1760480970,
      1760481017,
      1760481041,
      1760481085,
      1760481103,
      1760481148,
      1760481154,
      1760481206,
      1760481218,
      1760481252
    ],
    "wof:geomhash": "cb2c925cf1c9a5dbb5cbfb43f316260e",
    "wof:id": 1981671361,
    "wof:repo": "sfomuseum-data-flights-2025-10"
  },
  "bbox": [
    -123.46371,
    37.63098,
    -122.40386,
    37.72751
  ],
  "geometry": {"coordinates":[[-122.40386,37.63098],[-122.42539,37.6406],[-122.44289,37.64826],[-122.47803,37.6636],[-122.54353,37.67792],[-122.55695,37.67853],[-122.61233,37.6815],[-122.6791,37.6855],[-122.69299,37.68637],[-122.71829,37.68784],[-122.76648,37.6908],[-122.79339,37.69242],[-122.84608,37.69548],[-122.87846,37.69732],[-122.9629,37.70192],[-123.00939,37.70435],[-123.09922,37.70899],[-123.13707,37.7109],[-123.23422,37.71595],[-123.24727,37.71661],[-123.36103,37.7224],[-123.38704,37.72365],[-123.46371,37.72751]],"type":"LineString"}
}
