{
  "id": 1981780693,
  "type": "Feature",
  "properties": {
    "geom:area": 0,
    "geom:bbox": "-122.358800,36.737780,-121.889400,37.611940",
    "geom:latitude": 37.217267588621084,
    "geom:longitude": -122.10086579801029,
    "src:alt_label": "swim-approach",
    "src:geom": "swim",
    "swim:elevations": [
      5622,
      5402,
      5321,
      4868,
      4796,
      4634,
      4318,
      4137,
      3920,
      3807,
      3594,
      3566,
      3506,
      3247,
      3176,
      2980,
      2723,
      2589,
      2582,
      2544,
      2407,
      2283,
      1982,
      1910,
      1725,
      1645,
      1532,
      1451,
      1312,
      1262,
      1157,
      1091,
      961,
      932,
      816,
      595,
      515,
      395,
      266,
      219,
      197,
      89,
      68
    ],
    "swim:geom": "approach",
    "swim:timestamps": [
      1761600320,
      1761600347,
      1761600363,
      1761600416,
      1761600426,
      1761600442,
      1761600477,
      1761600499,
      1761600526,
      1761600551,
      1761600596,
      1761600604,
      1761600614,
      1761600656,
      1761600666,
      1761600698,
      1761600747,
      1761600772,
      1761600775,
      1761600780,
      1761600799,
      1761600821,
      1761600867,
      1761600881,
      1761600925,
      1761600949,
      1761600980,
      1761601004,
      1761601044,
      1761601058,
      1761601082,
      1761601093,
      1761601119,
      1761601128,
      1761601150,
      1761601188,
      1761601200,
      1761601227,
      1761601258,
      1761601271,
      1761601278,
      1761601309,
      1761601333
    ],
    "wof:geomhash": "8705d5d6711781a1afe5ee999fc117a2",
    "wof:id": 1981780693,
    "wof:repo": "sfomuseum-data-flights-2025-10"
  },
  "bbox": [
    -122.3588,
    36.73778,
    -121.8894,
    37.61194
  ],
  "geometry": {"coordinates":[[-121.8894,36.73778],[-121.90381,36.77648],[-121.91027,36.79951],[-121.93194,36.87667],[-121.93579,36.89066],[-121.94192,36.91261],[-121.95714,36.96236],[-121.96797,36.99078],[-121.98194,37.02614],[-121.99394,37.05671],[-122.02894,37.09929],[-122.03697,37.10555],[-122.0463,37.1129],[-122.08685,37.14415],[-122.09712,37.15191],[-122.12966,37.17608],[-122.17855,37.2127],[-122.20223,37.23069],[-122.20527,37.23296],[-122.21062,37.237],[-122.22279,37.25286],[-122.21742,37.27495],[-122.18136,37.31425],[-122.17035,37.3263],[-122.14485,37.36675],[-122.13663,37.39017],[-122.12553,37.42068],[-122.12577,37.44402],[-122.13834,37.47901],[-122.14704,37.489],[-122.16233,37.50449],[-122.16959,37.51148],[-122.18806,37.52893],[-122.19455,37.53473],[-122.21176,37.54795],[-122.2458,37.56437],[-122.25712,37.56922],[-122.28103,37.57885],[-122.30481,37.58909],[-122.31363,37.59285],[-122.31884,37.59507],[-122.34164,37.60465],[-122.3588,37.61194]],"type":"LineString"}
}
