{
  "id": 1981720037,
  "type": "Feature",
  "properties": {
    "geom:area": 0,
    "geom:bbox": "-122.380000,37.490000,-77.460000,42.500000",
    "geom:latitude": 40.42575596838553,
    "geom:longitude": -99.95055318476751,
    "src:alt_label": "swim-route",
    "src:geom": "swim",
    "swim:geom": "route",
    "wof:geomhash": "fbd7909bc3c36db6eb2fc435d2e8fc04",
    "wof:id": 1981720037,
    "wof:repo": "sfomuseum-data-flights-2025-10"
  },
  "bbox": [
    -122.38,
    37.49,
    -77.46,
    42.5
  ],
  "geometry": {"coordinates":[[-77.46,38.95],[-77.55,38.93],[-77.58,38.92],[-77.58,38.92],[-77.61,38.92],[-77.64,38.91],[-77.67,38.9],[-77.67,38.9],[-77.68,38.9],[-77.71,38.9],[-77.71,38.9],[-77.74,38.89],[-77.77,38.89],[-77.79,38.89],[-77.93,38.87],[-77.97,38.89],[-78.1,38.93],[-78.17,38.95],[-78.17,38.95],[-78.21,38.96],[-78.22,38.96],[-78.26,38.96],[-78.3,38.97],[-78.38,38.97],[-78.42,38.97],[-78.62,38.99],[-78.71,38.99],[-78.85,39],[-78.86,39],[-78.88,39],[-79.01,39.01],[-79.08,39.01],[-79.17,39.02],[-79.18,39.02],[-79.36,39.03],[-79.37,39.03],[-79.48,39.04],[-80.3,39.09],[-80.43,39.1],[-81.09,39.13],[-82.03,39.33],[-82.98,39.53],[-83.37,39.65],[-83.61,39.72],[-84.51,39.99],[-84.81,40.07],[-85.29,40.21],[-85.39,40.24],[-85.61,40.3],[-86.61,40.6],[-88,41],[-88.01,41],[-88.23,41.07],[-89.01,41.29],[-89.21,41.34],[-89.35,41.38],[-90.13,41.57],[-91.44,41.87],[-91.78,41.95],[-92,42],[-93.25,42.19],[-95.02,42.44],[-96.28,42.47],[-98,42.5],[-99.43,42.5],[-100,42.5],[-100.82,42.39],[-102.18,42.2],[-102.4,42.16],[-103.08,42.06],[-104.6,41.78],[-106,41.5],[-106.25,41.46],[-106.8,41.28],[-109.13,40.5],[-109.74,40.29],[-110.13,40.15],[-110.25,40.11],[-111.75,39.58],[-111.94,39.51],[-112.51,39.3],[-113.32,39.12],[-117.27,38.12],[-117.27,38.12],[-117.77,38],[-118.76,37.9],[-119.1,37.86],[-119.81,37.77],[-119.99,37.75],[-120.04,37.74],[-120.26,37.72],[-120.28,37.72],[-120.38,37.7],[-120.4,37.7],[-120.75,37.66],[-120.78,37.66],[-120.83,37.65],[-120.96,37.63],[-121,37.63],[-121.08,37.62],[-121.18,37.6],[-121.26,37.59],[-121.39,37.58],[-121.41,37.58],[-121.6,37.55],[-121.61,37.55],[-121.62,37.55],[-121.7,37.53],[-121.8,37.51],[-121.83,37.5],[-121.88,37.49],[-122.08,37.54],[-122.14,37.56],[-122.18,37.57],[-122.28,37.59],[-122.33,37.61],[-122.36,37.61],[-122.38,37.62]],"type":"LineString"}
}
