{
  "id": 1981572005,
  "type": "Feature",
  "properties": {
    "geom:area": 0,
    "geom:bbox": "-122.671760,37.413590,-122.121900,38.479190",
    "geom:latitude": 37.832746884481864,
    "geom:longitude": -122.45896536500759,
    "src:alt_label": "swim-approach",
    "src:geom": "swim",
    "swim:elevations": [
      7559,
      7498,
      6952,
      6814,
      6266,
      6015,
      5829,
      5368,
      5070,
      4888,
      4598,
      4199,
      4065,
      3976,
      3836,
      3644,
      3362,
      3356,
      3353,
      3353,
      3353,
      3353,
      3185,
      2976,
      2905,
      2632,
      2256,
      2183,
      2151,
      2000,
      1833,
      1523,
      1355,
      1330,
      1024,
      857,
      802,
      881,
      885,
      441,
      334,
      184,
      152,
      85
    ],
    "swim:geom": "approach",
    "swim:timestamps": [
      1759512776,
      1759512781,
      1759512833,
      1759512846,
      1759512880,
      1759512908,
      1759512930,
      1759512985,
      1759513011,
      1759513037,
      1759513070,
      1759513105,
      1759513115,
      1759513127,
      1759513151,
      1759513178,
      1759513225,
      1759513236,
      1759513261,
      1759513288,
      1759513306,
      1759513321,
      1759513364,
      1759513407,
      1759513421,
      1759513456,
      1759513496,
      1759513528,
      1759513541,
      1759513571,
      1759513597,
      1759513646,
      1759513678,
      1759513683,
      1759513738,
      1759513768,
      1759513781,
      1759513818,
      1759513839,
      1759513888,
      1759513907,
      1759513944,
      1759513959,
      1759513983
    ],
    "wof:geomhash": "a27707c819880f10900cb212ed95bd69",
    "wof:id": 1981572005,
    "wof:repo": "sfomuseum-data-flights-2025-10"
  },
  "bbox": [
    -122.67176,
    37.41359,
    -122.1219,
    38.47919
  ],
  "geometry": {"coordinates":[[-122.50433,38.47919],[-122.51272,38.47108],[-122.60175,38.38495],[-122.62227,38.36501],[-122.66069,38.2996],[-122.66343,38.24013],[-122.66471,38.19547],[-122.66768,38.08993],[-122.66894,38.04077],[-122.67,37.99338],[-122.67176,37.93632],[-122.65016,37.87907],[-122.63606,37.86568],[-122.61938,37.85024],[-122.58786,37.82039],[-122.55323,37.78749],[-122.4954,37.73251],[-122.4821,37.71983],[-122.45335,37.69289],[-122.42073,37.66208],[-122.4008,37.64322],[-122.38397,37.62727],[-122.351,37.57996],[-122.32197,37.533],[-122.31248,37.51752],[-122.29052,37.48113],[-122.2601,37.43942],[-122.22174,37.42633],[-122.20638,37.42236],[-122.17294,37.41359],[-122.14673,37.41897],[-122.1219,37.45588],[-122.12988,37.4786],[-122.1327,37.48098],[-122.17239,37.51151],[-122.19317,37.52851],[-122.20165,37.53503],[-122.22979,37.55313],[-122.24603,37.56051],[-122.28464,37.57949],[-122.29777,37.58599],[-122.32183,37.59637],[-122.33158,37.60034],[-122.34613,37.60659]],"type":"LineString"}
}
