{
  "id": 1981645561,
  "type": "Feature",
  "properties": {
    "geom:area": 0,
    "geom:bbox": "-122.557410,36.718010,-122.089320,37.675500",
    "geom:latitude": 37.22543733876038,
    "geom:longitude": -122.40542790822923,
    "src:alt_label": "swim-takeoff",
    "src:geom": "swim",
    "swim:elevations": [
      352,
      767,
      895,
      1054,
      1075,
      1548,
      2064,
      2562,
      3109,
      3168,
      3319,
      3647,
      3895,
      4516,
      4765,
      4920,
      5015,
      5272,
      5393,
      5728,
      6112,
      6275,
      6657,
      6866,
      7228,
      7524,
      7754,
      8058,
      8318,
      8515
    ],
    "swim:geom": "takeoff",
    "swim:timestamps": [
      1760210336,
      1760210367,
      1760210379,
      1760210397,
      1760210400,
      1760210457,
      1760210487,
      1760210513,
      1760210547,
      1760210553,
      1760210570,
      1760210605,
      1760210622,
      1760210667,
      1760210688,
      1760210698,
      1760210704,
      1760210723,
      1760210731,
      1760210758,
      1760210788,
      1760210804,
      1760210846,
      1760210868,
      1760210905,
      1760210937,
      1760210962,
      1760210998,
      1760211028,
      1760211056
    ],
    "wof:geomhash": "bbf1f61354f6580d678b6367d89d91c7",
    "wof:id": 1981645561,
    "wof:repo": "sfomuseum-data-flights-2025-10"
  },
  "bbox": [
    -122.55741,
    36.71801,
    -122.08932,
    37.6755
  ],
  "geometry": {"coordinates":[[-122.36451,37.63387],[-122.36256,37.65564],[-122.3638,37.66481],[-122.3761,37.67449],[-122.37907,37.6755],[-122.45243,37.66097],[-122.49575,37.6431],[-122.52709,37.62048],[-122.54215,37.57499],[-122.54437,37.56654],[-122.55151,37.54073],[-122.55633,37.48339],[-122.55659,37.45487],[-122.555,37.37575],[-122.55653,37.33724],[-122.55711,37.31873],[-122.55741,37.3079],[-122.55512,37.27414],[-122.55084,37.2591],[-122.52047,37.21558],[-122.47934,37.17095],[-122.45676,37.14595],[-122.39877,37.07791],[-122.36762,37.04105],[-122.31405,36.97896],[-122.26615,36.92363],[-122.22999,36.88108],[-122.1764,36.81864],[-122.13113,36.76619],[-122.08932,36.71801]],"type":"LineString"}
}
