{
  "id": 1981759557,
  "type": "Feature",
  "properties": {
    "geom:area": 0,
    "geom:bbox": "-122.333333,37.733333,-87.933333,42.563611",
    "geom:latitude": 41.59266591965069,
    "geom:longitude": -105.31137566736115,
    "src:alt_label": "swim-path",
    "src:geom": "swim",
    "swim:altitudes": [
      "049",
      "270C",
      "270C",
      "270C",
      "270C",
      "270C",
      "270C",
      "270C",
      "270C",
      "270C",
      "270C",
      "270C",
      "270C",
      "270C",
      "270C",
      "270C",
      "270C",
      "270C",
      "270C",
      "281",
      "297",
      "312",
      "312",
      "350C",
      "350C",
      "350C",
      "350C",
      "350C",
      "350C",
      "350C",
      "350C",
      "350C",
      "350C",
      "350C",
      "350C",
      "350C",
      "350C",
      "350C",
      "350C",
      "350C",
      "350C",
      "350C",
      "350C",
      "350C",
      "350C",
      "350C",
      "350C",
      "350C",
      "350C",
      "350C",
      "350C",
      "350C",
      "350C",
      "350C",
      "350C",
      "350C",
      "350C",
      "348",
      "339",
      "334",
      "329",
      "310",
      "301",
      "301",
      "296",
      "286",
      "272C",
      "270C",
      "270C",
      "270C",
      "270C",
      "270C",
      "270C",
      "270C",
      "270C",
      "270C",
      "270C",
      "270C",
      "270C",
      "270C",
      "270C",
      "270C",
      "270C",
      "270C",
      "270C",
      "270C",
      "270C",
      "270C",
      "270C",
      "270C",
      "270C",
      "270C",
      "270C",
      "270C",
      "270C",
      "270C",
      "270C",
      "270C",
      "270C",
      "270C",
      "270C",
      "270C",
      "270C",
      "270C",
      "270C",
      "270C",
      "270C",
      "270C",
      "270C",
      "270C",
      "270C",
      "270C",
      "270C",
      "270C",
      "270C",
      "270C",
      "270C",
      "270C",
      "270C",
      "270C",
      "270C",
      "268",
      "268",
      "259",
      "259",
      "217",
      "201",
      "184",
      "170",
      "124",
      "118",
      "110",
      "102",
      "099",
      "084",
      "082",
      "067",
      "063",
      "054",
      "049",
      "049",
      "048",
      "039",
      "035",
      "029",
      "025",
      "020",
      "016",
      "012",
      "008",
      "008"
    ],
    "swim:geom": "path",
    "swim:speeds": [
      252,
      539,
      539,
      536,
      541,
      541,
      541,
      540,
      541,
      541,
      542,
      541,
      539,
      536,
      536,
      536,
      536,
      536,
      530,
      529,
      527,
      522,
      522,
      502,
      503,
      498,
      495,
      489,
      489,
      489,
      488,
      488,
      488,
      488,
      478,
      478,
      481,
      480,
      480,
      478,
      477,
      475,
      474,
      471,
      467,
      467,
      466,
      464,
      463,
      457,
      457,
      457,
      457,
      453,
      452,
      449,
      448,
      446,
      449,
      449,
      447,
      449,
      452,
      452,
      451,
      455,
      458,
      458,
      459,
      458,
      452,
      455,
      451,
      453,
      455,
      455,
      454,
      455,
      455,
      454,
      454,
      453,
      453,
      453,
      451,
      451,
      451,
      454,
      454,
      457,
      458,
      458,
      458,
      458,
      458,
      457,
      457,
      459,
      461,
      469,
      479,
      477,
      476,
      476,
      476,
      477,
      478,
      488,
      493,
      446,
      442,
      445,
      448,
      448,
      452,
      454,
      456,
      454,
      454,
      453,
      452,
      452,
      452,
      452,
      452,
      414,
      401,
      391,
      386,
      355,
      348,
      311,
      305,
      282,
      246,
      237,
      231,
      234,
      234,
      236,
      236,
      218,
      184,
      177,
      176,
      173,
      160,
      134,
      138,
      139,
      139
    ],
    "swim:timestamps": [
      1761375983,
      1761376851,
      1761376971,
      1761377263,
      1761377692,
      1761377692,
      1761377813,
      1761377872,
      1761377932,
      1761377932,
      1761378114,
      1761378172,
      1761378293,
      1761378413,
      1761378533,
      1761378655,
      1761378655,
      1761378716,
      1761378893,
      1761379075,
      1761379134,
      1761379193,
      1761379193,
      1761379373,
      1761379433,
      1761379553,
      1761379616,
      1761379854,
      1761379854,
      1761379914,
      1761380034,
      1761380214,
      1761380276,
      1761380334,
      1761380555,
      1761380555,
      1761380697,
      1761380736,
      1761380736,
      1761380754,
      1761380796,
      1761380814,
      1761380856,
      1761380976,
      1761381096,
      1761381096,
      1761381156,
      1761381237,
      1761381276,
      1761381534,
      1761381576,
      1761381597,
      1761381597,
      1761381894,
      1761381936,
      1761382056,
      1761382116,
      1761382296,
      1761382416,
      1761382476,
      1761382536,
      1761382776,
      1761382897,
      1761382897,
      1761382957,
      1761383077,
      1761383257,
      1761383296,
      1761383317,
      1761383356,
      1761383377,
      1761383416,
      1761383497,
      1761383557,
      1761383596,
      1761383596,
      1761383617,
      1761383737,
      1761383776,
      1761383797,
      1761383836,
      1761383896,
      1761383917,
      1761383917,
      1761384037,
      1761384076,
      1761384097,
      1761384337,
      1761384376,
      1761384737,
      1761384797,
      1761384857,
      1761384917,
      1761384977,
      1761384977,
      1761385037,
      1761385097,
      1761385217,
      1761385277,
      1761385457,
      1761385757,
      1761385884,
      1761385944,
      1761386004,
      1761386117,
      1761386177,
      1761386184,
      1761386364,
      1761386477,
      1761386604,
      1761386657,
      1761386724,
      1761386777,
      1761386777,
      1761386844,
      1761386898,
      1761387144,
      1761387198,
      1761387204,
      1761387264,
      1761387318,
      1761387378,
      1761387384,
      1761387444,
      1761387444,
      1761387624,
      1761387684,
      1761387744,
      1761387805,
      1761387985,
      1761387994,
      1761388060,
      1761388114,
      1761388165,
      1761388285,
      1761388300,
      1761388426,
      1761388465,
      1761388547,
      1761388585,
      1761388585,
      1761388613,
      1761388705,
      1761388727,
      1761388765,
      1761388787,
      1761388825,
      1761388847,
      1761388885,
      1761388913,
      1761388913
    ],
    "wof:geomhash": "fa493536bbad2a1ac05b2f7ede766eab",
    "wof:id": 1981759557,
    "wof:repo": "sfomuseum-data-flights-2025-10"
  },
  "bbox": [
    -122.33333333333333,
    37.733333333333334,
    -87.93333333333334,
    42.56361111111111
  ],
  "geometry": {"coordinates":[[-122.33333333333333,37.733333333333334],[-120.68833333333333,38.7675],[-120.38611111111112,38.95055555555556],[-119.66972222222223,39.3775],[-118.51833333333333,39.99805555555556],[-118.51833333333333,39.99805555555556],[-118.17888888888889,40.135],[-117.99333333333334,40.20583333333334],[-117.82138888888889,40.25888888888889],[-117.82138888888889,40.25888888888889],[-117.27222222222223,40.421388888888885],[-117.08416666666666,40.47638888888889],[-116.70833333333334,40.585],[-116.34194444444444,40.68944444444444],[-115.97361111111111,40.79277777777778],[-115.60333333333332,40.89527777777778],[-115.60333333333332,40.89527777777778],[-115.41972222222223,40.94555555555555],[-114.86888888888888,41.094166666666666],[-114.30833333333334,41.242222222222225],[-114.12694444444443,41.28916666666667],[-113.94250000000001,41.336666666666666],[-113.94250000000001,41.336666666666666],[-113.39416666666668,41.419999999999995],[-113.20833333333334,41.44333333333333],[-112.8461111111111,41.488055555555555],[-112.66583333333334,41.50972222222222],[-111.94500000000001,41.587500000000006],[-111.94500000000001,41.587500000000006],[-111.76305555555555,41.60583333333334],[-111.43916666666667,41.63805555555555],[-110.88555555555556,41.690555555555555],[-110.7038888888889,41.70722222222223],[-110.52388888888889,41.72361111111111],[-109.88055555555555,41.779444444444444],[-109.88055555555555,41.779444444444444],[-109.45305555555557,41.814166666666665],[-109.35805555555555,41.82166666666667],[-109.35805555555555,41.82166666666667],[-109.275,41.82805555555556],[-109.16916666666667,41.83638888888889],[-109.09777777777778,41.841944444444444],[-108.99166666666667,41.85],[-108.64444444444445,41.87555555555556],[-108.29722222222222,41.900277777777774],[-108.29722222222222,41.900277777777774],[-108.12444444444444,41.91222222222222],[-107.885,41.92805555555555],[-107.78111111111112,41.934999999999995],[-107.03333333333333,41.98111111111111],[-106.9325,41.98694444444445],[-106.86361111111111,41.990833333333335],[-106.86361111111111,41.990833333333335],[-106.04194444444444,42.03444444444444],[-105.9075,42.04111111111111],[-105.57527777777777,42.056666666666665],[-105.41111111111111,42.064166666666665],[-104.915,42.09666666666667],[-104.58472222222221,42.1275],[-104.42277777777778,42.14694444444444],[-104.25972222222222,42.169444444444444],[-103.5961111111111,42.22361111111111],[-103.25944444444444,42.24722222222222],[-103.25944444444444,42.24722222222222],[-103.09166666666667,42.25861111111111],[-102.75138888888888,42.28138888888889],[-102.23805555555556,42.31305555555555],[-102.12444444444444,42.324444444444445],[-102.06888888888888,42.323055555555555],[-101.95527777777778,42.33027777777778],[-101.89916666666667,42.33277777777778],[-101.78722222222223,42.34055555555556],[-101.54777777777778,42.3525],[-101.37666666666667,42.36138888888889],[-101.27777777777777,42.367777777777775],[-101.27777777777777,42.367777777777775],[-101.20555555555556,42.37027777777778],[-100.86527777777778,42.386944444444445],[-100.75972222222222,42.39222222222222],[-100.69527777777778,42.394999999999996],[-100.5925,42.39972222222222],[-100.42,42.4075],[-100.35722222222222,42.41027777777778],[-100.35722222222222,42.41027777777778],[-100.01722222222222,42.42444444444444],[-99.91250000000001,42.42861111111111],[-99.84666666666666,42.43111111111111],[-99.16305555555556,42.45583333333334],[-99.05722222222222,42.45916666666667],[-98.02666666666667,42.49861111111111],[-97.85388888888889,42.505],[-97.67472222222223,42.51166666666666],[-97.50472222222223,42.51777777777777],[-97.33111111111111,42.52388888888889],[-97.33111111111111,42.52388888888889],[-97.15972222222223,42.529444444444444],[-96.98833333333333,42.53472222222222],[-96.67694444444444,42.543055555555554],[-96.50277777777778,42.54611111111111],[-95.97083333333333,42.55416666666667],[-95.07,42.56194444444444],[-94.70027777777779,42.56305555555555],[-94.49722222222222,42.56361111111111],[-94.30833333333334,42.56333333333333],[-93.98611111111111,42.56222222222222],[-93.80472222222222,42.561388888888885],[-93.77027777777778,42.56111111111111],[-93.22111111111111,42.55611111111111],[-92.88722222222223,42.549166666666665],[-92.50138888888888,42.53777777777778],[-92.36805555555554,42.53388888888889],[-92.16944444444445,42.527499999999996],[-92.03361111111111,42.52444444444444],[-92.03361111111111,42.52444444444444],[-91.82888888888888,42.525277777777774],[-91.69333333333334,42.52611111111111],[-90.98194444444445,42.526944444444446],[-90.81222222222222,42.52638888888889],[-90.81222222222222,42.52638888888889],[-90.64166666666668,42.525555555555556],[-90.47333333333333,42.524166666666666],[-90.30444444444444,42.522777777777776],[-90.30444444444444,42.522777777777776],[-90.135,42.52166666666667],[-90.135,42.52166666666667],[-89.6563888888889,42.50416666666667],[-89.51,42.48583333333333],[-89.36638888888888,42.46805555555556],[-89.22222222222223,42.45055555555556],[-88.82333333333332,42.400277777777774],[-88.78333333333333,42.4],[-88.65,42.38333333333333],[-88.55,42.36666666666667],[-88.47666666666667,42.35],[-88.43861111111111,42.205000000000005],[-88.43333333333334,42.18333333333333],[-88.45,42.05],[-88.45083333333334,42.00972222222222],[-88.33333333333333,41.983333333333334],[-88.28583333333333,41.98777777777778],[-88.28583333333333,41.98777777777778],[-88.25,41.983333333333334],[-88.14166666666668,41.988055555555555],[-88.11666666666666,41.983333333333334],[-88.07583333333334,41.988055555555555],[-88.05,41.983333333333334],[-88.01333333333334,41.98833333333334],[-88,41.983333333333334],[-87.96194444444444,41.98833333333334],[-87.93333333333334,41.983333333333334],[-87.93333333333334,41.983333333333334]],"type":"LineString"}
}
