{
  "id": 1981654851,
  "type": "Feature",
  "properties": {
    "geom:area": 0,
    "geom:bbox": "-122.525670,37.624440,-121.254600,37.969690",
    "geom:latitude": 37.84835637730406,
    "geom:longitude": -121.98333799682871,
    "src:alt_label": "swim-takeoff",
    "src:geom": "swim",
    "swim:elevations": [
      183,
      559,
      734,
      912,
      1130,
      1497,
      2041,
      2119,
      2594,
      2754,
      3116,
      3384,
      3457,
      3748,
      4113,
      4425,
      4807,
      4845,
      5246,
      5405,
      5677,
      6169,
      6335,
      6386,
      6836,
      6985,
      7043,
      7164,
      7394,
      7481
    ],
    "swim:geom": "takeoff",
    "swim:timestamps": [
      1760259307,
      1760259334,
      1760259349,
      1760259378,
      1760259416,
      1760259442,
      1760259475,
      1760259481,
      1760259520,
      1760259531,
      1760259560,
      1760259595,
      1760259607,
      1760259651,
      1760259687,
      1760259712,
      1760259746,
      1760259751,
      1760259790,
      1760259814,
      1760259841,
      1760259897,
      1760259925,
      1760259931,
      1760259986,
      1760260008,
      1760260016,
      1760260032,
      1760260074,
      1760260089
    ],
    "wof:geomhash": "ad758700113196be0320ef11da9f9544",
    "wof:id": 1981654851,
    "wof:repo": "sfomuseum-data-flights-2025-10"
  },
  "bbox": [
    -122.52567,
    37.62444,
    -121.2546,
    37.96969
  ],
  "geometry": {"coordinates":[[-122.38836,37.62444],[-122.41128,37.63486],[-122.42376,37.64011],[-122.44978,37.65096],[-122.49378,37.67031],[-122.5209,37.69191],[-122.52541,37.73138],[-122.52567,37.73895],[-122.51799,37.78578],[-122.5056,37.79642],[-122.45941,37.80837],[-122.39748,37.81207],[-122.3739,37.81348],[-122.28386,37.81933],[-122.20669,37.8305],[-122.15292,37.83827],[-122.07904,37.84935],[-122.06823,37.85094],[-121.98136,37.86382],[-121.92519,37.87235],[-121.86307,37.88144],[-121.73116,37.90104],[-121.66517,37.91069],[-121.64854,37.91311],[-121.51364,37.93258],[-121.46075,37.94028],[-121.44083,37.94308],[-121.40024,37.94897],[-121.29497,37.96394],[-121.2546,37.96969]],"type":"LineString"}
}
