{
  "id": 1981566991,
  "type": "Feature",
  "properties": {
    "geom:area": 0,
    "geom:bbox": "-122.360990,37.635550,-121.249300,37.964760",
    "geom:latitude": 37.83943246093361,
    "geom:longitude": -121.81887585831704,
    "src:alt_label": "swim-takeoff",
    "src:geom": "swim",
    "swim:elevations": [
      261,
      818,
      922,
      1259,
      1550,
      2220,
      2431,
      2901,
      3505,
      3812,
      4154,
      4558,
      5096,
      5255,
      5589,
      6124,
      6457,
      6518,
      6599,
      6659,
      6732,
      6862,
      6992,
      7218
    ],
    "swim:geom": "takeoff",
    "swim:timestamps": [
      1759390608,
      1759390645,
      1759390651,
      1759390699,
      1759390730,
      1759390766,
      1759390781,
      1759390817,
      1759390853,
      1759390871,
      1759390895,
      1759390928,
      1759390970,
      1759390983,
      1759391015,
      1759391059,
      1759391087,
      1759391093,
      1759391102,
      1759391119,
      1759391138,
      1759391177,
      1759391199,
      1759391223
    ],
    "wof:geomhash": "281fef03c6d16e2484d29146220ae9ff",
    "wof:id": 1981566991,
    "wof:repo": "sfomuseum-data-flights-2025-10"
  },
  "bbox": [
    -122.36099,
    37.63555,
    -121.2493,
    37.96476
  ],
  "geometry": {"coordinates":[[-122.36099,37.63555],[-122.32785,37.65499],[-122.32234,37.65785],[-122.27349,37.6856],[-122.23065,37.70915],[-122.17914,37.73572],[-122.15712,37.74726],[-122.10121,37.77596],[-122.04336,37.80613],[-122.01367,37.82021],[-121.97139,37.83223],[-121.90951,37.84372],[-121.82743,37.85916],[-121.80144,37.86404],[-121.73599,37.87611],[-121.6437,37.89307],[-121.58395,37.904],[-121.57096,37.90637],[-121.55144,37.90996],[-121.5117,37.9172],[-121.46867,37.92496],[-121.37078,37.94276],[-121.3134,37.95314],[-121.2493,37.96476]],"type":"LineString"}
}
