{
  "id": 1981724605,
  "type": "Feature",
  "properties": {
    "geom:area": 0,
    "geom:bbox": "-122.421389,33.274722,-111.750000,37.702500",
    "geom:latitude": 34.88588880504683,
    "geom:longitude": -117.21609012971638,
    "src:alt_label": "swim-path",
    "src:geom": "swim",
    "swim:altitudes": [
      "006",
      "049",
      "111",
      "111",
      "187",
      "187",
      "235",
      "235",
      "326",
      "326",
      "352",
      "370C",
      "370C",
      "370C",
      "370C",
      "370C",
      "370C",
      "370C",
      "370C",
      "370C",
      "370C",
      "370C",
      "370C",
      "370C",
      "370C",
      "370C",
      "370C",
      "370C",
      "370C",
      "370C",
      "370C",
      "370C",
      "370C",
      "370C",
      "370C",
      "370",
      "370",
      "370",
      "370",
      "370",
      "321",
      "321",
      "301",
      "250C",
      "250",
      "250",
      "237",
      "220",
      "220",
      "190",
      "190",
      "190",
      "182",
      "168",
      "157",
      "144",
      "129",
      "121",
      "121",
      "112",
      "107",
      "101",
      "101",
      "092",
      "070",
      "062",
      "057",
      "050",
      "040",
      "040",
      "039",
      "017",
      "013",
      "011"
    ],
    "swim:geom": "path",
    "swim:speeds": [
      179,
      259,
      290,
      290,
      373,
      373,
      391,
      391,
      425,
      425,
      427,
      423,
      423,
      423,
      423,
      420,
      420,
      425,
      425,
      435,
      436,
      436,
      441,
      445,
      446,
      448,
      448,
      448,
      449,
      449,
      449,
      449,
      449,
      450,
      450,
      462,
      462,
      462,
      462,
      464,
      477,
      477,
      472,
      417,
      414,
      413,
      407,
      407,
      407,
      374,
      374,
      374,
      359,
      332,
      333,
      329,
      323,
      325,
      325,
      317,
      318,
      290,
      290,
      258,
      198,
      186,
      185,
      186,
      179,
      179,
      179,
      155,
      160,
      154
    ],
    "swim:timestamps": [
      1761022094,
      1761022214,
      1761022334,
      1761022334,
      1761022514,
      1761022514,
      1761022635,
      1761022635,
      1761022935,
      1761022935,
      1761023055,
      1761023355,
      1761023355,
      1761023355,
      1761023355,
      1761023715,
      1761023715,
      1761023777,
      1761023777,
      1761024138,
      1761024256,
      1761024256,
      1761024498,
      1761024738,
      1761024799,
      1761025099,
      1761025099,
      1761025099,
      1761025159,
      1761025219,
      1761025219,
      1761025219,
      1761025279,
      1761025339,
      1761025339,
      1761025886,
      1761025886,
      1761025940,
      1761025940,
      1761026000,
      1761026126,
      1761026126,
      1761026180,
      1761026361,
      1761026421,
      1761026487,
      1761026547,
      1761026601,
      1761026601,
      1761026787,
      1761026787,
      1761026787,
      1761026847,
      1761026967,
      1761027009,
      1761027057,
      1761027117,
      1761027147,
      1761027147,
      1761027183,
      1761027207,
      1761027237,
      1761027237,
      1761027303,
      1761027543,
      1761027597,
      1761027628,
      1761027657,
      1761027717,
      1761027717,
      1761027777,
      1761027928,
      1761027951,
      1761027988
    ],
    "wof:geomhash": "f34b54336cc443411dad5522fb63990c",
    "wof:id": 1981724605,
    "wof:repo": "sfomuseum-data-flights-2025-10"
  },
  "bbox": [
    -122.4213888888889,
    33.27472222222222,
    -111.75,
    37.7025
  ],
  "geometry": {"coordinates":[[-122.36527777777778,37.63472222222222],[-122.4213888888889,37.7025],[-122.37166666666666,37.57833333333333],[-122.37166666666666,37.57833333333333],[-122.1,37.374722222222225],[-122.1,37.374722222222225],[-121.90583333333333,37.227222222222224],[-121.90583333333333,37.227222222222224],[-121.38138888888888,36.82527777777778],[-121.38138888888888,36.82527777777778],[-121.16388888888889,36.656388888888884],[-120.61805555555554,36.266666666666666],[-120.61805555555554,36.266666666666666],[-120.61805555555554,36.266666666666666],[-120.61805555555554,36.266666666666666],[-119.95166666666667,35.81361111111111],[-119.95166666666667,35.81361111111111],[-119.83527777777778,35.743611111111115],[-119.83527777777778,35.743611111111115],[-119.035,35.42611111111111],[-118.76861111111111,35.31916666666667],[-118.76861111111111,35.31916666666667],[-118.24194444444444,35.10444444444445],[-117.68166666666667,34.87138888888889],[-117.54861111111111,34.81583333333333],[-116.88222222222221,34.533055555555556],[-116.88222222222221,34.533055555555556],[-116.88222222222221,34.533055555555556],[-116.7475,34.47527777777778],[-116.61583333333333,34.41861111111111],[-116.61583333333333,34.41861111111111],[-116.61583333333333,34.41861111111111],[-116.48027777777779,34.36],[-116.34666666666666,34.301944444444445],[-116.34666666666666,34.301944444444445],[-115.11,33.75416666666667],[-115.11,33.75416666666667],[-114.9975,33.70333333333333],[-114.9975,33.70333333333333],[-114.86138888888888,33.641666666666666],[-114.53833333333333,33.552499999999995],[-114.53833333333333,33.552499999999995],[-114.41083333333334,33.527499999999996],[-113.98805555555556,33.443888888888885],[-113.85499999999999,33.41722222222222],[-113.69805555555556,33.385555555555555],[-113.56416666666667,33.358333333333334],[-113.45944444444444,33.33694444444445],[-113.45944444444444,33.33694444444445],[-113.04944444444445,33.27472222222222],[-113.04944444444445,33.27472222222222],[-113.04944444444445,33.27472222222222],[-112.93055555555556,33.27777777777778],[-112.70527777777778,33.29138888888889],[-112.61666666666666,33.3],[-112.53333333333333,33.3],[-112.43333333333334,33.31666666666667],[-112.37972222222221,33.32138888888889],[-112.37972222222221,33.32138888888889],[-112.31666666666666,33.333333333333336],[-112.27583333333334,33.33111111111111],[-112.21666666666667,33.333333333333336],[-112.21666666666667,33.333333333333336],[-112.13333333333334,33.35],[-111.81666666666666,33.35],[-111.76666666666667,33.35],[-111.75194444444445,33.36388888888889],[-111.75,33.38333333333333],[-111.76666666666667,33.43333333333333],[-111.76666666666667,33.43333333333333],[-111.83333333333333,33.43333333333333],[-111.95916666666668,33.43111111111111],[-111.98333333333333,33.43333333333333],[-112.01138888888889,33.43111111111111]],"type":"LineString"}
}
