{
  "id": 1981767695,
  "type": "Feature",
  "properties": {
    "geom:area": 0,
    "geom:bbox": "-122.283333,37.683333,-74.175556,41.951944",
    "geom:latitude": 40.648807853706856,
    "geom:longitude": -98.20489644283289,
    "src:alt_label": "swim-path",
    "src:geom": "swim",
    "swim:altitudes": [
      "044",
      "044",
      "044",
      "128",
      "128",
      "128",
      "173",
      "173",
      "173",
      "253",
      "253",
      "253",
      "274",
      "274",
      "274",
      "274",
      "301",
      "301",
      "301",
      "301",
      "301",
      "348",
      "348",
      "348",
      "348",
      "370C",
      "370C",
      "370C",
      "370C",
      "370C",
      "370C",
      "370C",
      "370C",
      "370C",
      "370C",
      "370C",
      "370C",
      "370C",
      "370C",
      "370C",
      "370C",
      "370C",
      "370C",
      "370C",
      "370C",
      "370C",
      "370C",
      "370C",
      "370C",
      "370C",
      "370C",
      "370C",
      "370C",
      "367",
      "367",
      "367",
      "367",
      "353",
      "353",
      "353",
      "337",
      "337",
      "310C",
      "310C",
      "310C",
      "310C",
      "310C",
      "310C",
      "310C",
      "310C",
      "310C",
      "310C",
      "310C",
      "310C",
      "310C",
      "310C",
      "310C",
      "310C",
      "310C",
      "310C",
      "310C",
      "310C",
      "310C",
      "310C",
      "310C",
      "310C",
      "361",
      "370C",
      "370C",
      "370C",
      "370C",
      "370C",
      "370C",
      "370C",
      "370C",
      "370C",
      "370C",
      "370C",
      "370C",
      "370C",
      "370C",
      "370C",
      "370C",
      "370C",
      "370C",
      "370C",
      "370C",
      "370C",
      "370C",
      "370C",
      "370C",
      "370C",
      "370C",
      "370C",
      "370C",
      "370C",
      "370C",
      "370C",
      "370C",
      "370C",
      "370C",
      "370C",
      "370C",
      "370C",
      "370C",
      "370C",
      "370C",
      "370C",
      "370C",
      "370C",
      "370C",
      "370C",
      "370C",
      "370C",
      "370C",
      "370C",
      "370C",
      "370C",
      "370C",
      "370C",
      "370C",
      "370C",
      "370C",
      "370C",
      "370C",
      "370C",
      "370C",
      "370C",
      "370C",
      "370C",
      "370C",
      "370",
      "370",
      "370",
      "370",
      "390C",
      "390C",
      "390C",
      "390C",
      "390C",
      "390C",
      "390C",
      "390C",
      "390C",
      "390C",
      "390C",
      "390C",
      "390C",
      "390C",
      "390C",
      "390C",
      "390C",
      "384",
      "384",
      "370C",
      "370C",
      "370C",
      "370C",
      "370C",
      "370C",
      "370C",
      "370C",
      "370C",
      "370C",
      "370C",
      "370C",
      "370C",
      "370C",
      "370C",
      "370C",
      "370C",
      "370C",
      "370C",
      "370C",
      "370C",
      "370C",
      "370C",
      "370C",
      "370C",
      "372",
      "372",
      "372",
      "372",
      "390C",
      "390C",
      "390C",
      "390C",
      "390C",
      "390C",
      "390C",
      "390C",
      "390C",
      "390C",
      "390C",
      "390C",
      "390C",
      "390C",
      "350C",
      "350C",
      "350C",
      "350C",
      "350C",
      "350C",
      "350C",
      "350C",
      "350C",
      "350C",
      "350C",
      "350C",
      "350C",
      "350C",
      "350C",
      "350C",
      "350C",
      "350C",
      "350C",
      "350C",
      "350C",
      "350C",
      "350C",
      "350C",
      "350C",
      "350C",
      "350C",
      "350C",
      "350C",
      "350C",
      "350C",
      "350C",
      "350C",
      "350C",
      "350C",
      "350C",
      "350C",
      "350C",
      "350C",
      "350C",
      "350C",
      "350C",
      "350C",
      "350",
      "350",
      "350",
      "350",
      "339",
      "330",
      "330",
      "330",
      "313",
      "313",
      "234",
      "234",
      "234",
      "177",
      "177",
      "133",
      "133",
      "111",
      "111",
      "111",
      "102",
      "102",
      "089",
      "073",
      "073",
      "073",
      "064",
      "052",
      "030",
      "030",
      "030",
      "030",
      "030",
      "025",
      "025",
      "025",
      "017",
      "015",
      "004",
      "002",
      "002"
    ],
    "swim:geom": "path",
    "swim:speeds": [
      242,
      242,
      242,
      409,
      409,
      409,
      451,
      451,
      451,
      507,
      507,
      507,
      523,
      523,
      523,
      523,
      543,
      543,
      543,
      543,
      543,
      562,
      562,
      562,
      562,
      532,
      532,
      532,
      519,
      532,
      520,
      520,
      520,
      520,
      523,
      522,
      522,
      522,
      524,
      524,
      524,
      524,
      533,
      533,
      533,
      514,
      514,
      514,
      503,
      503,
      514,
      514,
      514,
      503,
      503,
      503,
      503,
      505,
      505,
      505,
      509,
      509,
      523,
      523,
      523,
      523,
      539,
      539,
      539,
      537,
      537,
      537,
      537,
      537,
      537,
      537,
      537,
      536,
      536,
      536,
      536,
      536,
      527,
      527,
      527,
      527,
      515,
      507,
      507,
      507,
      507,
      503,
      503,
      503,
      503,
      503,
      504,
      505,
      505,
      505,
      505,
      505,
      502,
      502,
      500,
      500,
      496,
      496,
      493,
      493,
      493,
      489,
      489,
      489,
      489,
      485,
      483,
      483,
      483,
      483,
      483,
      480,
      478,
      476,
      476,
      475,
      475,
      475,
      475,
      475,
      468,
      466,
      463,
      457,
      457,
      461,
      461,
      461,
      461,
      453,
      452,
      452,
      452,
      450,
      449,
      449,
      449,
      450,
      451,
      451,
      451,
      450,
      450,
      450,
      450,
      451,
      451,
      452,
      452,
      452,
      452,
      453,
      453,
      454,
      454,
      454,
      464,
      466,
      465,
      465,
      465,
      465,
      467,
      467,
      467,
      467,
      466,
      476,
      476,
      482,
      482,
      482,
      483,
      484,
      484,
      484,
      484,
      484,
      490,
      490,
      490,
      495,
      495,
      495,
      501,
      501,
      501,
      499,
      499,
      519,
      519,
      519,
      519,
      521,
      521,
      525,
      525,
      525,
      533,
      533,
      533,
      534,
      534,
      534,
      534,
      526,
      534,
      555,
      551,
      551,
      553,
      558,
      559,
      559,
      563,
      564,
      564,
      564,
      564,
      564,
      564,
      564,
      564,
      565,
      565,
      565,
      566,
      566,
      569,
      569,
      569,
      569,
      569,
      570,
      570,
      572,
      573,
      573,
      573,
      573,
      573,
      571,
      571,
      571,
      570,
      570,
      571,
      571,
      571,
      571,
      572,
      574,
      574,
      574,
      570,
      573,
      573,
      573,
      573,
      573,
      477,
      477,
      477,
      423,
      423,
      399,
      399,
      382,
      382,
      382,
      299,
      299,
      282,
      276,
      276,
      276,
      274,
      270,
      261,
      261,
      256,
      261,
      173,
      146,
      146,
      146,
      124,
      128,
      127,
      125,
      125
    ],
    "swim:timestamps": [
      1761434054,
      1761434054,
      1761434054,
      1761434279,
      1761434279,
      1761434279,
      1761434399,
      1761434399,
      1761434399,
      1761434639,
      1761434639,
      1761434639,
      1761434699,
      1761434699,
      1761434699,
      1761434699,
      1761434820,
      1761434820,
      1761434820,
      1761434820,
      1761434820,
      1761435024,
      1761435024,
      1761435024,
      1761435024,
      1761435145,
      1761435145,
      1761435145,
      1761435360,
      1761435445,
      1761435480,
      1761435480,
      1761435480,
      1761435480,
      1761435600,
      1761435625,
      1761435625,
      1761435625,
      1761435660,
      1761435660,
      1761435660,
      1761435660,
      1761435780,
      1761435780,
      1761435780,
      1761435927,
      1761435927,
      1761435927,
      1761435984,
      1761435984,
      1761436104,
      1761436104,
      1761436104,
      1761436224,
      1761436224,
      1761436224,
      1761436224,
      1761436284,
      1761436284,
      1761436284,
      1761436344,
      1761436344,
      1761436525,
      1761436525,
      1761436525,
      1761436525,
      1761436645,
      1761436645,
      1761436645,
      1761436707,
      1761436707,
      1761436707,
      1761436707,
      1761436767,
      1761436767,
      1761436767,
      1761436767,
      1761437127,
      1761437127,
      1761437127,
      1761437127,
      1761437127,
      1761437488,
      1761437488,
      1761437488,
      1761437488,
      1761437890,
      1761437950,
      1761437950,
      1761437950,
      1761437950,
      1761438208,
      1761438208,
      1761438208,
      1761438208,
      1761438208,
      1761438250,
      1761438371,
      1761438491,
      1761438491,
      1761438509,
      1761438569,
      1761438749,
      1761438749,
      1761438809,
      1761438809,
      1761438851,
      1761438851,
      1761438911,
      1761438911,
      1761438911,
      1761439272,
      1761439272,
      1761439272,
      1761439272,
      1761439452,
      1761439512,
      1761439512,
      1761439512,
      1761439512,
      1761439512,
      1761439632,
      1761439692,
      1761439752,
      1761439752,
      1761439812,
      1761439812,
      1761439933,
      1761439993,
      1761439993,
      1761440233,
      1761440293,
      1761440353,
      1761440473,
      1761440473,
      1761440894,
      1761440894,
      1761440894,
      1761440894,
      1761441254,
      1761441314,
      1761441314,
      1761441314,
      1761441435,
      1761441612,
      1761441612,
      1761441612,
      1761441675,
      1761441855,
      1761441855,
      1761441855,
      1761442092,
      1761442152,
      1761442152,
      1761442152,
      1761442573,
      1761442573,
      1761442753,
      1761442753,
      1761442813,
      1761442813,
      1761442933,
      1761442933,
      1761443054,
      1761443054,
      1761443054,
      1761443654,
      1761443675,
      1761443714,
      1761443714,
      1761443714,
      1761443714,
      1761443795,
      1761443795,
      1761443895,
      1761443895,
      1761443915,
      1761444095,
      1761444095,
      1761444195,
      1761444195,
      1761444215,
      1761444275,
      1761444315,
      1761444315,
      1761444335,
      1761444335,
      1761444335,
      1761444516,
      1761444516,
      1761444516,
      1761444696,
      1761444735,
      1761444735,
      1761444876,
      1761444876,
      1761444876,
      1761444915,
      1761444915,
      1761445356,
      1761445356,
      1761445356,
      1761445356,
      1761445717,
      1761445717,
      1761445777,
      1761445777,
      1761445777,
      1761446017,
      1761446017,
      1761446077,
      1761446137,
      1761446137,
      1761446137,
      1761446137,
      1761446174,
      1761446294,
      1761446474,
      1761446534,
      1761446534,
      1761446557,
      1761446594,
      1761446617,
      1761446617,
      1761446737,
      1761446797,
      1761446797,
      1761446835,
      1761446857,
      1761446857,
      1761446857,
      1761446895,
      1761446977,
      1761447015,
      1761447037,
      1761447037,
      1761447097,
      1761447097,
      1761447255,
      1761447255,
      1761447315,
      1761447315,
      1761447375,
      1761447435,
      1761447435,
      1761447675,
      1761447735,
      1761447735,
      1761447795,
      1761447795,
      1761447795,
      1761448035,
      1761448035,
      1761448035,
      1761448216,
      1761448216,
      1761448456,
      1761448456,
      1761448456,
      1761448456,
      1761448576,
      1761448696,
      1761448696,
      1761448696,
      1761448756,
      1761448876,
      1761448876,
      1761448876,
      1761449056,
      1761449056,
      1761449296,
      1761449296,
      1761449296,
      1761449478,
      1761449478,
      1761449598,
      1761449598,
      1761449658,
      1761449658,
      1761449658,
      1761449740,
      1761449740,
      1761449932,
      1761450010,
      1761450010,
      1761450010,
      1761450064,
      1761450118,
      1761450238,
      1761450238,
      1761450258,
      1761450293,
      1761450419,
      1761450526,
      1761450526,
      1761450526,
      1761450599,
      1761450619,
      1761450725,
      1761450739,
      1761450739
    ],
    "wof:geomhash": "0c82fa9a5d2419c7d7478207c8b3f8f2",
    "wof:id": 1981767695,
    "wof:repo": "sfomuseum-data-flights-2025-10"
  },
  "bbox": [
    -122.28333333333333,
    37.68333333333333,
    -74.17555555555556,
    41.95194444444445
  ],
  "geometry": {"coordinates":[[-122.28333333333333,37.68333333333333],[-122.28333333333333,37.68333333333333],[-122.28333333333333,37.68333333333333],[-121.9213888888889,37.85944444444445],[-121.9213888888889,37.85944444444445],[-121.9213888888889,37.85944444444445],[-121.66611111111112,37.96],[-121.66611111111112,37.96],[-121.66611111111112,37.96],[-121.06611111111111,38.19277777777778],[-121.06611111111111,38.19277777777778],[-121.06611111111111,38.19277777777778],[-120.85166666666666,38.23305555555556],[-120.85166666666666,38.23305555555556],[-120.85166666666666,38.23305555555556],[-120.85166666666666,38.23305555555556],[-120.47805555555556,38.28444444444444],[-120.47805555555556,38.28444444444444],[-120.47805555555556,38.28444444444444],[-120.47805555555556,38.28444444444444],[-120.47805555555556,38.28444444444444],[-119.82722222222222,38.36944444444445],[-119.82722222222222,38.36944444444445],[-119.82722222222222,38.36944444444445],[-119.82722222222222,38.36944444444445],[-119.455,38.419999999999995],[-119.455,38.419999999999995],[-119.455,38.419999999999995],[-118.80888888888889,38.50277777777778],[-118.55611111111111,38.53361111111111],[-118.44611111111111,38.54666666666667],[-118.44611111111111,38.54666666666667],[-118.44611111111111,38.54666666666667],[-118.44611111111111,38.54666666666667],[-118.06361111111111,38.592222222222226],[-117.99277777777777,38.60027777777778],[-117.99277777777777,38.60027777777778],[-117.99277777777777,38.60027777777778],[-117.8786111111111,38.61361111111111],[-117.8786111111111,38.61361111111111],[-117.8786111111111,38.61361111111111],[-117.8786111111111,38.61361111111111],[-117.5025,38.656388888888884],[-117.5025,38.656388888888884],[-117.5025,38.656388888888884],[-117.10138888888888,38.713055555555556],[-117.10138888888888,38.713055555555556],[-117.10138888888888,38.713055555555556],[-116.92361111111111,38.74305555555556],[-116.92361111111111,38.74305555555556],[-116.56777777777778,38.801944444444445],[-116.56777777777778,38.801944444444445],[-116.56777777777778,38.801944444444445],[-116.21361111111112,38.86055555555556],[-116.21361111111112,38.86055555555556],[-116.21361111111112,38.86055555555556],[-116.21361111111112,38.86055555555556],[-116.03527777777778,38.88944444444444],[-116.03527777777778,38.88944444444444],[-116.03527777777778,38.88944444444444],[-115.85777777777777,38.91722222222222],[-115.85777777777777,38.91722222222222],[-115.31666666666666,39.00194444444445],[-115.31666666666666,39.00194444444445],[-115.31666666666666,39.00194444444445],[-115.31666666666666,39.00194444444445],[-114.90444444444445,39.06444444444444],[-114.90444444444445,39.06444444444444],[-114.90444444444445,39.06444444444444],[-114.71527777777779,39.09277777777778],[-114.71527777777779,39.09277777777778],[-114.71527777777779,39.09277777777778],[-114.71527777777779,39.09277777777778],[-114.5586111111111,39.115833333333335],[-114.5586111111111,39.115833333333335],[-114.5586111111111,39.115833333333335],[-114.5586111111111,39.115833333333335],[-113.40138888888889,39.279444444444444],[-113.40138888888889,39.279444444444444],[-113.40138888888889,39.279444444444444],[-113.40138888888889,39.279444444444444],[-113.40138888888889,39.279444444444444],[-112.28694444444444,39.45527777777778],[-112.28694444444444,39.45527777777778],[-112.28694444444444,39.45527777777778],[-112.28694444444444,39.45527777777778],[-111.07833333333333,39.689722222222215],[-110.90277777777779,39.724722222222226],[-110.90277777777779,39.724722222222226],[-110.90277777777779,39.724722222222226],[-110.90277777777779,39.724722222222226],[-110.13083333333333,39.87583333333333],[-110.13083333333333,39.87583333333333],[-110.13083333333333,39.87583333333333],[-110.13083333333333,39.87583333333333],[-110.13083333333333,39.87583333333333],[-110.02361111111111,39.896388888888886],[-109.66805555555555,39.96388888888889],[-109.31222222222222,40.02972222222222],[-109.31222222222222,40.02972222222222],[-109.27444444444444,40.036944444444444],[-109.0961111111111,40.06944444444445],[-108.55916666666667,40.15555555555555],[-108.55916666666667,40.15555555555555],[-108.38111111111111,40.18138888888889],[-108.38111111111111,40.18138888888889],[-108.24,40.20194444444445],[-108.24,40.20194444444445],[-108.06027777777777,40.2275],[-108.06027777777777,40.2275],[-108.06027777777777,40.2275],[-107.01972222222223,40.37],[-107.01972222222223,40.37],[-107.01972222222223,40.37],[-107.01972222222223,40.37],[-106.50083333333333,40.4375],[-106.32,40.46027777777778],[-106.32,40.46027777777778],[-106.32,40.46027777777778],[-106.32,40.46027777777778],[-106.32,40.46027777777778],[-105.98444444444445,40.50194444444445],[-105.81638888888888,40.52777777777778],[-105.64583333333334,40.553888888888885],[-105.64583333333334,40.553888888888885],[-105.47500000000001,40.57916666666667],[-105.47500000000001,40.57916666666667],[-105.13388888888889,40.62888888888889],[-104.96277777777777,40.65361111111111],[-104.96277777777777,40.65361111111111],[-104.28472222222221,40.74],[-104.11722222222221,40.76083333333333],[-103.94944444444445,40.78111111111111],[-103.61888888888888,40.82083333333334],[-103.61888888888888,40.82083333333334],[-102.4538888888889,40.95194444444445],[-102.4538888888889,40.95194444444445],[-102.4538888888889,40.95194444444445],[-102.4538888888889,40.95194444444445],[-101.4525,41.007222222222225],[-101.28777777777778,41.00888888888889],[-101.28777777777778,41.00888888888889],[-101.28777777777778,41.00888888888889],[-100.95444444444445,41.01138888888889],[-100.46916666666667,41.01555555555556],[-100.46916666666667,41.01555555555556],[-100.46916666666667,41.01555555555556],[-100.285,41.013888888888886],[-99.78694444444444,41.01305555555555],[-99.78694444444444,41.01305555555555],[-99.78694444444444,41.01305555555555],[-99.13777777777779,41.00888888888889],[-98.98472222222222,41.0075],[-98.98472222222222,41.0075],[-98.98472222222222,41.0075],[-97.82833333333333,41.013888888888886],[-97.82833333333333,41.013888888888886],[-97.33722222222222,41.05361111111111],[-97.33722222222222,41.05361111111111],[-97.17277777777778,41.06638888888889],[-97.17277777777778,41.06638888888889],[-96.80972222222222,41.093611111111116],[-96.80972222222222,41.093611111111116],[-96.47694444444444,41.1175],[-96.47694444444444,41.1175],[-96.47694444444444,41.1175],[-94.81444444444445,41.29138888888889],[-94.74055555555556,41.301111111111105],[-94.6463888888889,41.31333333333333],[-94.6463888888889,41.31333333333333],[-94.6463888888889,41.31333333333333],[-94.6463888888889,41.31333333333333],[-94.40027777777779,41.344722222222224],[-94.40027777777779,41.344722222222224],[-94.12722222222222,41.37916666666667],[-94.12722222222222,41.37916666666667],[-94.0936111111111,41.38333333333333],[-93.57583333333334,41.44555555555555],[-93.57583333333334,41.44555555555555],[-93.25611111111111,41.47527777777778],[-93.25611111111111,41.47527777777778],[-93.21972222222223,41.478611111111114],[-93.04166666666667,41.495555555555555],[-92.89861111111112,41.50888888888889],[-92.89861111111112,41.50888888888889],[-92.86361111111111,41.511944444444445],[-92.86361111111111,41.511944444444445],[-92.86361111111111,41.511944444444445],[-92.30138888888888,41.56194444444444],[-92.30138888888888,41.56194444444444],[-92.30138888888888,41.56194444444444],[-91.75444444444445,41.60777777777778],[-91.6438888888889,41.615833333333335],[-91.6438888888889,41.615833333333335],[-91.20416666666667,41.651111111111106],[-91.20416666666667,41.651111111111106],[-91.20416666666667,41.651111111111106],[-91.09166666666667,41.659444444444446],[-91.09166666666667,41.659444444444446],[-89.68,41.7575],[-89.68,41.7575],[-89.68,41.7575],[-89.68,41.7575],[-88.52111111111111,41.82472222222223],[-88.52111111111111,41.82472222222223],[-88.32222222222222,41.835],[-88.32222222222222,41.835],[-88.32222222222222,41.835],[-87.56694444444445,41.87111111111111],[-87.56694444444445,41.87111111111111],[-87.36611111111111,41.87972222222222],[-87.16694444444445,41.88805555555555],[-87.16694444444445,41.88805555555555],[-87.16694444444445,41.88805555555555],[-87.16694444444445,41.88805555555555],[-87.03805555555556,41.89333333333333],[-86.65527777777778,41.90694444444444],[-86.02777777777777,41.92944444444444],[-85.82138888888889,41.93527777777778],[-85.82138888888889,41.93527777777778],[-85.77805555555555,41.93666666666666],[-85.61166666666666,41.941111111111105],[-85.56805555555555,41.942499999999995],[-85.56805555555555,41.942499999999995],[-85.14083333333333,41.95194444444445],[-84.92944444444444,41.95027777777778],[-84.92944444444444,41.95027777777778],[-84.80499999999999,41.94916666666666],[-84.71805555555555,41.948611111111106],[-84.71805555555555,41.948611111111106],[-84.71805555555555,41.948611111111106],[-84.59472222222222,41.94777777777777],[-84.29527777777777,41.945277777777775],[-84.17916666666667,41.94416666666666],[-84.08555555555554,41.94333333333333],[-84.08555555555554,41.94333333333333],[-83.8863888888889,41.94083333333333],[-83.8863888888889,41.94083333333333],[-83.29555555555555,41.933611111111105],[-83.29555555555555,41.933611111111105],[-83.09027777777777,41.933055555555555],[-83.09027777777777,41.933055555555555],[-82.87694444444443,41.931666666666665],[-82.66666666666667,41.92944444444444],[-82.66666666666667,41.92944444444444],[-81.84333333333333,41.91638888888889],[-81.63055555555555,41.9],[-81.63055555555555,41.9],[-81.41638888888889,41.880833333333335],[-81.41638888888889,41.880833333333335],[-81.41638888888889,41.880833333333335],[-80.56944444444444,41.80027777777777],[-80.56944444444444,41.80027777777777],[-80.56944444444444,41.80027777777777],[-79.9375,41.73583333333333],[-79.9375,41.73583333333333],[-79.08805555555556,41.64388888888889],[-79.08805555555556,41.64388888888889],[-79.08805555555556,41.64388888888889],[-79.08805555555556,41.64388888888889],[-78.6675,41.59583333333334],[-78.24222222222222,41.545833333333334],[-78.24222222222222,41.545833333333334],[-78.24222222222222,41.545833333333334],[-78.03388888888888,41.52055555555555],[-77.61583333333333,41.462500000000006],[-77.61583333333333,41.462500000000006],[-77.61583333333333,41.462500000000006],[-76.98444444444445,41.37],[-76.98444444444445,41.37],[-76.25305555555556,41.19833333333333],[-76.25305555555556,41.19833333333333],[-76.25305555555556,41.19833333333333],[-75.795,41.07277777777778],[-75.795,41.07277777777778],[-75.51,40.993611111111115],[-75.51,40.993611111111115],[-75.37166666666666,40.95472222222222],[-75.37166666666666,40.95472222222222],[-75.37166666666666,40.95472222222222],[-75.21666666666667,40.916666666666664],[-75.21666666666667,40.916666666666664],[-74.91666666666667,40.8],[-74.8,40.75],[-74.8,40.75],[-74.8,40.75],[-74.71666666666667,40.71666666666667],[-74.63333333333334,40.68333333333333],[-74.48333333333333,40.6],[-74.48333333333333,40.6],[-74.45611111111111,40.59],[-74.41666666666667,40.56666666666667],[-74.3,40.5],[-74.25,40.56666666666667],[-74.25,40.56666666666667],[-74.25,40.56666666666667],[-74.21666666666667,40.6],[-74.21472222222222,40.61388888888889],[-74.18333333333334,40.666666666666664],[-74.17555555555556,40.675555555555555],[-74.17555555555556,40.675555555555555]],"type":"LineString"}
}
