{
  "id": 1981786031,
  "type": "Feature",
  "properties": {
    "geom:area": 0,
    "geom:bbox": "-122.380000,37.620000,-75.240000,43.650000",
    "geom:latitude": 41.38503159471208,
    "geom:longitude": -98.94445014420633,
    "src:alt_label": "swim-route",
    "src:geom": "swim",
    "swim:geom": "route",
    "wof:geomhash": "7c516233e91b7819bc0699f128ca8943",
    "wof:id": 1981786031,
    "wof:repo": "sfomuseum-data-flights-2025-10"
  },
  "bbox": [
    -122.38,
    37.62,
    -75.24,
    43.65
  ],
  "geometry": {"coordinates":[[-75.24,39.87],[-75.29,39.93],[-75.32,39.96],[-75.35,39.99],[-75.37,40.02],[-75.4,40.04],[-75.42,40.07],[-75.45,40.1],[-75.46,40.11],[-75.48,40.13],[-75.5,40.15],[-75.5,40.16],[-75.55,40.21],[-75.56,40.22],[-75.57,40.23],[-75.7,40.32],[-75.71,40.32],[-75.73,40.34],[-75.8,40.38],[-75.88,40.43],[-75.89,40.44],[-76.37,40.52],[-76.52,40.54],[-76.6,40.55],[-76.62,40.56],[-76.72,40.59],[-77.28,40.73],[-77.71,40.84],[-77.86,40.88],[-77.99,40.92],[-78.08,40.93],[-78.19,40.94],[-78.43,40.97],[-78.7,41],[-80.16,41.17],[-80.42,41.19],[-80.88,41.24],[-81.58,41.31],[-82.16,41.36],[-82.76,41.49],[-84.52,41.86],[-84.89,41.93],[-85.47,42.05],[-87,42.33],[-87.68,42.45],[-88,42.5],[-88.95,42.66],[-89.57,42.76],[-91.42,43.03],[-93.29,43.28],[-93.91,43.35],[-96.45,43.62],[-96.78,43.65],[-97.43,43.61],[-98.08,43.57],[-98.97,43.5],[-100.4,43.39],[-100.62,43.37],[-100.87,43.33],[-101.37,43.25],[-101.62,43.21],[-102.12,43.13],[-102.92,43],[-104.25,42.76],[-104.68,42.68],[-107.39,42.13],[-108,42],[-109.02,41.59],[-109.98,41.11],[-110.95,40.6],[-111.34,40.39],[-112.12,39.97],[-113.25,39.3],[-113.32,39.28],[-115.6,38.67],[-117.28,38.33],[-117.28,38.33],[-118.76,37.9],[-119.1,37.86],[-119.55,37.8],[-119.89,37.76],[-119.99,37.75],[-120.09,37.74],[-120.19,37.73],[-120.4,37.7],[-120.47,37.69],[-120.56,37.68],[-120.69,37.67],[-120.74,37.66],[-120.75,37.66],[-120.96,37.63],[-120.96,37.63],[-120.97,37.63],[-121.18,37.67],[-121.22,37.68],[-121.23,37.68],[-121.33,37.7],[-121.5,37.73],[-121.55,37.74],[-121.56,37.74],[-121.7,37.77],[-121.71,37.77],[-121.77,37.78],[-121.98,37.82],[-122.01,37.83],[-122.02,37.83],[-122.04,37.83],[-122.16,37.85],[-122.18,37.85],[-122.21,37.86],[-122.23,37.84],[-122.28,37.77],[-122.28,37.76],[-122.33,37.69],[-122.38,37.62]],"type":"LineString"}
}
