{
  "id": 1981560507,
  "type": "Feature",
  "properties": {
    "geom:area": 0,
    "geom:bbox": "-123.075720,37.289760,-122.105620,38.430060",
    "geom:latitude": 37.68477078092467,
    "geom:longitude": -122.4587126135285,
    "src:alt_label": "swim-approach",
    "src:geom": "swim",
    "swim:elevations": [
      7590,
      7464,
      7317,
      7287,
      7221,
      7091,
      6950,
      6774,
      6563,
      6211,
      5945,
      5770,
      5539,
      5397,
      5085,
      4890,
      4451,
      4160,
      3918,
      3803,
      3421,
      3353,
      3353,
      3353,
      3353,
      3353,
      3353,
      3353,
      3272,
      2934,
      2685,
      2502,
      2225,
      1948,
      1829,
      1829,
      1683,
      1613,
      1525,
      1524,
      1524,
      1389,
      1325,
      1276,
      1069,
      1036,
      793,
      707,
      590,
      498,
      489,
      448,
      298,
      210,
      84,
      162,
      239,
      344,
      457,
      549,
      925,
      1109,
      1457,
      1548,
      1642,
      1777,
      1829,
      1829,
      1829,
      1829,
      1829,
      1829,
      1829,
      1829,
      1829,
      1829,
      1829,
      1829,
      1829,
      1829,
      1829,
      1829,
      1725,
      1561,
      1453,
      1282,
      1159,
      1006,
      973,
      802,
      792,
      763,
      611,
      558,
      459,
      350,
      185,
      122,
      0
    ],
    "swim:geom": "approach",
    "swim:timestamps": [
      1759437861,
      1759437888,
      1759437914,
      1759437922,
      1759437935,
      1759437958,
      1759437987,
      1759438009,
      1759438029,
      1759438065,
      1759438092,
      1759438110,
      1759438135,
      1759438151,
      1759438185,
      1759438209,
      1759438253,
      1759438286,
      1759438309,
      1759438323,
      1759438368,
      1759438402,
      1759438425,
      1759438455,
      1759438464,
      1759438497,
      1759438517,
      1759438550,
      1759438579,
      1759438614,
      1759438645,
      1759438666,
      1759438702,
      1759438733,
      1759438769,
      1759438787,
      1759438818,
      1759438836,
      1759438862,
      1759438900,
      1759438921,
      1759438971,
      1759438980,
      1759438992,
      1759439032,
      1759439042,
      1759439091,
      1759439123,
      1759439155,
      1759439181,
      1759439184,
      1759439196,
      1759439240,
      1759439265,
      1759439302,
      1759439332,
      1759439338,
      1759439347,
      1759439360,
      1759439374,
      1759439426,
      1759439445,
      1759439488,
      1759439500,
      1759439510,
      1759439529,
      1759439575,
      1759439598,
      1759439628,
      1759439663,
      1759439698,
      1759439704,
      1759439725,
      1759439757,
      1759439765,
      1759439813,
      1759439841,
      1759439859,
      1759439874,
      1759439880,
      1759439895,
      1759439928,
      1759439962,
      1759439983,
      1759440002,
      1759440040,
      1759440060,
      1759440087,
      1759440093,
      1759440125,
      1759440158,
      1759440192,
      1759440230,
      1759440250,
      1759440277,
      1759440310,
      1759440356,
      1759440376,
      1759440407
    ],
    "wof:geomhash": "bfdb8c0bfd1300ff4015d119e5558b79",
    "wof:id": 1981560507,
    "wof:repo": "sfomuseum-data-flights-2025-10"
  },
  "bbox": [
    -123.07572,
    37.28976,
    -122.10562,
    38.43006
  ],
  "geometry": {"coordinates":[[-123.07572,38.43006],[-123.02945,38.39876],[-122.98404,38.36884],[-122.97048,38.35986],[-122.94847,38.34525],[-122.90968,38.3195],[-122.86021,38.28658],[-122.82383,38.26219],[-122.79005,38.23895],[-122.75731,38.1888],[-122.74494,38.14691],[-122.73691,38.11929],[-122.72605,38.08252],[-122.71915,38.05912],[-122.70495,38.0093],[-122.69517,37.97472],[-122.67505,37.91061],[-122.6406,37.86859],[-122.61139,37.84076],[-122.59462,37.82495],[-122.53913,37.77268],[-122.50106,37.73682],[-122.47878,37.71631],[-122.45035,37.68931],[-122.44233,37.68168],[-122.41137,37.65231],[-122.39267,37.63482],[-122.36202,37.60423],[-122.34578,37.57504],[-122.32572,37.53848],[-122.3063,37.50643],[-122.29459,37.48625],[-122.29967,37.44767],[-122.30098,37.41461],[-122.26218,37.39362],[-122.23846,37.38883],[-122.19687,37.38034],[-122.17308,37.37568],[-122.13977,37.37461],[-122.11399,37.40224],[-122.10562,37.42075],[-122.13173,37.45875],[-122.13739,37.46512],[-122.14475,37.47369],[-122.16751,37.50117],[-122.17327,37.50827],[-122.19722,37.53845],[-122.21955,37.5533],[-122.24343,37.56344],[-122.26108,37.5709],[-122.26315,37.57178],[-122.27176,37.5753],[-122.30274,37.58836],[-122.32055,37.59588],[-122.34678,37.60685],[-122.36847,37.61591],[-122.37356,37.61754],[-122.38188,37.61852],[-122.39397,37.61897],[-122.40923,37.61952],[-122.48012,37.62293],[-122.50689,37.62392],[-122.5561,37.60428],[-122.56066,37.59076],[-122.56336,37.57928],[-122.56411,37.55833],[-122.53427,37.51125],[-122.51921,37.48928],[-122.4992,37.4598],[-122.47625,37.42609],[-122.4537,37.39276],[-122.44976,37.38696],[-122.43605,37.36661],[-122.41527,37.33555],[-122.40857,37.32808],[-122.3496,37.30472],[-122.31348,37.29233],[-122.28963,37.28976],[-122.27091,37.2964],[-122.26507,37.30084],[-122.25509,37.31444],[-122.23645,37.34592],[-122.21696,37.37865],[-122.20497,37.39929],[-122.19471,37.41697],[-122.17563,37.4484],[-122.16474,37.46471],[-122.15083,37.4856],[-122.14739,37.49102],[-122.15485,37.51575],[-122.17764,37.53534],[-122.20742,37.54834],[-122.23726,37.56083],[-122.25118,37.56672],[-122.26978,37.57454],[-122.29274,37.58416],[-122.32493,37.59773],[-122.3388,37.60352],[-122.35998,37.61244]],"type":"LineString"}
}
