{
  "id": 1981801933,
  "type": "Feature",
  "properties": {
    "geom:area": 0,
    "geom:bbox": "-122.530000,37.620000,-0.460000,61.500000",
    "geom:latitude": 55.4055279658518,
    "geom:longitude": -62.779620681180866,
    "src:alt_label": "swim-route",
    "src:geom": "swim",
    "swim:geom": "route",
    "wof:geomhash": "63cc28b1c4b70cc7f66b02767cd0f786",
    "wof:id": 1981801933,
    "wof:repo": "sfomuseum-data-flights-2025-10"
  },
  "bbox": [
    -122.53,
    37.62,
    -0.46,
    61.5
  ],
  "geometry": {"coordinates":[[-122.38,37.62],[-122.5,37.67],[-122.51,37.68],[-122.52,37.68],[-122.53,37.75],[-122.53,37.76],[-122.53,37.79],[-122.53,37.8],[-122.47,37.83],[-122.46,37.83],[-122.43,37.84],[-122.36,37.89],[-122.2,38],[-122.12,38.06],[-122.04,38.11],[-121.9,38.2],[-121.88,38.22],[-121.68,38.36],[-121.68,38.36],[-121.55,38.44],[-121.52,38.46],[-121.43,38.51],[-121.43,38.55],[-121.43,38.58],[-121.39,38.6],[-121.36,38.61],[-121.27,38.66],[-121.11,38.75],[-121.1,38.75],[-121.03,38.79],[-120.95,38.82],[-120.88,38.86],[-120.33,39.14],[-120.05,39.25],[-118.41,40.06],[-118,40.26],[-117.12,40.67],[-115.04,41.6],[-114.62,41.91],[-114.57,41.94],[-114.49,42],[-114.42,42.05],[-113.25,42.87],[-112.02,43.7],[-111.21,44.23],[-111.02,44.35],[-110.89,44.43],[-110.73,44.53],[-110.68,44.56],[-110.08,44.94],[-108.62,45.81],[-108.61,45.82],[-108.55,45.86],[-106.9,46.86],[-105.92,47.43],[-105.48,47.67],[-105.27,47.79],[-105.22,47.82],[-104.26,48.35],[-104.25,48.36],[-104.22,48.37],[-103.82,48.57],[-103.17,48.93],[-103.02,49],[-103.02,49],[-101,50],[-100.88,50.07],[-96.97,52.56],[-94.65,53.85],[-91.37,55.07],[-85,57],[-80,58.45],[-73,60],[-71.59,60.27],[-70.46,60.47],[-63,61.5],[-58.65,61.48],[-58,61.47],[-54.73,61.33],[-50,61],[-40,61],[-35.64,60.66],[-30,60],[-22.74,58.65],[-20,58],[-10,55.72],[-8.38,55.24],[-7.45,54.95],[-5.5,54.31],[-4.37,53.91],[-3.71,53.64],[-3.44,53.52],[-3.13,53.39],[-2.67,53.08],[-2.43,52.91],[-2.36,52.86],[-2.31,52.82],[-2.08,52.66],[-2.04,52.63],[-1.84,52.5],[-1.77,52.44],[-1.62,52.33],[-1.29,52.09],[-1.11,51.97],[-0.98,51.86],[-0.89,51.8],[-0.84,51.77],[-0.72,51.67],[-0.63,51.61],[-0.55,51.54],[-0.51,51.51],[-0.46,51.48]],"type":"LineString"}
}
