{
  "id": 1997538583,
  "type": "Feature",
  "properties": {
    "geom:area": 0,
    "geom:bbox": "-122.205930,37.927860,-122.144840,38.478220",
    "geom:latitude": 38.20132245118957,
    "geom:longitude": -122.16055207965256,
    "src:alt_label": "swim-takeoff",
    "src:geom": "swim",
    "swim:elevations": [
      3967,
      4074,
      4341,
      4824,
      5128,
      5245,
      5336,
      5455,
      5900,
      6051,
      6410,
      6601
    ],
    "swim:geom": "takeoff",
    "swim:timestamps": [
      1761843735,
      1761843751,
      1761843792,
      1761843826,
      1761843853,
      1761843881,
      1761843896,
      1761843916,
      1761843958,
      1761843972,
      1761844010,
      1761844033
    ],
    "wof:geomhash": "9e31ad6aa935403ca41029f8799a902e",
    "wof:id": 1997538583,
    "wof:repo": "sfomuseum-data-flights-2025-10"
  },
  "bbox": [
    -122.20593,
    37.92786,
    -122.14484,
    38.47822
  ],
  "geometry": {"coordinates":[[-122.20593,37.92786],[-122.20034,37.95296],[-122.18504,38.01928],[-122.17164,38.07803],[-122.1616,38.12313],[-122.14985,38.17572],[-122.14637,38.20397],[-122.14638,38.24287],[-122.14629,38.32645],[-122.14601,38.35375],[-122.14522,38.43016],[-122.14484,38.47822]],"type":"LineString"}
}
