{
  "id": 1981760497,
  "type": "Feature",
  "properties": {
    "geom:area": 0,
    "geom:bbox": "-122.354890,37.492480,-121.290930,37.612600",
    "geom:latitude": 37.54113414718679,
    "geom:longitude": -121.82950171566057,
    "src:alt_label": "swim-approach",
    "src:geom": "swim",
    "swim:elevations": [
      4949,
      4823,
      4470,
      4099,
      3845,
      3719,
      3531,
      3418,
      3383,
      3156,
      2873,
      2727,
      2561,
      2518,
      2339,
      2158,
      2013,
      1860,
      1829,
      1766,
      1589,
      1319,
      947,
      945,
      945,
      863,
      694,
      577,
      522,
      429,
      238,
      195,
      103,
      30
    ],
    "swim:geom": "approach",
    "swim:timestamps": [
      1761392577,
      1761392589,
      1761392623,
      1761392662,
      1761392688,
      1761392702,
      1761392726,
      1761392757,
      1761392771,
      1761392801,
      1761392836,
      1761392861,
      1761392899,
      1761392908,
      1761392933,
      1761392958,
      1761392988,
      1761393020,
      1761393043,
      1761393061,
      1761393080,
      1761393107,
      1761393174,
      1761393207,
      1761393210,
      1761393232,
      1761393267,
      1761393290,
      1761393307,
      1761393333,
      1761393384,
      1761393394,
      1761393416,
      1761393433
    ],
    "wof:geomhash": "0ebfd1b1832351973dfe9c85171d0691",
    "wof:id": 1981760497,
    "wof:repo": "sfomuseum-data-flights-2025-10"
  },
  "bbox": [
    -122.35489,
    37.49248,
    -121.29093,
    37.6126
  ],
  "geometry": {"coordinates":[[-121.29093,37.58916],[-121.31426,37.58672],[-121.37416,37.58002],[-121.44074,37.57225],[-121.48618,37.56714],[-121.50867,37.56458],[-121.55034,37.5597],[-121.59926,37.55401],[-121.61852,37.55166],[-121.66152,37.54199],[-121.71179,37.52997],[-121.74511,37.52203],[-121.79275,37.51044],[-121.80537,37.50732],[-121.8364,37.5002],[-121.86931,37.49248],[-121.9089,37.49319],[-121.95224,37.49544],[-121.98294,37.49717],[-122.0069,37.49865],[-122.03137,37.50011],[-122.06616,37.50203],[-122.14165,37.52306],[-122.17574,37.53728],[-122.17864,37.53851],[-122.19936,37.54711],[-122.22987,37.56003],[-122.24984,37.56838],[-122.26393,37.57436],[-122.28237,37.5821],[-122.31869,37.59739],[-122.32595,37.60041],[-122.34207,37.60714],[-122.35489,37.6126]],"type":"LineString"}
}
