{
  "id": 1997542867,
  "type": "Feature",
  "properties": {
    "geom:area": 0,
    "geom:bbox": "-122.362380,36.744120,-121.891820,37.613260",
    "geom:latitude": 37.22204890286402,
    "geom:longitude": -122.07565277568482,
    "src:alt_label": "swim-approach",
    "src:geom": "swim",
    "swim:elevations": [
      5271,
      4979,
      4667,
      4397,
      4257,
      3941,
      3054,
      2692,
      2493,
      2426,
      2185,
      2021,
      1722,
      1577,
      1318,
      1187,
      926,
      828,
      580,
      544,
      396,
      189,
      90,
      211
    ],
    "swim:geom": "approach",
    "swim:timestamps": [
      1761931405,
      1761931434,
      1761931468,
      1761931496,
      1761931511,
      1761931547,
      1761931691,
      1761931754,
      1761931792,
      1761931802,
      1761931836,
      1761931860,
      1761931911,
      1761931942,
      1761931988,
      1761932010,
      1761932057,
      1761932075,
      1761932120,
      1761932131,
      1761932168,
      1761932212,
      1761932236,
      1761932259
    ],
    "wof:geomhash": "06ff0a236715b5d9a61a8c408740f3af",
    "wof:id": 1997542867,
    "wof:repo": "sfomuseum-data-flights-2025-10"
  },
  "bbox": [
    -122.36238,
    36.74412,
    -121.89182,
    37.61326
  ],
  "geometry": {"coordinates":[[-121.89182,36.74412],[-121.90776,36.7917],[-121.92323,36.84606],[-121.93588,36.89036],[-121.94277,36.91488],[-121.96017,36.96975],[-122.03249,37.15393],[-122.0608,37.22793],[-122.07785,37.27084],[-122.08217,37.28215],[-122.09722,37.32116],[-122.10786,37.34783],[-122.12875,37.40349],[-122.14,37.43684],[-122.15835,37.48118],[-122.17092,37.49917],[-122.19639,37.53395],[-122.2086,37.54689],[-122.24923,37.56593],[-122.25915,37.57003],[-122.29058,37.58314],[-122.3262,37.59814],[-122.34508,37.60611],[-122.36238,37.61326]],"type":"LineString"}
}
