{
  "id": 1981785025,
  "type": "Feature",
  "properties": {
    "geom:area": 0,
    "geom:bbox": "-122.361720,37.635780,-121.253460,37.964260",
    "geom:latitude": 37.83925239734539,
    "geom:longitude": -121.82141829098485,
    "src:alt_label": "swim-takeoff",
    "src:geom": "swim",
    "swim:elevations": [
      244,
      561,
      989,
      1162,
      1270,
      1720,
      2010,
      3025,
      3296,
      3399,
      3871,
      3965,
      4510,
      4962,
      5079,
      5727,
      5969,
      6181,
      6397,
      6432
    ],
    "swim:geom": "takeoff",
    "swim:timestamps": [
      1761572444,
      1761572470,
      1761572506,
      1761572541,
      1761572558,
      1761572600,
      1761572619,
      1761572697,
      1761572727,
      1761572741,
      1761572786,
      1761572798,
      1761572846,
      1761572903,
      1761572917,
      1761572993,
      1761573022,
      1761573052,
      1761573086,
      1761573092
    ],
    "wof:geomhash": "e66272fd00258ccc6f8b42d1b6e67134",
    "wof:id": 1981785025,
    "wof:repo": "sfomuseum-data-flights-2025-10"
  },
  "bbox": [
    -122.36172,
    37.63578,
    -121.25346,
    37.96426
  ],
  "geometry": {"coordinates":[[-122.36172,37.63578],[-122.34231,37.64926],[-122.31127,37.66508],[-122.27855,37.68359],[-122.2599,37.69468],[-122.20603,37.72261],[-122.18088,37.73585],[-122.07244,37.79088],[-122.02977,37.81369],[-122.00716,37.82395],[-121.92151,37.84131],[-121.8988,37.84518],[-121.80221,37.86369],[-121.6824,37.8865],[-121.65197,37.89186],[-121.48329,37.92312],[-121.41736,37.93505],[-121.34869,37.94729],[-121.26864,37.96156],[-121.25346,37.96426]],"type":"LineString"}
}
