{
  "id": 1981584051,
  "type": "Feature",
  "properties": {
    "geom:area": 0,
    "geom:bbox": "-122.364830,37.630190,-122.214940,38.519660",
    "geom:latitude": 38.04303637235836,
    "geom:longitude": -122.25813823184434,
    "src:alt_label": "swim-takeoff",
    "src:geom": "swim",
    "swim:elevations": [
      183,
      448,
      872,
      1137,
      1635,
      2155,
      2701,
      2889,
      3133,
      3245,
      3486,
      4263,
      4661,
      4887,
      5041,
      5124,
      5435,
      5791,
      6105,
      6496,
      6799,
      7219,
      7253,
      7474,
      7644,
      7964,
      8148
    ],
    "swim:geom": "takeoff",
    "swim:timestamps": [
      1759605688,
      1759605710,
      1759605735,
      1759605760,
      1759605808,
      1759605835,
      1759605868,
      1759605880,
      1759605893,
      1759605909,
      1759605935,
      1759605985,
      1759606015,
      1759606033,
      1759606046,
      1759606052,
      1759606073,
      1759606099,
      1759606126,
      1759606164,
      1759606195,
      1759606228,
      1759606231,
      1759606254,
      1759606273,
      1759606307,
      1759606331
    ],
    "wof:geomhash": "7b9a8ab9385a43e8624faff7ad2694e7",
    "wof:id": 1981584051,
    "wof:repo": "sfomuseum-data-flights-2025-10"
  },
  "bbox": [
    -122.36483,
    37.63019,
    -122.21494,
    38.51966
  ],
  "geometry": {"coordinates":[[-122.36483,37.63019],[-122.34782,37.64346],[-122.32535,37.65627],[-122.30388,37.66882],[-122.24717,37.70071],[-122.21918,37.72407],[-122.21494,37.76397],[-122.21573,37.77948],[-122.21647,37.79699],[-122.2173,37.81757],[-122.21837,37.85687],[-122.2206,37.93244],[-122.22796,37.97985],[-122.23185,38.00849],[-122.23447,38.0284],[-122.23579,38.03858],[-122.24043,38.07252],[-122.24641,38.11483],[-122.25276,38.15913],[-122.26198,38.22331],[-122.26972,38.27725],[-122.27806,38.3355],[-122.27882,38.34076],[-122.2844,38.38],[-122.28929,38.41402],[-122.29893,38.47656],[-122.30512,38.51966]],"type":"LineString"}
}
