{
  "id": 1981783471,
  "type": "Feature",
  "properties": {
    "geom:area": 0,
    "geom:bbox": "-122.368470,37.625250,-121.283220,38.402420",
    "geom:latitude": 38.024290383250026,
    "geom:longitude": -121.83553905536783,
    "src:alt_label": "swim-takeoff",
    "src:geom": "swim",
    "swim:elevations": [
      122,
      345,
      677,
      912,
      1712,
      1854,
      2538,
      2688,
      2968,
      3087,
      3505,
      3680,
      3816,
      3843,
      4044,
      4238,
      4486,
      4701,
      4987,
      5034,
      5214,
      5374,
      5642,
      5776,
      6032,
      6170,
      6249,
      6341
    ],
    "swim:geom": "takeoff",
    "swim:timestamps": [
      1761573354,
      1761573372,
      1761573407,
      1761573446,
      1761573505,
      1761573515,
      1761573558,
      1761573570,
      1761573589,
      1761573600,
      1761573654,
      1761573682,
      1761573702,
      1761573711,
      1761573747,
      1761573770,
      1761573792,
      1761573827,
      1761573863,
      1761573870,
      1761573894,
      1761573918,
      1761573947,
      1761573966,
      1761573998,
      1761574020,
      1761574039,
      1761574059
    ],
    "wof:geomhash": "b29d0f6a84688f6286d9b64d19392446",
    "wof:id": 1981783471,
    "wof:repo": "sfomuseum-data-flights-2025-10"
  },
  "bbox": [
    -122.36847,
    37.62525,
    -121.28322,
    38.40242
  ],
  "geometry": {"coordinates":[[-122.36847,37.62525],[-122.3601,37.63605],[-122.33162,37.65332],[-122.29197,37.67612],[-122.21684,37.71744],[-122.20713,37.72626],[-122.16674,37.77097],[-122.15532,37.78343],[-122.1369,37.8039],[-122.12628,37.81575],[-122.06874,37.87803],[-122.02765,37.9065],[-121.99392,37.92979],[-121.98047,37.93921],[-121.91632,37.98356],[-121.87511,38.01142],[-121.83269,38.03984],[-121.76579,38.08501],[-121.69484,38.13255],[-121.68113,38.1417],[-121.63195,38.17467],[-121.58337,38.20717],[-121.52347,38.24701],[-121.48387,38.27349],[-121.41628,38.31854],[-121.37163,38.34822],[-121.32823,38.37505],[-121.28322,38.40242]],"type":"LineString"}
}
