{
  "id": 1981788517,
  "type": "Feature",
  "properties": {
    "geom:area": 0,
    "geom:bbox": "-123.366360,37.264020,-122.148390,37.610720",
    "geom:latitude": 37.396179680804806,
    "geom:longitude": -122.66464364734938,
    "src:alt_label": "swim-approach",
    "src:geom": "swim",
    "swim:elevations": [
      4924,
      4647,
      4369,
      4133,
      3966,
      3826,
      3549,
      3161,
      3046,
      3048,
      3046,
      2925,
      2839,
      2743,
      2743,
      2743,
      2743,
      2743,
      2715,
      2448,
      2020,
      1999,
      1906,
      1828,
      1829,
      1726,
      1434,
      1246,
      1157,
      1028,
      941,
      914,
      883,
      662,
      644,
      566,
      489,
      392,
      277,
      184,
      65,
      26
    ],
    "swim:geom": "approach",
    "swim:timestamps": [
      1761679708,
      1761679734,
      1761679762,
      1761679797,
      1761679826,
      1761679841,
      1761679876,
      1761679947,
      1761679987,
      1761680010,
      1761680031,
      1761680055,
      1761680076,
      1761680125,
      1761680137,
      1761680165,
      1761680196,
      1761680238,
      1761680250,
      1761680292,
      1761680335,
      1761680341,
      1761680365,
      1761680384,
      1761680407,
      1761680433,
      1761680479,
      1761680515,
      1761680545,
      1761680571,
      1761680590,
      1761680620,
      1761680647,
      1761680696,
      1761680700,
      1761680719,
      1761680740,
      1761680761,
      1761680794,
      1761680820,
      1761680850,
      1761680864
    ],
    "wof:geomhash": "50c0ee7c76e68e2749b8d0b564845048",
    "wof:id": 1981788517,
    "wof:repo": "sfomuseum-data-flights-2025-10"
  },
  "bbox": [
    -123.36636,
    37.26402,
    -122.14839,
    37.61072
  ],
  "geometry": {"coordinates":[[-123.36636,37.48991],[-123.31433,37.46611],[-123.25858,37.44047],[-123.19043,37.4091],[-123.13792,37.38488],[-123.11024,37.37208],[-123.04942,37.34398],[-122.92673,37.2872],[-122.862,37.26402],[-122.82411,37.26699],[-122.79117,37.27426],[-122.75401,37.28301],[-122.72273,37.29049],[-122.64994,37.30761],[-122.63314,37.31148],[-122.59031,37.32141],[-122.5442,37.33202],[-122.4868,37.34527],[-122.47017,37.34911],[-122.4179,37.36708],[-122.38444,37.40596],[-122.37987,37.41151],[-122.35906,37.43031],[-122.33349,37.43373],[-122.305,37.42541],[-122.27018,37.42426],[-122.21131,37.42841],[-122.16567,37.43401],[-122.14899,37.45761],[-122.14839,37.48065],[-122.15436,37.49596],[-122.16471,37.52016],[-122.18278,37.53762],[-122.22884,37.55722],[-122.23221,37.55866],[-122.2474,37.56504],[-122.26433,37.5722],[-122.28058,37.57907],[-122.30554,37.58957],[-122.32559,37.59794],[-122.34672,37.6068],[-122.35603,37.61072]],"type":"LineString"}
}
