{
  "id": 1981667451,
  "type": "Feature",
  "properties": {
    "geom:area": 0,
    "geom:bbox": "-123.126730,37.446540,-122.118890,38.509040",
    "geom:latitude": 37.88710367844102,
    "geom:longitude": -122.57070957393013,
    "src:alt_label": "swim-approach",
    "src:geom": "swim",
    "swim:elevations": [
      7855,
      7702,
      7519,
      7384,
      6952,
      6690,
      6613,
      6492,
      6161,
      6039,
      5794,
      5405,
      5224,
      4981,
      4868,
      4665,
      4568,
      4204,
      3960,
      3752,
      3449,
      3354,
      3353,
      3353,
      3353,
      3347,
      3149,
      3067,
      2558,
      2437,
      2069,
      1922,
      1900,
      1829,
      1606,
      1501,
      1210,
      1101,
      973,
      900,
      872,
      693,
      466,
      341,
      326,
      204,
      84
    ],
    "swim:geom": "approach",
    "swim:timestamps": [
      1760450340,
      1760450361,
      1760450384,
      1760450402,
      1760450453,
      1760450485,
      1760450493,
      1760450506,
      1760450544,
      1760450557,
      1760450587,
      1760450631,
      1760450652,
      1760450682,
      1760450695,
      1760450721,
      1760450731,
      1760450773,
      1760450802,
      1760450824,
      1760450864,
      1760450907,
      1760450937,
      1760450967,
      1760450972,
      1760451012,
      1760451052,
      1760451064,
      1760451117,
      1760451129,
      1760451168,
      1760451189,
      1760451197,
      1760451226,
      1760451259,
      1760451270,
      1760451317,
      1760451334,
      1760451362,
      1760451416,
      1760451420,
      1760451452,
      1760451502,
      1760451536,
      1760451541,
      1760451572,
      1760451602
    ],
    "wof:geomhash": "de94c373e6c53c345e510cdc076ebd50",
    "wof:id": 1981667451,
    "wof:repo": "sfomuseum-data-flights-2025-10"
  },
  "bbox": [
    -123.12673,
    37.44654,
    -122.11889,
    38.50904
  ],
  "geometry": {"coordinates":[[-123.12673,38.50904],[-123.09238,38.48234],[-123.05743,38.45555],[-123.02987,38.43391],[-122.95115,38.37119],[-122.90224,38.33223],[-122.88937,38.32203],[-122.86958,38.30627],[-122.81201,38.26027],[-122.79341,38.24444],[-122.76084,38.19808],[-122.73719,38.12088],[-122.72713,38.08513],[-122.71349,38.03823],[-122.70698,38.01696],[-122.69491,37.97568],[-122.6898,37.95754],[-122.66193,37.89197],[-122.62448,37.85361],[-122.59679,37.82733],[-122.54721,37.78091],[-122.49619,37.73449],[-122.46442,37.70306],[-122.43138,37.67101],[-122.4261,37.666],[-122.38114,37.62405],[-122.34762,37.58116],[-122.34034,37.5687],[-122.30855,37.51416],[-122.30111,37.50155],[-122.2728,37.46745],[-122.24665,37.46062],[-122.23654,37.45876],[-122.19863,37.45219],[-122.15647,37.44654],[-122.14218,37.44993],[-122.11889,37.4892],[-122.12704,37.50214],[-122.14602,37.52217],[-122.19635,37.54569],[-122.20009,37.54735],[-122.23077,37.56041],[-122.27108,37.5774],[-122.29657,37.58807],[-122.29998,37.58951],[-122.32312,37.59923],[-122.34545,37.6086]],"type":"LineString"}
}
