{
  "id": 1981725485,
  "type": "Feature",
  "properties": {
    "date:cessation_lower": "2025-10-20",
    "date:cessation_upper": "2025-10-20",
    "date:inception_lower": "2025-10-20",
    "date:inception_upper": "2025-10-20",
    "edtf:cessation": "2025-10-20T22:22:26Z",
    "edtf:inception": "2025-10-20T06:09:17-07:00",
    "flysfo:actual_timestamp": -1,
    "flysfo:airline": "WS",
    "flysfo:base_airline": "",
    "flysfo:base_flight_number": "6933",
    "flysfo:date": "2025-10-20",
    "flysfo:estimated_timestamp": 1760989800,
    "flysfo:event": "D",
    "flysfo:flight_number": "WS1509",
    "flysfo:gate": "B11",
    "flysfo:journey": "SFO-YYC",
    "flysfo:scheduled_timestamp": 1760989800,
    "flysfo:timestamp": 1760989800,
    "geom:area": 0,
    "geom:bbox": "-122.370943,37.617990,-114.020920,51.119526",
    "geom:latitude": 44.368758,
    "geom:longitude": -118.1959315,
    "iata:airline": "WS",
    "iata:base_airline": "",
    "icao:aircraft": "B38M",
    "icao:airline": "WJA",
    "icao:base_airline": "DAL",
    "lbl:latitude": 37.61799,
    "lbl:longitude": -122.370943,
    "sfomuseum:aircraft_id": 1528104575,
    "sfomuseum:airline_id": 1159285523,
    "sfomuseum:arrival_id": 102554947,
    "sfomuseum:base_flight_id": "20251020-D-DAL-6933",
    "sfomuseum:departure_id": 102527513,
    "sfomuseum:flight_id": "20251020-D-WJA-1509",
    "sfomuseum:flight_number": [
      "WJA1509",
      "WS1509"
    ],
    "sfomuseum:placetype": "flight",
    "src:geom": "flysfo",
    "src:geom_alt": [
      "swim-route",
      "swim-path",
      "swim-takeoff"
    ],
    "swim:tail_number": "CFRYV",
    "wof:belongsto": [
      1947304067,
      102527513,
      1947304261,
      102191575,
      85633793,
      102087579,
      85922583,
      554784711,
      85688637,
      1947304311,
      1947304259,
      102085387
    ],
    "wof:concordances": {
      "swim:flight_ref": "113833657",
      "swim:gufi": "KO66771200"
    },
    "wof:country": "US",
    "wof:created": 1761063523,
    "wof:geomhash": "a7dd599440af55c5534b52449c3164ed",
    "wof:hierarchy": [
      {
        "building_id": 1947304067,
        "campus_id": 102527513,
        "concourse_id": 1947304261,
        "continent_id": 102191575,
        "country_id": 85633793,
        "county_id": 102087579,
        "custom_id": 1981725485,
        "flight_id": 1981725485,
        "locality_id": 85922583,
        "postalcode_id": 554784711,
        "region_id": 85688637,
        "venue_id": 1947304311,
        "wing_id": 1947304259
      },
      {
        "building_id": 1947304067,
        "campus_id": 102527513,
        "concourse_id": 1947304261,
        "continent_id": 102191575,
        "country_id": 85633793,
        "county_id": 102085387,
        "custom_id": 1981725485,
        "flight_id": 1981725485,
        "region_id": 85688637,
        "venue_id": 1947304311,
        "wing_id": 1947304259
      }
    ],
    "wof:id": 1981725485,
    "wof:involves": [
      1159285523,
      1947304311,
      1159284261,
      1528104575,
      102554947,
      102527513
    ],
    "wof:lastmodified": 1761063571,
    "wof:name": "WS1509 (SFO-YYC)",
    "wof:parent_id": 1947304311,
    "wof:placetype": "custom",
    "wof:placetype_alt": [
      "flight"
    ],
    "wof:repo": "sfomuseum-data-flights-2025-10",
    "wof:superseded_by": [],
    "wof:supersedes": []
  },
  "bbox": [
    -122.370943,
    37.61799,
    -114.02092,
    51.119526
  ],
  "geometry": {"coordinates":[[-122.370943,37.61799],[-114.02092,51.119526]],"type":"MultiPoint"}
}
