{
  "id": 1981730969,
  "type": "Feature",
  "properties": {
    "geom:area": 0,
    "geom:bbox": "-122.353800,37.640800,-122.118120,38.496520",
    "geom:latitude": 38.03668477552327,
    "geom:longitude": -122.17680625193644,
    "src:alt_label": "swim-takeoff",
    "src:geom": "swim",
    "swim:elevations": [
      447,
      516,
      913,
      1107,
      1629,
      2276,
      2395,
      3268,
      3386,
      3673,
      3856,
      4222,
      4382,
      4638,
      5442,
      5788,
      6254,
      6544,
      6601,
      7252,
      7447,
      7759
    ],
    "swim:geom": "takeoff",
    "swim:timestamps": [
      1761037406,
      1761037416,
      1761037465,
      1761037480,
      1761037513,
      1761037558,
      1761037566,
      1761037640,
      1761037657,
      1761037675,
      1761037688,
      1761037711,
      1761037721,
      1761037741,
      1761037789,
      1761037817,
      1761037857,
      1761037878,
      1761037882,
      1761037935,
      1761037953,
      1761037980
    ],
    "wof:geomhash": "dd5f7d8640a6db57bab498722d9e8db5",
    "wof:id": 1981730969,
    "wof:repo": "sfomuseum-data-flights-2025-10"
  },
  "bbox": [
    -122.3538,
    37.6408,
    -122.11812,
    38.49652
  ],
  "geometry": {"coordinates":[[-122.3538,37.6408],[-122.34516,37.64547],[-122.29376,37.67445],[-122.27537,37.68516],[-122.23293,37.70816],[-122.2074,37.7628],[-122.20579,37.77326],[-122.18788,37.87922],[-122.18356,37.90586],[-122.17855,37.93562],[-122.17498,37.95778],[-122.16869,37.99666],[-122.16595,38.01338],[-122.16021,38.04808],[-122.14624,38.13372],[-122.13813,38.18384],[-122.12608,38.25761],[-122.11945,38.29808],[-122.11812,38.3058],[-122.11819,38.40845],[-122.12052,38.44396],[-122.12413,38.49652]],"type":"LineString"}
}
