{
  "id": 1981728781,
  "type": "Feature",
  "properties": {
    "geom:area": 0,
    "geom:bbox": "-122.357870,37.492570,-121.244430,37.613840",
    "geom:latitude": 37.547341485950916,
    "geom:longitude": -121.80601314547981,
    "src:alt_label": "swim-approach",
    "src:geom": "swim",
    "swim:elevations": [
      4901,
      4441,
      4388,
      4145,
      4039,
      3515,
      3488,
      3200,
      3151,
      2978,
      2957,
      2720,
      2608,
      2487,
      2205,
      2164,
      1966,
      1921,
      1647,
      1554,
      1364,
      1164,
      915,
      796,
      577,
      546,
      313,
      185,
      147,
      31,
      0
    ],
    "swim:geom": "approach",
    "swim:timestamps": [
      1761034782,
      1761034828,
      1761034832,
      1761034856,
      1761034866,
      1761034916,
      1761034920,
      1761034972,
      1761034981,
      1761035007,
      1761035010,
      1761035038,
      1761035050,
      1761035088,
      1761035125,
      1761035134,
      1761035180,
      1761035190,
      1761035242,
      1761035252,
      1761035282,
      1761035321,
      1761035363,
      1761035380,
      1761035428,
      1761035436,
      1761035481,
      1761035512,
      1761035522,
      1761035548,
      1761035552
    ],
    "wof:geomhash": "dff403be2e9a9fd5fd1ff43d1efad35f",
    "wof:id": 1981728781,
    "wof:repo": "sfomuseum-data-flights-2025-10"
  },
  "bbox": [
    -122.35787,
    37.49257,
    -121.24443,
    37.61384
  ],
  "geometry": {"coordinates":[[-121.24443,37.59533],[-121.33672,37.58408],[-121.34493,37.58319],[-121.39236,37.57802],[-121.41214,37.57582],[-121.51312,37.56394],[-121.52036,37.56307],[-121.62001,37.55134],[-121.63538,37.54831],[-121.67919,37.53778],[-121.68413,37.53665],[-121.7294,37.52645],[-121.74779,37.52223],[-121.8055,37.5085],[-121.85844,37.49523],[-121.87064,37.49278],[-121.94062,37.49257],[-121.95496,37.49316],[-122.0286,37.50653],[-122.04048,37.51076],[-122.07801,37.52443],[-122.1262,37.54102],[-122.17789,37.55698],[-122.19794,37.5631],[-122.25016,37.5797],[-122.2583,37.58226],[-122.30108,37.5949],[-122.32647,37.6025],[-122.33471,37.60501],[-122.35443,37.61239],[-122.35787,37.61384]],"type":"LineString"}
}
