{
  "id": 1981763599,
  "type": "Feature",
  "properties": {
    "geom:area": 0,
    "geom:bbox": "-122.350000,37.500000,-87.883333,42.066667",
    "geom:latitude": 40.19577177991807,
    "geom:longitude": -105.1768665659495,
    "src:alt_label": "swim-path",
    "src:geom": "swim",
    "swim:altitudes": [
      "042",
      "042",
      "042",
      "042",
      "053",
      "053",
      "053",
      "196",
      "196",
      "196",
      "196",
      "196",
      "249",
      "249",
      "249",
      "249",
      "260C",
      "260C",
      "260C",
      "260C",
      "260C",
      "260C",
      "260C",
      "260C",
      "260C",
      "260C",
      "260C",
      "260C",
      "260C",
      "260C",
      "260C",
      "260C",
      "260C",
      "260C",
      "260C",
      "260C",
      "260C",
      "260C",
      "260C",
      "260C",
      "260C",
      "260C",
      "260C",
      "260C",
      "260C",
      "260C",
      "260C",
      "260C",
      "260C",
      "260C",
      "260C",
      "260C",
      "260C",
      "260C",
      "260C",
      "260C",
      "260C",
      "260C",
      "260C",
      "260C",
      "260C",
      "260C",
      "260C",
      "260C",
      "260C",
      "260C",
      "260C",
      "260C",
      "260C",
      "260C",
      "260C",
      "260C",
      "260C",
      "260C",
      "260C",
      "260C",
      "260C",
      "260C",
      "260C",
      "260C",
      "260C",
      "260C",
      "260C",
      "260C",
      "260C",
      "260C",
      "260C",
      "260C",
      "260C",
      "260C",
      "260C",
      "260C",
      "260C",
      "260C",
      "260C",
      "260C",
      "260C",
      "260C",
      "260C",
      "260C",
      "260C",
      "260C",
      "263",
      "268",
      "268",
      "291",
      "291",
      "291",
      "300C",
      "300C",
      "300C",
      "300C",
      "300C",
      "300C",
      "300C",
      "300C",
      "300C",
      "300C",
      "300C",
      "300C",
      "300C",
      "300C",
      "300C",
      "300C",
      "300C",
      "300C",
      "300C",
      "300C",
      "300C",
      "300C",
      "300C",
      "300C",
      "300C",
      "300C",
      "300C",
      "300C",
      "300C",
      "300C",
      "300C",
      "300C",
      "300C",
      "300C",
      "300C",
      "300C",
      "300C",
      "300C",
      "300C",
      "300C",
      "300C",
      "300C",
      "300C",
      "300C",
      "300C",
      "300C",
      "300C",
      "300C",
      "300C",
      "300C",
      "300C",
      "300C",
      "300C",
      "300C",
      "300C",
      "300C",
      "300C",
      "300C",
      "300C",
      "300C",
      "300C",
      "301C",
      "301C",
      "300C",
      "300C",
      "300C",
      "300C",
      "300C",
      "300C",
      "300C",
      "300C",
      "300C",
      "300C",
      "300C",
      "300C",
      "300C",
      "300C",
      "300C",
      "300C",
      "300C",
      "300C",
      "300C",
      "300C",
      "300C",
      "300C",
      "300C",
      "300C",
      "300C",
      "300C",
      "300C",
      "300C",
      "300C",
      "300C",
      "300C",
      "300C",
      "300C",
      "300C",
      "300C",
      "300C",
      "301C",
      "301C",
      "301C",
      "301C",
      "301C",
      "300C",
      "300C",
      "300C",
      "300C",
      "300C",
      "300C",
      "300C",
      "300C",
      "300C",
      "300C",
      "301C",
      "301C",
      "300C",
      "301C",
      "301C",
      "300C",
      "300C",
      "300C",
      "300C",
      "300C",
      "300C",
      "300C",
      "300C",
      "300C",
      "300C",
      "300C",
      "300C",
      "300C",
      "300C",
      "300C",
      "300C",
      "300C",
      "300C",
      "300C",
      "300C",
      "300C",
      "300C",
      "300C",
      "300C",
      "300C",
      "300C",
      "300C",
      "300C",
      "300C",
      "300C",
      "300C",
      "300C",
      "300C",
      "300C",
      "300C",
      "300C",
      "300C",
      "300C",
      "300C",
      "300C",
      "300C",
      "300C",
      "300C",
      "300C",
      "300C",
      "300C",
      "300C",
      "300C",
      "300C",
      "300",
      "300",
      "300",
      "300",
      "300",
      "229",
      "229",
      "229",
      "194",
      "194",
      "194",
      "194",
      "166",
      "166",
      "166",
      "146",
      "146",
      "089",
      "089",
      "089",
      "089",
      "077",
      "029",
      "027",
      "017",
      "004",
      "004",
      "004",
      "004",
      "002"
    ],
    "swim:geom": "path",
    "swim:speeds": [
      182,
      182,
      182,
      182,
      248,
      248,
      248,
      390,
      390,
      390,
      390,
      390,
      429,
      429,
      429,
      429,
      430,
      430,
      430,
      430,
      430,
      444,
      447,
      450,
      451,
      451,
      451,
      453,
      453,
      455,
      455,
      456,
      457,
      457,
      457,
      457,
      462,
      462,
      463,
      463,
      463,
      463,
      469,
      469,
      470,
      470,
      473,
      473,
      473,
      479,
      479,
      479,
      479,
      482,
      482,
      482,
      482,
      482,
      482,
      482,
      485,
      485,
      485,
      485,
      486,
      487,
      487,
      487,
      487,
      487,
      487,
      489,
      489,
      489,
      489,
      490,
      490,
      490,
      490,
      489,
      489,
      489,
      489,
      488,
      488,
      488,
      488,
      488,
      488,
      487,
      487,
      487,
      485,
      485,
      485,
      485,
      485,
      484,
      484,
      484,
      487,
      487,
      487,
      485,
      485,
      486,
      486,
      486,
      486,
      486,
      478,
      478,
      478,
      478,
      478,
      478,
      481,
      481,
      481,
      481,
      481,
      481,
      477,
      477,
      477,
      469,
      469,
      469,
      469,
      469,
      467,
      467,
      467,
      465,
      465,
      465,
      464,
      463,
      463,
      463,
      463,
      460,
      460,
      460,
      460,
      456,
      456,
      456,
      456,
      448,
      448,
      448,
      448,
      448,
      442,
      442,
      441,
      441,
      441,
      441,
      440,
      440,
      439,
      439,
      439,
      441,
      441,
      441,
      441,
      441,
      441,
      440,
      440,
      439,
      439,
      436,
      436,
      436,
      432,
      432,
      432,
      432,
      432,
      432,
      432,
      429,
      429,
      429,
      429,
      429,
      429,
      425,
      425,
      423,
      423,
      422,
      422,
      422,
      420,
      420,
      420,
      420,
      420,
      420,
      420,
      420,
      422,
      418,
      418,
      418,
      418,
      418,
      415,
      415,
      406,
      406,
      406,
      405,
      405,
      405,
      405,
      406,
      406,
      406,
      408,
      417,
      417,
      409,
      409,
      409,
      407,
      407,
      407,
      407,
      408,
      408,
      408,
      409,
      409,
      408,
      408,
      408,
      408,
      407,
      407,
      407,
      407,
      407,
      399,
      396,
      397,
      397,
      397,
      397,
      399,
      399,
      400,
      400,
      400,
      395,
      395,
      395,
      395,
      404,
      404,
      381,
      381,
      381,
      381,
      373,
      373,
      373,
      373,
      373,
      371,
      371,
      382,
      382,
      382,
      382,
      382,
      328,
      328,
      328,
      328,
      328,
      328,
      328,
      313,
      313,
      313,
      309,
      309,
      269,
      269,
      269,
      269,
      242,
      212,
      197,
      183,
      139,
      139,
      139,
      139,
      135
    ],
    "swim:timestamps": [
      1761423765,
      1761423765,
      1761423765,
      1761423765,
      1761423825,
      1761423825,
      1761423825,
      1761424330,
      1761424330,
      1761424330,
      1761424330,
      1761424330,
      1761424631,
      1761424631,
      1761424631,
      1761424631,
      1761424778,
      1761424778,
      1761424778,
      1761424778,
      1761424778,
      1761424811,
      1761425111,
      1761425231,
      1761425258,
      1761425258,
      1761425258,
      1761425318,
      1761425318,
      1761425412,
      1761425439,
      1761425532,
      1761425559,
      1761425559,
      1761425559,
      1761425559,
      1761425799,
      1761425799,
      1761425859,
      1761425859,
      1761425859,
      1761425859,
      1761426133,
      1761426133,
      1761426253,
      1761426253,
      1761426400,
      1761426400,
      1761426400,
      1761426700,
      1761426700,
      1761426700,
      1761426700,
      1761426941,
      1761427121,
      1761427121,
      1761427121,
      1761427121,
      1761427181,
      1761427181,
      1761427301,
      1761427301,
      1761427301,
      1761427301,
      1761427328,
      1761427421,
      1761427421,
      1761427481,
      1761427481,
      1761427481,
      1761427481,
      1761427661,
      1761427661,
      1761427661,
      1761427661,
      1761427869,
      1761427869,
      1761427869,
      1761427869,
      1761427989,
      1761428022,
      1761428082,
      1761428082,
      1761428142,
      1761428142,
      1761428142,
      1761428169,
      1761428169,
      1761428169,
      1761428681,
      1761428681,
      1761428681,
      1761428710,
      1761428710,
      1761428710,
      1761428770,
      1761428770,
      1761428830,
      1761428830,
      1761428830,
      1761428862,
      1761428862,
      1761428922,
      1761428950,
      1761428950,
      1761429070,
      1761429070,
      1761429070,
      1761429222,
      1761429222,
      1761429251,
      1761429251,
      1761429371,
      1761429371,
      1761429371,
      1761429371,
      1761429402,
      1761429402,
      1761429402,
      1761429462,
      1761429462,
      1761429462,
      1761429763,
      1761429763,
      1761429763,
      1761429912,
      1761429912,
      1761429912,
      1761429912,
      1761429912,
      1761429972,
      1761429972,
      1761429972,
      1761430364,
      1761430364,
      1761430364,
      1761430392,
      1761430484,
      1761430484,
      1761430484,
      1761430484,
      1761430512,
      1761430512,
      1761430544,
      1761430544,
      1761430722,
      1761430722,
      1761430722,
      1761430722,
      1761430933,
      1761430933,
      1761430933,
      1761430933,
      1761430933,
      1761431113,
      1761431113,
      1761431173,
      1761431173,
      1761431173,
      1761431173,
      1761431233,
      1761431233,
      1761431353,
      1761431384,
      1761431384,
      1761431474,
      1761431474,
      1761431474,
      1761431474,
      1761431504,
      1761431504,
      1761431685,
      1761431685,
      1761431714,
      1761431714,
      1761431864,
      1761431894,
      1761431894,
      1761432074,
      1761432074,
      1761432074,
      1761432104,
      1761432104,
      1761432104,
      1761432104,
      1761432585,
      1761432585,
      1761432645,
      1761432645,
      1761432645,
      1761432645,
      1761432765,
      1761432765,
      1761432825,
      1761432825,
      1761432885,
      1761432885,
      1761432885,
      1761433066,
      1761433066,
      1761433066,
      1761433066,
      1761433126,
      1761433126,
      1761433126,
      1761433126,
      1761433306,
      1761433607,
      1761433607,
      1761433607,
      1761433607,
      1761433607,
      1761433667,
      1761433667,
      1761433966,
      1761433966,
      1761433966,
      1761434086,
      1761434086,
      1761434086,
      1761434086,
      1761434146,
      1761434206,
      1761434206,
      1761434266,
      1761434279,
      1761434279,
      1761434399,
      1761434399,
      1761434399,
      1761434449,
      1761434449,
      1761434449,
      1761434449,
      1761434639,
      1761434639,
      1761434639,
      1761434699,
      1761434699,
      1761434820,
      1761434820,
      1761434820,
      1761434820,
      1761434928,
      1761434928,
      1761434928,
      1761434928,
      1761434988,
      1761435109,
      1761435169,
      1761435229,
      1761435229,
      1761435229,
      1761435229,
      1761435300,
      1761435300,
      1761435349,
      1761435349,
      1761435349,
      1761435409,
      1761435409,
      1761435409,
      1761435409,
      1761435600,
      1761435600,
      1761435781,
      1761435781,
      1761435781,
      1761435781,
      1761435901,
      1761435901,
      1761435901,
      1761435901,
      1761435901,
      1761435961,
      1761435961,
      1761436201,
      1761436201,
      1761436201,
      1761436201,
      1761436201,
      1761436454,
      1761436454,
      1761436454,
      1761436561,
      1761436561,
      1761436561,
      1761436561,
      1761436634,
      1761436634,
      1761436634,
      1761436694,
      1761436694,
      1761436982,
      1761436982,
      1761436982,
      1761436982,
      1761437054,
      1761437342,
      1761437354,
      1761437414,
      1761437522,
      1761437522,
      1761437522,
      1761437522,
      1761437534
    ],
    "wof:geomhash": "ad75fd1337428584a52279ccdfd34452",
    "wof:id": 1981763599,
    "wof:repo": "sfomuseum-data-flights-2025-10"
  },
  "bbox": [
    -122.35,
    37.5,
    -87.88333333333334,
    42.06666666666667
  ],
  "geometry": {"coordinates":[[-87.88333333333334,42.03333333333333],[-87.88333333333334,42.03333333333333],[-87.88333333333334,42.03333333333333],[-87.88333333333334,42.03333333333333],[-87.93333333333334,42.06666666666667],[-87.93333333333334,42.06666666666667],[-87.93333333333334,42.06666666666667],[-88.85694444444444,41.91277777777778],[-88.85694444444444,41.91277777777778],[-88.85694444444444,41.91277777777778],[-88.85694444444444,41.91277777777778],[-88.85694444444444,41.91277777777778],[-89.6463888888889,41.8575],[-89.6463888888889,41.8575],[-89.6463888888889,41.8575],[-89.6463888888889,41.8575],[-90.01916666666666,41.818333333333335],[-90.01916666666666,41.818333333333335],[-90.01916666666666,41.818333333333335],[-90.01916666666666,41.818333333333335],[-90.01916666666666,41.818333333333335],[-90.11888888888888,41.80888888888889],[-90.94861111111112,41.76638888888889],[-91.28472222222221,41.759166666666665],[-91.35194444444444,41.7575],[-91.35194444444444,41.7575],[-91.35194444444444,41.7575],[-91.52305555555556,41.75361111111111],[-91.52305555555556,41.75361111111111],[-91.79416666666667,41.74666666666667],[-91.86222222222221,41.74472222222222],[-92.13305555555554,41.73694444444445],[-92.20277777777778,41.734722222222224],[-92.20277777777778,41.734722222222224],[-92.20277777777778,41.734722222222224],[-92.20277777777778,41.734722222222224],[-92.90055555555556,41.711111111111116],[-92.90055555555556,41.711111111111116],[-93.07166666666666,41.70472222222222],[-93.07166666666666,41.70472222222222],[-93.07166666666666,41.70472222222222],[-93.07166666666666,41.70472222222222],[-93.86722222222221,41.671388888888885],[-93.86722222222221,41.671388888888885],[-94.21444444444445,41.655277777777776],[-94.21444444444445,41.655277777777776],[-94.62416666666665,41.63472222222222],[-94.62416666666665,41.63472222222222],[-94.62416666666665,41.63472222222222],[-95.50444444444445,41.58555555555556],[-95.50444444444445,41.58555555555556],[-95.50444444444445,41.58555555555556],[-95.50444444444445,41.58555555555556],[-96.21944444444445,41.54083333333333],[-96.77388888888889,41.503055555555555],[-96.77388888888889,41.503055555555555],[-96.77388888888889,41.503055555555555],[-96.77388888888889,41.503055555555555],[-96.95,41.49027777777778],[-96.95,41.49027777777778],[-97.30777777777777,41.46416666666667],[-97.30777777777777,41.46416666666667],[-97.30777777777777,41.46416666666667],[-97.30777777777777,41.46416666666667],[-97.39250000000001,41.45916666666667],[-97.66472222222222,41.43666666666666],[-97.66472222222222,41.43666666666666],[-97.84305555555555,41.4225],[-97.84305555555555,41.4225],[-97.84305555555555,41.4225],[-97.84305555555555,41.4225],[-98.365,41.379444444444445],[-98.365,41.379444444444445],[-98.365,41.379444444444445],[-98.365,41.379444444444445],[-99.0025,41.32361111111111],[-99.0025,41.32361111111111],[-99.0025,41.32361111111111],[-99.0025,41.32361111111111],[-99.35694444444444,41.29083333333333],[-99.465,41.280833333333334],[-99.64194444444445,41.263888888888886],[-99.64194444444445,41.263888888888886],[-99.81861111111111,41.24666666666667],[-99.81861111111111,41.24666666666667],[-99.81861111111111,41.24666666666667],[-99.87444444444444,41.24111111111111],[-99.87444444444444,41.24111111111111],[-99.87444444444444,41.24111111111111],[-101.37305555555555,41.08416666666667],[-101.37305555555555,41.08416666666667],[-101.37305555555555,41.08416666666667],[-101.48833333333333,41.07083333333334],[-101.48833333333333,41.07083333333334],[-101.48833333333333,41.07083333333334],[-101.66333333333334,41.051111111111105],[-101.66333333333334,41.051111111111105],[-101.83999999999999,41.030833333333334],[-101.83999999999999,41.030833333333334],[-101.83999999999999,41.030833333333334],[-101.9025,41.0225],[-101.9025,41.0225],[-102.07777777777777,41.00222222222222],[-102.19027777777778,40.98972222222222],[-102.19027777777778,40.98972222222222],[-102.54194444444444,40.947222222222216],[-102.54194444444444,40.947222222222216],[-102.54194444444444,40.947222222222216],[-102.95444444444445,40.89416666666666],[-102.95444444444445,40.89416666666666],[-103.06,40.8825],[-103.06,40.8825],[-103.40361111111112,40.83833333333334],[-103.40361111111112,40.83833333333334],[-103.40361111111112,40.83833333333334],[-103.40361111111112,40.83833333333334],[-103.47333333333333,40.828611111111115],[-103.47333333333333,40.828611111111115],[-103.47333333333333,40.828611111111115],[-103.64777777777779,40.805],[-103.64777777777779,40.805],[-103.64777777777779,40.805],[-104.49861111111112,40.69027777777777],[-104.49861111111112,40.69027777777777],[-104.49861111111112,40.69027777777777],[-104.92916666666667,40.62916666666667],[-104.92916666666667,40.62916666666667],[-104.92916666666667,40.62916666666667],[-104.92916666666667,40.62916666666667],[-104.92916666666667,40.62916666666667],[-105.09277777777777,40.605555555555554],[-105.09277777777777,40.605555555555554],[-105.09277777777777,40.605555555555554],[-106.16361111111112,40.44194444444444],[-106.16361111111112,40.44194444444444],[-106.16361111111112,40.44194444444444],[-106.26388888888889,40.42833333333333],[-106.49055555555556,40.39194444444444],[-106.49055555555556,40.39194444444444],[-106.49055555555556,40.39194444444444],[-106.49055555555556,40.39194444444444],[-106.585,40.3775],[-106.585,40.3775],[-106.65194444444445,40.36527777777778],[-106.65194444444445,40.36527777777778],[-107.13777777777779,40.2875],[-107.13777777777779,40.2875],[-107.13777777777779,40.2875],[-107.13777777777779,40.2875],[-107.70861111111111,40.19222222222222],[-107.70861111111111,40.19222222222222],[-107.70861111111111,40.19222222222222],[-107.70861111111111,40.19222222222222],[-107.70861111111111,40.19222222222222],[-108.17694444444444,40.11138888888889],[-108.17694444444444,40.11138888888889],[-108.33138888888888,40.08444444444444],[-108.33138888888888,40.08444444444444],[-108.33138888888888,40.08444444444444],[-108.33138888888888,40.08444444444444],[-108.48472222222222,40.0575],[-108.48472222222222,40.0575],[-108.79166666666667,40.0025],[-108.88333333333334,39.98583333333333],[-108.88333333333334,39.98583333333333],[-109.09777777777778,39.946666666666665],[-109.09777777777778,39.946666666666665],[-109.09777777777778,39.946666666666665],[-109.09777777777778,39.946666666666665],[-109.19083333333333,39.92972222222222],[-109.19083333333333,39.92972222222222],[-109.65222222222222,39.843611111111116],[-109.65222222222222,39.843611111111116],[-109.74277777777777,39.82638888888889],[-109.74277777777777,39.82638888888889],[-110.10888888888888,39.756388888888885],[-110.19916666666667,39.73888888888889],[-110.19916666666667,39.73888888888889],[-110.65,39.650555555555556],[-110.65,39.650555555555556],[-110.65,39.650555555555556],[-110.71166666666667,39.638333333333335],[-110.71166666666667,39.638333333333335],[-110.71166666666667,39.638333333333335],[-110.71166666666667,39.638333333333335],[-111.90166666666667,39.394444444444446],[-111.90166666666667,39.394444444444446],[-112.05055555555555,39.363055555555555],[-112.05055555555555,39.363055555555555],[-112.05055555555555,39.363055555555555],[-112.05055555555555,39.363055555555555],[-112.34222222222222,39.30083333333333],[-112.34222222222222,39.30083333333333],[-112.48861111111111,39.269444444444446],[-112.48861111111111,39.269444444444446],[-112.63277777777778,39.238055555555555],[-112.63277777777778,39.238055555555555],[-112.63277777777778,39.238055555555555],[-113.06805555555555,39.14222222222222],[-113.06805555555555,39.14222222222222],[-113.06805555555555,39.14222222222222],[-113.06805555555555,39.14222222222222],[-113.21194444444444,39.11027777777778],[-113.21194444444444,39.11027777777778],[-113.21194444444444,39.11027777777778],[-113.21194444444444,39.11027777777778],[-113.64555555555556,39.01222222222222],[-114.35666666666665,38.84777777777778],[-114.35666666666665,38.84777777777778],[-114.35666666666665,38.84777777777778],[-114.35666666666665,38.84777777777778],[-114.35666666666665,38.84777777777778],[-114.49722222222222,38.81444444444444],[-114.49722222222222,38.81444444444444],[-115.1913888888889,38.64805555555556],[-115.1913888888889,38.64805555555556],[-115.1913888888889,38.64805555555556],[-115.45722222222223,38.58277777777778],[-115.45722222222223,38.58277777777778],[-115.45722222222223,38.58277777777778],[-115.45722222222223,38.58277777777778],[-115.59583333333333,38.54861111111111],[-115.73333333333333,38.51444444444444],[-115.73333333333333,38.51444444444444],[-115.8711111111111,38.480000000000004],[-115.90027777777779,38.47277777777778],[-115.90027777777779,38.47277777777778],[-116.17583333333334,38.40333333333333],[-116.17583333333334,38.40333333333333],[-116.17583333333334,38.40333333333333],[-116.2825,38.376111111111115],[-116.2825,38.376111111111115],[-116.2825,38.376111111111115],[-116.2825,38.376111111111115],[-116.7238888888889,38.26277777777778],[-116.7238888888889,38.26277777777778],[-116.7238888888889,38.26277777777778],[-116.86194444444443,38.22694444444445],[-116.86194444444443,38.22694444444445],[-117.14250000000001,38.15333333333333],[-117.14250000000001,38.15333333333333],[-117.14250000000001,38.15333333333333],[-117.14250000000001,38.15333333333333],[-117.39305555555556,38.09111111111111],[-117.39305555555556,38.09111111111111],[-117.39305555555556,38.09111111111111],[-117.39305555555556,38.09111111111111],[-117.53222222222222,38.05888888888889],[-117.80361111111111,37.999722222222225],[-117.94222222222223,37.98555555555556],[-118.08055555555555,37.970555555555556],[-118.08055555555555,37.970555555555556],[-118.08055555555555,37.970555555555556],[-118.08055555555555,37.970555555555556],[-118.24972222222222,37.9525],[-118.24972222222222,37.9525],[-118.35749999999999,37.94083333333333],[-118.35749999999999,37.94083333333333],[-118.35749999999999,37.94083333333333],[-118.49694444444445,37.925555555555555],[-118.49694444444445,37.925555555555555],[-118.49694444444445,37.925555555555555],[-118.49694444444445,37.925555555555555],[-118.94361111111111,37.875277777777775],[-118.94361111111111,37.875277777777775],[-119.36,37.82694444444445],[-119.36,37.82694444444445],[-119.36,37.82694444444445],[-119.36,37.82694444444445],[-119.61861111111111,37.796388888888885],[-119.61861111111111,37.796388888888885],[-119.61861111111111,37.796388888888885],[-119.61861111111111,37.796388888888885],[-119.61861111111111,37.796388888888885],[-119.74833333333333,37.78055555555555],[-119.74833333333333,37.78055555555555],[-120.2475,37.719166666666666],[-120.2475,37.719166666666666],[-120.2475,37.719166666666666],[-120.2475,37.719166666666666],[-120.2475,37.719166666666666],[-120.78333333333333,37.65],[-120.78333333333333,37.65],[-120.78333333333333,37.65],[-120.97305555555556,37.63166666666667],[-120.97305555555556,37.63166666666667],[-120.97305555555556,37.63166666666667],[-120.97305555555556,37.63166666666667],[-121.13333333333334,37.61666666666667],[-121.13333333333334,37.61666666666667],[-121.13333333333334,37.61666666666667],[-121.23333333333333,37.6],[-121.23333333333333,37.6],[-121.70833333333334,37.530833333333334],[-121.70833333333334,37.530833333333334],[-121.70833333333334,37.530833333333334],[-121.70833333333334,37.530833333333334],[-121.81666666666666,37.5],[-122.17972222222222,37.55694444444444],[-122.2,37.56666666666667],[-122.25,37.583333333333336],[-122.34083333333332,37.60666666666667],[-122.34083333333332,37.60666666666667],[-122.34083333333332,37.60666666666667],[-122.34083333333332,37.60666666666667],[-122.35,37.61666666666667]],"type":"LineString"}
}
