{
  "id": 1981752137,
  "type": "Feature",
  "properties": {
    "geom:area": 0,
    "geom:bbox": "-122.380000,37.490000,-73.740000,46.000000",
    "geom:latitude": 42.64079269297918,
    "geom:longitude": -98.22415888806873,
    "src:alt_label": "swim-route",
    "src:geom": "swim",
    "swim:geom": "route",
    "wof:geomhash": "095fd221417e6ba5c3a0d40f93487313",
    "wof:id": 1981752137,
    "wof:repo": "sfomuseum-data-flights-2025-10"
  },
  "bbox": [
    -122.38,
    37.49,
    -73.74,
    46
  ],
  "geometry": {"coordinates":[[-73.74,45.47],[-73.84,45.51],[-73.87,45.52],[-73.96,45.55],[-74.06,45.58],[-74.15,45.61],[-74.18,45.63],[-74.36,45.64],[-74.44,45.64],[-74.58,45.64],[-74.72,45.65],[-74.86,45.67],[-75.05,45.7],[-75.53,45.77],[-75.57,45.77],[-76.01,45.84],[-76.91,45.96],[-76.92,45.96],[-79.83,46],[-79.94,46],[-80,46],[-80.84,45.95],[-81.41,45.91],[-81.92,45.88],[-83.44,45.76],[-83.61,45.74],[-84.05,45.7],[-86.31,45.48],[-86.53,45.45],[-87.56,45.33],[-90,45],[-90.41,44.96],[-90.66,44.93],[-92.15,44.75],[-93.01,44.64],[-93.51,44.57],[-94,44.5],[-94.39,44.41],[-94.78,44.33],[-97.99,43.55],[-99.88,43.03],[-100,43],[-100.66,42.8],[-101.67,42.49],[-102.23,42.31],[-103.48,41.89],[-104.57,41.47],[-105.52,41.09],[-105.68,41.03],[-107.51,40.25],[-107.92,40.07],[-109.76,39.78],[-109.87,39.77],[-110.54,39.66],[-110.93,39.59],[-112.51,39.3],[-113.32,39.12],[-113.8,39.01],[-114.48,39.27],[-114.94,39.16],[-115.18,39.08],[-115.71,38.92],[-116.23,38.75],[-117.28,38.4],[-117.52,38.33],[-119.12,37.99],[-119.3,37.95],[-119.41,37.93],[-119.95,37.8],[-120.05,37.78],[-120.23,37.74],[-120.4,37.7],[-120.41,37.7],[-120.48,37.69],[-120.69,37.67],[-120.75,37.66],[-120.77,37.66],[-120.83,37.65],[-120.96,37.63],[-121,37.63],[-121.08,37.62],[-121.17,37.6],[-121.26,37.59],[-121.39,37.58],[-121.41,37.58],[-121.6,37.55],[-121.61,37.55],[-121.62,37.55],[-121.7,37.53],[-121.8,37.51],[-121.83,37.5],[-121.88,37.49],[-122.08,37.54],[-122.14,37.56],[-122.18,37.57],[-122.28,37.59],[-122.33,37.61],[-122.36,37.61],[-122.38,37.62]],"type":"LineString"}
}
