{
  "id": 1981741461,
  "type": "Feature",
  "properties": {
    "date:cessation_lower": "2025-10-23",
    "date:cessation_upper": "2025-10-23",
    "date:inception_lower": "2025-10-22",
    "date:inception_upper": "2025-10-22",
    "edtf:cessation": "2025-10-23T01:59:33Z",
    "edtf:inception": "2025-10-22T22:18:00Z",
    "flysfo:actual_timestamp": -1,
    "flysfo:airline": "UA",
    "flysfo:base_airline": "",
    "flysfo:base_flight_number": "3601",
    "flysfo:date": "2025-10-22",
    "flysfo:estimated_timestamp": 1761170580,
    "flysfo:event": "D",
    "flysfo:flight_number": "UA1225",
    "flysfo:gate": "F14",
    "flysfo:journey": "SFO-ORD",
    "flysfo:scheduled_timestamp": 1761170400,
    "flysfo:timestamp": 1761170580,
    "geom:area": 0,
    "geom:bbox": "-122.370943,37.617990,-87.894364,41.983038",
    "geom:latitude": 39.800514,
    "geom:longitude": -105.1326535,
    "iata:airline": "UA",
    "iata:base_airline": "",
    "icao:aircraft": "B753",
    "icao:airline": "UAL",
    "icao:base_airline": "ACA",
    "lbl:latitude": 37.620304,
    "lbl:longitude": -122.388827,
    "sfomuseum:aircraft_id": 1159289945,
    "sfomuseum:airline_id": 1159285413,
    "sfomuseum:arrival_id": 102533631,
    "sfomuseum:base_flight_id": "20251022-D-ACA-3601",
    "sfomuseum:departure_id": 102527513,
    "sfomuseum:flight_id": "20251022-D-UAL-1225",
    "sfomuseum:flight_number": [
      "UAL1225",
      "UA1225"
    ],
    "sfomuseum:placetype": "flight",
    "src:geom": "flysfo",
    "src:geom_alt": [
      "swim-route",
      "swim-path"
    ],
    "swim:tail_number": "N57870",
    "wof:belongsto": [
      1947304067,
      102527513,
      1947304451,
      102191575,
      85633793,
      102087579,
      85922583,
      554784711,
      85688637,
      1947304453,
      1947304447,
      102085387
    ],
    "wof:concordances": {
      "swim:flight_ref": "114006219",
      "swim:gufi": "KO76300400"
    },
    "wof:country": "US",
    "wof:created": 1761236165,
    "wof:geomhash": "7a75cc81bf790964b92a4927d3978f50",
    "wof:hierarchy": [
      {
        "building_id": 1947304067,
        "campus_id": 102527513,
        "concourse_id": 1947304451,
        "continent_id": 102191575,
        "country_id": 85633793,
        "county_id": 102087579,
        "custom_id": 1981741461,
        "flight_id": 1981741461,
        "locality_id": 85922583,
        "postalcode_id": 554784711,
        "region_id": 85688637,
        "venue_id": 1947304453,
        "wing_id": 1947304447
      },
      {
        "building_id": 1947304067,
        "campus_id": 102527513,
        "concourse_id": 1947304451,
        "continent_id": 102191575,
        "country_id": 85633793,
        "county_id": 102085387,
        "custom_id": 1981741461,
        "flight_id": 1981741461,
        "region_id": 85688637,
        "venue_id": 1947304453,
        "wing_id": 1947304447
      }
    ],
    "wof:id": 1981741461,
    "wof:involves": [
      1159285413,
      1947304453,
      1159283597,
      1159289945,
      102533631,
      102527513
    ],
    "wof:lastmodified": 1761236306,
    "wof:name": "UA1225 (SFO-ORD)",
    "wof:parent_id": 1947304453,
    "wof:placetype": "custom",
    "wof:placetype_alt": [
      "flight"
    ],
    "wof:repo": "sfomuseum-data-flights-2025-10",
    "wof:superseded_by": [],
    "wof:supersedes": []
  },
  "bbox": [
    -122.370943,
    37.61799,
    -87.894364,
    41.983038
  ],
  "geometry": {"coordinates":[[-122.370943,37.61799],[-87.894364,41.983038]],"type":"MultiPoint"}
}
