{
  "id": 1981729169,
  "type": "Feature",
  "properties": {
    "geom:area": 0,
    "geom:bbox": "-122.333333,26.162778,-80.049444,38.543611",
    "geom:latitude": 33.69911356732855,
    "geom:longitude": -100.90969142994612,
    "src:alt_label": "swim-path",
    "src:geom": "swim",
    "swim:altitudes": [
      "047",
      "047",
      "047",
      "047",
      "047",
      "047",
      "047",
      "047",
      "050",
      "050",
      "112",
      "112",
      "112",
      "120",
      "120",
      "146",
      "146",
      "159",
      "159",
      "159",
      "159",
      "159",
      "191",
      "191",
      "191",
      "210",
      "210",
      "210",
      "210",
      "210",
      "224",
      "224",
      "236",
      "236",
      "249",
      "254",
      "254",
      "254",
      "254",
      "254",
      "254",
      "264",
      "264",
      "271",
      "271",
      "291",
      "291",
      "291",
      "291",
      "293",
      "300",
      "300",
      "300",
      "320C",
      "320C",
      "320C",
      "320C",
      "320C",
      "320C",
      "320C",
      "320C",
      "320C",
      "320C",
      "320C",
      "320C",
      "320C",
      "320C",
      "320C",
      "320C",
      "320C",
      "320C",
      "320C",
      "320C",
      "320C",
      "320C",
      "320C",
      "320C",
      "320C",
      "320C",
      "320C",
      "320C",
      "320C",
      "320C",
      "320C",
      "320C",
      "320C",
      "320C",
      "320C",
      "320C",
      "320C",
      "320C",
      "320C",
      "320C",
      "320C",
      "320C",
      "320C",
      "320C",
      "320C",
      "320C",
      "320C",
      "320C",
      "320C",
      "320C",
      "320C",
      "320C",
      "320C",
      "320C",
      "320C",
      "320C",
      "320C",
      "320C",
      "320C",
      "320C",
      "320C",
      "320C",
      "320C",
      "320C",
      "320C",
      "320C",
      "320C",
      "320C",
      "320C",
      "320C",
      "320C",
      "320C",
      "320C",
      "320C",
      "320C",
      "320C",
      "320C",
      "320C",
      "320C",
      "320C",
      "320C",
      "320C",
      "320C",
      "320C",
      "320C",
      "320C",
      "320C",
      "320C",
      "320C",
      "320C",
      "320C",
      "320C",
      "320C",
      "320C",
      "320C",
      "320C",
      "320C",
      "320C",
      "320C",
      "320C",
      "320C",
      "320C",
      "320C",
      "320C",
      "320C",
      "320C",
      "320C",
      "320C",
      "320C",
      "320C",
      "320C",
      "320C",
      "320C",
      "320C",
      "320C",
      "320C",
      "320C",
      "320C",
      "320C",
      "320C",
      "320C",
      "320C",
      "320C",
      "320C",
      "320C",
      "320C",
      "320C",
      "320C",
      "320C",
      "320C",
      "320C",
      "320C",
      "320C",
      "320C",
      "320C",
      "320C",
      "320C",
      "320C",
      "320C",
      "320C",
      "320C",
      "320C",
      "320C",
      "320C",
      "320C",
      "320C",
      "320C",
      "320C",
      "320C",
      "320C",
      "320C",
      "320C",
      "320C",
      "320C",
      "320C",
      "320C",
      "320C",
      "320C",
      "320C",
      "320C",
      "320C",
      "320C",
      "320C",
      "320C",
      "320C",
      "320C",
      "320C",
      "320C",
      "320C",
      "320C",
      "320C",
      "320C",
      "320C",
      "320C",
      "320C",
      "320C",
      "320C",
      "320C",
      "320C",
      "320C",
      "320C",
      "320C",
      "320C",
      "320C",
      "320C",
      "320C",
      "320C",
      "320C",
      "320C",
      "320C",
      "320C",
      "320C",
      "320C",
      "320C",
      "320C",
      "320C",
      "320C",
      "320C",
      "320C",
      "320C",
      "320C",
      "320C",
      "320C",
      "320C",
      "320C",
      "320C",
      "320C",
      "320C",
      "320C",
      "320C",
      "320C",
      "320C",
      "320C",
      "320C",
      "320C",
      "320C",
      "320C",
      "320C",
      "320C",
      "320C",
      "320C",
      "320C",
      "320C",
      "320C",
      "320C",
      "320C",
      "320C",
      "320C",
      "320C",
      "320C",
      "320C",
      "320C",
      "320C",
      "320C",
      "320C",
      "320C",
      "320C",
      "320C",
      "320C",
      "320C",
      "320C",
      "320C",
      "320C",
      "320C",
      "320C",
      "320C",
      "320C",
      "320C",
      "320C",
      "320C",
      "320C",
      "320C",
      "320C",
      "320C",
      "320C",
      "320C",
      "320C",
      "320C",
      "320C",
      "320C",
      "320C",
      "320C",
      "320C",
      "320C",
      "320C",
      "320C",
      "320C",
      "320C",
      "320C",
      "320C",
      "320C",
      "320C",
      "320C",
      "320C",
      "320C",
      "320C",
      "320C",
      "320C",
      "320C",
      "320C",
      "320C",
      "320C",
      "320C",
      "320C",
      "320C",
      "320C",
      "320C",
      "320C",
      "320C",
      "320C",
      "320C",
      "320C",
      "320C",
      "320C",
      "320C",
      "320C",
      "320C",
      "320C",
      "320C",
      "320C",
      "320C",
      "320C",
      "320C",
      "320C",
      "320C",
      "320C",
      "320C",
      "320C",
      "320C",
      "320C",
      "320C",
      "320C",
      "320C",
      "320C",
      "320C",
      "320C",
      "320C",
      "320C",
      "320C",
      "320C",
      "320C",
      "320C",
      "320C",
      "320C",
      "320C",
      "320C",
      "320C",
      "320C",
      "320C",
      "320C",
      "320C",
      "320C",
      "320C",
      "320C",
      "320C",
      "320C",
      "320C",
      "320C",
      "320C",
      "320C",
      "320C",
      "320C",
      "320C",
      "320C",
      "320C",
      "320C",
      "320C",
      "320C",
      "320C",
      "320C",
      "320C",
      "320C",
      "320C",
      "320C",
      "320C",
      "320C",
      "320C",
      "320C",
      "320C",
      "320C",
      "320C",
      "320C",
      "320C",
      "320C",
      "320C",
      "320C",
      "320C",
      "320C",
      "320C",
      "320C",
      "320C",
      "320C",
      "320C",
      "320C",
      "320C",
      "320C",
      "320C",
      "320C",
      "320C",
      "320C",
      "320C",
      "320C",
      "320C",
      "320C",
      "320C",
      "320C",
      "320C",
      "320C",
      "320C",
      "320C",
      "320C",
      "320C",
      "320C",
      "320C",
      "320C",
      "320C",
      "320C",
      "320C",
      "320C",
      "320C",
      "320",
      "320",
      "320",
      "320",
      "320",
      "320",
      "320",
      "320",
      "320",
      "320",
      "320",
      "320",
      "320",
      "320",
      "320",
      "320",
      "320",
      "320",
      "320",
      "320",
      "320",
      "320",
      "320",
      "320",
      "320",
      "320",
      "320",
      "320",
      "340C",
      "340C",
      "340C",
      "340C",
      "340C",
      "340C",
      "340C",
      "340C",
      "340C",
      "340C",
      "340C",
      "340C",
      "340C",
      "340C",
      "340C",
      "340C",
      "340C",
      "340C",
      "340C",
      "340C",
      "340C",
      "340C",
      "340C",
      "340C",
      "340C",
      "340C",
      "340C",
      "340C",
      "340C",
      "340C",
      "340C",
      "340C",
      "340C",
      "340C",
      "340C",
      "340C",
      "340C",
      "340C",
      "340C",
      "340C",
      "340C",
      "340C",
      "340C",
      "340C",
      "340C",
      "340C",
      "340C",
      "340C",
      "340C",
      "340C",
      "340C",
      "340C",
      "340C",
      "340C",
      "340C",
      "340C",
      "340C",
      "340C",
      "340C",
      "340C",
      "340C",
      "340C",
      "340C",
      "340C",
      "340C",
      "340C",
      "340C",
      "340C",
      "340C",
      "340C",
      "340C",
      "340C",
      "340C",
      "340C",
      "340C",
      "340C",
      "340C",
      "340C",
      "340C",
      "340C",
      "340C",
      "340C",
      "340C",
      "340C",
      "340C",
      "340C",
      "340C",
      "340C",
      "340C",
      "340C",
      "340C",
      "340C",
      "340C",
      "340C",
      "340C",
      "340C",
      "340C",
      "340C",
      "340C",
      "340C",
      "340C",
      "340C",
      "340C",
      "340C",
      "340C",
      "340C",
      "340C",
      "340C",
      "340C",
      "340C",
      "340C",
      "340C",
      "340C",
      "340C",
      "340C",
      "340C",
      "340C",
      "340C",
      "340C",
      "340C",
      "340C",
      "340C",
      "340C",
      "340C",
      "340C",
      "340C",
      "340C",
      "340C",
      "340C",
      "340C",
      "340C",
      "340C",
      "340C",
      "340C",
      "340C",
      "340C",
      "340C",
      "340C",
      "340C",
      "340C",
      "340C",
      "340C",
      "340C",
      "340C",
      "340C",
      "340C",
      "340C",
      "340C",
      "340C",
      "340C",
      "340C",
      "340C",
      "340C",
      "289",
      "289",
      "289",
      "289",
      "289",
      "289",
      "244",
      "244",
      "244",
      "229",
      "229",
      "229",
      "229",
      "229",
      "210",
      "210",
      "191",
      "191",
      "191",
      "191",
      "186",
      "186",
      "186",
      "186",
      "154",
      "154",
      "154",
      "150",
      "150",
      "150",
      "150",
      "129",
      "129",
      "129",
      "129",
      "104",
      "104",
      "104",
      "104",
      "093",
      "079",
      "079",
      "071",
      "071",
      "071",
      "071",
      "071",
      "071",
      "069",
      "069",
      "069",
      "055",
      "055",
      "055",
      "044",
      "044",
      "044",
      "044",
      "041",
      "041",
      "041",
      "015",
      "015",
      "005",
      "005",
      "005",
      "005",
      "005",
      "005",
      "005"
    ],
    "swim:geom": "path",
    "swim:speeds": [
      263,
      263,
      263,
      263,
      263,
      263,
      263,
      263,
      273,
      273,
      300,
      300,
      300,
      306,
      306,
      365,
      365,
      355,
      355,
      355,
      355,
      355,
      377,
      377,
      377,
      399,
      399,
      399,
      399,
      399,
      402,
      402,
      407,
      407,
      408,
      420,
      420,
      420,
      420,
      420,
      420,
      425,
      425,
      426,
      426,
      442,
      442,
      442,
      442,
      447,
      454,
      454,
      454,
      452,
      452,
      452,
      450,
      450,
      450,
      450,
      445,
      445,
      445,
      445,
      443,
      443,
      439,
      439,
      439,
      439,
      439,
      439,
      440,
      440,
      440,
      440,
      440,
      440,
      441,
      441,
      441,
      441,
      439,
      439,
      439,
      440,
      440,
      440,
      440,
      439,
      439,
      440,
      440,
      440,
      440,
      440,
      440,
      440,
      440,
      440,
      440,
      440,
      440,
      440,
      438,
      438,
      438,
      436,
      436,
      436,
      436,
      436,
      436,
      434,
      434,
      434,
      434,
      434,
      427,
      427,
      425,
      425,
      425,
      425,
      425,
      425,
      425,
      425,
      425,
      425,
      425,
      425,
      424,
      424,
      424,
      424,
      424,
      420,
      420,
      421,
      421,
      419,
      419,
      419,
      419,
      420,
      420,
      421,
      421,
      421,
      421,
      422,
      422,
      422,
      423,
      423,
      423,
      423,
      425,
      425,
      425,
      425,
      425,
      425,
      424,
      424,
      424,
      424,
      424,
      424,
      418,
      418,
      418,
      418,
      417,
      417,
      417,
      417,
      417,
      417,
      417,
      417,
      416,
      416,
      416,
      416,
      416,
      416,
      416,
      416,
      416,
      409,
      409,
      409,
      409,
      409,
      409,
      408,
      408,
      412,
      412,
      409,
      409,
      409,
      409,
      409,
      411,
      411,
      409,
      409,
      409,
      408,
      408,
      408,
      406,
      406,
      406,
      405,
      405,
      405,
      405,
      405,
      405,
      405,
      405,
      405,
      405,
      405,
      403,
      403,
      403,
      403,
      403,
      403,
      403,
      413,
      413,
      413,
      413,
      413,
      413,
      417,
      417,
      418,
      418,
      418,
      418,
      419,
      419,
      419,
      419,
      419,
      418,
      418,
      418,
      418,
      418,
      418,
      418,
      414,
      414,
      414,
      414,
      414,
      414,
      414,
      414,
      414,
      414,
      414,
      416,
      416,
      416,
      416,
      416,
      416,
      416,
      416,
      416,
      416,
      416,
      416,
      417,
      417,
      417,
      417,
      417,
      417,
      417,
      417,
      416,
      416,
      416,
      416,
      416,
      416,
      416,
      415,
      415,
      415,
      415,
      415,
      415,
      415,
      415,
      415,
      415,
      416,
      416,
      416,
      416,
      417,
      417,
      417,
      417,
      417,
      418,
      418,
      418,
      418,
      418,
      418,
      418,
      418,
      418,
      418,
      418,
      418,
      418,
      418,
      418,
      418,
      419,
      419,
      419,
      419,
      419,
      419,
      419,
      420,
      420,
      420,
      420,
      420,
      420,
      420,
      420,
      420,
      420,
      420,
      419,
      419,
      419,
      419,
      419,
      419,
      419,
      419,
      419,
      419,
      419,
      419,
      419,
      419,
      419,
      419,
      419,
      419,
      419,
      419,
      419,
      419,
      418,
      418,
      418,
      418,
      418,
      418,
      418,
      418,
      420,
      420,
      420,
      420,
      420,
      420,
      420,
      420,
      420,
      420,
      419,
      419,
      419,
      419,
      419,
      419,
      419,
      419,
      419,
      419,
      419,
      418,
      418,
      418,
      418,
      418,
      418,
      418,
      418,
      418,
      418,
      417,
      417,
      417,
      421,
      421,
      421,
      421,
      421,
      420,
      420,
      421,
      421,
      421,
      423,
      423,
      423,
      423,
      423,
      423,
      416,
      416,
      416,
      416,
      416,
      416,
      416,
      416,
      417,
      417,
      417,
      417,
      418,
      418,
      418,
      418,
      419,
      419,
      419,
      421,
      421,
      421,
      421,
      420,
      420,
      420,
      420,
      420,
      420,
      420,
      420,
      420,
      420,
      420,
      420,
      420,
      420,
      420,
      420,
      420,
      420,
      420,
      423,
      423,
      423,
      423,
      423,
      423,
      423,
      423,
      423,
      422,
      422,
      423,
      423,
      423,
      424,
      424,
      424,
      424,
      424,
      424,
      424,
      424,
      424,
      421,
      421,
      421,
      421,
      421,
      421,
      421,
      421,
      426,
      426,
      426,
      426,
      426,
      427,
      427,
      427,
      427,
      429,
      429,
      429,
      429,
      430,
      430,
      430,
      429,
      429,
      429,
      429,
      429,
      429,
      427,
      427,
      427,
      427,
      427,
      427,
      428,
      428,
      428,
      428,
      428,
      428,
      428,
      437,
      437,
      437,
      472,
      472,
      472,
      472,
      438,
      438,
      438,
      465,
      465,
      465,
      465,
      465,
      419,
      419,
      419,
      414,
      414,
      412,
      412,
      412,
      412,
      412,
      411,
      410,
      409,
      409,
      408,
      408,
      408,
      408,
      408,
      407,
      407,
      407,
      407,
      407,
      407,
      407,
      405,
      405,
      405,
      405,
      405,
      405,
      405,
      405,
      405,
      405,
      405,
      405,
      405,
      405,
      405,
      417,
      417,
      417,
      415,
      415,
      415,
      415,
      415,
      415,
      415,
      415,
      415,
      415,
      415,
      415,
      415,
      415,
      415,
      417,
      417,
      417,
      417,
      417,
      417,
      418,
      418,
      418,
      418,
      418,
      418,
      417,
      417,
      417,
      417,
      417,
      417,
      417,
      417,
      417,
      417,
      430,
      430,
      430,
      430,
      430,
      430,
      418,
      418,
      418,
      405,
      405,
      405,
      405,
      405,
      377,
      377,
      368,
      368,
      368,
      368,
      372,
      372,
      372,
      372,
      357,
      357,
      357,
      359,
      359,
      359,
      359,
      271,
      271,
      271,
      271,
      227,
      227,
      227,
      227,
      222,
      224,
      224,
      226,
      226,
      226,
      226,
      226,
      226,
      224,
      224,
      224,
      217,
      217,
      217,
      207,
      207,
      207,
      207,
      210,
      210,
      210,
      174,
      174,
      155,
      155,
      155,
      155,
      155,
      155,
      155
    ],
    "swim:timestamps": [
      1761052448,
      1761052448,
      1761052448,
      1761052448,
      1761052448,
      1761052448,
      1761052448,
      1761052448,
      1761052572,
      1761052572,
      1761052752,
      1761052752,
      1761052752,
      1761052801,
      1761052801,
      1761052872,
      1761052872,
      1761052921,
      1761052921,
      1761052921,
      1761052921,
      1761052921,
      1761053041,
      1761053041,
      1761053041,
      1761053113,
      1761053113,
      1761053113,
      1761053113,
      1761053113,
      1761053173,
      1761053173,
      1761053222,
      1761053222,
      1761053282,
      1761053293,
      1761053293,
      1761053293,
      1761053293,
      1761053293,
      1761053293,
      1761053353,
      1761053353,
      1761053402,
      1761053402,
      1761053522,
      1761053522,
      1761053522,
      1761053522,
      1761053533,
      1761053582,
      1761053582,
      1761053582,
      1761053762,
      1761053762,
      1761053762,
      1761053834,
      1761053834,
      1761053834,
      1761053834,
      1761054003,
      1761054014,
      1761054014,
      1761054014,
      1761054074,
      1761054074,
      1761054134,
      1761054303,
      1761054303,
      1761054303,
      1761054303,
      1761054315,
      1761054363,
      1761054363,
      1761054363,
      1761054363,
      1761054363,
      1761054363,
      1761054604,
      1761054604,
      1761054604,
      1761054604,
      1761054675,
      1761054675,
      1761054675,
      1761054738,
      1761054738,
      1761054738,
      1761054738,
      1761054856,
      1761054856,
      1761054918,
      1761054918,
      1761054918,
      1761054918,
      1761054964,
      1761054964,
      1761054964,
      1761054964,
      1761054964,
      1761054976,
      1761055024,
      1761055024,
      1761055038,
      1761055204,
      1761055204,
      1761055204,
      1761055264,
      1761055264,
      1761055264,
      1761055264,
      1761055264,
      1761055276,
      1761055385,
      1761055385,
      1761055457,
      1761055457,
      1761055457,
      1761055625,
      1761055625,
      1761055880,
      1761055880,
      1761055940,
      1761055940,
      1761055940,
      1761056060,
      1761056060,
      1761056060,
      1761056060,
      1761056060,
      1761056060,
      1761056060,
      1761056106,
      1761056106,
      1761056106,
      1761056106,
      1761056120,
      1761056346,
      1761056346,
      1761056361,
      1761056361,
      1761056406,
      1761056406,
      1761056406,
      1761056406,
      1761056481,
      1761056481,
      1761056601,
      1761056601,
      1761056601,
      1761056601,
      1761056661,
      1761056661,
      1761056661,
      1761056721,
      1761056721,
      1761056721,
      1761056721,
      1761056947,
      1761056947,
      1761056947,
      1761056947,
      1761056947,
      1761056947,
      1761057022,
      1761057022,
      1761057022,
      1761057022,
      1761057022,
      1761057022,
      1761057382,
      1761057382,
      1761057382,
      1761057382,
      1761057442,
      1761057442,
      1761057442,
      1761057442,
      1761057442,
      1761057442,
      1761057442,
      1761057442,
      1761057502,
      1761057683,
      1761057683,
      1761057683,
      1761057683,
      1761057683,
      1761057683,
      1761057683,
      1761057683,
      1761058155,
      1761058155,
      1761058155,
      1761058155,
      1761058155,
      1761058155,
      1761058215,
      1761058215,
      1761058284,
      1761058284,
      1761058335,
      1761058335,
      1761058335,
      1761058335,
      1761058335,
      1761058344,
      1761058344,
      1761058395,
      1761058395,
      1761058395,
      1761058455,
      1761058455,
      1761058455,
      1761058524,
      1761058524,
      1761058524,
      1761058696,
      1761058696,
      1761058696,
      1761058704,
      1761058704,
      1761058704,
      1761058704,
      1761058704,
      1761058704,
      1761058824,
      1761058824,
      1761058945,
      1761058945,
      1761058945,
      1761058945,
      1761059005,
      1761059005,
      1761059005,
      1761059237,
      1761059237,
      1761059245,
      1761059245,
      1761059245,
      1761059245,
      1761059365,
      1761059365,
      1761059417,
      1761059417,
      1761059417,
      1761059417,
      1761059425,
      1761059425,
      1761059425,
      1761059425,
      1761059425,
      1761059597,
      1761059597,
      1761059597,
      1761059597,
      1761059597,
      1761059597,
      1761059597,
      1761059897,
      1761059897,
      1761059897,
      1761059897,
      1761059897,
      1761059966,
      1761059966,
      1761059966,
      1761059966,
      1761059966,
      1761059966,
      1761060138,
      1761060138,
      1761060138,
      1761060138,
      1761060138,
      1761060138,
      1761060198,
      1761060198,
      1761060198,
      1761060198,
      1761060198,
      1761060198,
      1761060558,
      1761060558,
      1761060558,
      1761060558,
      1761060558,
      1761060558,
      1761060558,
      1761060558,
      1761060739,
      1761060739,
      1761060739,
      1761060739,
      1761060739,
      1761060739,
      1761060739,
      1761061039,
      1761061039,
      1761061039,
      1761061039,
      1761061039,
      1761061039,
      1761061039,
      1761061039,
      1761061039,
      1761061039,
      1761061339,
      1761061339,
      1761061339,
      1761061339,
      1761061400,
      1761061400,
      1761061400,
      1761061400,
      1761061400,
      1761061460,
      1761061460,
      1761061460,
      1761061460,
      1761061460,
      1761061460,
      1761061460,
      1761061880,
      1761061880,
      1761061880,
      1761061880,
      1761061880,
      1761061880,
      1761061880,
      1761061880,
      1761061880,
      1761062060,
      1761062060,
      1761062060,
      1761062060,
      1761062060,
      1761062060,
      1761062060,
      1761062263,
      1761062263,
      1761062263,
      1761062263,
      1761062263,
      1761062263,
      1761062263,
      1761062263,
      1761062263,
      1761062263,
      1761062263,
      1761062661,
      1761062661,
      1761062661,
      1761062661,
      1761062661,
      1761062661,
      1761062661,
      1761062781,
      1761062781,
      1761062781,
      1761062864,
      1761062864,
      1761062864,
      1761062864,
      1761062864,
      1761062924,
      1761062924,
      1761062924,
      1761062924,
      1761062924,
      1761062924,
      1761062924,
      1761063142,
      1761063142,
      1761063142,
      1761063142,
      1761063142,
      1761063142,
      1761063142,
      1761063142,
      1761063502,
      1761063502,
      1761063502,
      1761063502,
      1761063502,
      1761063502,
      1761063502,
      1761063502,
      1761063502,
      1761063502,
      1761063705,
      1761063705,
      1761063705,
      1761063705,
      1761063705,
      1761063705,
      1761063885,
      1761063885,
      1761063885,
      1761063885,
      1761063885,
      1761064005,
      1761064005,
      1761064005,
      1761064005,
      1761064005,
      1761064005,
      1761064005,
      1761064005,
      1761064005,
      1761064005,
      1761064366,
      1761064366,
      1761064366,
      1761064513,
      1761064513,
      1761064513,
      1761064513,
      1761064513,
      1761064546,
      1761064546,
      1761064574,
      1761064574,
      1761064574,
      1761064694,
      1761064694,
      1761064694,
      1761064694,
      1761064694,
      1761064694,
      1761064907,
      1761064907,
      1761064967,
      1761064967,
      1761064967,
      1761064967,
      1761064967,
      1761064967,
      1761065054,
      1761065054,
      1761065054,
      1761065054,
      1761065087,
      1761065087,
      1761065087,
      1761065087,
      1761065147,
      1761065147,
      1761065147,
      1761065207,
      1761065207,
      1761065207,
      1761065207,
      1761065628,
      1761065628,
      1761065628,
      1761065655,
      1761065655,
      1761065655,
      1761065655,
      1761065655,
      1761065775,
      1761065775,
      1761065775,
      1761065775,
      1761065775,
      1761065775,
      1761065808,
      1761065808,
      1761065808,
      1761065808,
      1761065808,
      1761066136,
      1761066136,
      1761066136,
      1761066136,
      1761066136,
      1761066136,
      1761066136,
      1761066136,
      1761066136,
      1761066496,
      1761066496,
      1761066625,
      1761066625,
      1761066625,
      1761066676,
      1761066676,
      1761066676,
      1761066676,
      1761066676,
      1761066676,
      1761066676,
      1761066676,
      1761066676,
      1761067166,
      1761067166,
      1761067166,
      1761067166,
      1761067166,
      1761067166,
      1761067166,
      1761067166,
      1761067346,
      1761067346,
      1761067346,
      1761067346,
      1761067346,
      1761067397,
      1761067397,
      1761067397,
      1761067397,
      1761067527,
      1761067527,
      1761067527,
      1761067587,
      1761067707,
      1761067707,
      1761067707,
      1761067758,
      1761067767,
      1761067767,
      1761067767,
      1761067767,
      1761067767,
      1761067947,
      1761067947,
      1761067947,
      1761067947,
      1761067947,
      1761067947,
      1761068789,
      1761068789,
      1761068789,
      1761068789,
      1761068789,
      1761068849,
      1761068849,
      1761068909,
      1761068909,
      1761068909,
      1761068960,
      1761068960,
      1761068960,
      1761068960,
      1761068969,
      1761068969,
      1761068969,
      1761069020,
      1761069020,
      1761069020,
      1761069020,
      1761069020,
      1761069450,
      1761069450,
      1761069450,
      1761069501,
      1761069501,
      1761069510,
      1761069510,
      1761069510,
      1761069561,
      1761069561,
      1761069570,
      1761069621,
      1761069630,
      1761069630,
      1761069690,
      1761069690,
      1761069690,
      1761069690,
      1761069690,
      1761069741,
      1761069741,
      1761069741,
      1761069741,
      1761069741,
      1761069741,
      1761069741,
      1761070042,
      1761070042,
      1761070042,
      1761070042,
      1761070042,
      1761070042,
      1761070291,
      1761070291,
      1761070291,
      1761070291,
      1761070291,
      1761070342,
      1761070342,
      1761070342,
      1761070342,
      1761070471,
      1761070471,
      1761070471,
      1761070522,
      1761070522,
      1761070522,
      1761070531,
      1761070531,
      1761070591,
      1761070591,
      1761070591,
      1761070591,
      1761070643,
      1761070643,
      1761070643,
      1761070643,
      1761070643,
      1761070643,
      1761070823,
      1761070823,
      1761070823,
      1761070823,
      1761070823,
      1761070823,
      1761071063,
      1761071063,
      1761071063,
      1761071063,
      1761071063,
      1761071063,
      1761071123,
      1761071123,
      1761071123,
      1761071123,
      1761071123,
      1761071183,
      1761071183,
      1761071183,
      1761071183,
      1761071183,
      1761071424,
      1761071424,
      1761071424,
      1761071424,
      1761071424,
      1761071424,
      1761071544,
      1761071544,
      1761071544,
      1761071582,
      1761071582,
      1761071582,
      1761071582,
      1761071582,
      1761071643,
      1761071643,
      1761071702,
      1761071702,
      1761071702,
      1761071702,
      1761071724,
      1761071724,
      1761071724,
      1761071724,
      1761071822,
      1761071822,
      1761071822,
      1761071844,
      1761071844,
      1761071844,
      1761071844,
      1761071942,
      1761071942,
      1761071942,
      1761071942,
      1761072061,
      1761072061,
      1761072061,
      1761072061,
      1761072122,
      1761072205,
      1761072205,
      1761072242,
      1761072242,
      1761072242,
      1761072242,
      1761072242,
      1761072242,
      1761072265,
      1761072265,
      1761072265,
      1761072361,
      1761072361,
      1761072361,
      1761072422,
      1761072422,
      1761072422,
      1761072422,
      1761072445,
      1761072445,
      1761072445,
      1761072596,
      1761072596,
      1761072662,
      1761072662,
      1761072662,
      1761072662,
      1761072662,
      1761072662,
      1761072662
    ],
    "wof:geomhash": "3c1eb1345153f96f7e8879225d17a355",
    "wof:id": 1981729169,
    "wof:repo": "sfomuseum-data-flights-2025-10"
  },
  "bbox": [
    -122.33333333333333,
    26.162777777777777,
    -80.04944444444445,
    38.54361111111111
  ],
  "geometry": {"coordinates":[[-80.04944444444445,26.162777777777777],[-80.04944444444445,26.162777777777777],[-80.04944444444445,26.162777777777777],[-80.04944444444445,26.162777777777777],[-80.04944444444445,26.162777777777777],[-80.04944444444445,26.162777777777777],[-80.04944444444445,26.162777777777777],[-80.04944444444445,26.162777777777777],[-80.16944444444445,26.25611111111111],[-80.16944444444445,26.25611111111111],[-80.43,26.29527777777778],[-80.43,26.29527777777778],[-80.43,26.29527777777778],[-80.49888888888889,26.31861111111111],[-80.49888888888889,26.31861111111111],[-80.63305555555554,26.363333333333333],[-80.63305555555554,26.363333333333333],[-80.71361111111112,26.390277777777776],[-80.71361111111112,26.390277777777776],[-80.71361111111112,26.390277777777776],[-80.71361111111112,26.390277777777776],[-80.71361111111112,26.390277777777776],[-80.93916666666667,26.465],[-80.93916666666667,26.465],[-80.93916666666667,26.465],[-81.07194444444444,26.510833333333334],[-81.07194444444444,26.510833333333334],[-81.07194444444444,26.510833333333334],[-81.07194444444444,26.510833333333334],[-81.07194444444444,26.510833333333334],[-81.16305555555556,26.58722222222222],[-81.16305555555556,26.58722222222222],[-81.2363888888889,26.659444444444443],[-81.2363888888889,26.659444444444443],[-81.32805555555555,26.741666666666667],[-81.36611111111111,26.763055555555557],[-81.36611111111111,26.763055555555557],[-81.36611111111111,26.763055555555557],[-81.36611111111111,26.763055555555557],[-81.36611111111111,26.763055555555557],[-81.36611111111111,26.763055555555557],[-81.47083333333333,26.80777777777778],[-81.47083333333333,26.80777777777778],[-81.56777777777778,26.849166666666665],[-81.56777777777778,26.849166666666665],[-81.81944444444444,26.954722222222223],[-81.81944444444444,26.954722222222223],[-81.81944444444444,26.954722222222223],[-81.81944444444444,26.954722222222223],[-81.84583333333333,26.96472222222222],[-81.94694444444445,27.006666666666668],[-81.94694444444445,27.006666666666668],[-81.94694444444445,27.006666666666668],[-82.3325,27.16777777777778],[-82.3325,27.16777777777778],[-82.3325,27.16777777777778],[-82.48555555555555,27.231944444444444],[-82.48555555555555,27.231944444444444],[-82.48555555555555,27.231944444444444],[-82.48555555555555,27.231944444444444],[-82.83972222222222,27.37666666666667],[-82.86388888888888,27.386388888888888],[-82.86388888888888,27.386388888888888],[-82.86388888888888,27.386388888888888],[-82.99416666666667,27.439722222222223],[-82.99416666666667,27.439722222222223],[-83.12472222222222,27.493055555555557],[-83.4888888888889,27.577222222222222],[-83.4888888888889,27.577222222222222],[-83.4888888888889,27.577222222222222],[-83.4888888888889,27.577222222222222],[-83.5125,27.581666666666667],[-83.62277777777777,27.601111111111113],[-83.62277777777777,27.601111111111113],[-83.62277777777777,27.601111111111113],[-83.62277777777777,27.601111111111113],[-83.62277777777777,27.601111111111113],[-83.62277777777777,27.601111111111113],[-84.16444444444446,27.697222222222223],[-84.16444444444446,27.697222222222223],[-84.16444444444446,27.697222222222223],[-84.16444444444446,27.697222222222223],[-84.325,27.724999999999998],[-84.325,27.724999999999998],[-84.325,27.724999999999998],[-84.46083333333334,27.748611111111114],[-84.46083333333334,27.748611111111114],[-84.46083333333334,27.748611111111114],[-84.46083333333334,27.748611111111114],[-84.73027777777779,27.795],[-84.73027777777779,27.795],[-84.86527777777778,27.818055555555556],[-84.86527777777778,27.818055555555556],[-84.86527777777778,27.818055555555556],[-84.86527777777778,27.818055555555556],[-84.9725,27.83611111111111],[-84.9725,27.83611111111111],[-84.9725,27.83611111111111],[-84.9725,27.83611111111111],[-84.9725,27.83611111111111],[-85.00222222222222,27.84111111111111],[-85.10944444444443,27.859166666666667],[-85.10944444444443,27.859166666666667],[-85.1363888888889,27.863611111111112],[-85.50527777777778,27.95888888888889],[-85.50527777777778,27.95888888888889],[-85.50527777777778,27.95888888888889],[-85.63611111111112,27.998333333333335],[-85.63611111111112,27.998333333333335],[-85.63611111111112,27.998333333333335],[-85.63611111111112,27.998333333333335],[-85.63611111111112,27.998333333333335],[-85.66194444444444,28.00611111111111],[-85.89277777777778,28.075277777777778],[-85.89277777777778,28.075277777777778],[-86.04833333333333,28.121666666666666],[-86.04833333333333,28.121666666666666],[-86.04833333333333,28.121666666666666],[-86.40472222222223,28.226666666666667],[-86.40472222222223,28.226666666666667],[-86.93694444444445,28.3825],[-86.93694444444445,28.3825],[-87.06083333333333,28.418333333333333],[-87.06083333333333,28.418333333333333],[-87.06083333333333,28.418333333333333],[-87.31583333333333,28.492222222222225],[-87.31583333333333,28.492222222222225],[-87.31583333333333,28.492222222222225],[-87.31583333333333,28.492222222222225],[-87.31583333333333,28.492222222222225],[-87.31583333333333,28.492222222222225],[-87.31583333333333,28.492222222222225],[-87.42083333333333,28.522499999999997],[-87.42083333333333,28.522499999999997],[-87.42083333333333,28.522499999999997],[-87.42083333333333,28.522499999999997],[-87.44583333333334,28.529722222222222],[-87.92555555555556,28.66611111111111],[-87.92555555555556,28.66611111111111],[-87.94833333333334,28.672777777777778],[-87.94833333333334,28.672777777777778],[-88.04944444444445,28.70111111111111],[-88.04944444444445,28.70111111111111],[-88.04944444444445,28.70111111111111],[-88.04944444444445,28.70111111111111],[-88.2075,28.745555555555555],[-88.2075,28.745555555555555],[-88.46166666666667,28.816666666666666],[-88.46166666666667,28.816666666666666],[-88.46166666666667,28.816666666666666],[-88.46166666666667,28.816666666666666],[-88.59055555555555,28.851944444444445],[-88.59055555555555,28.851944444444445],[-88.59055555555555,28.851944444444445],[-88.71583333333334,28.89388888888889],[-88.71583333333334,28.89388888888889],[-88.71583333333334,28.89388888888889],[-88.71583333333334,28.89388888888889],[-89.12333333333332,29.15722222222222],[-89.12333333333332,29.15722222222222],[-89.12333333333332,29.15722222222222],[-89.12333333333332,29.15722222222222],[-89.12333333333332,29.15722222222222],[-89.12333333333332,29.15722222222222],[-89.25888888888889,29.245],[-89.25888888888889,29.245],[-89.25888888888889,29.245],[-89.25888888888889,29.245],[-89.25888888888889,29.245],[-89.25888888888889,29.245],[-89.90416666666667,29.65833333333333],[-89.90416666666667,29.65833333333333],[-89.90416666666667,29.65833333333333],[-89.90416666666667,29.65833333333333],[-90.0125,29.72722222222222],[-90.0125,29.72722222222222],[-90.0125,29.72722222222222],[-90.0125,29.72722222222222],[-90.0125,29.72722222222222],[-90.0125,29.72722222222222],[-90.0125,29.72722222222222],[-90.0125,29.72722222222222],[-90.12055555555555,29.795555555555556],[-90.44555555555556,30.00027777777778],[-90.44555555555556,30.00027777777778],[-90.44555555555556,30.00027777777778],[-90.44555555555556,30.00027777777778],[-90.44555555555556,30.00027777777778],[-90.44555555555556,30.00027777777778],[-90.44555555555556,30.00027777777778],[-90.44555555555556,30.00027777777778],[-91.28999999999999,30.525],[-91.28999999999999,30.525],[-91.28999999999999,30.525],[-91.28999999999999,30.525],[-91.28999999999999,30.525],[-91.28999999999999,30.525],[-91.39777777777779,30.591944444444444],[-91.39777777777779,30.591944444444444],[-91.53055555555555,30.671666666666667],[-91.53055555555555,30.671666666666667],[-91.61527777777778,30.723611111111108],[-91.61527777777778,30.723611111111108],[-91.61527777777778,30.723611111111108],[-91.61527777777778,30.723611111111108],[-91.61527777777778,30.723611111111108],[-91.63833333333334,30.737222222222222],[-91.63833333333334,30.737222222222222],[-91.72194444444445,30.788611111111113],[-91.72194444444445,30.788611111111113],[-91.72194444444445,30.788611111111113],[-91.83055555555555,30.854166666666668],[-91.83055555555555,30.854166666666668],[-91.83055555555555,30.854166666666668],[-91.96055555555556,30.93277777777778],[-91.96055555555556,30.93277777777778],[-91.96055555555556,30.93277777777778],[-92.25944444444444,31.1125],[-92.25944444444444,31.1125],[-92.25944444444444,31.1125],[-92.28138888888888,31.125555555555557],[-92.28138888888888,31.125555555555557],[-92.28138888888888,31.125555555555557],[-92.28138888888888,31.125555555555557],[-92.28138888888888,31.125555555555557],[-92.28138888888888,31.125555555555557],[-92.49861111111112,31.255],[-92.49861111111112,31.255],[-92.72777777777777,31.360833333333336],[-92.72777777777777,31.360833333333336],[-92.72777777777777,31.360833333333336],[-92.72777777777777,31.360833333333336],[-92.84333333333333,31.41361111111111],[-92.84333333333333,31.41361111111111],[-92.84333333333333,31.41361111111111],[-93.30194444444444,31.621666666666666],[-93.30194444444444,31.621666666666666],[-93.30388888888889,31.6225],[-93.30388888888889,31.6225],[-93.30388888888889,31.6225],[-93.30388888888889,31.6225],[-93.54444444444444,31.730833333333333],[-93.54444444444444,31.730833333333333],[-93.66638888888889,31.78527777777778],[-93.66638888888889,31.78527777777778],[-93.66638888888889,31.78527777777778],[-93.66638888888889,31.78527777777778],[-93.67833333333334,31.790555555555557],[-93.67833333333334,31.790555555555557],[-93.67833333333334,31.790555555555557],[-93.67833333333334,31.790555555555557],[-93.67833333333334,31.790555555555557],[-94.01583333333333,31.940277777777776],[-94.01583333333333,31.940277777777776],[-94.01583333333333,31.940277777777776],[-94.01583333333333,31.940277777777776],[-94.01583333333333,31.940277777777776],[-94.01583333333333,31.940277777777776],[-94.01583333333333,31.940277777777776],[-94.61805555555554,32.20444444444445],[-94.61805555555554,32.20444444444445],[-94.61805555555554,32.20444444444445],[-94.61805555555554,32.20444444444445],[-94.61805555555554,32.20444444444445],[-94.76222222222222,32.26694444444444],[-94.76222222222222,32.26694444444444],[-94.76222222222222,32.26694444444444],[-94.76222222222222,32.26694444444444],[-94.76222222222222,32.26694444444444],[-94.76222222222222,32.26694444444444],[-95.12416666666665,32.422777777777775],[-95.12416666666665,32.422777777777775],[-95.12416666666665,32.422777777777775],[-95.12416666666665,32.422777777777775],[-95.12416666666665,32.422777777777775],[-95.12416666666665,32.422777777777775],[-95.24722222222222,32.47555555555556],[-95.24722222222222,32.47555555555556],[-95.24722222222222,32.47555555555556],[-95.24722222222222,32.47555555555556],[-95.24722222222222,32.47555555555556],[-95.24722222222222,32.47555555555556],[-95.96805555555555,32.78055555555555],[-95.96805555555555,32.78055555555555],[-95.96805555555555,32.78055555555555],[-95.96805555555555,32.78055555555555],[-95.96805555555555,32.78055555555555],[-95.96805555555555,32.78055555555555],[-95.96805555555555,32.78055555555555],[-95.96805555555555,32.78055555555555],[-96.3386111111111,32.93472222222222],[-96.3386111111111,32.93472222222222],[-96.3386111111111,32.93472222222222],[-96.3386111111111,32.93472222222222],[-96.3386111111111,32.93472222222222],[-96.3386111111111,32.93472222222222],[-96.3386111111111,32.93472222222222],[-96.95444444444445,33.1875],[-96.95444444444445,33.1875],[-96.95444444444445,33.1875],[-96.95444444444445,33.1875],[-96.95444444444445,33.1875],[-96.95444444444445,33.1875],[-96.95444444444445,33.1875],[-96.95444444444445,33.1875],[-96.95444444444445,33.1875],[-96.95444444444445,33.1875],[-97.59083333333332,33.44416666666666],[-97.59083333333332,33.44416666666666],[-97.59083333333332,33.44416666666666],[-97.59083333333332,33.44416666666666],[-97.71638888888889,33.494166666666665],[-97.71638888888889,33.494166666666665],[-97.71638888888889,33.494166666666665],[-97.71638888888889,33.494166666666665],[-97.71638888888889,33.494166666666665],[-97.83972222222222,33.54416666666666],[-97.83972222222222,33.54416666666666],[-97.83972222222222,33.54416666666666],[-97.83972222222222,33.54416666666666],[-97.83972222222222,33.54416666666666],[-97.83972222222222,33.54416666666666],[-97.83972222222222,33.54416666666666],[-98.69555555555556,33.93555555555555],[-98.69555555555556,33.93555555555555],[-98.69555555555556,33.93555555555555],[-98.69555555555556,33.93555555555555],[-98.69555555555556,33.93555555555555],[-98.69555555555556,33.93555555555555],[-98.69555555555556,33.93555555555555],[-98.69555555555556,33.93555555555555],[-98.69555555555556,33.93555555555555],[-99.06416666666667,34.10138888888889],[-99.06416666666667,34.10138888888889],[-99.06416666666667,34.10138888888889],[-99.06416666666667,34.10138888888889],[-99.06416666666667,34.10138888888889],[-99.06416666666667,34.10138888888889],[-99.06416666666667,34.10138888888889],[-99.46472222222222,34.279444444444444],[-99.46472222222222,34.279444444444444],[-99.46472222222222,34.279444444444444],[-99.46472222222222,34.279444444444444],[-99.46472222222222,34.279444444444444],[-99.46472222222222,34.279444444444444],[-99.46472222222222,34.279444444444444],[-99.46472222222222,34.279444444444444],[-99.46472222222222,34.279444444444444],[-99.46472222222222,34.279444444444444],[-99.46472222222222,34.279444444444444],[-100.31472222222222,34.650555555555556],[-100.31472222222222,34.650555555555556],[-100.31472222222222,34.650555555555556],[-100.31472222222222,34.650555555555556],[-100.31472222222222,34.650555555555556],[-100.31472222222222,34.650555555555556],[-100.31472222222222,34.650555555555556],[-100.54305555555555,34.74861111111111],[-100.54305555555555,34.74861111111111],[-100.54305555555555,34.74861111111111],[-100.72166666666666,34.82472222222223],[-100.72166666666666,34.82472222222223],[-100.72166666666666,34.82472222222223],[-100.72166666666666,34.82472222222223],[-100.72166666666666,34.82472222222223],[-100.8475,34.87833333333333],[-100.8475,34.87833333333333],[-100.8475,34.87833333333333],[-100.8475,34.87833333333333],[-100.8475,34.87833333333333],[-100.8475,34.87833333333333],[-100.8475,34.87833333333333],[-101.30166666666666,35.06944444444445],[-101.30166666666666,35.06944444444445],[-101.30166666666666,35.06944444444445],[-101.30166666666666,35.06944444444445],[-101.30166666666666,35.06944444444445],[-101.30166666666666,35.06944444444445],[-101.30166666666666,35.06944444444445],[-101.30166666666666,35.06944444444445],[-102.09916666666666,35.34138888888889],[-102.09916666666666,35.34138888888889],[-102.09916666666666,35.34138888888889],[-102.09916666666666,35.34138888888889],[-102.09916666666666,35.34138888888889],[-102.09916666666666,35.34138888888889],[-102.09916666666666,35.34138888888889],[-102.09916666666666,35.34138888888889],[-102.09916666666666,35.34138888888889],[-102.09916666666666,35.34138888888889],[-102.55,35.45944444444445],[-102.55,35.45944444444445],[-102.55,35.45944444444445],[-102.55,35.45944444444445],[-102.55,35.45944444444445],[-102.55,35.45944444444445],[-102.95805555555556,35.56444444444444],[-102.95805555555556,35.56444444444444],[-102.95805555555556,35.56444444444444],[-102.95805555555556,35.56444444444444],[-102.95805555555556,35.56444444444444],[-103.23027777777779,35.63361111111111],[-103.23027777777779,35.63361111111111],[-103.23027777777779,35.63361111111111],[-103.23027777777779,35.63361111111111],[-103.23027777777779,35.63361111111111],[-103.23027777777779,35.63361111111111],[-103.23027777777779,35.63361111111111],[-103.23027777777779,35.63361111111111],[-103.23027777777779,35.63361111111111],[-103.23027777777779,35.63361111111111],[-104.04138888888889,35.83527777777778],[-104.04138888888889,35.83527777777778],[-104.04138888888889,35.83527777777778],[-104.40444444444445,35.92361111111111],[-104.40444444444445,35.92361111111111],[-104.40444444444445,35.92361111111111],[-104.40444444444445,35.92361111111111],[-104.40444444444445,35.92361111111111],[-104.47944444444444,35.94277777777778],[-104.47944444444444,35.94277777777778],[-104.51055555555556,35.956944444444446],[-104.51055555555556,35.956944444444446],[-104.51055555555556,35.956944444444446],[-104.75222222222222,36.08916666666667],[-104.75222222222222,36.08916666666667],[-104.75222222222222,36.08916666666667],[-104.75222222222222,36.08916666666667],[-104.75222222222222,36.08916666666667],[-104.75222222222222,36.08916666666667],[-105.24444444444444,36.245],[-105.24444444444444,36.245],[-105.38111111111111,36.27055555555555],[-105.38111111111111,36.27055555555555],[-105.38111111111111,36.27055555555555],[-105.38111111111111,36.27055555555555],[-105.38111111111111,36.27055555555555],[-105.38111111111111,36.27055555555555],[-105.58888888888889,36.309444444444445],[-105.58888888888889,36.309444444444445],[-105.58888888888889,36.309444444444445],[-105.58888888888889,36.309444444444445],[-105.66722222222222,36.32416666666667],[-105.66722222222222,36.32416666666667],[-105.66722222222222,36.32416666666667],[-105.66722222222222,36.32416666666667],[-105.79833333333333,36.348333333333336],[-105.79833333333333,36.348333333333336],[-105.79833333333333,36.348333333333336],[-105.93972222222223,36.37444444444444],[-105.93972222222223,36.37444444444444],[-105.93972222222223,36.37444444444444],[-105.93972222222223,36.37444444444444],[-106.9213888888889,36.54972222222222],[-106.9213888888889,36.54972222222222],[-106.9213888888889,36.54972222222222],[-107.00444444444445,36.564166666666665],[-107.00444444444445,36.564166666666665],[-107.00444444444445,36.564166666666665],[-107.00444444444445,36.564166666666665],[-107.00444444444445,36.564166666666665],[-107.28777777777778,36.61277777777778],[-107.28777777777778,36.61277777777778],[-107.28777777777778,36.61277777777778],[-107.28777777777778,36.61277777777778],[-107.28777777777778,36.61277777777778],[-107.28777777777778,36.61277777777778],[-107.34305555555555,36.62222222222222],[-107.34305555555555,36.62222222222222],[-107.34305555555555,36.62222222222222],[-107.34305555555555,36.62222222222222],[-107.34305555555555,36.62222222222222],[-108.1413888888889,36.76166666666666],[-108.1413888888889,36.76166666666666],[-108.1413888888889,36.76166666666666],[-108.1413888888889,36.76166666666666],[-108.1413888888889,36.76166666666666],[-108.1413888888889,36.76166666666666],[-108.1413888888889,36.76166666666666],[-108.1413888888889,36.76166666666666],[-108.1413888888889,36.76166666666666],[-108.95722222222223,37.01],[-108.95722222222223,37.01],[-109.23777777777778,37.093611111111116],[-109.23777777777778,37.093611111111116],[-109.23777777777778,37.093611111111116],[-109.36972222222222,37.13361111111111],[-109.36972222222222,37.13361111111111],[-109.36972222222222,37.13361111111111],[-109.36972222222222,37.13361111111111],[-109.36972222222222,37.13361111111111],[-109.36972222222222,37.13361111111111],[-109.36972222222222,37.13361111111111],[-109.36972222222222,37.13361111111111],[-109.36972222222222,37.13361111111111],[-110.49444444444444,37.46027777777778],[-110.49444444444444,37.46027777777778],[-110.49444444444444,37.46027777777778],[-110.49444444444444,37.46027777777778],[-110.49444444444444,37.46027777777778],[-110.49444444444444,37.46027777777778],[-110.49444444444444,37.46027777777778],[-110.49444444444444,37.46027777777778],[-110.91666666666667,37.57777777777778],[-110.91666666666667,37.57777777777778],[-110.91666666666667,37.57777777777778],[-110.91666666666667,37.57777777777778],[-110.91666666666667,37.57777777777778],[-111.0363888888889,37.60611111111111],[-111.0363888888889,37.60611111111111],[-111.0363888888889,37.60611111111111],[-111.0363888888889,37.60611111111111],[-111.34888888888888,37.67916666666667],[-111.34888888888888,37.67916666666667],[-111.34888888888888,37.67916666666667],[-111.49333333333334,37.712500000000006],[-111.7825,37.77861111111111],[-111.7825,37.77861111111111],[-111.7825,37.77861111111111],[-111.90305555555557,37.80638888888888],[-111.92444444444445,37.81111111111111],[-111.92444444444445,37.81111111111111],[-111.92444444444445,37.81111111111111],[-111.92444444444445,37.81111111111111],[-111.92444444444445,37.81111111111111],[-112.36055555555555,37.89361111111111],[-112.36055555555555,37.89361111111111],[-112.36055555555555,37.89361111111111],[-112.36055555555555,37.89361111111111],[-112.36055555555555,37.89361111111111],[-112.36055555555555,37.89361111111111],[-114.41444444444446,38.2425],[-114.41444444444446,38.2425],[-114.41444444444446,38.2425],[-114.41444444444446,38.2425],[-114.41444444444446,38.2425],[-114.56361111111111,38.26638888888889],[-114.56361111111111,38.26638888888889],[-114.72555555555556,38.33111111111111],[-114.72555555555556,38.33111111111111],[-114.72555555555556,38.33111111111111],[-114.82055555555556,38.38972222222222],[-114.82055555555556,38.38972222222222],[-114.82055555555556,38.38972222222222],[-114.82055555555556,38.38972222222222],[-114.85027777777778,38.406388888888884],[-114.85027777777778,38.406388888888884],[-114.85027777777778,38.406388888888884],[-114.92,38.48833333333334],[-114.92,38.48833333333334],[-114.92,38.48833333333334],[-114.92,38.48833333333334],[-114.92,38.48833333333334],[-115.8625,38.54361111111111],[-115.8625,38.54361111111111],[-115.8625,38.54361111111111],[-115.97555555555556,38.51972222222222],[-115.97555555555556,38.51972222222222],[-116.00277777777778,38.513888888888886],[-116.00277777777778,38.513888888888886],[-116.00277777777778,38.513888888888886],[-116.11666666666666,38.49],[-116.11666666666666,38.49],[-116.14333333333335,38.48416666666667],[-116.25527777777778,38.46055555555556],[-116.28333333333333,38.45472222222222],[-116.28333333333333,38.45472222222222],[-116.42111111111112,38.42527777777777],[-116.42111111111112,38.42527777777777],[-116.42111111111112,38.42527777777777],[-116.42111111111112,38.42527777777777],[-116.42111111111112,38.42527777777777],[-116.53194444444445,38.40138888888889],[-116.53194444444445,38.40138888888889],[-116.53194444444445,38.40138888888889],[-116.53194444444445,38.40138888888889],[-116.53194444444445,38.40138888888889],[-116.53194444444445,38.40138888888889],[-116.53194444444445,38.40138888888889],[-117.22777777777777,38.24888888888889],[-117.22777777777777,38.24888888888889],[-117.22777777777777,38.24888888888889],[-117.22777777777777,38.24888888888889],[-117.22777777777777,38.24888888888889],[-117.22777777777777,38.24888888888889],[-117.6413888888889,37.96194444444445],[-117.6413888888889,37.96194444444445],[-117.6413888888889,37.96194444444445],[-117.6413888888889,37.96194444444445],[-117.6413888888889,37.96194444444445],[-117.7075,37.88777777777778],[-117.7075,37.88777777777778],[-117.7075,37.88777777777778],[-117.7075,37.88777777777778],[-118.02527777777777,37.86194444444445],[-118.02527777777777,37.86194444444445],[-118.02527777777777,37.86194444444445],[-118.14277777777778,37.85416666666667],[-118.14277777777778,37.85416666666667],[-118.14277777777778,37.85416666666667],[-118.16972222222223,37.852222222222224],[-118.16972222222223,37.852222222222224],[-118.315,37.843611111111116],[-118.315,37.843611111111116],[-118.315,37.843611111111116],[-118.315,37.843611111111116],[-118.43277777777779,37.83638888888889],[-118.43277777777779,37.83638888888889],[-118.43277777777779,37.83638888888889],[-118.43277777777779,37.83638888888889],[-118.43277777777779,37.83638888888889],[-118.43277777777779,37.83638888888889],[-118.87833333333333,37.808611111111105],[-118.87833333333333,37.808611111111105],[-118.87833333333333,37.808611111111105],[-118.87833333333333,37.808611111111105],[-118.87833333333333,37.808611111111105],[-118.87833333333333,37.808611111111105],[-119.465,37.76888888888889],[-119.465,37.76888888888889],[-119.465,37.76888888888889],[-119.465,37.76888888888889],[-119.465,37.76888888888889],[-119.465,37.76888888888889],[-119.61083333333333,37.75833333333333],[-119.61083333333333,37.75833333333333],[-119.61083333333333,37.75833333333333],[-119.61083333333333,37.75833333333333],[-119.61083333333333,37.75833333333333],[-119.75722222222223,37.74777777777778],[-119.75722222222223,37.74777777777778],[-119.75722222222223,37.74777777777778],[-119.75722222222223,37.74777777777778],[-119.75722222222223,37.74777777777778],[-120.35166666666666,37.70333333333333],[-120.35166666666666,37.70333333333333],[-120.35166666666666,37.70333333333333],[-120.35166666666666,37.70333333333333],[-120.35166666666666,37.70333333333333],[-120.35166666666666,37.70333333333333],[-120.6438888888889,37.671388888888885],[-120.6438888888889,37.671388888888885],[-120.6438888888889,37.671388888888885],[-120.75,37.666666666666664],[-120.75,37.666666666666664],[-120.75,37.666666666666664],[-120.75,37.666666666666664],[-120.75,37.666666666666664],[-120.88333333333334,37.65],[-120.88333333333334,37.65],[-121.01666666666667,37.63333333333333],[-121.01666666666667,37.63333333333333],[-121.01666666666667,37.63333333333333],[-121.01666666666667,37.63333333333333],[-121.04472222222222,37.621944444444445],[-121.04472222222222,37.621944444444445],[-121.04472222222222,37.621944444444445],[-121.04472222222222,37.621944444444445],[-121.26666666666667,37.6],[-121.26666666666667,37.6],[-121.26666666666667,37.6],[-121.28583333333333,37.58972222222222],[-121.28583333333333,37.58972222222222],[-121.28583333333333,37.58972222222222],[-121.28583333333333,37.58972222222222],[-121.48333333333333,37.56666666666667],[-121.48333333333333,37.56666666666667],[-121.48333333333333,37.56666666666667],[-121.48333333333333,37.56666666666667],[-121.65,37.55],[-121.65,37.55],[-121.65,37.55],[-121.65,37.55],[-121.71666666666667,37.53333333333333],[-121.81416666666667,37.50527777777778],[-121.81416666666667,37.50527777777778],[-121.86666666666666,37.5],[-121.86666666666666,37.5],[-121.86666666666666,37.5],[-121.86666666666666,37.5],[-121.86666666666666,37.5],[-121.86666666666666,37.5],[-121.88972222222223,37.49111111111111],[-121.88972222222223,37.49111111111111],[-121.88972222222223,37.49111111111111],[-122.01666666666667,37.5],[-122.01666666666667,37.5],[-122.01666666666667,37.5],[-122.08333333333333,37.53333333333333],[-122.08333333333333,37.53333333333333],[-122.08333333333333,37.53333333333333],[-122.08333333333333,37.53333333333333],[-122.10472222222222,37.5325],[-122.10472222222222,37.5325],[-122.10472222222222,37.5325],[-122.26666666666667,37.583333333333336],[-122.26666666666667,37.583333333333336],[-122.33333333333333,37.6],[-122.33333333333333,37.6],[-122.33333333333333,37.6],[-122.33333333333333,37.6],[-122.33333333333333,37.6],[-122.33333333333333,37.6],[-122.33333333333333,37.6]],"type":"LineString"}
}
