{
  "id": 1981553631,
  "type": "Feature",
  "properties": {
    "geom:area": 0,
    "geom:bbox": "-122.351600,37.478600,-121.253640,37.611160",
    "geom:latitude": 37.54680955602121,
    "geom:longitude": -121.80805055968057,
    "src:alt_label": "swim-approach",
    "src:geom": "swim",
    "swim:elevations": [
      5123,
      4743,
      4411,
      4164,
      4066,
      3811,
      3754,
      3574,
      3389,
      3168,
      3114,
      3048,
      2909,
      2628,
      2537,
      2431,
      2346,
      2223,
      2010,
      1829,
      1762,
      1737,
      1674,
      1479,
      1352,
      1221,
      1012,
      854,
      646,
      576,
      452,
      287,
      159,
      46
    ],
    "swim:geom": "approach",
    "swim:timestamps": [
      1759311069,
      1759311111,
      1759311148,
      1759311177,
      1759311187,
      1759311232,
      1759311248,
      1759311287,
      1759311320,
      1759311356,
      1759311370,
      1759311396,
      1759311442,
      1759311478,
      1759311490,
      1759311536,
      1759311552,
      1759311572,
      1759311608,
      1759311658,
      1759311680,
      1759311689,
      1759311706,
      1759311747,
      1759311765,
      1759311787,
      1759311826,
      1759311855,
      1759311895,
      1759311908,
      1759311931,
      1759311971,
      1759311998,
      1759312024
    ],
    "wof:geomhash": "cc0785c98d3470e013c60193651d7940",
    "wof:id": 1981553631,
    "wof:repo": "sfomuseum-data-flights-2025-10"
  },
  "bbox": [
    -122.3516,
    37.4786,
    -121.25364,
    37.61116
  ],
  "geometry": {"coordinates":[[-121.25364,37.594],[-121.32739,37.58525],[-121.38824,37.57856],[-121.43694,37.57279],[-121.45286,37.57094],[-121.52393,37.56267],[-121.54794,37.55981],[-121.60194,37.55531],[-121.64512,37.56546],[-121.69429,37.57687],[-121.713,37.58127],[-121.74677,37.58913],[-121.7844,37.56306],[-121.78345,37.52336],[-121.78358,37.50901],[-121.82339,37.4786],[-121.84414,37.48235],[-121.86988,37.48904],[-121.91736,37.49292],[-121.98215,37.49674],[-122.01018,37.49859],[-122.02095,37.49933],[-122.04208,37.50054],[-122.08824,37.50329],[-122.10753,37.50852],[-122.12997,37.51767],[-122.16872,37.53422],[-122.19831,37.54665],[-122.23956,37.5641],[-122.25233,37.5695],[-122.27353,37.57838],[-122.30765,37.5927],[-122.33006,37.60224],[-122.3516,37.61116]],"type":"LineString"}
}
