{
  "id": 1981772869,
  "type": "Feature",
  "properties": {
    "geom:area": 0,
    "geom:bbox": "-122.308889,37.667222,-88.000000,42.605000",
    "geom:latitude": 40.620715811258584,
    "geom:longitude": -105.17130432780675,
    "src:alt_label": "swim-path",
    "src:geom": "swim",
    "swim:altitudes": [
      "021",
      "021",
      "021",
      "021",
      "021",
      "072",
      "072",
      "072",
      "072",
      "072",
      "072",
      "200",
      "200",
      "200",
      "200",
      "200",
      "200",
      "275",
      "275",
      "275",
      "275",
      "275",
      "275",
      "275",
      "275",
      "275",
      "275",
      "290C",
      "290C",
      "290C",
      "290C",
      "290C",
      "290C",
      "290C",
      "290C",
      "290C",
      "290C",
      "290C",
      "290C",
      "290C",
      "290C",
      "290C",
      "291C",
      "291C",
      "291C",
      "291C",
      "291C",
      "291C",
      "290C",
      "290C",
      "290C",
      "290C",
      "290C",
      "290C",
      "290C",
      "290C",
      "290C",
      "290C",
      "290C",
      "290C",
      "290C",
      "290C",
      "290C",
      "290C",
      "290C",
      "290C",
      "290C",
      "290C",
      "290C",
      "290C",
      "290C",
      "290C",
      "290C",
      "290C",
      "290C",
      "290C",
      "290C",
      "290C",
      "290C",
      "290C",
      "290C",
      "290C",
      "290C",
      "290C",
      "290C",
      "290C",
      "290C",
      "290C",
      "290C",
      "290C",
      "290C",
      "290C",
      "290C",
      "290C",
      "290C",
      "290C",
      "290C",
      "290C",
      "290C",
      "290C",
      "290C",
      "290C",
      "290C",
      "290C",
      "290C",
      "290C",
      "290C",
      "290C",
      "290C",
      "290C",
      "290C",
      "290C",
      "290C",
      "291",
      "291",
      "291",
      "291",
      "310C",
      "310C",
      "310C",
      "310C",
      "310C",
      "310C",
      "310C",
      "310C",
      "310C",
      "310C",
      "310C",
      "310C",
      "310C",
      "310C",
      "310C",
      "310C",
      "310C",
      "310C",
      "310C",
      "310C",
      "310C",
      "310C",
      "310C",
      "310C",
      "310C",
      "310C",
      "310C",
      "310C",
      "310C",
      "310C",
      "310C",
      "310C",
      "310C",
      "310C",
      "310C",
      "310C",
      "310C",
      "310C",
      "310C",
      "310C",
      "310C",
      "310C",
      "310C",
      "310C",
      "310C",
      "310C",
      "310C",
      "310C",
      "310C",
      "310C",
      "310C",
      "310C",
      "310C",
      "310C",
      "310C",
      "310C",
      "310C",
      "310C",
      "310C",
      "310C",
      "310C",
      "310C",
      "310C",
      "310C",
      "310C",
      "310C",
      "310C",
      "310C",
      "310C",
      "310C",
      "310C",
      "310C",
      "310C",
      "310C",
      "310C",
      "310C",
      "310C",
      "310C",
      "310C",
      "310C",
      "310C",
      "310C",
      "310C",
      "310C",
      "310C",
      "310C",
      "310C",
      "310C",
      "310C",
      "310C",
      "310C",
      "310C",
      "310C",
      "310C",
      "310C",
      "310C",
      "310C",
      "310C",
      "310C",
      "310C",
      "310C",
      "310C",
      "310C",
      "310C",
      "310C",
      "310C",
      "310C",
      "310C",
      "310C",
      "310C",
      "310C",
      "310C",
      "310C",
      "310C",
      "310C",
      "310C",
      "310C",
      "310C",
      "310C",
      "310C",
      "310C",
      "310C",
      "310C",
      "310C",
      "310C",
      "310C",
      "310C",
      "310C",
      "310C",
      "310C",
      "310C",
      "310C",
      "310C",
      "310C",
      "310C",
      "310C",
      "310C",
      "310C",
      "310C",
      "310C",
      "310C",
      "310C",
      "310C",
      "310C",
      "310C",
      "310C",
      "310C",
      "310C",
      "310C",
      "310C",
      "310C",
      "310C",
      "310C",
      "310C",
      "310C",
      "310C",
      "310C",
      "310C",
      "310C",
      "310C",
      "310C",
      "310C",
      "310C",
      "310C",
      "310C",
      "310C",
      "310C",
      "310C",
      "310C",
      "310C",
      "310",
      "310",
      "310",
      "310",
      "280",
      "280",
      "280",
      "280",
      "280",
      "127",
      "127",
      "113",
      "113",
      "113",
      "092",
      "092",
      "079",
      "079",
      "079",
      "079",
      "040",
      "040",
      "040",
      "040",
      "024",
      "024",
      "024",
      "024",
      "017",
      "017",
      "017",
      "017"
    ],
    "swim:geom": "path",
    "swim:speeds": [
      221,
      221,
      221,
      221,
      221,
      306,
      306,
      306,
      306,
      306,
      306,
      406,
      406,
      406,
      406,
      406,
      406,
      527,
      527,
      527,
      527,
      527,
      527,
      527,
      527,
      527,
      527,
      537,
      537,
      537,
      539,
      539,
      539,
      540,
      540,
      540,
      544,
      544,
      544,
      544,
      544,
      544,
      533,
      533,
      533,
      533,
      533,
      533,
      540,
      540,
      540,
      540,
      540,
      546,
      546,
      546,
      546,
      546,
      547,
      547,
      547,
      550,
      550,
      550,
      550,
      551,
      553,
      553,
      553,
      553,
      553,
      553,
      553,
      553,
      553,
      552,
      552,
      552,
      552,
      552,
      552,
      552,
      550,
      550,
      550,
      550,
      550,
      550,
      550,
      550,
      550,
      550,
      550,
      550,
      539,
      539,
      539,
      539,
      539,
      539,
      532,
      532,
      532,
      532,
      530,
      530,
      530,
      530,
      530,
      519,
      519,
      519,
      519,
      517,
      517,
      517,
      517,
      526,
      526,
      526,
      526,
      526,
      506,
      506,
      506,
      506,
      506,
      506,
      506,
      506,
      506,
      506,
      514,
      514,
      514,
      514,
      514,
      514,
      514,
      514,
      514,
      514,
      517,
      517,
      517,
      517,
      508,
      508,
      506,
      506,
      506,
      506,
      506,
      506,
      506,
      506,
      499,
      499,
      499,
      499,
      499,
      499,
      499,
      499,
      496,
      496,
      504,
      504,
      504,
      504,
      500,
      500,
      500,
      492,
      492,
      492,
      492,
      492,
      492,
      478,
      478,
      478,
      478,
      478,
      478,
      475,
      475,
      475,
      475,
      475,
      475,
      475,
      475,
      475,
      471,
      470,
      470,
      470,
      470,
      470,
      470,
      470,
      469,
      469,
      469,
      467,
      467,
      462,
      462,
      462,
      462,
      463,
      463,
      459,
      459,
      459,
      458,
      458,
      458,
      458,
      452,
      452,
      452,
      452,
      452,
      452,
      460,
      460,
      460,
      460,
      460,
      460,
      458,
      458,
      458,
      458,
      458,
      454,
      452,
      452,
      452,
      452,
      452,
      448,
      448,
      448,
      448,
      448,
      448,
      450,
      450,
      450,
      450,
      450,
      450,
      450,
      448,
      448,
      448,
      449,
      449,
      449,
      449,
      449,
      449,
      449,
      449,
      451,
      451,
      451,
      456,
      456,
      456,
      456,
      457,
      457,
      457,
      457,
      457,
      457,
      460,
      460,
      460,
      460,
      460,
      460,
      460,
      464,
      464,
      465,
      465,
      460,
      460,
      460,
      460,
      460,
      344,
      344,
      320,
      320,
      320,
      285,
      285,
      265,
      265,
      265,
      265,
      213,
      213,
      213,
      213,
      163,
      163,
      163,
      163,
      139,
      139,
      139,
      139
    ],
    "swim:timestamps": [
      1761491073,
      1761491073,
      1761491073,
      1761491073,
      1761491073,
      1761491193,
      1761491193,
      1761491193,
      1761491193,
      1761491193,
      1761491193,
      1761491493,
      1761491493,
      1761491493,
      1761491493,
      1761491493,
      1761491493,
      1761491854,
      1761491854,
      1761491854,
      1761491854,
      1761491854,
      1761491854,
      1761491854,
      1761491854,
      1761491854,
      1761491854,
      1761491974,
      1761491974,
      1761491974,
      1761492034,
      1761492034,
      1761492034,
      1761492094,
      1761492094,
      1761492094,
      1761492113,
      1761492113,
      1761492113,
      1761492214,
      1761492214,
      1761492214,
      1761492474,
      1761492474,
      1761492474,
      1761492474,
      1761492474,
      1761492474,
      1761492654,
      1761492654,
      1761492654,
      1761492654,
      1761492654,
      1761492755,
      1761492755,
      1761492755,
      1761492755,
      1761492755,
      1761492774,
      1761492774,
      1761492774,
      1761492834,
      1761492834,
      1761492875,
      1761492875,
      1761492895,
      1761492995,
      1761492995,
      1761492995,
      1761492995,
      1761493055,
      1761493055,
      1761493055,
      1761493055,
      1761493055,
      1761493175,
      1761493175,
      1761493316,
      1761493316,
      1761493316,
      1761493316,
      1761493316,
      1761493617,
      1761493617,
      1761493617,
      1761493617,
      1761493617,
      1761493617,
      1761493617,
      1761493617,
      1761493617,
      1761493617,
      1761493617,
      1761493617,
      1761494036,
      1761494036,
      1761494036,
      1761494036,
      1761494036,
      1761494036,
      1761494156,
      1761494156,
      1761494156,
      1761494156,
      1761494216,
      1761494216,
      1761494216,
      1761494216,
      1761494216,
      1761494456,
      1761494456,
      1761494456,
      1761494456,
      1761494516,
      1761494516,
      1761494516,
      1761494516,
      1761494800,
      1761494800,
      1761494800,
      1761494800,
      1761494800,
      1761495221,
      1761495221,
      1761495221,
      1761495221,
      1761495221,
      1761495221,
      1761495221,
      1761495221,
      1761495221,
      1761495221,
      1761495581,
      1761495581,
      1761495581,
      1761495581,
      1761495581,
      1761495581,
      1761495581,
      1761495581,
      1761495581,
      1761495581,
      1761495882,
      1761495882,
      1761495882,
      1761495882,
      1761496002,
      1761496002,
      1761496019,
      1761496019,
      1761496019,
      1761496019,
      1761496019,
      1761496019,
      1761496019,
      1761496019,
      1761496483,
      1761496483,
      1761496483,
      1761496483,
      1761496483,
      1761496483,
      1761496483,
      1761496483,
      1761496663,
      1761496663,
      1761496963,
      1761496963,
      1761496963,
      1761496963,
      1761497143,
      1761497143,
      1761497143,
      1761497264,
      1761497264,
      1761497264,
      1761497264,
      1761497264,
      1761497264,
      1761497684,
      1761497684,
      1761497684,
      1761497684,
      1761497684,
      1761497684,
      1761497864,
      1761497864,
      1761497864,
      1761497864,
      1761497864,
      1761497864,
      1761497864,
      1761497864,
      1761497864,
      1761498345,
      1761498355,
      1761498355,
      1761498355,
      1761498355,
      1761498355,
      1761498355,
      1761498355,
      1761498465,
      1761498465,
      1761498465,
      1761498525,
      1761498525,
      1761498716,
      1761498716,
      1761498716,
      1761498716,
      1761498896,
      1761498896,
      1761499066,
      1761499066,
      1761499066,
      1761499136,
      1761499136,
      1761499136,
      1761499136,
      1761499306,
      1761499306,
      1761499306,
      1761499306,
      1761499306,
      1761499306,
      1761499617,
      1761499617,
      1761499617,
      1761499617,
      1761499617,
      1761499617,
      1761499857,
      1761499857,
      1761499857,
      1761499857,
      1761499857,
      1761500098,
      1761500158,
      1761500158,
      1761500158,
      1761500158,
      1761500158,
      1761500278,
      1761500278,
      1761500278,
      1761500278,
      1761500278,
      1761500698,
      1761500726,
      1761500726,
      1761500726,
      1761500726,
      1761500726,
      1761500726,
      1761500726,
      1761500758,
      1761500758,
      1761500758,
      1761500906,
      1761500906,
      1761500906,
      1761500906,
      1761500999,
      1761500999,
      1761500999,
      1761500999,
      1761501239,
      1761501239,
      1761501239,
      1761501479,
      1761501479,
      1761501479,
      1761501479,
      1761501507,
      1761501507,
      1761501507,
      1761501507,
      1761501507,
      1761501540,
      1761501720,
      1761501720,
      1761501720,
      1761501720,
      1761501780,
      1761501780,
      1761501780,
      1761501960,
      1761501960,
      1761501987,
      1761501987,
      1761502168,
      1761502168,
      1761502168,
      1761502168,
      1761502168,
      1761502829,
      1761502829,
      1761502889,
      1761502889,
      1761502889,
      1761502992,
      1761502992,
      1761503053,
      1761503053,
      1761503053,
      1761503053,
      1761503369,
      1761503369,
      1761503369,
      1761503369,
      1761503539,
      1761503539,
      1761503539,
      1761503539,
      1761503587,
      1761503587,
      1761503587,
      1761503587
    ],
    "wof:geomhash": "922539890ef00a15aa6fe81d26eafa7a",
    "wof:id": 1981772869,
    "wof:repo": "sfomuseum-data-flights-2025-10"
  },
  "bbox": [
    -122.30888888888889,
    37.66722222222222,
    -88,
    42.605000000000004
  ],
  "geometry": {"coordinates":[[-122.30888888888889,37.66722222222222],[-122.30888888888889,37.66722222222222],[-122.30888888888889,37.66722222222222],[-122.30888888888889,37.66722222222222],[-122.30888888888889,37.66722222222222],[-122.14305555555556,37.754444444444445],[-122.14305555555556,37.754444444444445],[-122.14305555555556,37.754444444444445],[-122.14305555555556,37.754444444444445],[-122.14305555555556,37.754444444444445],[-122.14305555555556,37.754444444444445],[-121.82083333333333,38.10611111111111],[-121.82083333333333,38.10611111111111],[-121.82083333333333,38.10611111111111],[-121.82083333333333,38.10611111111111],[-121.82083333333333,38.10611111111111],[-121.82083333333333,38.10611111111111],[-120.82472222222222,38.23583333333333],[-120.82472222222222,38.23583333333333],[-120.82472222222222,38.23583333333333],[-120.82472222222222,38.23583333333333],[-120.82472222222222,38.23583333333333],[-120.82472222222222,38.23583333333333],[-120.82472222222222,38.23583333333333],[-120.82472222222222,38.23583333333333],[-120.82472222222222,38.23583333333333],[-120.82472222222222,38.23583333333333],[-120.45361111111112,38.28805555555555],[-120.45361111111112,38.28805555555555],[-120.45361111111112,38.28805555555555],[-120.26722222222222,38.31361111111111],[-120.26722222222222,38.31361111111111],[-120.26722222222222,38.31361111111111],[-120.07805555555555,38.33916666666667],[-120.07805555555555,38.33916666666667],[-120.07805555555555,38.33916666666667],[-120.01805555555555,38.34666666666667],[-120.01805555555555,38.34666666666667],[-120.01805555555555,38.34666666666667],[-119.69888888888889,38.38944444444444],[-119.69888888888889,38.38944444444444],[-119.69888888888889,38.38944444444444],[-118.8963888888889,38.492222222222225],[-118.8963888888889,38.492222222222225],[-118.8963888888889,38.492222222222225],[-118.8963888888889,38.492222222222225],[-118.8963888888889,38.492222222222225],[-118.8963888888889,38.492222222222225],[-118.34166666666667,38.58638888888889],[-118.34166666666667,38.58638888888889],[-118.34166666666667,38.58638888888889],[-118.34166666666667,38.58638888888889],[-118.34166666666667,38.58638888888889],[-118.0261111111111,38.6375],[-118.0261111111111,38.6375],[-118.0261111111111,38.6375],[-118.0261111111111,38.6375],[-118.0261111111111,38.6375],[-117.95166666666667,38.64944444444444],[-117.95166666666667,38.64944444444444],[-117.95166666666667,38.64944444444444],[-117.75694444444444,38.68055555555555],[-117.75694444444444,38.68055555555555],[-117.6413888888889,38.698611111111106],[-117.6413888888889,38.698611111111106],[-117.56527777777778,38.71055555555556],[-117.25027777777778,38.75944444444445],[-117.25027777777778,38.75944444444445],[-117.25027777777778,38.75944444444445],[-117.25027777777778,38.75944444444445],[-117.05444444444444,38.78916666666667],[-117.05444444444444,38.78916666666667],[-117.05444444444444,38.78916666666667],[-117.05444444444444,38.78916666666667],[-117.05444444444444,38.78916666666667],[-116.66722222222222,38.84722222222222],[-116.66722222222222,38.84722222222222],[-116.20138888888889,38.91444444444444],[-116.20138888888889,38.91444444444444],[-116.20138888888889,38.91444444444444],[-116.20138888888889,38.91444444444444],[-116.20138888888889,38.91444444444444],[-115.24972222222222,39.047777777777775],[-115.24972222222222,39.047777777777775],[-115.24972222222222,39.047777777777775],[-115.24972222222222,39.047777777777775],[-115.24972222222222,39.047777777777775],[-115.24972222222222,39.047777777777775],[-115.24972222222222,39.047777777777775],[-115.24972222222222,39.047777777777775],[-115.24972222222222,39.047777777777775],[-115.24972222222222,39.047777777777775],[-115.24972222222222,39.047777777777775],[-115.24972222222222,39.047777777777775],[-113.91305555555556,39.220555555555556],[-113.91305555555556,39.220555555555556],[-113.91305555555556,39.220555555555556],[-113.91305555555556,39.220555555555556],[-113.91305555555556,39.220555555555556],[-113.91305555555556,39.220555555555556],[-113.53833333333333,39.26583333333333],[-113.53833333333333,39.26583333333333],[-113.53833333333333,39.26583333333333],[-113.53833333333333,39.26583333333333],[-113.35083333333333,39.28805555555555],[-113.35083333333333,39.28805555555555],[-113.35083333333333,39.28805555555555],[-113.35083333333333,39.28805555555555],[-113.35083333333333,39.28805555555555],[-112.61944444444444,39.40472222222222],[-112.61944444444444,39.40472222222222],[-112.61944444444444,39.40472222222222],[-112.61944444444444,39.40472222222222],[-112.43833333333333,39.43388888888889],[-112.43833333333333,39.43388888888889],[-112.43833333333333,39.43388888888889],[-112.43833333333333,39.43388888888889],[-111.55,39.57361111111111],[-111.55,39.57361111111111],[-111.55,39.57361111111111],[-111.55,39.57361111111111],[-111.55,39.57361111111111],[-110.28277777777778,39.75944444444445],[-110.28277777777778,39.75944444444445],[-110.28277777777778,39.75944444444445],[-110.28277777777778,39.75944444444445],[-110.28277777777778,39.75944444444445],[-110.28277777777778,39.75944444444445],[-110.28277777777778,39.75944444444445],[-110.28277777777778,39.75944444444445],[-110.28277777777778,39.75944444444445],[-110.28277777777778,39.75944444444445],[-109.19194444444445,39.90833333333333],[-109.19194444444445,39.90833333333333],[-109.19194444444445,39.90833333333333],[-109.19194444444445,39.90833333333333],[-109.19194444444445,39.90833333333333],[-109.19194444444445,39.90833333333333],[-109.19194444444445,39.90833333333333],[-109.19194444444445,39.90833333333333],[-109.19194444444445,39.90833333333333],[-109.19194444444445,39.90833333333333],[-108.25611111111111,40.02722222222222],[-108.25611111111111,40.02722222222222],[-108.25611111111111,40.02722222222222],[-108.25611111111111,40.02722222222222],[-107.89361111111111,40.075],[-107.89361111111111,40.075],[-107.85694444444444,40.08361111111111],[-107.85694444444444,40.08361111111111],[-107.85694444444444,40.08361111111111],[-107.85694444444444,40.08361111111111],[-107.85694444444444,40.08361111111111],[-107.85694444444444,40.08361111111111],[-107.85694444444444,40.08361111111111],[-107.85694444444444,40.08361111111111],[-106.51083333333334,40.38722222222222],[-106.51083333333334,40.38722222222222],[-106.51083333333334,40.38722222222222],[-106.51083333333334,40.38722222222222],[-106.51083333333334,40.38722222222222],[-106.51083333333334,40.38722222222222],[-106.51083333333334,40.38722222222222],[-106.51083333333334,40.38722222222222],[-105.99333333333334,40.49916666666667],[-105.99333333333334,40.49916666666667],[-105.11416666666666,40.6825],[-105.11416666666666,40.6825],[-105.11416666666666,40.6825],[-105.11416666666666,40.6825],[-104.58027777777778,40.79083333333333],[-104.58027777777778,40.79083333333333],[-104.58027777777778,40.79083333333333],[-104.23138888888889,40.85944444444445],[-104.23138888888889,40.85944444444445],[-104.23138888888889,40.85944444444445],[-104.23138888888889,40.85944444444445],[-104.23138888888889,40.85944444444445],[-104.23138888888889,40.85944444444445],[-103.0375,41.086666666666666],[-103.0375,41.086666666666666],[-103.0375,41.086666666666666],[-103.0375,41.086666666666666],[-103.0375,41.086666666666666],[-103.0375,41.086666666666666],[-102.52527777777777,41.19472222222222],[-102.52527777777777,41.19472222222222],[-102.52527777777777,41.19472222222222],[-102.52527777777777,41.19472222222222],[-102.52527777777777,41.19472222222222],[-102.52527777777777,41.19472222222222],[-102.52527777777777,41.19472222222222],[-102.52527777777777,41.19472222222222],[-102.52527777777777,41.19472222222222],[-101.1725,41.473055555555554],[-101.15611111111112,41.480000000000004],[-101.15611111111112,41.480000000000004],[-101.15611111111112,41.480000000000004],[-101.15611111111112,41.480000000000004],[-101.15611111111112,41.480000000000004],[-101.15611111111112,41.480000000000004],[-101.15611111111112,41.480000000000004],[-100.83666666666666,41.53916666666667],[-100.83666666666666,41.53916666666667],[-100.83666666666666,41.53916666666667],[-100.66638888888889,41.57222222222222],[-100.66638888888889,41.57222222222222],[-100.1538888888889,41.67027777777778],[-100.1538888888889,41.67027777777778],[-100.1538888888889,41.67027777777778],[-100.1538888888889,41.67027777777778],[-99.64888888888889,41.76444444444444],[-99.64888888888889,41.76444444444444],[-99.185,41.84861111111111],[-99.185,41.84861111111111],[-99.185,41.84861111111111],[-98.98361111111112,41.88444444444444],[-98.98361111111112,41.88444444444444],[-98.98361111111112,41.88444444444444],[-98.98361111111112,41.88444444444444],[-98.52444444444444,41.965],[-98.52444444444444,41.965],[-98.52444444444444,41.965],[-98.52444444444444,41.965],[-98.52444444444444,41.965],[-98.52444444444444,41.965],[-97.66694444444445,42.109722222222224],[-97.66694444444445,42.109722222222224],[-97.66694444444445,42.109722222222224],[-97.66694444444445,42.109722222222224],[-97.66694444444445,42.109722222222224],[-97.66694444444445,42.109722222222224],[-96.99694444444445,42.217777777777776],[-96.99694444444445,42.217777777777776],[-96.99694444444445,42.217777777777776],[-96.99694444444445,42.217777777777776],[-96.99694444444445,42.217777777777776],[-96.32638888888889,42.32194444444445],[-96.16250000000001,42.34666666666667],[-96.16250000000001,42.34666666666667],[-96.16250000000001,42.34666666666667],[-96.16250000000001,42.34666666666667],[-96.16250000000001,42.34666666666667],[-95.83277777777778,42.39555555555555],[-95.83277777777778,42.39555555555555],[-95.83277777777778,42.39555555555555],[-95.83277777777778,42.39555555555555],[-95.83277777777778,42.39555555555555],[-94.67277777777778,42.56027777777778],[-94.5975,42.57],[-94.5975,42.57],[-94.5975,42.57],[-94.5975,42.57],[-94.5975,42.57],[-94.5975,42.57],[-94.5975,42.57],[-94.49861111111112,42.58388888888889],[-94.49861111111112,42.58388888888889],[-94.49861111111112,42.58388888888889],[-94.09722222222221,42.605000000000004],[-94.09722222222221,42.605000000000004],[-94.09722222222221,42.605000000000004],[-94.09722222222221,42.605000000000004],[-93.825,42.59638888888889],[-93.825,42.59638888888889],[-93.825,42.59638888888889],[-93.825,42.59638888888889],[-93.14833333333334,42.57166666666667],[-93.14833333333334,42.57166666666667],[-93.14833333333334,42.57166666666667],[-92.46472222222222,42.54277777777778],[-92.46472222222222,42.54277777777778],[-92.46472222222222,42.54277777777778],[-92.46472222222222,42.54277777777778],[-92.39777777777779,42.53972222222222],[-92.39777777777779,42.53972222222222],[-92.39777777777779,42.53972222222222],[-92.39777777777779,42.53972222222222],[-92.39777777777779,42.53972222222222],[-92.29444444444444,42.535],[-91.77944444444444,42.525555555555556],[-91.77944444444444,42.525555555555556],[-91.77944444444444,42.525555555555556],[-91.77944444444444,42.525555555555556],[-91.60749999999999,42.52638888888889],[-91.60749999999999,42.52638888888889],[-91.60749999999999,42.52638888888889],[-91.0886111111111,42.526944444444446],[-91.0886111111111,42.526944444444446],[-91.02027777777778,42.526944444444446],[-91.02027777777778,42.526944444444446],[-90.46666666666667,42.52333333333333],[-90.46666666666667,42.52333333333333],[-90.46666666666667,42.52333333333333],[-90.46666666666667,42.52333333333333],[-90.46666666666667,42.52333333333333],[-88.84805555555555,42.39555555555555],[-88.84805555555555,42.39555555555555],[-88.72611111111111,42.385],[-88.72611111111111,42.385],[-88.72611111111111,42.385],[-88.53333333333333,42.36666666666667],[-88.53333333333333,42.36666666666667],[-88.45,42.333333333333336],[-88.45,42.333333333333336],[-88.45,42.333333333333336],[-88.45,42.333333333333336],[-88.23361111111112,42.01861111111111],[-88.23361111111112,42.01861111111111],[-88.23361111111112,42.01861111111111],[-88.23361111111112,42.01861111111111],[-88.03333333333333,42],[-88.03333333333333,42],[-88.03333333333333,42],[-88.03333333333333,42],[-88,42],[-88,42],[-88,42],[-88,42]],"type":"LineString"}
}
