{
  "id": 1981671873,
  "type": "Feature",
  "properties": {
    "geom:area": 0,
    "geom:bbox": "-122.562530,36.732320,-122.362860,37.690140",
    "geom:latitude": 37.24898364673267,
    "geom:longitude": -122.5028391739836,
    "src:alt_label": "swim-takeoff",
    "src:geom": "swim",
    "swim:elevations": [
      432,
      736,
      1048,
      1391,
      1881,
      2311,
      2930,
      3189,
      3607,
      3940,
      4443,
      5058,
      5347,
      6013,
      6390,
      6613,
      7255,
      7616,
      7821,
      8148,
      8230,
      8230,
      8230,
      8230,
      8230,
      8230
    ],
    "swim:geom": "takeoff",
    "swim:timestamps": [
      1760448958,
      1760448982,
      1760449005,
      1760449042,
      1760449065,
      1760449087,
      1760449125,
      1760449142,
      1760449167,
      1760449185,
      1760449214,
      1760449254,
      1760449277,
      1760449318,
      1760449345,
      1760449359,
      1760449403,
      1760449432,
      1760449449,
      1760449489,
      1760449526,
      1760449549,
      1760449563,
      1760449610,
      1760449623,
      1760449653
    ],
    "wof:geomhash": "23545918549387436d0b9b335d6602eb",
    "wof:id": 1981671873,
    "wof:repo": "sfomuseum-data-flights-2025-10"
  },
  "bbox": [
    -122.56253,
    36.73232,
    -122.36286,
    37.69014
  ],
  "geometry": {"coordinates":[[-122.36548,37.63885],[-122.3648,37.65669],[-122.36775,37.67479],[-122.40643,37.69014],[-122.43917,37.68234],[-122.46792,37.67144],[-122.4974,37.63069],[-122.50862,37.60878],[-122.52595,37.57606],[-122.53789,37.55149],[-122.54485,37.5086],[-122.54767,37.44757],[-122.54935,37.41006],[-122.55178,37.34068],[-122.55339,37.29398],[-122.55436,37.26877],[-122.55731,37.19132],[-122.55909,37.14101],[-122.56035,37.11006],[-122.56253,37.03601],[-122.53485,36.967],[-122.50465,36.92623],[-122.48575,36.89981],[-122.42204,36.81302],[-122.40484,36.78943],[-122.36286,36.73232]],"type":"LineString"}
}
