{
  "id": 1981670939,
  "type": "Feature",
  "properties": {
    "geom:area": 0,
    "geom:bbox": "-122.387330,37.635930,-121.242870,37.985830",
    "geom:latitude": 37.9209882409076,
    "geom:longitude": -121.93108094954246,
    "src:alt_label": "swim-takeoff",
    "src:geom": "swim",
    "swim:elevations": [
      322,
      600,
      723,
      881,
      1109,
      1769,
      2271,
      2788,
      2908,
      3104,
      3246,
      3307,
      3539,
      3705,
      3773,
      4194,
      4366,
      4843,
      5115,
      5301,
      5523,
      5689,
      5805,
      6120,
      6425,
      6590,
      6697,
      6766,
      6814
    ],
    "swim:geom": "takeoff",
    "swim:timestamps": [
      1760485161,
      1760485188,
      1760485206,
      1760485245,
      1760485262,
      1760485304,
      1760485341,
      1760485377,
      1760485389,
      1760485404,
      1760485437,
      1760485451,
      1760485497,
      1760485527,
      1760485536,
      1760485581,
      1760485593,
      1760485647,
      1760485677,
      1760485698,
      1760485734,
      1760485752,
      1760485770,
      1760485814,
      1760485858,
      1760485885,
      1760485900,
      1760485912,
      1760485921
    ],
    "wof:geomhash": "dd9c0026bfad69eeec4087a4c31317fd",
    "wof:id": 1981670939,
    "wof:repo": "sfomuseum-data-flights-2025-10"
  },
  "bbox": [
    -122.38733,
    37.63593,
    -121.24287,
    37.98583
  ],
  "geometry": {"coordinates":[[-122.36129,37.63593],[-122.3428,37.65287],[-122.32861,37.66497],[-122.31074,37.7019],[-122.32029,37.72068],[-122.3465,37.76647],[-122.36835,37.80764],[-122.38688,37.84791],[-122.38733,37.86223],[-122.38615,37.88022],[-122.37308,37.9207],[-122.35575,37.93459],[-122.26402,37.94614],[-122.19826,37.94853],[-122.17781,37.94934],[-122.07396,37.95376],[-122.04522,37.95499],[-121.91943,37.96013],[-121.84816,37.96303],[-121.7978,37.96506],[-121.71042,37.96864],[-121.66644,37.97032],[-121.62237,37.97204],[-121.51307,37.97608],[-121.4029,37.98011],[-121.33454,37.98257],[-121.29643,37.98393],[-121.26582,37.98499],[-121.24287,37.98583]],"type":"LineString"}
}
