{
  "id": 1981757363,
  "type": "Feature",
  "properties": {
    "geom:area": 0,
    "geom:bbox": "-122.364280,37.630920,-121.268450,37.961320",
    "geom:latitude": 37.836381422385465,
    "geom:longitude": -121.83085851379731,
    "src:alt_label": "swim-takeoff",
    "src:geom": "swim",
    "swim:elevations": [
      183,
      459,
      597,
      825,
      1089,
      1681,
      2336,
      2468,
      2988,
      3213,
      3261,
      3300,
      3835,
      4220,
      4276,
      4632,
      4934,
      5072,
      5307,
      5429,
      5713,
      6150
    ],
    "swim:geom": "takeoff",
    "swim:timestamps": [
      1761337674,
      1761337699,
      1761337727,
      1761337761,
      1761337781,
      1761337824,
      1761337879,
      1761337888,
      1761337936,
      1761337963,
      1761337975,
      1761337981,
      1761338035,
      1761338068,
      1761338075,
      1761338113,
      1761338144,
      1761338158,
      1761338183,
      1761338201,
      1761338238,
      1761338284
    ],
    "wof:geomhash": "e59b7f93bbc8d737086cae452ec7be2d",
    "wof:id": 1981757363,
    "wof:repo": "sfomuseum-data-flights-2025-10"
  },
  "bbox": [
    -122.36428,
    37.63092,
    -121.26845,
    37.96132
  ],
  "geometry": {"coordinates":[[-122.36428,37.63092],[-122.34712,37.64505],[-122.31961,37.65922],[-122.28073,37.68105],[-122.25532,37.6957],[-122.1979,37.72578],[-122.11862,37.76707],[-122.1053,37.77397],[-122.03272,37.81181],[-121.98616,37.82916],[-121.96289,37.83414],[-121.95082,37.83629],[-121.83894,37.85703],[-121.76837,37.87008],[-121.7531,37.8729],[-121.66969,37.88827],[-121.60066,37.90095],[-121.56777,37.90691],[-121.51017,37.91742],[-121.468,37.92512],[-121.37982,37.94125],[-121.26845,37.96132]],"type":"LineString"}
}
