{
  "id": 1981732901,
  "type": "Feature",
  "properties": {
    "geom:area": 0,
    "geom:bbox": "-122.383056,37.757778,-83.478889,43.354167",
    "geom:latitude": 41.977364989725196,
    "geom:longitude": -103.30309746801811,
    "src:alt_label": "swim-path",
    "src:geom": "swim",
    "swim:altitudes": [
      "062",
      "062",
      "091",
      "091",
      "149",
      "173",
      "194",
      "194",
      "218",
      "218",
      "239",
      "239",
      "275",
      "320",
      "330",
      "330",
      "339",
      "339",
      "339",
      "359",
      "359",
      "368C",
      "370C",
      "370C",
      "370C",
      "370C",
      "370C",
      "370C",
      "370C",
      "370C",
      "370C",
      "370C",
      "370C",
      "370C",
      "370C",
      "370C",
      "370C",
      "370C",
      "370C",
      "370C",
      "370C",
      "370C",
      "370C",
      "370C",
      "370C",
      "370C",
      "370C",
      "370C",
      "370C",
      "370C",
      "370C",
      "370C",
      "370C",
      "370C",
      "370C",
      "370C",
      "370C",
      "370C",
      "370C",
      "370C",
      "370C",
      "370C",
      "370C",
      "370C",
      "370C",
      "370C",
      "370C",
      "370C",
      "370C",
      "380",
      "380",
      "390C",
      "390C",
      "390C",
      "390C",
      "390C",
      "390C",
      "390C",
      "390C",
      "390C",
      "390C",
      "390C",
      "390C",
      "390C",
      "390C",
      "390C",
      "390C",
      "390C",
      "390C",
      "390C",
      "390C",
      "390C",
      "390C",
      "390C",
      "390C",
      "390C",
      "390C",
      "390C",
      "390C",
      "390C",
      "390C",
      "390C",
      "390C",
      "390C",
      "390C",
      "390C",
      "390C",
      "390C",
      "390C",
      "390C",
      "390C",
      "390C",
      "390C",
      "390C",
      "390C",
      "390C",
      "390C",
      "390C",
      "390C",
      "390C",
      "390C",
      "390C",
      "390C",
      "390C",
      "390C",
      "390C",
      "390C",
      "390C",
      "390C",
      "390C",
      "390C",
      "390C",
      "390C",
      "390C",
      "390C",
      "390C",
      "390C",
      "390C",
      "390C",
      "390C",
      "390C",
      "390C",
      "390C",
      "390C",
      "390C",
      "390C",
      "390C",
      "390C",
      "390C",
      "390C",
      "390C",
      "390C",
      "390C",
      "390C",
      "390C",
      "390C",
      "390C",
      "390C",
      "390C",
      "390C",
      "390C",
      "390C",
      "390C",
      "390C",
      "390C",
      "390C",
      "390C",
      "390C",
      "390C",
      "390C",
      "390C",
      "390C",
      "390C",
      "390C",
      "390C",
      "390C",
      "390C",
      "390C",
      "390C",
      "390C",
      "390C",
      "390C",
      "390C",
      "390C",
      "390C",
      "390C",
      "390C",
      "390C",
      "390C",
      "390C",
      "390C",
      "390C",
      "390C",
      "390C",
      "390C",
      "390C",
      "390C",
      "390C",
      "390C",
      "390C",
      "390C",
      "390C",
      "390C",
      "390C",
      "390C",
      "390C",
      "390C",
      "390C",
      "390C",
      "390C",
      "390C",
      "390C",
      "390C",
      "390C",
      "390C",
      "390C",
      "390C",
      "390C",
      "390C",
      "390C",
      "390C",
      "390C",
      "390C",
      "390C",
      "390C",
      "390C",
      "390C"
    ],
    "swim:geom": "path",
    "swim:speeds": [
      282,
      282,
      317,
      317,
      340,
      345,
      362,
      362,
      371,
      371,
      383,
      383,
      412,
      428,
      439,
      439,
      450,
      450,
      450,
      458,
      458,
      480,
      470,
      479,
      472,
      474,
      473,
      474,
      475,
      475,
      476,
      478,
      477,
      478,
      478,
      477,
      477,
      476,
      476,
      484,
      485,
      485,
      485,
      486,
      487,
      486,
      486,
      485,
      488,
      488,
      488,
      491,
      491,
      491,
      490,
      490,
      491,
      493,
      493,
      494,
      495,
      495,
      495,
      495,
      495,
      495,
      495,
      494,
      494,
      494,
      494,
      491,
      491,
      491,
      490,
      490,
      491,
      491,
      496,
      498,
      498,
      498,
      498,
      499,
      499,
      499,
      496,
      496,
      496,
      496,
      496,
      496,
      498,
      499,
      501,
      501,
      501,
      501,
      502,
      502,
      502,
      502,
      502,
      503,
      503,
      503,
      504,
      504,
      504,
      504,
      504,
      505,
      505,
      505,
      506,
      506,
      508,
      510,
      510,
      511,
      511,
      512,
      512,
      512,
      511,
      511,
      511,
      512,
      512,
      514,
      514,
      515,
      516,
      516,
      517,
      517,
      524,
      524,
      524,
      526,
      526,
      528,
      529,
      529,
      529,
      530,
      529,
      526,
      526,
      525,
      523,
      523,
      523,
      524,
      527,
      531,
      534,
      534,
      534,
      536,
      536,
      539,
      539,
      539,
      539,
      539,
      537,
      537,
      537,
      537,
      539,
      535,
      531,
      531,
      523,
      522,
      527,
      528,
      527,
      524,
      514,
      513,
      511,
      510,
      510,
      510,
      510,
      510,
      510,
      520,
      515,
      517,
      520,
      518,
      520,
      520,
      519,
      518,
      518,
      518,
      517,
      516,
      514,
      512,
      512,
      510,
      510,
      510,
      509,
      508,
      508,
      507,
      507,
      506,
      506,
      505,
      505,
      503,
      503,
      501,
      498,
      498,
      498,
      498,
      497,
      497,
      497
    ],
    "swim:timestamps": [
      1761116748,
      1761116748,
      1761116808,
      1761116808,
      1761116928,
      1761116988,
      1761117048,
      1761117048,
      1761117108,
      1761117108,
      1761117168,
      1761117168,
      1761117288,
      1761117468,
      1761117528,
      1761117528,
      1761117588,
      1761117588,
      1761117588,
      1761117708,
      1761117708,
      1761117778,
      1761117828,
      1761117838,
      1761117888,
      1761117898,
      1761117948,
      1761117958,
      1761118008,
      1761118008,
      1761118078,
      1761118128,
      1761118141,
      1761118188,
      1761118188,
      1761118248,
      1761118248,
      1761118308,
      1761118308,
      1761118499,
      1761118558,
      1761118558,
      1761118609,
      1761118669,
      1761118729,
      1761118789,
      1761118798,
      1761118921,
      1761119029,
      1761119029,
      1761119029,
      1761119209,
      1761119218,
      1761119329,
      1761119460,
      1761119460,
      1761119520,
      1761119639,
      1761119639,
      1761119700,
      1761119819,
      1761119819,
      1761119881,
      1761119939,
      1761119939,
      1761119939,
      1761119939,
      1761119999,
      1761119999,
      1761120121,
      1761120121,
      1761120242,
      1761120242,
      1761120242,
      1761120419,
      1761120419,
      1761120479,
      1761120479,
      1761120659,
      1761120720,
      1761120720,
      1761120720,
      1761120720,
      1761120779,
      1761120899,
      1761120899,
      1761121079,
      1761121079,
      1761121139,
      1761121199,
      1761121199,
      1761121199,
      1761121259,
      1761121320,
      1761121381,
      1761121381,
      1761121499,
      1761121559,
      1761121619,
      1761121681,
      1761121720,
      1761121720,
      1761121720,
      1761121739,
      1761121780,
      1761121780,
      1761121799,
      1761121859,
      1761121922,
      1761121980,
      1761122040,
      1761122080,
      1761122103,
      1761122103,
      1761122160,
      1761122160,
      1761122220,
      1761122321,
      1761122321,
      1761122342,
      1761122342,
      1761122441,
      1761122460,
      1761122501,
      1761122561,
      1761122561,
      1761122561,
      1761122580,
      1761122640,
      1761122741,
      1761122760,
      1761122801,
      1761122820,
      1761122820,
      1761122880,
      1761122880,
      1761123161,
      1761123161,
      1761123161,
      1761123221,
      1761123221,
      1761123281,
      1761123341,
      1761123341,
      1761123341,
      1761123461,
      1761123521,
      1761123581,
      1761123581,
      1761123641,
      1761123701,
      1761123701,
      1761123761,
      1761123880,
      1761124060,
      1761124121,
      1761124240,
      1761124240,
      1761124240,
      1761124301,
      1761124301,
      1761124421,
      1761124481,
      1761124541,
      1761124601,
      1761124601,
      1761124781,
      1761124781,
      1761124781,
      1761124781,
      1761124841,
      1761125621,
      1761125741,
      1761125741,
      1761125981,
      1761126041,
      1761126522,
      1761126702,
      1761126779,
      1761127019,
      1761127362,
      1761127379,
      1761127422,
      1761127559,
      1761127559,
      1761127602,
      1761127619,
      1761127619,
      1761127662,
      1761127842,
      1761127859,
      1761127919,
      1761127962,
      1761127979,
      1761128022,
      1761128022,
      1761128082,
      1761128142,
      1761128142,
      1761128142,
      1761128159,
      1761128219,
      1761128520,
      1761128580,
      1761128580,
      1761128640,
      1761128640,
      1761128640,
      1761128700,
      1761128760,
      1761128777,
      1761128820,
      1761128957,
      1761129000,
      1761129060,
      1761129077,
      1761129077,
      1761129120,
      1761129137,
      1761129197,
      1761129557,
      1761129557,
      1761129617,
      1761129617,
      1761129738,
      1761129738,
      1761129738
    ],
    "wof:geomhash": "da8ff0956084372a8a0af3fa6eec11b1",
    "wof:id": 1981732901,
    "wof:repo": "sfomuseum-data-flights-2025-10"
  },
  "bbox": [
    -122.38305555555554,
    37.757777777777775,
    -83.47888888888889,
    43.35416666666667
  ],
  "geometry": {"coordinates":[[-122.3436111111111,37.757777777777775],[-122.3436111111111,37.757777777777775],[-122.38305555555554,37.83833333333334],[-122.38305555555554,37.83833333333334],[-122.3,37.99194444444444],[-122.20472222222223,38.04944444444444],[-122.10416666666666,38.11083333333333],[-122.10416666666666,38.11083333333333],[-121.99944444444445,38.17444444444444],[-121.99944444444445,38.17444444444444],[-121.89305555555556,38.23888888888889],[-121.89305555555556,38.23888888888889],[-121.64944444444446,38.38527777777778],[-121.30361111111111,38.589444444444446],[-121.17444444444445,38.665277777777774],[-121.17444444444445,38.665277777777774],[-121.04472222222222,38.740833333333335],[-121.04472222222222,38.740833333333335],[-121.04472222222222,38.740833333333335],[-120.78083333333333,38.89388888888889],[-120.78083333333333,38.89388888888889],[-120.61777777777777,38.98777777777778],[-120.51194444444444,39.04833333333333],[-120.4825,39.06583333333333],[-120.37388888888889,39.12694444444445],[-120.345,39.14222222222222],[-120.23611111111111,39.20527777777778],[-120.20833333333334,39.220555555555556],[-120.09833333333333,39.28361111111111],[-120.09833333333333,39.28361111111111],[-119.93055555555556,39.37722222222222],[-119.81777777777778,39.441111111111105],[-119.7911111111111,39.45611111111111],[-119.67583333333334,39.51888888888889],[-119.67583333333334,39.51888888888889],[-119.5213888888889,39.57055555555556],[-119.5213888888889,39.57055555555556],[-119.36083333333333,39.617222222222225],[-119.36083333333333,39.617222222222225],[-118.8436111111111,39.764722222222225],[-118.67944444444444,39.811388888888885],[-118.67944444444444,39.811388888888885],[-118.54527777777777,39.848888888888894],[-118.37805555555555,39.894999999999996],[-118.21305555555556,39.941111111111105],[-118.04972222222221,39.98638888888889],[-118.01861111111111,39.995],[-117.70166666666667,40.11027777777778],[-117.41222222222223,40.215833333333336],[-117.41222222222223,40.215833333333336],[-117.41222222222223,40.215833333333336],[-116.92361111111111,40.39222222222222],[-116.89361111111111,40.40277777777778],[-116.61888888888888,40.50055555555556],[-116.26305555555555,40.62555555555556],[-116.26305555555555,40.62555555555556],[-116.10138888888888,40.68194444444444],[-115.75944444444444,40.771388888888886],[-115.75944444444444,40.771388888888886],[-115.58444444444444,40.80833333333333],[-115.23472222222222,40.88166666666667],[-115.23472222222222,40.88166666666667],[-115.06138888888889,40.9175],[-114.8863888888889,40.95305555555556],[-114.8863888888889,40.95305555555556],[-114.8863888888889,40.95305555555556],[-114.8863888888889,40.95305555555556],[-114.71000000000001,40.98888888888889],[-114.71000000000001,40.98888888888889],[-114.35249999999999,41.06055555555555],[-114.35249999999999,41.06055555555555],[-114.00527777777778,41.12861111111111],[-114.00527777777778,41.12861111111111],[-114.00527777777778,41.12861111111111],[-113.47833333333334,41.23027777777778],[-113.47833333333334,41.23027777777778],[-113.3025,41.263333333333335],[-113.3025,41.263333333333335],[-112.76805555555555,41.36222222222222],[-112.59055555555555,41.39472222222222],[-112.59055555555555,41.39472222222222],[-112.59055555555555,41.39472222222222],[-112.59055555555555,41.39472222222222],[-112.40972222222223,41.42722222222222],[-112.04722222222222,41.49166666666667],[-112.04722222222222,41.49166666666667],[-111.50333333333333,41.574444444444445],[-111.50333333333333,41.574444444444445],[-111.32111111111111,41.60138888888889],[-111.14,41.628055555555555],[-111.14,41.628055555555555],[-111.14,41.628055555555555],[-110.95805555555556,41.65416666666667],[-110.79583333333333,41.676944444444445],[-110.61222222222221,41.7025],[-110.61222222222221,41.7025],[-110.245,41.75361111111111],[-110.06361111111111,41.77833333333333],[-109.87694444444443,41.80333333333333],[-109.69277777777778,41.827222222222225],[-109.54527777777777,41.84666666666667],[-109.54527777777777,41.84666666666667],[-109.54527777777777,41.84666666666667],[-109.50722222222223,41.85138888888889],[-109.35833333333333,41.87083333333334],[-109.35833333333333,41.87083333333334],[-109.31916666666666,41.87583333333333],[-109.13361111111112,41.89944444444444],[-108.94611111111111,41.92305555555555],[-108.76083333333334,41.94583333333333],[-108.57444444444444,41.968333333333334],[-108.46361111111112,41.981944444444444],[-108.38583333333334,41.99111111111111],[-108.38583333333334,41.99111111111111],[-108.19805555555556,42.01416666666667],[-108.19805555555556,42.01416666666667],[-108.01305555555555,42.03972222222222],[-107.71138888888889,42.07944444444445],[-107.71138888888889,42.07944444444445],[-107.6363888888889,42.08916666666667],[-107.6363888888889,42.08916666666667],[-107.33472222222221,42.1275],[-107.25833333333334,42.13722222222222],[-107.14805555555556,42.15138888888889],[-106.9588888888889,42.175],[-106.9588888888889,42.175],[-106.9588888888889,42.175],[-106.88277777777778,42.18416666666666],[-106.69222222222223,42.20722222222223],[-106.37416666666665,42.245555555555555],[-106.29555555555555,42.25472222222222],[-106.18388888888889,42.2675],[-106.10472222222222,42.276666666666664],[-106.10472222222222,42.276666666666664],[-105.91472222222222,42.29861111111111],[-105.91472222222222,42.29861111111111],[-105.02361111111111,42.396388888888886],[-105.02361111111111,42.396388888888886],[-105.02361111111111,42.396388888888886],[-104.82944444444443,42.416666666666664],[-104.82944444444443,42.416666666666664],[-104.63555555555556,42.43694444444444],[-104.44444444444444,42.45611111111111],[-104.44444444444444,42.45611111111111],[-104.44444444444444,42.45611111111111],[-104.05305555555556,42.495],[-103.85972222222222,42.51972222222222],[-103.62833333333333,42.551111111111105],[-103.62833333333333,42.551111111111105],[-103.43333333333334,42.5775],[-103.24361111111111,42.6025],[-103.24361111111111,42.6025],[-103.04666666666667,42.62861111111111],[-102.67666666666668,42.676944444444445],[-102.08583333333333,42.75083333333333],[-101.86888888888888,42.775277777777774],[-101.48361111111112,42.82083333333334],[-101.48361111111112,42.82083333333334],[-101.48361111111112,42.82083333333334],[-101.28888888888889,42.84305555555556],[-101.28888888888889,42.84305555555556],[-100.8786111111111,42.88916666666667],[-100.67861111111111,42.91138888888889],[-100.48055555555555,42.9325],[-100.27722222222222,42.95416666666667],[-100.27722222222222,42.95416666666667],[-99.69305555555556,43.01],[-99.69305555555556,43.01],[-99.69305555555556,43.01],[-99.69305555555556,43.01],[-99.48472222222222,43.01],[-96.84083333333332,42.9825],[-96.44194444444445,42.973888888888894],[-96.44194444444445,42.973888888888894],[-95.61305555555555,42.95138888888889],[-95.4175,42.94499999999999],[-93.85138888888888,42.968333333333334],[-93.25138888888888,42.981944444444444],[-93.01138888888889,42.98638888888889],[-92.21527777777779,42.99777777777778],[-91.07305555555556,43.040277777777774],[-91.035,43.04194444444444],[-90.87833333333333,43.047777777777775],[-90.45583333333333,43.06333333333333],[-90.45583333333333,43.06333333333333],[-90.30222222222221,43.06861111111112],[-90.26333333333334,43.069722222222225],[-90.26333333333334,43.069722222222225],[-90.12305555555555,43.073888888888895],[-89.5461111111111,43.09138888888889],[-89.50611111111111,43.091944444444444],[-89.30777777777777,43.09666666666667],[-89.15361111111112,43.10166666666667],[-89.07166666666666,43.102222222222224],[-88.95777777777778,43.10527777777778],[-88.95777777777778,43.10527777777778],[-88.76416666666667,43.10888888888889],[-88.57138888888889,43.11194444444445],[-88.57138888888889,43.11194444444445],[-88.57138888888889,43.11194444444445],[-88.49027777777778,43.11333333333334],[-88.29638888888888,43.11666666666667],[-87.31861111111111,43.16027777777778],[-87.12666666666667,43.16777777777777],[-87.12666666666667,43.16777777777777],[-86.93333333333334,43.17527777777777],[-86.93333333333334,43.17527777777777],[-86.93333333333334,43.17527777777777],[-86.73916666666666,43.18222222222222],[-86.54833333333333,43.18888888888888],[-86.50944444444444,43.19],[-86.3536111111111,43.195277777777775],[-85.92361111111111,43.208333333333336],[-85.80638888888889,43.211666666666666],[-85.61166666666666,43.21666666666667],[-85.53694444444444,43.218611111111116],[-85.53694444444444,43.218611111111116],[-85.4213888888889,43.22138888888889],[-85.3475,43.223333333333336],[-85.15805555555556,43.22777777777778],[-84.02472222222222,43.30333333333333],[-84.02472222222222,43.30333333333333],[-83.85555555555555,43.31916666666667],[-83.85555555555555,43.31916666666667],[-83.47888888888889,43.35416666666667],[-83.47888888888889,43.35416666666667],[-83.47888888888889,43.35416666666667]],"type":"LineString"}
}
