{
  "id": 1981803783,
  "type": "Feature",
  "properties": {
    "geom:area": 0,
    "geom:bbox": "-122.854680,37.342410,-122.110830,38.492820",
    "geom:latitude": 37.77991274542856,
    "geom:longitude": -122.47871413303847,
    "src:alt_label": "swim-approach",
    "src:geom": "swim",
    "swim:elevations": [
      7315,
      7315,
      6957,
      6790,
      6450,
      6226,
      5990,
      5613,
      5402,
      5056,
      4794,
      4546,
      4427,
      4309,
      4005,
      3755,
      3468,
      3436,
      3353,
      3353,
      3353,
      3353,
      3353,
      3243,
      3129,
      2896,
      2834,
      2561,
      2438,
      2438,
      2438,
      2395,
      2232,
      2069,
      1914,
      1616,
      1382,
      1223,
      1208,
      1187,
      1089,
      977,
      899,
      701,
      561,
      485,
      332,
      200,
      73,
      29
    ],
    "swim:geom": "approach",
    "swim:timestamps": [
      1761860848,
      1761860858,
      1761860907,
      1761860925,
      1761860961,
      1761860985,
      1761861013,
      1761861053,
      1761861077,
      1761861118,
      1761861145,
      1761861173,
      1761861185,
      1761861197,
      1761861231,
      1761861258,
      1761861294,
      1761861303,
      1761861344,
      1761861356,
      1761861387,
      1761861399,
      1761861424,
      1761861471,
      1761861484,
      1761861519,
      1761861528,
      1761861566,
      1761861592,
      1761861620,
      1761861649,
      1761861684,
      1761861707,
      1761861729,
      1761861753,
      1761861794,
      1761861831,
      1761861853,
      1761861894,
      1761861902,
      1761861931,
      1761861967,
      1761862011,
      1761862047,
      1761862075,
      1761862093,
      1761862126,
      1761862166,
      1761862196,
      1761862204
    ],
    "wof:geomhash": "01abe794a3e49e3641b8203d676341c9",
    "wof:id": 1981803783,
    "wof:repo": "sfomuseum-data-flights-2025-10"
  },
  "bbox": [
    -122.85468,
    37.34241,
    -122.11083,
    38.49282
  ],
  "geometry": {"coordinates":[[-122.85468,38.49282],[-122.84902,38.47454],[-122.82168,38.38605],[-122.81189,38.35435],[-122.79273,38.29193],[-122.78032,38.25064],[-122.76623,38.20456],[-122.74525,38.13649],[-122.73322,38.09696],[-122.71345,38.03162],[-122.69974,37.98644],[-122.68642,37.94258],[-122.68031,37.92316],[-122.67156,37.90523],[-122.6312,37.85995],[-122.59607,37.82647],[-122.54904,37.7823],[-122.53753,37.77148],[-122.48811,37.72449],[-122.47511,37.71228],[-122.43979,37.67913],[-122.42616,37.66633],[-122.39935,37.64124],[-122.35537,37.59564],[-122.34711,37.5812],[-122.32838,37.54243],[-122.32249,37.533],[-122.29888,37.49398],[-122.28221,37.46698],[-122.27505,37.43707],[-122.29059,37.40676],[-122.30116,37.36954],[-122.28251,37.34785],[-122.25413,37.34241],[-122.22469,37.35363],[-122.17793,37.37874],[-122.13744,37.40105],[-122.12207,37.42046],[-122.11083,37.46074],[-122.11201,37.46851],[-122.1227,37.4918],[-122.14968,37.51481],[-122.18872,37.5392],[-122.22468,37.55562],[-122.25175,37.56712],[-122.26774,37.57379],[-122.29434,37.58489],[-122.32407,37.59725],[-122.34798,37.60738],[-122.35406,37.60989]],"type":"LineString"}
}
