{
  "id": 1981808079,
  "type": "Feature",
  "properties": {
    "geom:area": 0,
    "geom:bbox": "-122.361330,37.633720,-121.249980,37.966260",
    "geom:latitude": 37.8479241000342,
    "geom:longitude": -121.83101042445182,
    "src:alt_label": "swim-takeoff",
    "src:geom": "swim",
    "swim:elevations": [
      274,
      575,
      646,
      1152,
      1340,
      1997,
      2431,
      2609,
      3149,
      3291,
      3359,
      4267,
      5013,
      5098,
      5383,
      6089,
      6423,
      6545,
      6712,
      6841
    ],
    "swim:geom": "takeoff",
    "swim:timestamps": [
      1761850248,
      1761850282,
      1761850296,
      1761850345,
      1761850359,
      1761850408,
      1761850434,
      1761850445,
      1761850494,
      1761850527,
      1761850540,
      1761850611,
      1761850678,
      1761850686,
      1761850716,
      1761850788,
      1761850825,
      1761850838,
      1761850858,
      1761850872
    ],
    "wof:geomhash": "da01f9ab95c29e0d4fe17d866e4deb7c",
    "wof:id": 1981808079,
    "wof:repo": "sfomuseum-data-flights-2025-10"
  },
  "bbox": [
    -122.36133,
    37.63372,
    -121.24998,
    37.96626
  ],
  "geometry": {"coordinates":[[-122.36133,37.63372],[-122.33364,37.65146],[-122.32015,37.65894],[-122.26384,37.6917],[-122.24572,37.70143],[-122.20866,37.75585],[-122.19455,37.78772],[-122.1833,37.79816],[-122.10298,37.81855],[-122.03985,37.82913],[-122.01431,37.83356],[-121.86243,37.86041],[-121.71553,37.88599],[-121.6982,37.88905],[-121.62883,37.90123],[-121.45872,37.93065],[-121.36686,37.94637],[-121.33469,37.95185],[-121.28536,37.96031],[-121.24998,37.96626]],"type":"LineString"}
}
