{
  "id": 1981656103,
  "type": "Feature",
  "properties": {
    "geom:area": 0,
    "geom:bbox": "-122.362460,37.483930,-121.264720,37.614580",
    "geom:latitude": 37.537275021722465,
    "geom:longitude": -121.82148787703224,
    "src:alt_label": "swim-approach",
    "src:geom": "swim",
    "swim:elevations": [
      4635,
      4566,
      4294,
      4178,
      3849,
      3740,
      3476,
      3384,
      3184,
      3048,
      2837,
      2705,
      2495,
      2362,
      2166,
      1943,
      1828,
      1796,
      1340,
      1219,
      1216,
      1196,
      1041,
      890,
      835,
      695,
      475,
      395,
      306,
      177,
      31,
      0
    ],
    "swim:geom": "approach",
    "swim:timestamps": [
      1760360277,
      1760360288,
      1760360328,
      1760360345,
      1760360397,
      1760360412,
      1760360455,
      1760360471,
      1760360504,
      1760360527,
      1760360564,
      1760360585,
      1760360624,
      1760360646,
      1760360679,
      1760360709,
      1760360731,
      1760360766,
      1760360799,
      1760360827,
      1760360844,
      1760360867,
      1760360906,
      1760360937,
      1760360950,
      1760360978,
      1760361028,
      1760361049,
      1760361070,
      1760361105,
      1760361136,
      1760361150
    ],
    "wof:geomhash": "a13ae8b761497dc462c66741408f9354",
    "wof:id": 1981656103,
    "wof:repo": "sfomuseum-data-flights-2025-10"
  },
  "bbox": [
    -122.36246,
    37.48393,
    -121.26472,
    37.61458
  ],
  "geometry": {"coordinates":[[-121.26472,37.56735],[-121.28237,37.56664],[-121.35063,37.56361],[-121.37842,37.56233],[-121.46044,37.55864],[-121.48391,37.55752],[-121.55114,37.55429],[-121.57486,37.55319],[-121.62424,37.55025],[-121.65688,37.5432],[-121.70938,37.53045],[-121.73965,37.52333],[-121.79372,37.51058],[-121.82254,37.5036],[-121.86671,37.4929],[-121.90689,37.48393],[-121.93789,37.48609],[-121.98496,37.49259],[-122.03004,37.49873],[-122.06811,37.50379],[-122.08728,37.50641],[-122.11242,37.50984],[-122.15165,37.52464],[-122.18234,37.53788],[-122.19458,37.54277],[-122.22099,37.55392],[-122.26508,37.57255],[-122.28195,37.57957],[-122.29871,37.58667],[-122.32666,37.59837],[-122.35137,37.60874],[-122.36246,37.61458]],"type":"LineString"}
}
