{
  "id": 1981635911,
  "type": "Feature",
  "properties": {
    "geom:area": 0,
    "geom:bbox": "-123.501520,37.026990,-122.391190,37.667920",
    "geom:latitude": 37.37889674940239,
    "geom:longitude": -122.9525855896071,
    "src:alt_label": "swim-takeoff",
    "src:geom": "swim",
    "swim:elevations": [
      183,
      482,
      587,
      971,
      1073,
      1183,
      1669,
      1981,
      2392,
      2545,
      3044,
      3266,
      3320,
      3624,
      3922,
      4198,
      4578,
      4919,
      4983,
      5475,
      5582,
      5852,
      5920,
      6122,
      6383,
      6501,
      6631,
      6873
    ],
    "swim:geom": "takeoff",
    "swim:timestamps": [
      1760141846,
      1760141869,
      1760141884,
      1760141926,
      1760141958,
      1760141982,
      1760142023,
      1760142049,
      1760142082,
      1760142097,
      1760142133,
      1760142176,
      1760142191,
      1760142230,
      1760142251,
      1760142290,
      1760142315,
      1760142358,
      1760142367,
      1760142418,
      1760142430,
      1760142476,
      1760142494,
      1760142535,
      1760142568,
      1760142585,
      1760142607,
      1760142641
    ],
    "wof:geomhash": "0472748f7161aa8d69913a640bcc811d",
    "wof:id": 1981635911,
    "wof:repo": "sfomuseum-data-flights-2025-10"
  },
  "bbox": [
    -123.50152,
    37.02699,
    -122.39119,
    37.66792
  ],
  "geometry": {"coordinates":[[-122.39119,37.6255],[-122.40998,37.63355],[-122.4222,37.63892],[-122.45715,37.65454],[-122.48914,37.66792],[-122.52021,37.66546],[-122.56691,37.63389],[-122.59809,37.61394],[-122.63689,37.58922],[-122.65524,37.57747],[-122.6992,37.54924],[-122.7551,37.51332],[-122.77636,37.49967],[-122.83547,37.46151],[-122.86747,37.44078],[-122.92741,37.40189],[-122.96524,37.37715],[-123.03288,37.33357],[-123.04709,37.32438],[-123.1273,37.27208],[-123.14611,37.25982],[-123.21868,37.21238],[-123.24883,37.19271],[-123.31858,37.14704],[-123.37565,37.1096],[-123.40378,37.09122],[-123.44233,37.06601],[-123.50152,37.02699]],"type":"LineString"}
}
