{
  "id": 1981729337,
  "type": "Feature",
  "properties": {
    "geom:area": 0,
    "geom:bbox": "-127.284444,38.464722,-126.988611,38.602222",
    "geom:latitude": 38.532780514632314,
    "geom:longitude": -127.13684932272744,
    "src:alt_label": "swim-path",
    "src:geom": "swim",
    "swim:altitudes": [
      "350",
      "350",
      "350",
      "350",
      "350",
      "350",
      "350",
      "350",
      "350",
      "350",
      "350",
      "350",
      "350"
    ],
    "swim:geom": "path",
    "swim:speeds": [
      489,
      488,
      488,
      488,
      488,
      488,
      487,
      487,
      487,
      487,
      487,
      487,
      487
    ],
    "swim:timestamps": [
      1761099647,
      1761099707,
      1761099707,
      1761099707,
      1761099707,
      1761099707,
      1761099767,
      1761099767,
      1761099767,
      1761099767,
      1761099767,
      1761099767,
      1761099767
    ],
    "wof:geomhash": "3eacd1530fbbef059f8bca8d45aafd23",
    "wof:id": 1981729337,
    "wof:repo": "sfomuseum-data-flights-2025-10"
  },
  "bbox": [
    -127.28444444444445,
    38.46472222222223,
    -126.98861111111111,
    38.602222222222224
  ],
  "geometry": {"coordinates":[[-127.28444444444445,38.602222222222224],[-127.13805555555557,38.5325],[-127.13805555555557,38.5325],[-127.13805555555557,38.5325],[-127.13805555555557,38.5325],[-127.13805555555557,38.5325],[-126.98861111111111,38.46472222222223],[-126.98861111111111,38.46472222222223],[-126.98861111111111,38.46472222222223],[-126.98861111111111,38.46472222222223],[-126.98861111111111,38.46472222222223],[-126.98861111111111,38.46472222222223],[-126.98861111111111,38.46472222222223]],"type":"LineString"}
}
