{
  "id": 1981753889,
  "type": "Feature",
  "properties": {
    "date:inception_lower": "2025-10-24",
    "date:inception_upper": "2025-10-24",
    "edtf:cessation": "",
    "edtf:inception": "2025-10-24",
    "flysfo:actual_timestamp": -1,
    "flysfo:airline": "HA",
    "flysfo:base_airline": "",
    "flysfo:base_flight_number": "4817",
    "flysfo:date": "2025-10-24",
    "flysfo:estimated_timestamp": 1761348360,
    "flysfo:event": "A",
    "flysfo:flight_number": "HA4817",
    "flysfo:gate": "B13",
    "flysfo:journey": "BOI-SFO",
    "flysfo:scheduled_timestamp": 1761348420,
    "flysfo:timestamp": 1761348420,
    "geom:area": 0,
    "geom:bbox": "-122.370943,37.617990,-116.224634,43.564048",
    "geom:latitude": 40.591019,
    "geom:longitude": -119.2977885,
    "iata:airline": "HA",
    "iata:base_airline": "",
    "icao:airline": "HAL",
    "icao:base_airline": "HAL",
    "lbl:latitude": 37.61799,
    "lbl:longitude": -122.370943,
    "sfomuseum:airline_id": 1159284489,
    "sfomuseum:arrival_id": 102527513,
    "sfomuseum:base_flight_id": "20251024-A-HAL-4817",
    "sfomuseum:departure_id": 102527733,
    "sfomuseum:flight_id": "20251024-A-HAL-4817",
    "sfomuseum:flight_number": [
      "HAL4817",
      "HA4817"
    ],
    "sfomuseum:placetype": "flight",
    "src:geom": "flysfo",
    "wof:belongsto": [
      1947304067,
      102527513,
      1947304261,
      102191575,
      85633793,
      102087579,
      85922583,
      554784711,
      85688637,
      1947304267,
      1947304259,
      102085387
    ],
    "wof:country": "US",
    "wof:created": 1761408382,
    "wof:geomhash": "e506e1cc6e68aaf992ce3bac53e4e4fa",
    "wof:hierarchy": [
      {
        "building_id": 1947304067,
        "campus_id": 102527513,
        "concourse_id": 1947304261,
        "continent_id": 102191575,
        "country_id": 85633793,
        "county_id": 102087579,
        "custom_id": 1981753889,
        "flight_id": 1981753889,
        "locality_id": 85922583,
        "postalcode_id": 554784711,
        "region_id": 85688637,
        "venue_id": 1947304267,
        "wing_id": 1947304259
      },
      {
        "building_id": 1947304067,
        "campus_id": 102527513,
        "concourse_id": 1947304261,
        "continent_id": 102191575,
        "country_id": 85633793,
        "county_id": 102085387,
        "custom_id": 1981753889,
        "flight_id": 1981753889,
        "region_id": 85688637,
        "venue_id": 1947304267,
        "wing_id": 1947304259
      }
    ],
    "wof:id": 1981753889,
    "wof:involves": [
      102527513,
      102527733,
      1159284489,
      1947304267,
      1159284489
    ],
    "wof:lastmodified": 1761408382,
    "wof:name": "HA4817 (BOI-SFO)",
    "wof:parent_id": 1947304267,
    "wof:placetype": "custom",
    "wof:placetype_alt": [
      "flight"
    ],
    "wof:repo": "sfomuseum-data-flights-2025-10",
    "wof:superseded_by": [],
    "wof:supersedes": []
  },
  "bbox": [
    -122.370943,
    37.61799,
    -116.224634,
    43.564048
  ],
  "geometry": {"coordinates":[[-116.224634,43.564048],[-122.370943,37.61799]],"type":"MultiPoint"}
}
