{
  "id": 1981689443,
  "type": "Feature",
  "properties": {
    "geom:area": 0,
    "geom:bbox": "-122.526120,37.627190,-121.274460,37.972320",
    "geom:latitude": 37.86549111463243,
    "geom:longitude": -121.99791554589473,
    "src:alt_label": "swim-takeoff",
    "src:geom": "swim",
    "swim:elevations": [
      183,
      698,
      913,
      957,
      1197,
      1755,
      2025,
      2232,
      2927,
      3093,
      3211,
      3351,
      3471,
      3556,
      3844,
      4194,
      4466,
      4891,
      5022,
      5428,
      5499,
      5930,
      6123,
      6322,
      6433,
      6639,
      6756,
      7102,
      7171
    ],
    "swim:geom": "takeoff",
    "swim:timestamps": [
      1760627852,
      1760627902,
      1760627934,
      1760627948,
      1760627979,
      1760628025,
      1760628046,
      1760628060,
      1760628118,
      1760628132,
      1760628150,
      1760628178,
      1760628203,
      1760628211,
      1760628246,
      1760628280,
      1760628309,
      1760628356,
      1760628368,
      1760628415,
      1760628425,
      1760628477,
      1760628501,
      1760628529,
      1760628546,
      1760628582,
      1760628603,
      1760628655,
      1760628670
    ],
    "wof:geomhash": "5614740cf240c63a045f5ec857e98577",
    "wof:id": 1981689443,
    "wof:repo": "sfomuseum-data-flights-2025-10"
  },
  "bbox": [
    -122.52612,
    37.62719,
    -121.27446,
    37.97232
  ],
  "geometry": {"coordinates":[[-122.39517,37.62719],[-122.44317,37.6482],[-122.47557,37.66217],[-122.49219,37.66962],[-122.52261,37.69382],[-122.52533,37.74731],[-122.52612,37.77246],[-122.52573,37.78961],[-122.45727,37.82975],[-122.43535,37.83591],[-122.40724,37.84094],[-122.35584,37.84717],[-122.30828,37.85294],[-122.29358,37.85465],[-122.22198,37.86316],[-122.15051,37.87167],[-122.09071,37.87882],[-121.98868,37.89076],[-121.96359,37.8937],[-121.86083,37.90571],[-121.8386,37.90828],[-121.72303,37.9216],[-121.6691,37.92775],[-121.60661,37.9349],[-121.56759,37.93936],[-121.48373,37.94891],[-121.43548,37.95436],[-121.30957,37.96841],[-121.27446,37.97232]],"type":"LineString"}
}
