{
  "id": 1981667561,
  "type": "Feature",
  "properties": {
    "geom:area": 0,
    "geom:bbox": "-122.359220,37.491400,-121.280720,37.614110",
    "geom:latitude": 37.54548968620028,
    "geom:longitude": -121.82474691830453,
    "src:alt_label": "swim-approach",
    "src:geom": "swim",
    "swim:elevations": [
      4924,
      4455,
      4071,
      3869,
      3754,
      3634,
      3108,
      3008,
      2824,
      2670,
      2573,
      2410,
      2346,
      2141,
      1949,
      1795,
      1708,
      1434,
      1162,
      831,
      652,
      612,
      529,
      454,
      367,
      274,
      198,
      56,
      0
    ],
    "swim:geom": "approach",
    "swim:timestamps": [
      1760451197,
      1760451230,
      1760451267,
      1760451298,
      1760451312,
      1760451330,
      1760451386,
      1760451416,
      1760451446,
      1760451468,
      1760451492,
      1760451536,
      1760451547,
      1760451586,
      1760451616,
      1760451658,
      1760451672,
      1760451706,
      1760451736,
      1760451778,
      1760451804,
      1760451815,
      1760451842,
      1760451864,
      1760451888,
      1760451916,
      1760451942,
      1760451978,
      1760451992
    ],
    "wof:geomhash": "1376423c42579af0666aa38d26dae599",
    "wof:id": 1981667561,
    "wof:repo": "sfomuseum-data-flights-2025-10"
  },
  "bbox": [
    -122.35922,
    37.4914,
    -121.28072,
    37.61411
  ],
  "geometry": {"coordinates":[[-121.28072,37.59027],[-121.34941,37.5826],[-121.42514,37.57417],[-121.48751,37.56702],[-121.51555,37.56377],[-121.54977,37.55968],[-121.65474,37.54354],[-121.70235,37.53243],[-121.75027,37.52084],[-121.78421,37.51273],[-121.82225,37.5035],[-121.88782,37.49149],[-121.90409,37.4914],[-121.96155,37.49304],[-122.00497,37.50022],[-122.05521,37.51648],[-122.06966,37.52119],[-122.10487,37.53275],[-122.13575,37.54271],[-122.17924,37.55681],[-122.20477,37.56501],[-122.21627,37.56871],[-122.24185,37.57696],[-122.26137,37.58301],[-122.28177,37.58877],[-122.30293,37.59503],[-122.32268,37.60091],[-122.34879,37.60998],[-122.35922,37.61411]],"type":"LineString"}
}
