{
  "id": 1997538733,
  "type": "Feature",
  "properties": {
    "geom:area": 0,
    "geom:bbox": "-122.368056,37.629167,-104.683333,39.877778",
    "geom:latitude": 38.44372563342911,
    "geom:longitude": -113.31468578259725,
    "src:alt_label": "swim-path",
    "src:geom": "swim",
    "swim:altitudes": [
      "007",
      "007",
      "007",
      "007",
      "007",
      "007",
      "031",
      "031",
      "111",
      "111",
      "111",
      "111",
      "111",
      "201",
      "201",
      "201",
      "216",
      "216",
      "216",
      "216",
      "216",
      "230",
      "230",
      "243",
      "243",
      "243",
      "243",
      "243",
      "291",
      "291",
      "291",
      "317",
      "317",
      "337",
      "337",
      "337",
      "347",
      "347",
      "347",
      "347",
      "350C",
      "350C",
      "350C",
      "350C",
      "350C",
      "350C",
      "350C",
      "350C",
      "350C",
      "350C",
      "350C",
      "350C",
      "350C",
      "350C",
      "350C",
      "350C",
      "350C",
      "350C",
      "350C",
      "350C",
      "350C",
      "350C",
      "350C",
      "350C",
      "350C",
      "350C",
      "350C",
      "350C",
      "350C",
      "350C",
      "350C",
      "350C",
      "350C",
      "350C",
      "350C",
      "350C",
      "350C",
      "350C",
      "350C",
      "350C",
      "350C",
      "350C",
      "350C",
      "350C",
      "350C",
      "350C",
      "350C",
      "350C",
      "350C",
      "350C",
      "350C",
      "350C",
      "350C",
      "350C",
      "350C",
      "350C",
      "350C",
      "350C",
      "350C",
      "350C",
      "350C",
      "350C",
      "350C",
      "350C",
      "350C",
      "350C",
      "350C",
      "350C",
      "350C",
      "350C",
      "350C",
      "350C",
      "350C",
      "350C",
      "350C",
      "350C",
      "350C",
      "350C",
      "350C",
      "350C",
      "350C",
      "350C",
      "350C",
      "350C",
      "350C",
      "350C",
      "350C",
      "350C",
      "350C",
      "350C",
      "350C",
      "350C",
      "350C",
      "350C",
      "350C",
      "350C",
      "350C",
      "350C",
      "350C",
      "350C",
      "350C",
      "350C",
      "350C",
      "350C",
      "350C",
      "350C",
      "350C",
      "350C",
      "350C",
      "350C",
      "350C",
      "350C",
      "350C",
      "314",
      "314",
      "314",
      "314",
      "314",
      "314",
      "314",
      "314",
      "314",
      "314",
      "239",
      "239",
      "239",
      "239",
      "239",
      "239",
      "239",
      "239",
      "206",
      "206",
      "206",
      "206",
      "206",
      "149",
      "149",
      "149",
      "149",
      "149",
      "149",
      "125",
      "124",
      "116",
      "116",
      "116",
      "116",
      "116",
      "106",
      "106",
      "106",
      "106",
      "096",
      "096",
      "096",
      "082",
      "082",
      "082",
      "082",
      "074",
      "074",
      "074",
      "074",
      "074",
      "066",
      "066",
      "066",
      "066",
      "066",
      "054",
      "054",
      "054",
      "054",
      "054",
      "054"
    ],
    "swim:geom": "path",
    "swim:speeds": [
      150,
      150,
      150,
      150,
      150,
      150,
      148,
      148,
      314,
      314,
      314,
      314,
      314,
      411,
      411,
      411,
      427,
      427,
      427,
      427,
      427,
      439,
      439,
      449,
      449,
      449,
      449,
      449,
      475,
      475,
      475,
      478,
      478,
      478,
      478,
      478,
      478,
      478,
      478,
      478,
      481,
      481,
      481,
      481,
      481,
      481,
      481,
      481,
      481,
      479,
      479,
      479,
      482,
      482,
      482,
      482,
      482,
      482,
      483,
      483,
      483,
      483,
      483,
      484,
      484,
      485,
      485,
      485,
      485,
      485,
      485,
      485,
      484,
      484,
      484,
      484,
      484,
      484,
      484,
      486,
      486,
      486,
      486,
      486,
      486,
      488,
      488,
      488,
      488,
      488,
      488,
      489,
      489,
      489,
      490,
      490,
      490,
      490,
      491,
      491,
      491,
      491,
      492,
      492,
      492,
      492,
      492,
      492,
      494,
      494,
      494,
      494,
      494,
      494,
      493,
      493,
      493,
      493,
      493,
      493,
      493,
      493,
      493,
      493,
      492,
      492,
      492,
      492,
      490,
      490,
      490,
      490,
      490,
      490,
      490,
      490,
      490,
      491,
      491,
      491,
      491,
      491,
      491,
      478,
      478,
      478,
      478,
      478,
      478,
      478,
      478,
      478,
      478,
      485,
      485,
      485,
      485,
      485,
      485,
      485,
      485,
      485,
      485,
      425,
      425,
      425,
      425,
      425,
      425,
      425,
      425,
      389,
      389,
      389,
      389,
      389,
      333,
      333,
      333,
      333,
      333,
      333,
      302,
      299,
      268,
      268,
      268,
      268,
      268,
      245,
      245,
      239,
      239,
      233,
      233,
      233,
      175,
      175,
      175,
      175,
      144,
      144,
      144,
      144,
      144,
      144,
      144,
      144,
      144,
      144,
      131,
      131,
      131,
      131,
      131,
      131
    ],
    "swim:timestamps": [
      1761831652,
      1761831652,
      1761831652,
      1761831652,
      1761831652,
      1761831652,
      1761831712,
      1761831712,
      1761831953,
      1761831953,
      1761831953,
      1761831953,
      1761831953,
      1761832253,
      1761832253,
      1761832253,
      1761832313,
      1761832313,
      1761832313,
      1761832313,
      1761832313,
      1761832373,
      1761832373,
      1761832433,
      1761832433,
      1761832433,
      1761832433,
      1761832433,
      1761832692,
      1761832692,
      1761832692,
      1761832812,
      1761832812,
      1761832913,
      1761832913,
      1761832913,
      1761832974,
      1761832974,
      1761832974,
      1761832974,
      1761833274,
      1761833274,
      1761833274,
      1761833274,
      1761833294,
      1761833294,
      1761833294,
      1761833294,
      1761833294,
      1761833634,
      1761833634,
      1761833634,
      1761833834,
      1761833834,
      1761833834,
      1761833834,
      1761833834,
      1761833834,
      1761833994,
      1761833994,
      1761833994,
      1761833994,
      1761833994,
      1761834115,
      1761834115,
      1761834175,
      1761834175,
      1761834175,
      1761834195,
      1761834195,
      1761834195,
      1761834195,
      1761834616,
      1761834616,
      1761834616,
      1761834616,
      1761834616,
      1761834616,
      1761834616,
      1761834676,
      1761834676,
      1761834676,
      1761834676,
      1761834676,
      1761834676,
      1761834796,
      1761834796,
      1761834796,
      1761834796,
      1761834796,
      1761834796,
      1761834856,
      1761834856,
      1761834856,
      1761835274,
      1761835274,
      1761835274,
      1761835274,
      1761835334,
      1761835334,
      1761835334,
      1761835334,
      1761835394,
      1761835394,
      1761835394,
      1761835394,
      1761835394,
      1761835394,
      1761835514,
      1761835514,
      1761835514,
      1761835514,
      1761835514,
      1761835514,
      1761836021,
      1761836021,
      1761836021,
      1761836021,
      1761836201,
      1761836201,
      1761836201,
      1761836201,
      1761836201,
      1761836201,
      1761836235,
      1761836235,
      1761836235,
      1761836235,
      1761836536,
      1761836536,
      1761836536,
      1761836536,
      1761836536,
      1761836561,
      1761836561,
      1761836561,
      1761836561,
      1761836621,
      1761836621,
      1761836621,
      1761836621,
      1761836621,
      1761836621,
      1761837162,
      1761837162,
      1761837162,
      1761837162,
      1761837162,
      1761837162,
      1761837162,
      1761837162,
      1761837162,
      1761837162,
      1761837523,
      1761837523,
      1761837523,
      1761837523,
      1761837523,
      1761837523,
      1761837523,
      1761837523,
      1761837523,
      1761837523,
      1761837883,
      1761837883,
      1761837883,
      1761837883,
      1761837883,
      1761837883,
      1761837883,
      1761837883,
      1761837985,
      1761837985,
      1761837985,
      1761837985,
      1761837985,
      1761838229,
      1761838229,
      1761838229,
      1761838229,
      1761838229,
      1761838229,
      1761838351,
      1761838364,
      1761838466,
      1761838466,
      1761838466,
      1761838466,
      1761838466,
      1761838544,
      1761838544,
      1761838585,
      1761838585,
      1761838646,
      1761838646,
      1761838646,
      1761838724,
      1761838724,
      1761838724,
      1761838724,
      1761838784,
      1761838784,
      1761838784,
      1761838784,
      1761838784,
      1761838844,
      1761838844,
      1761838844,
      1761838844,
      1761838844,
      1761838964,
      1761838964,
      1761838964,
      1761838964,
      1761838964,
      1761838964
    ],
    "wof:geomhash": "564454480ae1c84f0f04fac971a44521",
    "wof:id": 1997538733,
    "wof:repo": "sfomuseum-data-flights-2025-10"
  },
  "bbox": [
    -122.36805555555554,
    37.62916666666667,
    -104.68333333333334,
    39.87777777777778
  ],
  "geometry": {"coordinates":[[-122.36805555555554,37.62916666666667],[-122.36805555555554,37.62916666666667],[-122.36805555555554,37.62916666666667],[-122.36805555555554,37.62916666666667],[-122.36805555555554,37.62916666666667],[-122.36805555555554,37.62916666666667],[-122.33361111111111,37.659444444444446],[-122.33361111111111,37.659444444444446],[-122.06777777777778,37.803888888888885],[-122.06777777777778,37.803888888888885],[-122.06777777777778,37.803888888888885],[-122.06777777777778,37.803888888888885],[-122.06777777777778,37.803888888888885],[-121.42666666666668,37.92972222222222],[-121.42666666666668,37.92972222222222],[-121.42666666666668,37.92972222222222],[-121.28138888888888,37.9575],[-121.28138888888888,37.9575],[-121.28138888888888,37.9575],[-121.28138888888888,37.9575],[-121.28138888888888,37.9575],[-121.13222222222221,37.98583333333333],[-121.13222222222221,37.98583333333333],[-120.9775,38.01083333333333],[-120.9775,38.01083333333333],[-120.9775,38.01083333333333],[-120.9775,38.01083333333333],[-120.9775,38.01083333333333],[-120.29861111111111,38.11333333333334],[-120.29861111111111,38.11333333333334],[-120.29861111111111,38.11333333333334],[-119.96388888888889,38.16],[-119.96388888888889,38.16],[-119.66638888888889,38.20611111111111],[-119.66638888888889,38.20611111111111],[-119.66638888888889,38.20611111111111],[-119.50166666666667,38.22944444444445],[-119.50166666666667,38.22944444444445],[-119.50166666666667,38.22944444444445],[-119.50166666666667,38.22944444444445],[-118.67027777777778,38.34388888888889],[-118.67027777777778,38.34388888888889],[-118.67027777777778,38.34388888888889],[-118.67027777777778,38.34388888888889],[-118.60527777777777,38.35194444444445],[-118.60527777777777,38.35194444444445],[-118.60527777777777,38.35194444444445],[-118.60527777777777,38.35194444444445],[-118.60527777777777,38.35194444444445],[-117.65194444444445,38.47555555555556],[-117.65194444444445,38.47555555555556],[-117.65194444444445,38.47555555555556],[-117.10555555555555,38.51611111111111],[-117.10555555555555,38.51611111111111],[-117.10555555555555,38.51611111111111],[-117.10555555555555,38.51611111111111],[-117.10555555555555,38.51611111111111],[-117.10555555555555,38.51611111111111],[-116.62277777777777,38.50361111111111],[-116.62277777777777,38.50361111111111],[-116.62277777777777,38.50361111111111],[-116.62277777777777,38.50361111111111],[-116.62277777777777,38.50361111111111],[-116.27694444444444,38.49277777777778],[-116.27694444444444,38.49277777777778],[-116.1036111111111,38.48722222222222],[-116.1036111111111,38.48722222222222],[-116.1036111111111,38.48722222222222],[-116.07138888888889,38.486111111111114],[-116.07138888888889,38.486111111111114],[-116.07138888888889,38.486111111111114],[-116.07138888888889,38.486111111111114],[-114.85916666666667,38.43944444444444],[-114.85916666666667,38.43944444444444],[-114.85916666666667,38.43944444444444],[-114.85916666666667,38.43944444444444],[-114.85916666666667,38.43944444444444],[-114.85916666666667,38.43944444444444],[-114.85916666666667,38.43944444444444],[-114.685,38.431666666666665],[-114.685,38.431666666666665],[-114.685,38.431666666666665],[-114.685,38.431666666666665],[-114.685,38.431666666666665],[-114.685,38.431666666666665],[-114.34138888888889,38.41555555555556],[-114.34138888888889,38.41555555555556],[-114.34138888888889,38.41555555555556],[-114.34138888888889,38.41555555555556],[-114.34138888888889,38.41555555555556],[-114.34138888888889,38.41555555555556],[-114.16638888888889,38.40694444444444],[-114.16638888888889,38.40694444444444],[-114.16638888888889,38.40694444444444],[-112.96111111111111,38.340833333333336],[-112.96111111111111,38.340833333333336],[-112.96111111111111,38.340833333333336],[-112.96111111111111,38.340833333333336],[-112.80499999999999,38.331388888888895],[-112.80499999999999,38.331388888888895],[-112.80499999999999,38.331388888888895],[-112.80499999999999,38.331388888888895],[-112.63111111111111,38.32055555555556],[-112.63111111111111,38.32055555555556],[-112.63111111111111,38.32055555555556],[-112.63111111111111,38.32055555555556],[-112.63111111111111,38.32055555555556],[-112.63111111111111,38.32055555555556],[-112.28222222222222,38.29805555555556],[-112.28222222222222,38.29805555555556],[-112.28222222222222,38.29805555555556],[-112.28222222222222,38.29805555555556],[-112.28222222222222,38.29805555555556],[-112.28222222222222,38.29805555555556],[-110.81944444444444,38.19222222222222],[-110.81944444444444,38.19222222222222],[-110.81944444444444,38.19222222222222],[-110.81944444444444,38.19222222222222],[-110.30361111111111,38.150555555555556],[-110.30361111111111,38.150555555555556],[-110.30361111111111,38.150555555555556],[-110.30361111111111,38.150555555555556],[-110.30361111111111,38.150555555555556],[-110.30361111111111,38.150555555555556],[-110.19861111111112,38.14194444444444],[-110.19861111111112,38.14194444444444],[-110.19861111111112,38.14194444444444],[-110.19861111111112,38.14194444444444],[-109.33999999999999,38.11388888888889],[-109.33999999999999,38.11388888888889],[-109.33999999999999,38.11388888888889],[-109.33999999999999,38.11388888888889],[-109.33999999999999,38.11388888888889],[-109.27388888888889,38.111666666666665],[-109.27388888888889,38.111666666666665],[-109.27388888888889,38.111666666666665],[-109.27388888888889,38.111666666666665],[-109.09916666666666,38.10583333333334],[-109.09916666666666,38.10583333333334],[-109.09916666666666,38.10583333333334],[-109.09916666666666,38.10583333333334],[-109.09916666666666,38.10583333333334],[-109.09916666666666,38.10583333333334],[-107.68305555555555,38.584722222222226],[-107.68305555555555,38.584722222222226],[-107.68305555555555,38.584722222222226],[-107.68305555555555,38.584722222222226],[-107.68305555555555,38.584722222222226],[-107.68305555555555,38.584722222222226],[-107.68305555555555,38.584722222222226],[-107.68305555555555,38.584722222222226],[-107.68305555555555,38.584722222222226],[-107.68305555555555,38.584722222222226],[-106.76611111111112,38.92861111111111],[-106.76611111111112,38.92861111111111],[-106.76611111111112,38.92861111111111],[-106.76611111111112,38.92861111111111],[-106.76611111111112,38.92861111111111],[-106.76611111111112,38.92861111111111],[-106.76611111111112,38.92861111111111],[-106.76611111111112,38.92861111111111],[-106.76611111111112,38.92861111111111],[-106.76611111111112,38.92861111111111],[-105.91250000000001,39.23916666666667],[-105.91250000000001,39.23916666666667],[-105.91250000000001,39.23916666666667],[-105.91250000000001,39.23916666666667],[-105.91250000000001,39.23916666666667],[-105.91250000000001,39.23916666666667],[-105.91250000000001,39.23916666666667],[-105.91250000000001,39.23916666666667],[-105.66666666666667,39.333333333333336],[-105.66666666666667,39.333333333333336],[-105.66666666666667,39.333333333333336],[-105.66666666666667,39.333333333333336],[-105.66666666666667,39.333333333333336],[-105.18333333333334,39.416666666666664],[-105.18333333333334,39.416666666666664],[-105.18333333333334,39.416666666666664],[-105.18333333333334,39.416666666666664],[-105.18333333333334,39.416666666666664],[-105.18333333333334,39.416666666666664],[-104.93333333333334,39.43333333333333],[-104.92,39.431666666666665],[-104.75,39.46666666666667],[-104.75,39.46666666666667],[-104.75,39.46666666666667],[-104.75,39.46666666666667],[-104.75,39.46666666666667],[-104.69555555555556,39.53972222222222],[-104.69555555555556,39.53972222222222],[-104.68333333333334,39.583333333333336],[-104.68333333333334,39.583333333333336],[-104.68333333333334,39.65],[-104.68333333333334,39.65],[-104.68333333333334,39.65],[-104.6888888888889,39.723055555555554],[-104.6888888888889,39.723055555555554],[-104.6888888888889,39.723055555555554],[-104.6888888888889,39.723055555555554],[-104.68833333333333,39.763333333333335],[-104.68833333333333,39.763333333333335],[-104.68833333333333,39.763333333333335],[-104.68833333333333,39.763333333333335],[-104.68833333333333,39.763333333333335],[-104.68805555555556,39.80277777777778],[-104.68805555555556,39.80277777777778],[-104.68805555555556,39.80277777777778],[-104.68805555555556,39.80277777777778],[-104.68805555555556,39.80277777777778],[-104.68722222222223,39.87777777777778],[-104.68722222222223,39.87777777777778],[-104.68722222222223,39.87777777777778],[-104.68722222222223,39.87777777777778],[-104.68722222222223,39.87777777777778],[-104.68722222222223,39.87777777777778]],"type":"LineString"}
}
