{
  "id": 1981553367,
  "type": "Feature",
  "properties": {
    "geom:area": 0,
    "geom:bbox": "-122.370160,37.623440,-121.243390,37.990370",
    "geom:latitude": 37.809209265731425,
    "geom:longitude": -121.84230802689171,
    "src:alt_label": "swim-approach",
    "src:geom": "swim",
    "swim:elevations": [
      3858,
      3751,
      3719,
      3557,
      3529,
      3295,
      3238,
      3078,
      3048,
      3048,
      3048,
      3048,
      3048,
      3048,
      3048,
      2911,
      2745,
      2743,
      2743,
      2743,
      2743,
      2743,
      2560,
      2437,
      2438,
      2438,
      2438,
      2438,
      2160,
      2001,
      1859,
      1826,
      1819,
      1604,
      1556,
      1524,
      1524,
      1524,
      1476,
      1314,
      1121,
      985,
      804,
      635,
      587,
      431,
      256,
      155,
      145,
      50,
      21
    ],
    "swim:geom": "approach",
    "swim:timestamps": [
      1759320435,
      1759320458,
      1759320463,
      1759320504,
      1759320513,
      1759320566,
      1759320583,
      1759320624,
      1759320656,
      1759320687,
      1759320708,
      1759320740,
      1759320756,
      1759320788,
      1759320801,
      1759320825,
      1759320858,
      1759320895,
      1759320904,
      1759320955,
      1759320984,
      1759321007,
      1759321045,
      1759321065,
      1759321105,
      1759321135,
      1759321168,
      1759321178,
      1759321227,
      1759321253,
      1759321274,
      1759321288,
      1759321292,
      1759321345,
      1759321358,
      1759321393,
      1759321417,
      1759321429,
      1759321444,
      1759321476,
      1759321514,
      1759321540,
      1759321580,
      1759321616,
      1759321624,
      1759321660,
      1759321707,
      1759321737,
      1759321741,
      1759321767,
      1759321783
    ],
    "wof:geomhash": "af942d6fd4764959e595c3015174cb6a",
    "wof:id": 1981553367,
    "wof:repo": "sfomuseum-data-flights-2025-10"
  },
  "bbox": [
    -122.37016,
    37.62344,
    -121.24339,
    37.99037
  ],
  "geometry": {"coordinates":[[-121.24339,37.65379],[-121.27511,37.66371],[-121.28204,37.66586],[-121.33898,37.68346],[-121.35088,37.68715],[-121.42085,37.70861],[-121.44399,37.71564],[-121.49615,37.73145],[-121.53691,37.73984],[-121.57779,37.74733],[-121.60496,37.75229],[-121.64693,37.75991],[-121.66656,37.76346],[-121.70458,37.77961],[-121.71032,37.79444],[-121.71677,37.82272],[-121.72482,37.86132],[-121.74208,37.90212],[-121.74624,37.91128],[-121.7907,37.95424],[-121.82117,37.97495],[-121.84586,37.99037],[-121.88087,37.97518],[-121.8774,37.95496],[-121.87672,37.91391],[-121.88373,37.88366],[-121.91466,37.86857],[-121.92817,37.8718],[-121.98904,37.88041],[-122.02297,37.87733],[-122.04931,37.87509],[-122.06595,37.87364],[-122.07036,37.87328],[-122.1282,37.86824],[-122.14267,37.86699],[-122.1792,37.86379],[-122.20484,37.86077],[-122.21499,37.85459],[-122.22246,37.84428],[-122.23896,37.8201],[-122.25784,37.79172],[-122.26989,37.77359],[-122.28886,37.74522],[-122.30619,37.71918],[-122.30952,37.71413],[-122.32478,37.69106],[-122.34178,37.66561],[-122.35227,37.64977],[-122.35384,37.6474],[-122.36372,37.63248],[-122.37016,37.62344]],"type":"LineString"}
}
