{
  "id": 1981718619,
  "type": "Feature",
  "properties": {
    "geom:area": 0,
    "geom:bbox": "-122.332778,33.650000,-84.450000,38.242778",
    "geom:latitude": 36.47564309244311,
    "geom:longitude": -103.3423369505178,
    "src:alt_label": "swim-path",
    "src:geom": "swim",
    "swim:altitudes": [
      "020",
      "020",
      "020",
      "020",
      "147",
      "150",
      "150",
      "184",
      "184",
      "246",
      "246",
      "246",
      "258",
      "258",
      "268",
      "308",
      "317",
      "317",
      "320C",
      "320C",
      "320C",
      "320C",
      "320C",
      "320C",
      "320C",
      "320C",
      "320C",
      "320C",
      "320C",
      "320C",
      "320C",
      "320C",
      "320C",
      "320C",
      "320C",
      "320C",
      "320C",
      "320C",
      "320C",
      "320C",
      "320C",
      "320C",
      "320C",
      "320C",
      "320C",
      "320C",
      "320C",
      "320C",
      "320C",
      "320C",
      "320C",
      "320C",
      "320C",
      "320C",
      "320C",
      "320C",
      "320C",
      "320C",
      "320C",
      "320C",
      "320C",
      "320C",
      "320C",
      "320C",
      "320C",
      "320C",
      "320C",
      "320C",
      "320C",
      "320C",
      "320C",
      "320C",
      "320C",
      "320C",
      "320C",
      "320C",
      "320C",
      "320C",
      "320C",
      "320C",
      "320C",
      "320C",
      "320C",
      "320C",
      "320C",
      "320C",
      "320C",
      "320C",
      "320C",
      "320C",
      "320C",
      "320C",
      "320C",
      "320C",
      "320C",
      "320C",
      "320C",
      "320C",
      "320C",
      "320C",
      "320C",
      "320C",
      "320C",
      "320C",
      "320C",
      "320C",
      "320C",
      "320C",
      "320C",
      "320C",
      "320C",
      "320C",
      "320C",
      "320C",
      "320C",
      "320C",
      "320C",
      "320C",
      "320C",
      "320C",
      "320C",
      "320C",
      "320C",
      "320C",
      "320C",
      "320C",
      "320C",
      "320C",
      "320C",
      "320C",
      "320C",
      "320C",
      "320C",
      "320C",
      "320C",
      "320C",
      "320C",
      "320C",
      "320C",
      "320C",
      "320C",
      "320C",
      "320C",
      "320C",
      "320C",
      "320C",
      "320C",
      "320C",
      "320C",
      "320C",
      "320C",
      "320",
      "320",
      "320",
      "340C",
      "340C",
      "340C",
      "340C",
      "340C",
      "340C",
      "340C",
      "340C",
      "340C",
      "340C",
      "340C",
      "340C",
      "340C",
      "340C",
      "340C",
      "340C",
      "340C",
      "340C",
      "340C",
      "340C",
      "340C",
      "340C",
      "340C",
      "340C",
      "340C",
      "335",
      "335",
      "247",
      "247",
      "221",
      "199",
      "190",
      "116",
      "082",
      "078",
      "075",
      "033",
      "023",
      "023",
      "005",
      "005"
    ],
    "swim:geom": "path",
    "swim:speeds": [
      185,
      185,
      185,
      185,
      365,
      362,
      362,
      380,
      380,
      429,
      429,
      429,
      438,
      438,
      441,
      430,
      429,
      429,
      425,
      419,
      419,
      419,
      419,
      418,
      417,
      417,
      415,
      413,
      413,
      413,
      413,
      403,
      403,
      403,
      403,
      402,
      402,
      402,
      403,
      403,
      403,
      402,
      402,
      405,
      405,
      405,
      405,
      405,
      404,
      403,
      403,
      402,
      402,
      396,
      391,
      391,
      389,
      389,
      386,
      386,
      384,
      384,
      383,
      376,
      376,
      373,
      371,
      371,
      372,
      372,
      372,
      371,
      371,
      369,
      369,
      371,
      371,
      372,
      376,
      376,
      378,
      381,
      381,
      381,
      381,
      381,
      381,
      381,
      387,
      387,
      387,
      387,
      386,
      385,
      385,
      387,
      387,
      387,
      387,
      387,
      386,
      387,
      396,
      397,
      397,
      398,
      398,
      398,
      397,
      397,
      409,
      409,
      408,
      409,
      409,
      410,
      410,
      413,
      413,
      413,
      413,
      414,
      414,
      412,
      421,
      421,
      421,
      422,
      422,
      422,
      422,
      425,
      425,
      429,
      429,
      430,
      430,
      429,
      429,
      428,
      432,
      432,
      435,
      434,
      434,
      435,
      435,
      435,
      442,
      442,
      445,
      444,
      444,
      444,
      451,
      451,
      451,
      452,
      452,
      453,
      453,
      468,
      468,
      452,
      452,
      458,
      458,
      458,
      459,
      463,
      463,
      461,
      461,
      460,
      462,
      462,
      462,
      460,
      460,
      460,
      460,
      432,
      432,
      403,
      387,
      387,
      330,
      273,
      257,
      247,
      204,
      197,
      197,
      163,
      163
    ],
    "swim:timestamps": [
      1761006917,
      1761006917,
      1761006917,
      1761006917,
      1761007326,
      1761007336,
      1761007336,
      1761007456,
      1761007456,
      1761007747,
      1761007747,
      1761007747,
      1761007817,
      1761007817,
      1761007867,
      1761008057,
      1761008117,
      1761008117,
      1761008297,
      1761008538,
      1761008538,
      1761008718,
      1761008718,
      1761008898,
      1761008958,
      1761008958,
      1761009018,
      1761009319,
      1761009319,
      1761009319,
      1761009319,
      1761009799,
      1761009799,
      1761009799,
      1761009799,
      1761010160,
      1761010160,
      1761010160,
      1761010366,
      1761010400,
      1761010426,
      1761010460,
      1761010460,
      1761010640,
      1761010660,
      1761010666,
      1761010666,
      1761010780,
      1761010846,
      1761010906,
      1761010906,
      1761010966,
      1761010966,
      1761011327,
      1761011387,
      1761011387,
      1761011447,
      1761011447,
      1761011567,
      1761011567,
      1761011687,
      1761011687,
      1761011722,
      1761012082,
      1761012082,
      1761012222,
      1761012359,
      1761012359,
      1761012523,
      1761012529,
      1761012589,
      1761012649,
      1761012649,
      1761012829,
      1761013009,
      1761013063,
      1761013063,
      1761013129,
      1761013250,
      1761013250,
      1761013301,
      1761013542,
      1761013542,
      1761013662,
      1761013662,
      1761013662,
      1761013782,
      1761013782,
      1761014088,
      1761014088,
      1761014203,
      1761014323,
      1761014383,
      1761014443,
      1761014443,
      1761014628,
      1761014628,
      1761014749,
      1761014749,
      1761014749,
      1761014869,
      1761014889,
      1761015229,
      1761015250,
      1761015250,
      1761015310,
      1761015310,
      1761015370,
      1761015464,
      1761015464,
      1761016011,
      1761016011,
      1761016131,
      1761016211,
      1761016211,
      1761016271,
      1761016271,
      1761016631,
      1761016631,
      1761016631,
      1761016631,
      1761016872,
      1761016872,
      1761016992,
      1761017232,
      1761017232,
      1761017232,
      1761017459,
      1761017459,
      1761017459,
      1761017579,
      1761017773,
      1761017773,
      1761018133,
      1761018133,
      1761018180,
      1761018180,
      1761018254,
      1761018254,
      1761018420,
      1761018540,
      1761018554,
      1761018841,
      1761018914,
      1761018974,
      1761019021,
      1761019021,
      1761019021,
      1761019215,
      1761019215,
      1761019381,
      1761019441,
      1761019441,
      1761019441,
      1761020042,
      1761020042,
      1761020042,
      1761020222,
      1761020222,
      1761020342,
      1761020523,
      1761020569,
      1761020569,
      1761020703,
      1761020703,
      1761020809,
      1761020809,
      1761020929,
      1761020989,
      1761021229,
      1761021229,
      1761021409,
      1761021409,
      1761021483,
      1761021710,
      1761021710,
      1761022010,
      1761022130,
      1761022130,
      1761022250,
      1761022250,
      1761022490,
      1761022490,
      1761022572,
      1761022638,
      1761022671,
      1761022911,
      1761023091,
      1761023124,
      1761023151,
      1761023391,
      1761023451,
      1761023451,
      1761023571,
      1761023571
    ],
    "wof:geomhash": "361ef099198e8b67df964f78757bdaa2",
    "wof:id": 1981718619,
    "wof:repo": "sfomuseum-data-flights-2025-10"
  },
  "bbox": [
    -122.33277777777778,
    33.65,
    -84.45,
    38.24277777777778
  ],
  "geometry": {"coordinates":[[-84.45,33.65],[-84.45,33.65],[-84.45,33.65],[-84.45,33.65],[-85.10249999999999,33.69916666666666],[-85.11805555555554,33.69972222222222],[-85.11805555555554,33.69972222222222],[-85.3736111111111,33.698055555555555],[-85.3736111111111,33.698055555555555],[-86.03583333333333,33.687777777777775],[-86.03583333333333,33.687777777777775],[-86.03583333333333,33.687777777777775],[-86.21083333333334,33.70055555555556],[-86.21083333333334,33.70055555555556],[-86.32722222222222,33.709722222222226],[-86.78944444444444,33.74444444444445],[-86.93,33.75472222222222],[-86.93,33.75472222222222],[-87.35527777777777,33.78472222222222],[-87.90472222222223,33.88111111111111],[-87.90472222222223,33.88111111111111],[-88.28833333333333,33.95944444444445],[-88.28833333333333,33.95944444444445],[-88.69666666666667,34.04138888888889],[-88.85694444444444,34.073055555555555],[-88.85694444444444,34.073055555555555],[-88.99222222222222,34.099444444444444],[-89.66833333333334,34.22972222222222],[-89.66833333333334,34.22972222222222],[-89.66833333333334,34.22972222222222],[-89.66833333333334,34.22972222222222],[-90.70972222222223,34.42222222222222],[-90.70972222222223,34.42222222222222],[-90.70972222222223,34.42222222222222],[-90.70972222222223,34.42222222222222],[-91.50472222222223,34.562777777777775],[-91.50472222222223,34.562777777777775],[-91.50472222222223,34.562777777777775],[-91.9588888888889,34.64055555555556],[-92.03722222222223,34.65361111111111],[-92.09333333333333,34.66305555555555],[-92.17,34.67666666666666],[-92.17,34.67666666666666],[-92.55083333333333,34.80722222222222],[-92.60166666666666,34.823888888888895],[-92.60222222222221,34.825],[-92.60222222222221,34.825],[-92.82888888888888,34.90361111111111],[-92.98055555555555,34.95527777777778],[-93.10666666666665,34.99861111111111],[-93.10666666666665,34.99861111111111],[-93.23527777777778,35.04222222222222],[-93.23527777777778,35.04222222222222],[-93.98472222222222,35.29361111111111],[-94.10666666666665,35.33416666666667],[-94.10666666666665,35.33416666666667],[-94.23,35.374722222222225],[-94.23,35.374722222222225],[-94.48166666666667,35.43444444444444],[-94.48166666666667,35.43444444444444],[-94.73388888888888,35.489444444444445],[-94.73388888888888,35.489444444444445],[-94.81055555555555,35.50611111111111],[-95.5586111111111,35.665],[-95.5586111111111,35.665],[-95.83305555555555,35.72166666666667],[-96.12833333333333,35.782222222222224],[-96.12833333333333,35.782222222222224],[-96.44083333333333,35.84527777777778],[-96.46611111111112,35.85027777777778],[-96.58944444444444,35.875],[-96.71000000000001,35.89888888888889],[-96.71000000000001,35.89888888888889],[-97.07777777777777,35.971111111111114],[-97.44388888888889,36.041666666666664],[-97.56777777777778,36.06527777777777],[-97.56777777777778,36.06527777777777],[-97.69277777777778,36.08888888888889],[-97.96277777777777,36.13944444444444],[-97.96277777777777,36.13944444444444],[-98.06972222222223,36.159444444444446],[-98.57527777777777,36.25194444444445],[-98.57527777777777,36.25194444444445],[-98.82972222222222,36.2975],[-98.82972222222222,36.2975],[-98.82972222222222,36.2975],[-99.08638888888889,36.34305555555556],[-99.08638888888889,36.34305555555556],[-99.73805555555556,36.45583333333334],[-99.73805555555556,36.45583333333334],[-99.99638888888889,36.49916666666667],[-100.25916666666667,36.54111111111111],[-100.39027777777778,36.56194444444444],[-100.5261111111111,36.583333333333336],[-100.5261111111111,36.583333333333336],[-100.92305555555556,36.644444444444446],[-100.92305555555556,36.644444444444446],[-101.18666666666667,36.68416666666666],[-101.18666666666667,36.68416666666666],[-101.18666666666667,36.68416666666666],[-101.45055555555555,36.72361111111111],[-101.49916666666667,36.730555555555554],[-102.25527777777778,36.839444444444446],[-102.30805555555555,36.84666666666667],[-102.30805555555555,36.84666666666667],[-102.44472222222223,36.865833333333335],[-102.44472222222223,36.865833333333335],[-102.56277777777777,36.88194444444444],[-102.7975,36.91444444444444],[-102.7975,36.91444444444444],[-104.0611111111111,37.07833333333333],[-104.0611111111111,37.07833333333333],[-104.34166666666667,37.11277777777778],[-104.51333333333334,37.13361111111111],[-104.51333333333334,37.13361111111111],[-104.6538888888889,37.150277777777774],[-104.6538888888889,37.150277777777774],[-105.52,37.25055555555556],[-105.52,37.25055555555556],[-105.52,37.25055555555556],[-105.52,37.25055555555556],[-106.07527777777777,37.31083333333333],[-106.07527777777777,37.31083333333333],[-106.35749999999999,37.340833333333336],[-106.93555555555555,37.39972222222222],[-106.93555555555555,37.39972222222222],[-106.93555555555555,37.39972222222222],[-107.49472222222222,37.45277777777778],[-107.49472222222222,37.45277777777778],[-107.49472222222222,37.45277777777778],[-107.79055555555556,37.480555555555554],[-108.26027777777777,37.536944444444444],[-108.26027777777777,37.536944444444444],[-109.17027777777778,37.66111111111111],[-109.17027777777778,37.66111111111111],[-109.26416666666667,37.67333333333333],[-109.26416666666667,37.67333333333333],[-109.4675,37.69972222222222],[-109.4675,37.69972222222222],[-109.85777777777777,37.750277777777775],[-110.15666666666667,37.78722222222222],[-110.20916666666668,37.79361111111111],[-110.92805555555556,37.87972222222222],[-111.11416666666666,37.90138888888889],[-111.26444444444445,37.91861111111111],[-111.37888888888888,37.931666666666665],[-111.37888888888888,37.931666666666665],[-111.37888888888888,37.931666666666665],[-111.87694444444443,37.986666666666665],[-111.87694444444443,37.986666666666665],[-112.30194444444444,38.03444444444444],[-112.45527777777778,38.05138888888889],[-112.45527777777778,38.05138888888889],[-112.45527777777778,38.05138888888889],[-114.0175,38.21416666666667],[-114.0175,38.21416666666667],[-114.0175,38.21416666666667],[-114.49388888888889,38.24277777777778],[-114.49388888888889,38.24277777777778],[-114.8111111111111,38.219722222222224],[-115.28722222222223,38.18277777777777],[-115.41888888888889,38.17194444444444],[-115.41888888888889,38.17194444444444],[-115.76972222222223,38.14333333333333],[-115.76972222222223,38.14333333333333],[-116.0586111111111,38.118611111111115],[-116.0586111111111,38.118611111111115],[-116.38083333333333,38.09055555555556],[-116.54333333333334,38.07611111111112],[-117.19888888888889,38.025],[-117.19888888888889,38.025],[-117.66055555555556,38.007777777777775],[-117.66055555555556,38.007777777777775],[-117.88305555555554,37.99111111111111],[-118.46638888888889,37.928888888888885],[-118.46638888888889,37.928888888888885],[-119.28611111111111,37.83555555555556],[-119.60583333333332,37.797777777777775],[-119.60583333333332,37.797777777777775],[-119.92694444444444,37.75888888888889],[-119.92694444444444,37.75888888888889],[-120.55944444444444,37.68138888888889],[-120.55944444444444,37.68138888888889],[-120.76666666666667,37.65],[-120.91666666666667,37.63333333333333],[-120.97833333333334,37.630833333333335],[-121.47888888888889,37.568333333333335],[-121.78194444444445,37.51277777777778],[-121.83333333333333,37.5],[-121.86722222222221,37.49305555555556],[-122.15666666666667,37.549166666666665],[-122.21944444444445,37.56944444444445],[-122.21944444444445,37.56944444444445],[-122.33277777777778,37.60416666666667],[-122.33277777777778,37.60416666666667]],"type":"LineString"}
}
