{
  "id": 1981748671,
  "type": "Feature",
  "properties": {
    "geom:area": 0,
    "geom:bbox": "-126.907500,36.469444,-122.500000,37.666667",
    "geom:latitude": 37.08378176776195,
    "geom:longitude": -124.70791695968954,
    "src:alt_label": "swim-path",
    "src:geom": "swim",
    "swim:altitudes": [
      "037C",
      "037C",
      "037C",
      "037C",
      "200",
      "200",
      "200",
      "200",
      "200",
      "200",
      "200",
      "252C",
      "252C",
      "252C",
      "320C",
      "320C",
      "320C",
      "320C",
      "320C",
      "320C",
      "320C",
      "320C",
      "320C",
      "320C",
      "320C",
      "320C",
      "320C",
      "320C",
      "320C",
      "320C",
      "320C",
      "320C",
      "320C",
      "320C",
      "320C",
      "320C",
      "320C",
      "320C",
      "320C"
    ],
    "swim:geom": "path",
    "swim:speeds": [
      200,
      200,
      200,
      200,
      406,
      406,
      406,
      406,
      406,
      406,
      406,
      440,
      440,
      440,
      484,
      484,
      484,
      484,
      484,
      484,
      484,
      485,
      485,
      485,
      486,
      486,
      486,
      486,
      486,
      486,
      486,
      488,
      488,
      488,
      488,
      488,
      488,
      488,
      488
    ],
    "swim:timestamps": [
      1761246219,
      1761246219,
      1761246219,
      1761246219,
      1761246651,
      1761246651,
      1761246651,
      1761246651,
      1761246651,
      1761246651,
      1761246651,
      1761246820,
      1761246820,
      1761246820,
      1761247252,
      1761247252,
      1761247252,
      1761247372,
      1761247372,
      1761247372,
      1761247372,
      1761247552,
      1761247552,
      1761247552,
      1761247613,
      1761247613,
      1761247613,
      1761247673,
      1761247673,
      1761247673,
      1761247673,
      1761247973,
      1761247973,
      1761247973,
      1761248033,
      1761248033,
      1761248033,
      1761248033,
      1761248033
    ],
    "wof:geomhash": "8e064e851db6c9f88419a8f44115e694",
    "wof:id": 1981748671,
    "wof:repo": "sfomuseum-data-flights-2025-10"
  },
  "bbox": [
    -126.9075,
    36.46944444444445,
    -122.5,
    37.666666666666664
  ],
  "geometry": {"coordinates":[[-122.5,37.666666666666664],[-122.5,37.666666666666664],[-122.5,37.666666666666664],[-122.5,37.666666666666664],[-123.31388888888888,37.467777777777776],[-123.31388888888888,37.467777777777776],[-123.31388888888888,37.467777777777776],[-123.31388888888888,37.467777777777776],[-123.31388888888888,37.467777777777776],[-123.31388888888888,37.467777777777776],[-123.31388888888888,37.467777777777776],[-123.7,37.35],[-123.7,37.35],[-123.7,37.35],[-124.84666666666666,37.05833333333333],[-124.84666666666666,37.05833333333333],[-124.84666666666666,37.05833333333333],[-125.16194444444444,36.971111111111114],[-125.16194444444444,36.971111111111114],[-125.16194444444444,36.971111111111114],[-125.16194444444444,36.971111111111114],[-125.63861111111112,36.837500000000006],[-125.63861111111112,36.837500000000006],[-125.63861111111112,36.837500000000006],[-125.79916666666666,36.791666666666664],[-125.79916666666666,36.791666666666664],[-125.79916666666666,36.791666666666664],[-125.95611111111111,36.746944444444445],[-125.95611111111111,36.746944444444445],[-125.95611111111111,36.746944444444445],[-125.95611111111111,36.746944444444445],[-126.74222222222222,36.51833333333333],[-126.74222222222222,36.51833333333333],[-126.74222222222222,36.51833333333333],[-126.9075,36.46944444444445],[-126.9075,36.46944444444445],[-126.9075,36.46944444444445],[-126.9075,36.46944444444445],[-126.9075,36.46944444444445]],"type":"LineString"}
}
