{
  "id": 1981601569,
  "type": "Feature",
  "properties": {
    "geom:area": 0,
    "geom:bbox": "-122.430120,36.737610,-121.439120,37.686250",
    "geom:latitude": 37.21656872034431,
    "geom:longitude": -122.01201403313702,
    "src:alt_label": "swim-takeoff",
    "src:geom": "swim",
    "swim:elevations": [
      279,
      652,
      1259,
      1411,
      1818,
      2021,
      2506,
      3085,
      3500,
      4183,
      4386,
      4609,
      5164,
      5365,
      5454,
      6150,
      6226,
      6433,
      6831,
      7238,
      7569,
      7833,
      8230,
      8327,
      8584,
      8966,
      9429,
      9528,
      10394,
      10485,
      10667
    ],
    "swim:geom": "takeoff",
    "swim:timestamps": [
      1759785383,
      1759785413,
      1759785447,
      1759785456,
      1759785477,
      1759785491,
      1759785521,
      1759785550,
      1759785575,
      1759785621,
      1759785632,
      1759785646,
      1759785684,
      1759785705,
      1759785725,
      1759785777,
      1759785784,
      1759785799,
      1759785828,
      1759785859,
      1759785889,
      1759785917,
      1759785955,
      1759785962,
      1759785980,
      1759786010,
      1759786047,
      1759786056,
      1759786137,
      1759786147,
      1759786171
    ],
    "wof:geomhash": "f685303fda6b0ac403f76123c0141caa",
    "wof:id": 1981601569,
    "wof:repo": "sfomuseum-data-flights-2025-10"
  },
  "bbox": [
    -122.43012,
    36.73761,
    -121.43912,
    37.68625
  ],
  "geometry": {"coordinates":[[-122.36999,37.62709],[-122.36595,37.64991],[-122.37097,37.68062],[-122.38085,37.68625],[-122.40838,37.68591],[-122.42261,37.6761],[-122.43012,37.64175],[-122.42785,37.60369],[-122.42572,37.57078],[-122.40538,37.50704],[-122.39027,37.49527],[-122.36992,37.47988],[-122.31584,37.43709],[-122.28427,37.41221],[-122.25178,37.38654],[-122.16207,37.31567],[-122.15005,37.3062],[-122.1236,37.28526],[-122.07286,37.24512],[-122.01728,37.20105],[-121.96196,37.15713],[-121.9112,37.11646],[-121.83889,37.05883],[-121.82591,37.04885],[-121.79104,37.02062],[-121.73554,36.97696],[-121.66655,36.92047],[-121.65082,36.9079],[-121.50075,36.78728],[-121.48425,36.77394],[-121.43912,36.73761]],"type":"LineString"}
}
