{
  "id": 1981745709,
  "type": "Feature",
  "properties": {
    "geom:area": 0,
    "geom:bbox": "-122.183333,35.886389,-115.434722,37.689167",
    "geom:latitude": 37.165286283339,
    "geom:longitude": -118.6494277695628,
    "src:alt_label": "swim-path",
    "src:geom": "swim",
    "swim:altitudes": [
      "128",
      "157",
      "157",
      "208",
      "254",
      "353",
      "360C",
      "360C",
      "360C",
      "360C",
      "360C",
      "360C",
      "360C",
      "360C",
      "360C",
      "360C",
      "309",
      "204",
      "183",
      "153",
      "118",
      "094",
      "071",
      "051",
      "051",
      "029"
    ],
    "swim:geom": "path",
    "swim:speeds": [
      345,
      354,
      354,
      380,
      385,
      424,
      424,
      423,
      425,
      447,
      452,
      452,
      453,
      451,
      453,
      454,
      452,
      382,
      370,
      357,
      344,
      239,
      236,
      232,
      232,
      193
    ],
    "swim:timestamps": [
      1761285243,
      1761285295,
      1761285295,
      1761285484,
      1761285604,
      1761285964,
      1761286178,
      1761286298,
      1761286385,
      1761286598,
      1761286779,
      1761286779,
      1761286865,
      1761287019,
      1761287139,
      1761287259,
      1761287559,
      1761287859,
      1761287919,
      1761287991,
      1761288099,
      1761288242,
      1761288339,
      1761288460,
      1761288460,
      1761288590
    ],
    "wof:geomhash": "16b88d18b4945bb21933ae3fcab2229c",
    "wof:id": 1981745709,
    "wof:repo": "sfomuseum-data-flights-2025-10"
  },
  "bbox": [
    -122.18333333333334,
    35.88638888888889,
    -115.43472222222222,
    37.689166666666665
  ],
  "geometry": {"coordinates":[[-115.43472222222222,35.88638888888889],[-115.54444444444444,35.888333333333335],[-115.54444444444444,35.888333333333335],[-115.93972222222223,35.903888888888886],[-116.11166666666666,36.06527777777777],[-116.64083333333333,36.61666666666667],[-116.94805555555556,36.93111111111111],[-117.13027777777778,37.11638888888889],[-117.26666666666667,37.240833333333335],[-117.81583333333333,37.335],[-118.28361111111111,37.405277777777776],[-118.28361111111111,37.405277777777776],[-118.49944444444445,37.43694444444444],[-118.91805555555555,37.4975],[-119.22916666666667,37.54138888888889],[-119.54555555555555,37.585],[-120.32666666666667,37.689166666666665],[-121.01027777777777,37.62694444444445],[-121.13944444444445,37.60944444444445],[-121.31666666666666,37.583333333333336],[-121.50916666666667,37.56444444444444],[-121.75,37.516666666666666],[-121.87194444444444,37.49194444444444],[-122.03194444444445,37.5],[-122.03194444444445,37.5],[-122.18333333333334,37.55]],"type":"LineString"}
}
