{
  "id": 1997538647,
  "type": "Feature",
  "properties": {
    "geom:area": 0,
    "geom:bbox": "-122.366667,35.043333,-106.651944,38.517500",
    "geom:latitude": 37.663659921291526,
    "geom:longitude": -114.23014020337156,
    "src:alt_label": "swim-path",
    "src:geom": "swim",
    "swim:altitudes": [
      "005",
      "005",
      "005",
      "139",
      "139",
      "139",
      "139",
      "139",
      "232",
      "232",
      "262",
      "262",
      "262",
      "301",
      "304",
      "304",
      "316",
      "316",
      "316",
      "330",
      "330",
      "332",
      "342",
      "350C",
      "350C",
      "350C",
      "350C",
      "350C",
      "350C",
      "350C",
      "350C",
      "350C",
      "350C",
      "350C",
      "350C",
      "350C",
      "350C",
      "350C",
      "350C",
      "350C",
      "350C",
      "350C",
      "350C",
      "350C",
      "350C",
      "350C",
      "350C",
      "350C",
      "350C",
      "350C",
      "350C",
      "350C",
      "350C",
      "350C",
      "350C",
      "350C",
      "350C",
      "350C",
      "350C",
      "350C",
      "350C",
      "350C",
      "350C",
      "350C",
      "350C",
      "350C",
      "350C",
      "350C",
      "350C",
      "350C",
      "350C",
      "350C",
      "350C",
      "350C",
      "350C",
      "350C",
      "350C",
      "350C",
      "350C",
      "350C",
      "350C",
      "350C",
      "350C",
      "350C",
      "350C",
      "350C",
      "350C",
      "350C",
      "350C",
      "350C",
      "350C",
      "350C",
      "350C",
      "350C",
      "350C",
      "350C",
      "350C",
      "350C",
      "350C",
      "350C",
      "350C",
      "350C",
      "350C",
      "350C",
      "350C",
      "350C",
      "350C",
      "350C",
      "350C",
      "327",
      "327",
      "327",
      "327",
      "327",
      "191",
      "191",
      "191",
      "191",
      "191",
      "059",
      "059",
      "059",
      "059",
      "059",
      "059",
      "059",
      "059"
    ],
    "swim:geom": "path",
    "swim:speeds": [
      161,
      161,
      161,
      364,
      364,
      364,
      364,
      364,
      436,
      436,
      457,
      457,
      457,
      489,
      487,
      487,
      490,
      490,
      490,
      487,
      487,
      488,
      487,
      484,
      484,
      484,
      484,
      483,
      483,
      482,
      482,
      482,
      483,
      482,
      481,
      481,
      481,
      481,
      482,
      482,
      485,
      485,
      485,
      485,
      484,
      484,
      483,
      483,
      483,
      483,
      481,
      481,
      481,
      483,
      483,
      483,
      483,
      483,
      483,
      485,
      485,
      485,
      487,
      488,
      488,
      489,
      489,
      489,
      489,
      489,
      488,
      488,
      488,
      488,
      488,
      488,
      488,
      488,
      488,
      488,
      488,
      488,
      487,
      487,
      487,
      487,
      487,
      488,
      488,
      488,
      489,
      489,
      489,
      489,
      489,
      489,
      489,
      489,
      489,
      489,
      491,
      491,
      492,
      492,
      492,
      492,
      492,
      492,
      492,
      489,
      489,
      489,
      489,
      489,
      395,
      395,
      395,
      395,
      395,
      151,
      151,
      151,
      151,
      151,
      151,
      151,
      151
    ],
    "swim:timestamps": [
      1761846633,
      1761846633,
      1761846633,
      1761846994,
      1761846994,
      1761846994,
      1761846994,
      1761846994,
      1761847295,
      1761847295,
      1761847415,
      1761847415,
      1761847415,
      1761847595,
      1761847614,
      1761847614,
      1761847655,
      1761847655,
      1761847655,
      1761847715,
      1761847715,
      1761847735,
      1761847795,
      1761848095,
      1761848095,
      1761848095,
      1761848095,
      1761848256,
      1761848256,
      1761848376,
      1761848376,
      1761848376,
      1761848396,
      1761848456,
      1761848617,
      1761848617,
      1761848617,
      1761848617,
      1761848696,
      1761848696,
      1761848937,
      1761848937,
      1761848937,
      1761848937,
      1761849037,
      1761849037,
      1761849057,
      1761849057,
      1761849057,
      1761849057,
      1761849838,
      1761849838,
      1761849838,
      1761849958,
      1761849958,
      1761849958,
      1761849958,
      1761849958,
      1761849958,
      1761850199,
      1761850199,
      1761850199,
      1761850235,
      1761850319,
      1761850319,
      1761850415,
      1761850415,
      1761850476,
      1761850476,
      1761850476,
      1761850679,
      1761850679,
      1761850679,
      1761850679,
      1761850679,
      1761850679,
      1761850740,
      1761850776,
      1761850776,
      1761850776,
      1761850776,
      1761850776,
      1761850920,
      1761850920,
      1761850920,
      1761850920,
      1761850920,
      1761851100,
      1761851100,
      1761851100,
      1761851317,
      1761851317,
      1761851317,
      1761851317,
      1761851317,
      1761851317,
      1761851317,
      1761851317,
      1761851317,
      1761851317,
      1761852004,
      1761852004,
      1761852038,
      1761852038,
      1761852038,
      1761852038,
      1761852038,
      1761852038,
      1761852038,
      1761852218,
      1761852218,
      1761852218,
      1761852218,
      1761852218,
      1761852558,
      1761852558,
      1761852558,
      1761852558,
      1761852558,
      1761853263,
      1761853263,
      1761853263,
      1761853263,
      1761853263,
      1761853263,
      1761853263,
      1761853263
    ],
    "wof:geomhash": "8e605132b2ed466e73fa7e2086daf389",
    "wof:id": 1997538647,
    "wof:repo": "sfomuseum-data-flights-2025-10"
  },
  "bbox": [
    -122.36666666666666,
    35.04333333333333,
    -106.65194444444445,
    38.5175
  ],
  "geometry": {"coordinates":[[-122.36666666666666,37.63333333333333],[-122.36666666666666,37.63333333333333],[-122.36666666666666,37.63333333333333],[-121.88694444444445,37.84916666666667],[-121.88694444444445,37.84916666666667],[-121.88694444444445,37.84916666666667],[-121.88694444444445,37.84916666666667],[-121.88694444444445,37.84916666666667],[-121.19916666666667,37.97416666666667],[-121.19916666666667,37.97416666666667],[-120.88833333333334,38.02472222222222],[-120.88833333333334,38.02472222222222],[-120.88833333333334,38.02472222222222],[-120.35777777777777,38.10527777777778],[-120.32777777777777,38.10916666666667],[-120.32777777777777,38.10916666666667],[-120.18916666666667,38.13027777777778],[-120.18916666666667,38.13027777777778],[-120.18916666666667,38.13027777777778],[-120.01972222222223,38.155277777777776],[-120.01972222222223,38.155277777777776],[-119.99166666666667,38.16027777777778],[-119.82416666666666,38.18388888888889],[-118.98611111111111,38.301944444444445],[-118.98611111111111,38.301944444444445],[-118.98611111111111,38.301944444444445],[-118.98611111111111,38.301944444444445],[-118.51333333333334,38.365],[-118.51333333333334,38.365],[-118.17916666666667,38.40888888888889],[-118.17916666666667,38.40888888888889],[-118.17916666666667,38.40888888888889],[-118.14861111111112,38.41277777777778],[-117.97888888888889,38.43444444444444],[-117.50277777777778,38.49444444444445],[-117.50277777777778,38.49444444444445],[-117.50277777777778,38.49444444444445],[-117.50277777777778,38.49444444444445],[-117.29777777777778,38.5175],[-117.29777777777778,38.5175],[-116.60111111111111,38.499722222222225],[-116.60111111111111,38.499722222222225],[-116.60111111111111,38.499722222222225],[-116.60111111111111,38.499722222222225],[-116.32916666666667,38.49],[-116.32916666666667,38.49],[-116.26027777777777,38.487500000000004],[-116.26027777777777,38.487500000000004],[-116.26027777777777,38.487500000000004],[-116.26027777777777,38.487500000000004],[-114.06277777777777,38.336666666666666],[-114.06277777777777,38.336666666666666],[-114.06277777777777,38.336666666666666],[-113.73555555555555,38.25888888888889],[-113.73555555555555,38.25888888888889],[-113.73555555555555,38.25888888888889],[-113.73555555555555,38.25888888888889],[-113.73555555555555,38.25888888888889],[-113.73555555555555,38.25888888888889],[-113.08083333333333,38.10027777777778],[-113.08083333333333,38.10027777777778],[-113.08083333333333,38.10027777777778],[-112.96027777777778,38.07055555555556],[-112.75277777777778,38.01888888888889],[-112.75277777777778,38.01888888888889],[-112.47027777777778,37.948055555555555],[-112.47027777777778,37.948055555555555],[-112.30611111111111,37.906666666666666],[-112.30611111111111,37.906666666666666],[-112.30611111111111,37.906666666666666],[-111.74805555555555,37.771388888888886],[-111.74805555555555,37.771388888888886],[-111.74805555555555,37.771388888888886],[-111.74805555555555,37.771388888888886],[-111.74805555555555,37.771388888888886],[-111.74805555555555,37.771388888888886],[-111.58444444444444,37.73388888888889],[-111.48611111111111,37.711111111111116],[-111.48611111111111,37.711111111111116],[-111.48611111111111,37.711111111111116],[-111.48611111111111,37.711111111111116],[-111.48611111111111,37.711111111111116],[-111.09388888888888,37.61972222222222],[-111.09388888888888,37.61972222222222],[-111.09388888888888,37.61972222222222],[-111.09388888888888,37.61972222222222],[-111.09388888888888,37.61972222222222],[-110.6261111111111,37.462500000000006],[-110.6261111111111,37.462500000000006],[-110.6261111111111,37.462500000000006],[-110.0925,37.23638888888889],[-110.0925,37.23638888888889],[-110.0925,37.23638888888889],[-110.0925,37.23638888888889],[-110.0925,37.23638888888889],[-110.0925,37.23638888888889],[-110.0925,37.23638888888889],[-110.0925,37.23638888888889],[-110.0925,37.23638888888889],[-110.0925,37.23638888888889],[-108.38527777777779,36.487500000000004],[-108.38527777777779,36.487500000000004],[-108.2925,36.44555555555555],[-108.2925,36.44555555555555],[-108.2925,36.44555555555555],[-108.2925,36.44555555555555],[-108.2925,36.44555555555555],[-108.2925,36.44555555555555],[-108.2925,36.44555555555555],[-107.84916666666666,36.24444444444445],[-107.84916666666666,36.24444444444445],[-107.84916666666666,36.24444444444445],[-107.84916666666666,36.24444444444445],[-107.84916666666666,36.24444444444445],[-107.43527777777778,35.656388888888884],[-107.43527777777778,35.656388888888884],[-107.43527777777778,35.656388888888884],[-107.43527777777778,35.656388888888884],[-107.43527777777778,35.656388888888884],[-106.65194444444445,35.04333333333333],[-106.65194444444445,35.04333333333333],[-106.65194444444445,35.04333333333333],[-106.65194444444445,35.04333333333333],[-106.65194444444445,35.04333333333333],[-106.65194444444445,35.04333333333333],[-106.65194444444445,35.04333333333333],[-106.65194444444445,35.04333333333333]],"type":"LineString"}
}
