{
  "id": 1981659361,
  "type": "Feature",
  "properties": {
    "geom:area": 0,
    "geom:bbox": "-122.359420,37.454950,-121.255870,37.614810",
    "geom:latitude": 37.53608199956705,
    "geom:longitude": -121.81502789247246,
    "src:alt_label": "swim-approach",
    "src:geom": "swim",
    "swim:elevations": [
      4936,
      4743,
      4383,
      4174,
      4126,
      3781,
      3595,
      3511,
      3353,
      3353,
      3353,
      3278,
      3047,
      3048,
      3048,
      3048,
      3035,
      2646,
      2376,
      2236,
      1925,
      1826,
      1829,
      1829,
      1820,
      1538,
      1437,
      1316,
      1127,
      967,
      820,
      714,
      454,
      393,
      224,
      120,
      142
    ],
    "swim:geom": "approach",
    "swim:timestamps": [
      1760359582,
      1760359602,
      1760359644,
      1760359677,
      1760359683,
      1760359738,
      1760359767,
      1760359781,
      1760359812,
      1760359832,
      1760359872,
      1760359900,
      1760359948,
      1760359965,
      1760359985,
      1760359998,
      1760360011,
      1760360060,
      1760360094,
      1760360114,
      1760360158,
      1760360182,
      1760360203,
      1760360245,
      1760360252,
      1760360291,
      1760360311,
      1760360334,
      1760360360,
      1760360386,
      1760360412,
      1760360431,
      1760360483,
      1760360498,
      1760360536,
      1760360560,
      1760360590
    ],
    "wof:geomhash": "f9c9a1439dd6f0cf9e40f371cbdf9e43",
    "wof:id": 1981659361,
    "wof:repo": "sfomuseum-data-flights-2025-10"
  },
  "bbox": [
    -122.35942,
    37.45495,
    -121.25587,
    37.61481
  ],
  "geometry": {"coordinates":[[-121.25587,37.59367],[-121.28289,37.5902],[-121.33799,37.58423],[-121.38077,37.5792],[-121.38854,37.57831],[-121.45936,37.5702],[-121.49742,37.56565],[-121.51575,37.56354],[-121.55821,37.55858],[-121.58557,37.55527],[-121.63723,37.54781],[-121.67517,37.54222],[-121.73891,37.55727],[-121.76213,37.56234],[-121.78791,37.55672],[-121.79898,37.54592],[-121.80226,37.53266],[-121.79285,37.48078],[-121.81827,37.45495],[-121.84398,37.45525],[-121.90198,37.46057],[-121.93283,37.46379],[-121.95873,37.46651],[-122.01158,37.47153],[-122.02096,37.47327],[-122.06834,37.49151],[-122.0917,37.50192],[-122.11831,37.51297],[-122.14845,37.52555],[-122.17761,37.53797],[-122.20496,37.54947],[-122.22401,37.55747],[-122.27419,37.57868],[-122.28665,37.58384],[-122.31669,37.59652],[-122.33541,37.60452],[-122.35942,37.61481]],"type":"LineString"}
}
