{
  "id": 1981767815,
  "type": "Feature",
  "properties": {
    "geom:area": 0,
    "geom:bbox": "-122.526620,37.637420,-121.330650,37.977950",
    "geom:latitude": 37.89976533081921,
    "geom:longitude": -122.02811813343709,
    "src:alt_label": "swim-takeoff",
    "src:geom": "swim",
    "swim:elevations": [
      490,
      618,
      914,
      914,
      1275,
      1793,
      2021,
      2620,
      2660,
      3001,
      3098,
      3299,
      3483,
      3716,
      3976,
      4295,
      4545,
      4742,
      4899,
      5054,
      5326,
      5617,
      6029,
      6126,
      6423,
      6593,
      6846,
      7084,
      7376,
      7413
    ],
    "swim:geom": "takeoff",
    "swim:timestamps": [
      1761384328,
      1761384338,
      1761384380,
      1761384395,
      1761384434,
      1761384469,
      1761384490,
      1761384537,
      1761384540,
      1761384566,
      1761384573,
      1761384592,
      1761384614,
      1761384635,
      1761384663,
      1761384700,
      1761384721,
      1761384735,
      1761384750,
      1761384764,
      1761384796,
      1761384825,
      1761384862,
      1761384871,
      1761384929,
      1761384950,
      1761384980,
      1761385011,
      1761385045,
      1761385050
    ],
    "wof:geomhash": "f32b6071d58f2b725712b1f842227939",
    "wof:id": 1981767815,
    "wof:repo": "sfomuseum-data-flights-2025-10"
  },
  "bbox": [
    -122.52662,
    37.63742,
    -121.33065,
    37.97795
  ],
  "geometry": {"coordinates":[[-122.41888,37.63742],[-122.42748,37.6413],[-122.4686,37.65848],[-122.4848,37.66532],[-122.52191,37.69528],[-122.52662,37.7392],[-122.52297,37.76674],[-122.48468,37.82637],[-122.48206,37.83022],[-122.45866,37.86422],[-122.45249,37.87295],[-122.43116,37.89619],[-122.39422,37.9156],[-122.35058,37.91995],[-122.29208,37.92178],[-122.20937,37.92596],[-122.16003,37.92933],[-122.12678,37.93152],[-122.09356,37.93362],[-122.06137,37.93562],[-121.9828,37.94024],[-121.91164,37.9448],[-121.82409,37.95019],[-121.80088,37.95158],[-121.65495,37.96011],[-121.59665,37.96357],[-121.51999,37.96756],[-121.4338,37.972],[-121.34362,37.97726],[-121.33065,37.97795]],"type":"LineString"}
}
