{
  "id": 1981659137,
  "type": "Feature",
  "properties": {
    "geom:area": 0,
    "geom:bbox": "-122.754350,37.448880,-122.144410,38.452190",
    "geom:latitude": 37.85212169474316,
    "geom:longitude": -122.50193640485725,
    "src:alt_label": "swim-approach",
    "src:geom": "swim",
    "swim:elevations": [
      7650,
      7445,
      7308,
      7027,
      6862,
      6570,
      6406,
      6175,
      5888,
      5681,
      5462,
      5240,
      4916,
      4840,
      4653,
      4538,
      4352,
      4282,
      4236,
      4033,
      3841,
      3772,
      3750,
      3553,
      3353,
      3353,
      3353,
      3353,
      3214,
      3133,
      3005,
      2740,
      2573,
      2339,
      2246,
      1804,
      1618,
      1483,
      1191,
      1039,
      890,
      837,
      762,
      700,
      547,
      326,
      196,
      61,
      121
    ],
    "swim:geom": "approach",
    "swim:timestamps": [
      1760382078,
      1760382100,
      1760382116,
      1760382147,
      1760382168,
      1760382201,
      1760382220,
      1760382248,
      1760382284,
      1760382317,
      1760382341,
      1760382371,
      1760382416,
      1760382432,
      1760382458,
      1760382470,
      1760382488,
      1760382524,
      1760382563,
      1760382598,
      1760382625,
      1760382635,
      1760382638,
      1760382666,
      1760382711,
      1760382737,
      1760382755,
      1760382784,
      1760382821,
      1760382837,
      1760382850,
      1760382893,
      1760382918,
      1760382950,
      1760382965,
      1760383017,
      1760383036,
      1760383052,
      1760383100,
      1760383135,
      1760383164,
      1760383176,
      1760383191,
      1760383202,
      1760383231,
      1760383281,
      1760383311,
      1760383345,
      1760383351
    ],
    "wof:geomhash": "395e2ac43f2519dff429be2dfa1be977",
    "wof:id": 1981659137,
    "wof:repo": "sfomuseum-data-flights-2025-10"
  },
  "bbox": [
    -122.75435,
    37.44888,
    -122.14441,
    38.45219
  ],
  "geometry": {"coordinates":[[-122.53364,38.45219],[-122.5637,38.42295],[-122.58508,38.40209],[-122.62561,38.36261],[-122.6533,38.33575],[-122.69631,38.29391],[-122.72173,38.2691],[-122.75221,38.23288],[-122.75435,38.1798],[-122.74138,38.13341],[-122.73198,38.1022],[-122.72072,38.06446],[-122.71778,38.00651],[-122.72648,37.98714],[-122.74062,37.95677],[-122.74552,37.94184],[-122.73986,37.91927],[-122.68886,37.89396],[-122.6334,37.86508],[-122.59859,37.8295],[-122.57021,37.80168],[-122.55931,37.79134],[-122.55616,37.78829],[-122.52703,37.76098],[-122.47804,37.71517],[-122.45011,37.68911],[-122.43,37.67042],[-122.40098,37.64321],[-122.36664,37.61056],[-122.35718,37.59542],[-122.3509,37.58181],[-122.32862,37.54057],[-122.31411,37.51661],[-122.2947,37.4867],[-122.28135,37.47495],[-122.21478,37.45465],[-122.18896,37.44888],[-122.1685,37.45251],[-122.14441,37.49837],[-122.16946,37.52999],[-122.19762,37.5463],[-122.20933,37.55113],[-122.22321,37.55721],[-122.2332,37.56138],[-122.26044,37.57288],[-122.30298,37.59055],[-122.32697,37.60083],[-122.35457,37.61241],[-122.35897,37.61447]],"type":"LineString"}
}
