{
  "id": 1981566233,
  "type": "Feature",
  "properties": {
    "geom:area": 0,
    "geom:bbox": "-122.364140,37.631190,-121.430580,38.516730",
    "geom:latitude": 38.070572095610174,
    "geom:longitude": -121.89498646909584,
    "src:alt_label": "swim-takeoff",
    "src:geom": "swim",
    "swim:elevations": [
      213,
      274,
      707,
      968,
      1164,
      1255,
      1980,
      2137,
      2421,
      2651,
      2927,
      3054,
      3232,
      3516,
      3591,
      3882,
      4265,
      4538,
      5021,
      5120,
      5335,
      5634,
      5897,
      6033,
      6366,
      6474,
      6598
    ],
    "swim:geom": "takeoff",
    "swim:timestamps": [
      1759414587,
      1759414590,
      1759414626,
      1759414676,
      1759414705,
      1759414713,
      1759414765,
      1759414778,
      1759414811,
      1759414833,
      1759414856,
      1759414870,
      1759414898,
      1759414942,
      1759414950,
      1759414982,
      1759415019,
      1759415046,
      1759415094,
      1759415104,
      1759415130,
      1759415167,
      1759415203,
      1759415225,
      1759415270,
      1759415286,
      1759415310
    ],
    "wof:geomhash": "79b5aea459e1eb10a4d62ce7d2a1dcb3",
    "wof:id": 1981566233,
    "wof:repo": "sfomuseum-data-flights-2025-10"
  },
  "bbox": [
    -122.36414,
    37.63119,
    -121.43058,
    38.51673
  ],
  "geometry": {"coordinates":[[-122.36414,37.63119],[-122.36247,37.63336],[-122.33371,37.65254],[-122.28438,37.68091],[-122.24765,37.70152],[-122.23773,37.70686],[-122.1821,37.75345],[-122.16907,37.76765],[-122.13731,37.80225],[-122.11464,37.82736],[-122.09011,37.85472],[-122.07484,37.87157],[-122.04293,37.90637],[-121.98879,37.9658],[-121.97874,37.97694],[-121.93734,38.02275],[-121.88746,38.07745],[-121.85149,38.1168],[-121.78363,38.1909],[-121.77085,38.20486],[-121.73387,38.24528],[-121.67986,38.30439],[-121.62662,38.36238],[-121.59327,38.39859],[-121.51412,38.46636],[-121.48158,38.4856],[-121.43058,38.51673]],"type":"LineString"}
}
