{
  "id": 1981805673,
  "type": "Feature",
  "properties": {
    "geom:area": 0,
    "geom:bbox": "-122.358380,37.463550,-121.244380,37.613920",
    "geom:latitude": 37.544219893194565,
    "geom:longitude": -121.80814880637021,
    "src:alt_label": "swim-approach",
    "src:geom": "swim",
    "swim:elevations": [
      4906,
      4858,
      4737,
      4693,
      4519,
      4473,
      4322,
      4292,
      4053,
      3840,
      3594,
      3540,
      3351,
      3203,
      3141,
      3016,
      2842,
      2744,
      2744,
      2662,
      2564,
      2490,
      2456,
      2411,
      2233,
      2136,
      2084,
      2031,
      1952,
      1792,
      1667,
      1584,
      1462,
      1395,
      1222,
      893,
      730,
      698,
      609,
      493,
      405,
      310,
      203,
      133,
      110
    ],
    "swim:geom": "approach",
    "swim:timestamps": [
      1761857065,
      1761857077,
      1761857125,
      1761857144,
      1761857181,
      1761857192,
      1761857215,
      1761857222,
      1761857259,
      1761857299,
      1761857335,
      1761857343,
      1761857382,
      1761857425,
      1761857434,
      1761857453,
      1761857481,
      1761857506,
      1761857520,
      1761857569,
      1761857587,
      1761857605,
      1761857614,
      1761857630,
      1761857666,
      1761857696,
      1761857720,
      1761857728,
      1761857744,
      1761857770,
      1761857788,
      1761857803,
      1761857842,
      1761857857,
      1761857886,
      1761857932,
      1761857968,
      1761857974,
      1761857992,
      1761858022,
      1761858044,
      1761858071,
      1761858103,
      1761858122,
      1761858152
    ],
    "wof:geomhash": "a48f57a094659ea91e382189b1246ab8",
    "wof:id": 1981805673,
    "wof:repo": "sfomuseum-data-flights-2025-10"
  },
  "bbox": [
    -122.35838,
    37.46355,
    -121.24438,
    37.61392
  ],
  "geometry": {"coordinates":[[-121.24438,37.59578],[-121.26668,37.59273],[-121.34981,37.58303],[-121.37926,37.57966],[-121.43596,37.57311],[-121.45135,37.57137],[-121.48585,37.56741],[-121.49482,37.56634],[-121.54981,37.55986],[-121.60716,37.55312],[-121.65814,37.54722],[-121.66877,37.55044],[-121.7152,37.5761],[-121.76581,37.60461],[-121.7774,37.60907],[-121.80448,37.6083],[-121.82774,37.58445],[-121.81829,37.55879],[-121.80373,37.54704],[-121.77188,37.50015],[-121.78612,37.48398],[-121.80966,37.47775],[-121.82204,37.47649],[-121.84333,37.47461],[-121.89345,37.47037],[-121.93385,37.46705],[-121.96602,37.46438],[-121.97643,37.46355],[-121.99786,37.46385],[-122.02887,37.47567],[-122.05017,37.48414],[-122.06776,37.49146],[-122.10969,37.50923],[-122.12555,37.51601],[-122.1529,37.52753],[-122.19578,37.54562],[-122.22851,37.55944],[-122.23405,37.56176],[-122.24943,37.56845],[-122.27116,37.57728],[-122.28644,37.58393],[-122.30501,37.59164],[-122.3265,37.60067],[-122.33932,37.60602],[-122.35838,37.61392]],"type":"LineString"}
}
