{
  "id": 1981782809,
  "type": "Feature",
  "properties": {
    "geom:area": 0,
    "geom:bbox": "-122.357370,37.638310,-122.164430,38.506600",
    "geom:latitude": 38.0381184788423,
    "geom:longitude": -122.1980433116071,
    "src:alt_label": "swim-takeoff",
    "src:geom": "swim",
    "swim:elevations": [
      377,
      403,
      791,
      936,
      1058,
      1524,
      1814,
      2188,
      2516,
      2763,
      2982,
      3455,
      4077,
      4815,
      5198,
      5383,
      5516,
      5779,
      6136,
      6485,
      6758,
      6955,
      7022,
      7097,
      7171
    ],
    "swim:geom": "takeoff",
    "swim:timestamps": [
      1761595677,
      1761595680,
      1761595732,
      1761595746,
      1761595756,
      1761595793,
      1761595818,
      1761595846,
      1761595868,
      1761595882,
      1761595899,
      1761595940,
      1761596002,
      1761596050,
      1761596085,
      1761596102,
      1761596122,
      1761596152,
      1761596178,
      1761596206,
      1761596240,
      1761596261,
      1761596270,
      1761596281,
      1761596290
    ],
    "wof:geomhash": "a1dfbe668481ea31a154bc5c2211168f",
    "wof:id": 1981782809,
    "wof:repo": "sfomuseum-data-flights-2025-10"
  },
  "bbox": [
    -122.35737,
    37.63831,
    -122.16443,
    38.5066
  ],
  "geometry": {"coordinates":[[-122.35737,37.63831],[-122.35534,37.63976],[-122.30863,37.66543],[-122.29413,37.67396],[-122.28296,37.6807],[-122.24123,37.704],[-122.21357,37.72481],[-122.20754,37.75871],[-122.20329,37.78531],[-122.20021,37.80352],[-122.19731,37.8244],[-122.18864,37.8783],[-122.18039,37.97128],[-122.17814,38.04988],[-122.17623,38.11003],[-122.17542,38.14048],[-122.17443,38.17552],[-122.17254,38.23348],[-122.17103,38.28256],[-122.16954,38.33795],[-122.16769,38.40463],[-122.16625,38.44734],[-122.1656,38.46578],[-122.16494,38.48723],[-122.16443,38.5066]],"type":"LineString"}
}
