{
  "id": 1997539131,
  "type": "Feature",
  "properties": {
    "geom:area": 0,
    "geom:bbox": "-122.202222,37.724167,-87.583333,41.966667",
    "geom:latitude": 39.840934794633135,
    "geom:longitude": -104.69969317359512,
    "src:alt_label": "swim-path",
    "src:geom": "swim",
    "swim:altitudes": [
      "054",
      "054",
      "054",
      "054",
      "054",
      "219",
      "219",
      "219",
      "219",
      "219",
      "219",
      "283",
      "283",
      "330C",
      "330C",
      "330C",
      "330C",
      "330C",
      "330C",
      "330C",
      "330C",
      "330C",
      "330C",
      "330C",
      "330C",
      "330C",
      "330C",
      "330C",
      "330C",
      "330C",
      "330C",
      "330C",
      "330C",
      "330C",
      "330C",
      "330C",
      "330C",
      "330C",
      "330C",
      "330C",
      "330C",
      "330C",
      "330C",
      "330C",
      "330C",
      "330C",
      "330C",
      "330C",
      "330C",
      "330C",
      "330C",
      "330C",
      "330C",
      "330C",
      "330C",
      "330C",
      "330C",
      "330C",
      "330C",
      "330C",
      "330C",
      "330C",
      "330C",
      "330C",
      "330C",
      "330C",
      "330C",
      "330C",
      "330C",
      "330C",
      "330C",
      "330C",
      "330C",
      "330C",
      "330C",
      "330C",
      "330C",
      "330C",
      "330C",
      "330C",
      "330C",
      "330C",
      "330C",
      "330C",
      "330C",
      "330C",
      "330C",
      "330C",
      "330C",
      "330C",
      "330C",
      "330C",
      "330C",
      "330C",
      "330C",
      "330C",
      "330C",
      "330C",
      "330C",
      "330C",
      "330C",
      "330C",
      "330C",
      "330C",
      "330C",
      "330C",
      "330C",
      "330C",
      "330C",
      "330C",
      "330C",
      "330C",
      "330C",
      "330C",
      "330C",
      "330C",
      "330C",
      "330C",
      "330C",
      "330C",
      "330C",
      "330C",
      "330C",
      "330C",
      "330C",
      "330C",
      "330C",
      "330C",
      "330C",
      "330C",
      "330C",
      "330C",
      "330C",
      "330C",
      "330C",
      "330C",
      "330C",
      "330C",
      "330C",
      "330C",
      "330C",
      "330C",
      "330C",
      "330C",
      "330C",
      "330C",
      "330C",
      "330C",
      "330C",
      "330C",
      "330C",
      "330C",
      "330C",
      "330C",
      "330C",
      "330C",
      "330C",
      "330C",
      "330C",
      "330C",
      "330C",
      "330C",
      "330C",
      "330C",
      "330C",
      "330C",
      "330C",
      "330C",
      "330C",
      "330C",
      "330C",
      "330C",
      "330C",
      "330C",
      "330C",
      "330C",
      "330C",
      "330C",
      "330C",
      "330C",
      "330C",
      "330C",
      "330C",
      "330C",
      "330C",
      "330C",
      "330C",
      "330C",
      "330C",
      "330C",
      "330C",
      "330C",
      "330C",
      "330C",
      "291",
      "291",
      "291",
      "275",
      "275",
      "275",
      "150",
      "150",
      "129",
      "120",
      "120",
      "120",
      "121",
      "121",
      "118",
      "118",
      "100",
      "100",
      "100",
      "100",
      "100",
      "084",
      "084",
      "066",
      "066",
      "066",
      "066",
      "052",
      "052",
      "052",
      "050",
      "050",
      "050",
      "050",
      "030",
      "030",
      "030",
      "030",
      "020",
      "020",
      "018",
      "018",
      "018"
    ],
    "swim:geom": "path",
    "swim:speeds": [
      275,
      275,
      275,
      275,
      275,
      453,
      453,
      453,
      453,
      453,
      453,
      508,
      508,
      512,
      509,
      510,
      510,
      510,
      510,
      505,
      505,
      506,
      509,
      509,
      509,
      509,
      509,
      509,
      505,
      508,
      508,
      508,
      509,
      511,
      509,
      509,
      509,
      509,
      509,
      509,
      510,
      510,
      510,
      508,
      508,
      508,
      508,
      509,
      509,
      509,
      509,
      509,
      509,
      507,
      507,
      507,
      507,
      507,
      506,
      503,
      503,
      503,
      503,
      503,
      505,
      505,
      505,
      505,
      505,
      505,
      505,
      505,
      505,
      505,
      505,
      505,
      502,
      502,
      501,
      501,
      501,
      501,
      501,
      501,
      501,
      501,
      501,
      501,
      501,
      501,
      501,
      503,
      503,
      503,
      506,
      506,
      506,
      506,
      507,
      507,
      507,
      507,
      507,
      507,
      508,
      508,
      508,
      508,
      508,
      508,
      508,
      504,
      504,
      504,
      502,
      502,
      503,
      503,
      503,
      503,
      503,
      503,
      504,
      504,
      504,
      504,
      504,
      504,
      504,
      513,
      513,
      513,
      513,
      513,
      513,
      513,
      516,
      516,
      516,
      516,
      521,
      521,
      522,
      522,
      523,
      523,
      523,
      523,
      523,
      528,
      528,
      528,
      528,
      507,
      507,
      499,
      499,
      499,
      498,
      498,
      498,
      498,
      498,
      498,
      498,
      498,
      498,
      505,
      505,
      505,
      505,
      497,
      497,
      492,
      492,
      492,
      492,
      492,
      492,
      510,
      510,
      508,
      508,
      508,
      508,
      510,
      510,
      510,
      510,
      511,
      511,
      511,
      511,
      511,
      488,
      488,
      488,
      469,
      469,
      469,
      377,
      377,
      371,
      366,
      366,
      366,
      367,
      367,
      366,
      366,
      358,
      358,
      358,
      328,
      328,
      285,
      285,
      287,
      287,
      287,
      287,
      280,
      280,
      280,
      273,
      273,
      216,
      216,
      181,
      181,
      181,
      181,
      163,
      163,
      154,
      154,
      154
    ],
    "swim:timestamps": [
      1761861883,
      1761861883,
      1761861883,
      1761861883,
      1761861883,
      1761862424,
      1761862424,
      1761862424,
      1761862424,
      1761862424,
      1761862424,
      1761862724,
      1761862724,
      1761862964,
      1761862972,
      1761863085,
      1761863085,
      1761863085,
      1761863085,
      1761863205,
      1761863205,
      1761863212,
      1761863333,
      1761863333,
      1761863333,
      1761863333,
      1761863333,
      1761863333,
      1761863385,
      1761863513,
      1761863513,
      1761863513,
      1761863573,
      1761863693,
      1761863926,
      1761863926,
      1761863926,
      1761863926,
      1761863934,
      1761864046,
      1761864294,
      1761864294,
      1761864294,
      1761864471,
      1761864471,
      1761864471,
      1761864471,
      1761864592,
      1761864592,
      1761864592,
      1761864592,
      1761864592,
      1761864592,
      1761865073,
      1761865073,
      1761865073,
      1761865073,
      1761865133,
      1761865193,
      1761865493,
      1761865493,
      1761865493,
      1761865674,
      1761865674,
      1761865747,
      1761865747,
      1761865747,
      1761865868,
      1761865868,
      1761865868,
      1761865974,
      1761865974,
      1761865974,
      1761865974,
      1761866035,
      1761866035,
      1761866288,
      1761866288,
      1761866335,
      1761866335,
      1761866348,
      1761866348,
      1761866395,
      1761866395,
      1761866395,
      1761866455,
      1761866455,
      1761866468,
      1761866468,
      1761866468,
      1761866515,
      1761866575,
      1761866575,
      1761866575,
      1761866696,
      1761866696,
      1761866696,
      1761866696,
      1761866816,
      1761866816,
      1761866829,
      1761866829,
      1761866829,
      1761866829,
      1761867069,
      1761867069,
      1761867069,
      1761867069,
      1761867069,
      1761867069,
      1761867069,
      1761867430,
      1761867430,
      1761867430,
      1761867610,
      1761867610,
      1761867730,
      1761867730,
      1761867730,
      1761867730,
      1761867730,
      1761867730,
      1761868030,
      1761868030,
      1761868030,
      1761868030,
      1761868030,
      1761868030,
      1761868030,
      1761868511,
      1761868511,
      1761868511,
      1761868511,
      1761868511,
      1761868511,
      1761868511,
      1761868932,
      1761868932,
      1761868932,
      1761868932,
      1761869232,
      1761869232,
      1761869292,
      1761869292,
      1761869406,
      1761869406,
      1761869472,
      1761869472,
      1761869472,
      1761869773,
      1761869773,
      1761869773,
      1761869773,
      1761870127,
      1761870127,
      1761870187,
      1761870187,
      1761870187,
      1761870435,
      1761870435,
      1761870435,
      1761870435,
      1761870848,
      1761870848,
      1761870848,
      1761870848,
      1761870848,
      1761871216,
      1761871216,
      1761871216,
      1761871216,
      1761871396,
      1761871396,
      1761871516,
      1761871516,
      1761871516,
      1761871516,
      1761871516,
      1761871516,
      1761871643,
      1761871750,
      1761871944,
      1761871944,
      1761871944,
      1761871944,
      1761872051,
      1761872051,
      1761872051,
      1761872051,
      1761872304,
      1761872304,
      1761872304,
      1761872304,
      1761872304,
      1761872785,
      1761872785,
      1761872785,
      1761872845,
      1761872845,
      1761872845,
      1761873265,
      1761873265,
      1761873326,
      1761873364,
      1761873364,
      1761873364,
      1761873386,
      1761873386,
      1761873446,
      1761873446,
      1761873566,
      1761873566,
      1761873566,
      1761873686,
      1761873686,
      1761873785,
      1761873785,
      1761873866,
      1761873866,
      1761873866,
      1761873866,
      1761873926,
      1761873926,
      1761873926,
      1761873965,
      1761873965,
      1761874211,
      1761874211,
      1761874331,
      1761874331,
      1761874331,
      1761874331,
      1761874391,
      1761874391,
      1761874407,
      1761874407,
      1761874407
    ],
    "wof:geomhash": "e3b402c745c4d8a0b2d58a2560e7b3a2",
    "wof:id": 1997539131,
    "wof:repo": "sfomuseum-data-flights-2025-10"
  },
  "bbox": [
    -122.20222222222222,
    37.72416666666667,
    -87.58333333333333,
    41.96666666666667
  ],
  "geometry": {"coordinates":[[-122.20222222222222,37.72416666666667],[-122.20222222222222,37.72416666666667],[-122.20222222222222,37.72416666666667],[-122.20222222222222,37.72416666666667],[-122.20222222222222,37.72416666666667],[-121.09888888888888,38.06444444444444],[-121.09888888888888,38.06444444444444],[-121.09888888888888,38.06444444444444],[-121.09888888888888,38.06444444444444],[-121.09888888888888,38.06444444444444],[-121.09888888888888,38.06444444444444],[-120.26833333333333,38.219166666666666],[-120.26833333333333,38.219166666666666],[-119.56,38.34638888888889],[-119.53222222222222,38.35194444444445],[-119.21416666666667,38.40694444444444],[-119.21416666666667,38.40694444444444],[-119.21416666666667,38.40694444444444],[-119.21416666666667,38.40694444444444],[-118.83138888888888,38.472500000000004],[-118.83138888888888,38.472500000000004],[-118.83472222222221,38.47138888888889],[-118.4875,38.530277777777776],[-118.4875,38.530277777777776],[-118.4875,38.530277777777776],[-118.4875,38.530277777777776],[-118.4875,38.530277777777776],[-118.4875,38.530277777777776],[-118.31027777777777,38.55972222222222],[-117.96444444444445,38.60388888888889],[-117.96444444444445,38.60388888888889],[-117.96444444444445,38.60388888888889],[-117.78444444444445,38.62444444444444],[-117.42027777777778,38.66555555555556],[-116.70305555555557,38.78],[-116.70305555555557,38.78],[-116.70305555555557,38.78],[-116.70305555555557,38.78],[-116.70611111111111,38.779444444444444],[-116.385,38.8325],[-115.6388888888889,38.95194444444445],[-115.6388888888889,38.95194444444445],[-115.6388888888889,38.95194444444445],[-115.10722222222222,39.03388888888889],[-115.10722222222222,39.03388888888889],[-115.10722222222222,39.03388888888889],[-115.10722222222222,39.03388888888889],[-114.75083333333333,39.087500000000006],[-114.75083333333333,39.087500000000006],[-114.75083333333333,39.087500000000006],[-114.75083333333333,39.087500000000006],[-114.75083333333333,39.087500000000006],[-114.75083333333333,39.087500000000006],[-113.32194444444444,39.290277777777774],[-113.32194444444444,39.290277777777774],[-113.32194444444444,39.290277777777774],[-113.32194444444444,39.290277777777774],[-113.14305555555556,39.316944444444445],[-112.96694444444445,39.347500000000004],[-112.09694444444445,39.48833333333334],[-112.09694444444445,39.48833333333334],[-112.09694444444445,39.48833333333334],[-111.56805555555555,39.57055555555556],[-111.56805555555555,39.57055555555556],[-111.34222222222222,39.605000000000004],[-111.34222222222222,39.605000000000004],[-111.34222222222222,39.605000000000004],[-110.98611111111111,39.658055555555556],[-110.98611111111111,39.658055555555556],[-110.98611111111111,39.658055555555556],[-110.66444444444446,39.70527777777778],[-110.66444444444446,39.70527777777778],[-110.66444444444446,39.70527777777778],[-110.66444444444446,39.70527777777778],[-110.485,39.73111111111111],[-110.485,39.73111111111111],[-109.73694444444445,39.83555555555556],[-109.73694444444445,39.83555555555556],[-109.59416666666667,39.85472222222222],[-109.59416666666667,39.85472222222222],[-109.55972222222222,39.85944444444445],[-109.55972222222222,39.85944444444445],[-109.41555555555556,39.87888888888889],[-109.41555555555556,39.87888888888889],[-109.41555555555556,39.87888888888889],[-109.2363888888889,39.902499999999996],[-109.2363888888889,39.902499999999996],[-109.20166666666667,39.907222222222224],[-109.20166666666667,39.907222222222224],[-109.20166666666667,39.907222222222224],[-109.05444444444444,39.92611111111111],[-108.87222222222222,39.941111111111105],[-108.87222222222222,39.941111111111105],[-108.87222222222222,39.941111111111105],[-108.51027777777777,39.96361111111111],[-108.51027777777777,39.96361111111111],[-108.51027777777777,39.96361111111111],[-108.51027777777777,39.96361111111111],[-108.13444444444445,39.986111111111114],[-108.13444444444445,39.986111111111114],[-108.09666666666666,39.98833333333334],[-108.09666666666666,39.98833333333334],[-108.09666666666666,39.98833333333334],[-108.09666666666666,39.98833333333334],[-107.3625,40.02861111111111],[-107.3625,40.02861111111111],[-107.3625,40.02861111111111],[-107.3625,40.02861111111111],[-107.3625,40.02861111111111],[-107.3625,40.02861111111111],[-107.3625,40.02861111111111],[-106.28111111111112,40.07916666666667],[-106.28111111111112,40.07916666666667],[-106.28111111111112,40.07916666666667],[-105.73555555555555,40.100833333333334],[-105.73555555555555,40.100833333333334],[-105.37222222222222,40.11388888888889],[-105.37222222222222,40.11388888888889],[-105.37222222222222,40.11388888888889],[-105.37222222222222,40.11388888888889],[-105.37222222222222,40.11388888888889],[-105.37222222222222,40.11388888888889],[-104.45444444444445,40.14138888888889],[-104.45444444444445,40.14138888888889],[-104.45444444444445,40.14138888888889],[-104.45444444444445,40.14138888888889],[-104.45444444444445,40.14138888888889],[-104.45444444444445,40.14138888888889],[-104.45444444444445,40.14138888888889],[-102.96861111111112,40.18861111111111],[-102.96861111111112,40.18861111111111],[-102.96861111111112,40.18861111111111],[-102.96861111111112,40.18861111111111],[-102.96861111111112,40.18861111111111],[-102.96861111111112,40.18861111111111],[-102.96861111111112,40.18861111111111],[-101.66833333333334,40.21472222222223],[-101.66833333333334,40.21472222222223],[-101.66833333333334,40.21472222222223],[-101.66833333333334,40.21472222222223],[-100.69222222222223,40.224444444444444],[-100.69222222222223,40.224444444444444],[-100.50583333333333,40.22555555555556],[-100.50583333333333,40.22555555555556],[-100.15111111111112,40.224444444444444],[-100.15111111111112,40.224444444444444],[-99.94055555555556,40.22666666666667],[-99.94055555555556,40.22666666666667],[-99.94055555555556,40.22666666666667],[-99.00361111111111,40.22222222222222],[-99.00361111111111,40.22222222222222],[-99.00361111111111,40.22222222222222],[-99.00361111111111,40.22222222222222],[-97.86027777777777,40.206944444444446],[-97.86027777777777,40.206944444444446],[-97.67805555555556,40.20333333333333],[-97.67805555555556,40.20333333333333],[-97.67805555555556,40.20333333333333],[-96.93666666666667,40.18611111111111],[-96.93666666666667,40.18611111111111],[-96.93666666666667,40.18611111111111],[-96.93666666666667,40.18611111111111],[-95.68055555555556,40.17055555555555],[-95.68055555555556,40.17055555555555],[-95.68055555555556,40.17055555555555],[-95.68055555555556,40.17055555555555],[-95.68055555555556,40.17055555555555],[-94.61638888888888,40],[-94.61638888888888,40],[-94.61638888888888,40],[-94.61638888888888,40],[-94.07972222222222,40.040277777777774],[-94.07972222222222,40.040277777777774],[-93.73111111111112,40.099722222222226],[-93.73111111111112,40.099722222222226],[-93.73111111111112,40.099722222222226],[-93.73111111111112,40.099722222222226],[-93.73111111111112,40.099722222222226],[-93.73111111111112,40.099722222222226],[-93.34805555555555,40.19222222222222],[-93.03083333333333,40.26916666666666],[-92.45611111111111,40.406388888888884],[-92.45611111111111,40.406388888888884],[-92.45611111111111,40.406388888888884],[-92.45611111111111,40.406388888888884],[-92.16666666666667,40.473888888888894],[-92.16666666666667,40.473888888888894],[-92.16666666666667,40.473888888888894],[-92.16666666666667,40.473888888888894],[-91.38111111111111,40.65333333333333],[-91.38111111111111,40.65333333333333],[-91.38111111111111,40.65333333333333],[-91.38111111111111,40.65333333333333],[-91.38111111111111,40.65333333333333],[-90.01222222222222,41.02055555555555],[-90.01222222222222,41.02055555555555],[-90.01222222222222,41.02055555555555],[-89.85249999999999,41.07277777777778],[-89.85249999999999,41.07277777777778],[-89.85249999999999,41.07277777777778],[-88.88472222222222,41.44222222222222],[-88.88472222222222,41.44222222222222],[-88.75583333333333,41.49333333333333],[-88.66666666666667,41.53333333333333],[-88.66666666666667,41.53333333333333],[-88.66666666666667,41.53333333333333],[-88.63555555555556,41.54055555555556],[-88.63555555555556,41.54055555555556],[-88.52277777777778,41.59527777777778],[-88.52277777777778,41.59527777777778],[-88.30777777777777,41.71194444444445],[-88.30777777777777,41.71194444444445],[-88.30777777777777,41.71194444444445],[-88.09638888888888,41.82638888888889],[-88.09638888888888,41.82638888888889],[-87.93333333333334,41.88333333333333],[-87.93333333333334,41.88333333333333],[-87.7961111111111,41.884166666666665],[-87.7961111111111,41.884166666666665],[-87.7961111111111,41.884166666666665],[-87.7961111111111,41.884166666666665],[-87.6913888888889,41.884166666666665],[-87.6913888888889,41.884166666666665],[-87.6913888888889,41.884166666666665],[-87.61666666666666,41.88333333333333],[-87.61666666666666,41.88333333333333],[-87.58333333333333,41.96666666666667],[-87.58333333333333,41.96666666666667],[-87.73333333333333,41.96666666666667],[-87.73333333333333,41.96666666666667],[-87.73333333333333,41.96666666666667],[-87.73333333333333,41.96666666666667],[-87.8,41.96666666666667],[-87.8,41.96666666666667],[-87.81194444444444,41.965833333333336],[-87.81194444444444,41.965833333333336],[-87.81194444444444,41.965833333333336]],"type":"LineString"}
}
