{
  "id": 1981728971,
  "type": "Feature",
  "properties": {
    "geom:area": 0,
    "geom:bbox": "-122.358190,37.491570,-121.255400,37.614350",
    "geom:latitude": 37.546676310721274,
    "geom:longitude": -121.81176464604805,
    "src:alt_label": "swim-approach",
    "src:geom": "swim",
    "swim:elevations": [
      4669,
      4315,
      4114,
      4088,
      3922,
      3790,
      3414,
      3292,
      3111,
      2821,
      2739,
      2520,
      2427,
      2319,
      2071,
      1950,
      1909,
      1860,
      1661,
      1559,
      1287,
      1156,
      966,
      823,
      732,
      526,
      420,
      300,
      151,
      94,
      0
    ],
    "swim:geom": "approach",
    "swim:timestamps": [
      1761084108,
      1761084147,
      1761084176,
      1761084182,
      1761084231,
      1761084248,
      1761084288,
      1761084303,
      1761084333,
      1761084387,
      1761084403,
      1761084448,
      1761084469,
      1761084486,
      1761084537,
      1761084569,
      1761084576,
      1761084588,
      1761084624,
      1761084639,
      1761084686,
      1761084711,
      1761084745,
      1761084776,
      1761084795,
      1761084836,
      1761084863,
      1761084890,
      1761084926,
      1761084938,
      1761084956
    ],
    "wof:geomhash": "00053797672aeb49962afb0104d4243c",
    "wof:id": 1981728971,
    "wof:repo": "sfomuseum-data-flights-2025-10"
  },
  "bbox": [
    -122.35819,
    37.49157,
    -121.2554,
    37.61435
  ],
  "geometry": {"coordinates":[[-121.2554,37.59372],[-121.32916,37.58516],[-121.3817,37.57923],[-121.39421,37.57777],[-121.47531,37.56819],[-121.50141,37.56528],[-121.55944,37.55826],[-121.58158,37.5558],[-121.62492,37.55043],[-121.6997,37.53294],[-121.72111,37.5278],[-121.78217,37.51319],[-121.81088,37.50629],[-121.83304,37.50106],[-121.90437,37.49157],[-121.94925,37.49277],[-121.96023,37.49306],[-121.97706,37.49396],[-122.02444,37.50659],[-122.04384,37.51286],[-122.10054,37.53119],[-122.12766,37.54013],[-122.1631,37.55155],[-122.19527,37.56184],[-122.21446,37.56797],[-122.25637,37.58154],[-122.28102,37.58875],[-122.30362,37.59582],[-122.33415,37.60447],[-122.34373,37.60796],[-122.35819,37.61435]],"type":"LineString"}
}
