{
  "id": 1981567533,
  "type": "Feature",
  "properties": {
    "geom:area": 0,
    "geom:bbox": "-123.506530,37.411490,-122.401640,37.673880",
    "geom:latitude": 37.554397561843224,
    "geom:longitude": -122.95188227407274,
    "src:alt_label": "swim-takeoff",
    "src:geom": "swim",
    "swim:elevations": [
      244,
      506,
      965,
      1159,
      1288,
      1361,
      1470,
      1913,
      2123,
      2716,
      3050,
      3206,
      3548,
      3627,
      3747,
      3949,
      4118,
      4146,
      4362,
      4413,
      4776,
      4981,
      5194,
      5271,
      5488,
      5799,
      5886
    ],
    "swim:geom": "takeoff",
    "swim:timestamps": [
      1759432694,
      1759432714,
      1759432752,
      1759432788,
      1759432809,
      1759432822,
      1759432834,
      1759432874,
      1759432890,
      1759432936,
      1759432962,
      1759432978,
      1759433006,
      1759433021,
      1759433045,
      1759433086,
      1759433123,
      1759433130,
      1759433158,
      1759433163,
      1759433203,
      1759433232,
      1759433260,
      1759433270,
      1759433297,
      1759433337,
      1759433349
    ],
    "wof:geomhash": "dd41abda94e66f76732bed987a57dc4f",
    "wof:id": 1981567533,
    "wof:repo": "sfomuseum-data-flights-2025-10"
  },
  "bbox": [
    -123.50653,
    37.41149,
    -122.40164,
    37.67388
  ],
  "geometry": {"coordinates":[[-122.40164,37.62969],[-122.41975,37.63729],[-122.45427,37.65284],[-122.48988,37.66828],[-122.51649,37.67388],[-122.5347,37.67018],[-122.55156,37.6646],[-122.6087,37.64696],[-122.63296,37.64075],[-122.70278,37.62298],[-122.74411,37.61254],[-122.76814,37.60638],[-122.81216,37.59474],[-122.83564,37.58863],[-122.87627,37.57799],[-122.95164,37.55837],[-123.02381,37.53946],[-123.0384,37.53561],[-123.09644,37.5204],[-123.1072,37.51758],[-123.19153,37.49528],[-123.25336,37.4789],[-123.31217,37.46328],[-123.33503,37.45724],[-123.39336,37.44177],[-123.48132,37.41834],[-123.50653,37.41149]],"type":"LineString"}
}
