{
  "id": 1981606467,
  "type": "Feature",
  "properties": {
    "geom:area": 0,
    "geom:bbox": "-122.361880,36.742090,-121.890230,37.614950",
    "geom:latitude": 37.22804464968509,
    "geom:longitude": -122.07548055658351,
    "src:alt_label": "swim-approach",
    "src:geom": "swim",
    "swim:elevations": [
      5487,
      5238,
      4946,
      4529,
      4454,
      4048,
      3742,
      3181,
      3107,
      3047,
      2780,
      2481,
      2366,
      2092,
      1856,
      1723,
      1622,
      1504,
      1322,
      1121,
      847,
      786,
      667,
      413,
      271,
      151,
      99,
      36,
      0
    ],
    "swim:geom": "approach",
    "swim:timestamps": [
      1759880218,
      1759880241,
      1759880268,
      1759880307,
      1759880313,
      1759880350,
      1759880377,
      1759880428,
      1759880447,
      1759880468,
      1759880501,
      1759880537,
      1759880561,
      1759880601,
      1759880634,
      1759880658,
      1759880682,
      1759880707,
      1759880737,
      1759880773,
      1759880818,
      1759880830,
      1759880854,
      1759880902,
      1759880937,
      1759880964,
      1759880977,
      1759880992,
      1759881004
    ],
    "wof:geomhash": "d1b335e095bb05c65d450a11f27cff2c",
    "wof:id": 1981606467,
    "wof:repo": "sfomuseum-data-flights-2025-10"
  },
  "bbox": [
    -122.36188,
    36.74209,
    -121.89023,
    37.61495
  ],
  "geometry": {"coordinates":[[-121.89023,36.74209],[-121.90526,36.78168],[-121.91876,36.82929],[-121.93765,36.89694],[-121.94056,36.90726],[-121.95994,36.96965],[-121.97726,37.0142],[-122.01039,37.09845],[-122.02182,37.12794],[-122.03346,37.15812],[-122.05237,37.20592],[-122.07137,37.25473],[-122.08328,37.28507],[-122.10245,37.33357],[-122.11807,37.37311],[-122.12789,37.40143],[-122.13721,37.42857],[-122.1464,37.45561],[-122.1565,37.48656],[-122.16831,37.52266],[-122.19071,37.56154],[-122.2042,37.5658],[-122.23041,37.57331],[-122.27972,37.5883],[-122.30969,37.59698],[-122.33153,37.60375],[-122.34221,37.60726],[-122.35351,37.61201],[-122.36188,37.61495]],"type":"LineString"}
}
