{
  "id": 1981553947,
  "type": "Feature",
  "properties": {
    "geom:area": 0,
    "geom:bbox": "-122.351060,36.732490,-121.887210,37.608640",
    "geom:latitude": 37.235056121983575,
    "geom:longitude": -122.10082119981838,
    "src:alt_label": "swim-approach",
    "src:geom": "swim",
    "swim:elevations": [
      5321,
      5121,
      4828,
      4613,
      4360,
      4333,
      4168,
      3865,
      3719,
      3560,
      3446,
      3400,
      3288,
      3232,
      2957,
      2804,
      2618,
      2466,
      2249,
      2135,
      1863,
      1829,
      1829,
      1829,
      1625,
      1352,
      1218,
      1180,
      1071,
      1068,
      1035,
      823,
      695,
      607,
      455,
      334,
      241,
      120,
      54
    ],
    "swim:geom": "approach",
    "swim:timestamps": [
      1759341113,
      1759341134,
      1759341167,
      1759341190,
      1759341228,
      1759341236,
      1759341259,
      1759341294,
      1759341315,
      1759341343,
      1759341361,
      1759341398,
      1759341417,
      1759341424,
      1759341467,
      1759341500,
      1759341530,
      1759341554,
      1759341585,
      1759341601,
      1759341649,
      1759341687,
      1759341692,
      1759341723,
      1759341764,
      1759341801,
      1759341836,
      1759341864,
      1759341894,
      1759341915,
      1759341923,
      1759341956,
      1759341981,
      1759341999,
      1759342033,
      1759342065,
      1759342084,
      1759342118,
      1759342140
    ],
    "wof:geomhash": "b4a639e2237df443b6e633d9d3184728",
    "wof:id": 1981553947,
    "wof:repo": "sfomuseum-data-flights-2025-10"
  },
  "bbox": [
    -122.35106,
    36.73249,
    -121.88721,
    37.60864
  ],
  "geometry": {"coordinates":[[-121.88721,36.73249],[-121.89998,36.76182],[-121.91296,36.80796],[-121.92207,36.84027],[-121.93675,36.89311],[-121.93961,36.90354],[-121.94818,36.93389],[-121.9647,36.98012],[-121.9755,37.00791],[-121.98939,37.04446],[-121.99818,37.06663],[-122.01507,37.1117],[-122.0233,37.13227],[-122.02688,37.14097],[-122.05671,37.18353],[-122.09205,37.20657],[-122.12299,37.22665],[-122.14819,37.24304],[-122.18142,37.2638],[-122.19981,37.27493],[-122.25049,37.30673],[-122.25376,37.34671],[-122.24955,37.35077],[-122.21492,37.37229],[-122.16938,37.39953],[-122.1291,37.42523],[-122.10846,37.45989],[-122.10322,37.49],[-122.12942,37.51362],[-122.15197,37.52454],[-122.16049,37.52831],[-122.19428,37.54273],[-122.21992,37.55356],[-122.23759,37.56097],[-122.26986,37.57465],[-122.29857,37.58669],[-122.31307,37.59281],[-122.33624,37.60255],[-122.35106,37.60864]],"type":"LineString"}
}
