{
  "id": 1981637237,
  "type": "Feature",
  "properties": {
    "geom:area": 0,
    "geom:bbox": "-122.552870,36.755240,-122.361980,37.709910",
    "geom:latitude": 37.26908569980971,
    "geom:longitude": -122.47608845077289,
    "src:alt_label": "swim-takeoff",
    "src:geom": "swim",
    "swim:elevations": [
      152,
      472,
      811,
      1030,
      1188,
      1469,
      1737,
      2315,
      2823,
      3309,
      3513,
      3699,
      3984,
      4268,
      4500,
      4827,
      5183,
      5334,
      5471,
      5657,
      5920,
      6392,
      6672,
      6727,
      6790,
      6980,
      7035,
      7306
    ],
    "swim:geom": "takeoff",
    "swim:timestamps": [
      1760096499,
      1760096525,
      1760096553,
      1760096576,
      1760096603,
      1760096636,
      1760096656,
      1760096692,
      1760096723,
      1760096756,
      1760096777,
      1760096802,
      1760096845,
      1760096873,
      1760096894,
      1760096935,
      1760096966,
      1760096977,
      1760096992,
      1760097014,
      1760097045,
      1760097086,
      1760097116,
      1760097124,
      1760097136,
      1760097173,
      1760097184,
      1760097223
    ],
    "wof:geomhash": "ffdb75da70588ea2d584c5a873d50d14",
    "wof:id": 1981637237,
    "wof:repo": "sfomuseum-data-flights-2025-10"
  },
  "bbox": [
    -122.55287,
    36.75524,
    -122.36198,
    37.70991
  ],
  "geometry": {"coordinates":[[-122.36819,37.63019],[-122.36282,37.65038],[-122.36198,37.67309],[-122.3641,37.69199],[-122.38526,37.70991],[-122.4267,37.70666],[-122.44293,37.6873],[-122.44614,37.6432],[-122.45116,37.60443],[-122.45911,37.56521],[-122.46383,37.53722],[-122.47002,37.50256],[-122.48235,37.43631],[-122.49134,37.38965],[-122.49791,37.35466],[-122.51133,37.28313],[-122.52209,37.22767],[-122.52581,37.20769],[-122.53083,37.18036],[-122.5384,37.13969],[-122.54898,37.08359],[-122.55287,37.00457],[-122.52289,36.9514],[-122.51262,36.93745],[-122.49671,36.91557],[-122.44828,36.84951],[-122.43296,36.82868],[-122.37919,36.75524]],"type":"LineString"}
}
