{
  "id": 1981661741,
  "type": "Feature",
  "properties": {
    "geom:area": 0,
    "geom:bbox": "-122.384620,37.630330,-121.284380,38.255330",
    "geom:latitude": 38.01909186063352,
    "geom:longitude": -121.95025459701404,
    "src:alt_label": "swim-takeoff",
    "src:geom": "swim",
    "swim:elevations": [
      183,
      513,
      1005,
      1094,
      1255,
      1397,
      1517,
      1878,
      2167,
      2481,
      2884,
      3140,
      3349,
      3370,
      3422,
      3659,
      3688,
      4039,
      4645,
      4724,
      4970,
      5118,
      5610,
      5670,
      5939,
      6225,
      6444,
      6493,
      6629,
      6788,
      6883,
      7047,
      7107
    ],
    "swim:geom": "takeoff",
    "swim:timestamps": [
      1760394778,
      1760394799,
      1760394836,
      1760394851,
      1760394884,
      1760394908,
      1760394920,
      1760394952,
      1760394974,
      1760395001,
      1760395042,
      1760395072,
      1760395103,
      1760395107,
      1760395120,
      1760395168,
      1760395173,
      1760395208,
      1760395258,
      1760395264,
      1760395288,
      1760395303,
      1760395348,
      1760395354,
      1760395393,
      1760395429,
      1760395465,
      1760395471,
      1760395495,
      1760395525,
      1760395546,
      1760395585,
      1760395597
    ],
    "wof:geomhash": "97e720185ad43556077e1c5f6ada5297",
    "wof:id": 1981661741,
    "wof:repo": "sfomuseum-data-flights-2025-10"
  },
  "bbox": [
    -122.38462,
    37.63033,
    -121.28438,
    38.25533
  ],
  "geometry": {"coordinates":[[-122.36517,37.63033],[-122.35248,37.64404],[-122.32575,37.66707],[-122.31478,37.67632],[-122.31462,37.70701],[-122.32862,37.73106],[-122.33598,37.74446],[-122.35549,37.78256],[-122.36839,37.80898],[-122.38415,37.84208],[-122.38462,37.89905],[-122.36714,37.93637],[-122.31658,37.9535],[-122.31065,37.95459],[-122.28725,37.95936],[-122.19396,37.98213],[-122.18423,37.98517],[-122.11165,38.0073],[-122.01054,38.03823],[-121.9985,38.04184],[-121.94999,38.05651],[-121.9199,38.06552],[-121.83041,38.09258],[-121.81814,38.09629],[-121.73732,38.12049],[-121.66081,38.14346],[-121.58383,38.16645],[-121.57077,38.17031],[-121.51703,38.18642],[-121.45176,38.20572],[-121.40223,38.22043],[-121.3124,38.24706],[-121.28438,38.25533]],"type":"LineString"}
}
