{
  "id": 1981708169,
  "type": "Feature",
  "properties": {
    "geom:area": 0,
    "geom:bbox": "-122.842870,37.463140,-122.085430,38.483120",
    "geom:latitude": 37.82248215049472,
    "geom:longitude": -122.46002793447711,
    "src:alt_label": "swim-approach",
    "src:geom": "swim",
    "swim:elevations": [
      7727,
      7509,
      7223,
      6774,
      6688,
      6480,
      6359,
      5814,
      5677,
      5425,
      4925,
      4781,
      4627,
      4565,
      4014,
      3901,
      3570,
      3351,
      3261,
      3112,
      2905,
      2830,
      2634,
      2544,
      2251,
      2027,
      1907,
      1649,
      1610,
      1487,
      1266,
      1220,
      1219,
      1219,
      1219,
      1219,
      1219,
      1219,
      1202,
      1126,
      827,
      792,
      698,
      667,
      569,
      449,
      301,
      240,
      99,
      51
    ],
    "swim:geom": "approach",
    "swim:timestamps": [
      1760913058,
      1760913080,
      1760913106,
      1760913146,
      1760913155,
      1760913174,
      1760913186,
      1760913236,
      1760913249,
      1760913276,
      1760913324,
      1760913338,
      1760913354,
      1760913360,
      1760913418,
      1760913431,
      1760913470,
      1760913503,
      1760913529,
      1760913563,
      1760913598,
      1760913623,
      1760913653,
      1760913665,
      1760913711,
      1760913745,
      1760913765,
      1760913808,
      1760913816,
      1760913860,
      1760913895,
      1760913919,
      1760913952,
      1760913982,
      1760913998,
      1760914046,
      1760914055,
      1760914092,
      1760914128,
      1760914142,
      1760914195,
      1760914226,
      1760914258,
      1760914264,
      1760914284,
      1760914314,
      1760914347,
      1760914365,
      1760914403,
      1760914418
    ],
    "wof:geomhash": "af1bd3efdd36bfe6b4a71bc953206ef9",
    "wof:id": 1981708169,
    "wof:repo": "sfomuseum-data-flights-2025-10"
  },
  "bbox": [
    -122.84287,
    37.46314,
    -122.08543,
    38.48312
  ],
  "geometry": {"coordinates":[[-122.84287,38.48312],[-122.82936,38.43823],[-122.81404,38.38624],[-122.79088,38.30705],[-122.78579,38.28972],[-122.77523,38.25374],[-122.76842,38.23046],[-122.74069,38.13559],[-122.73367,38.11136],[-122.71932,38.06217],[-122.69386,37.97422],[-122.68679,37.94961],[-122.67846,37.92127],[-122.67495,37.91075],[-122.59946,37.83066],[-122.58122,37.81367],[-122.53001,37.76526],[-122.48852,37.72672],[-122.44691,37.70919],[-122.3958,37.69392],[-122.34698,37.68052],[-122.31467,37.6719],[-122.27795,37.66219],[-122.26351,37.65844],[-122.20892,37.64441],[-122.16867,37.63442],[-122.14631,37.62879],[-122.09911,37.6139],[-122.09199,37.60905],[-122.08543,37.56999],[-122.11823,37.55812],[-122.14216,37.56751],[-122.17661,37.56356],[-122.20364,37.54686],[-122.21769,37.53817],[-122.25665,37.50953],[-122.25815,37.50155],[-122.24968,37.46881],[-122.2125,37.46314],[-122.20206,37.47285],[-122.18907,37.51651],[-122.20324,37.54007],[-122.22796,37.55823],[-122.23328,37.56081],[-122.25143,37.56891],[-122.27809,37.58025],[-122.30265,37.59065],[-122.31503,37.5959],[-122.34216,37.60725],[-122.35254,37.61159]],"type":"LineString"}
}
