{
  "id": 1981734623,
  "type": "Feature",
  "properties": {
    "geom:area": 0,
    "geom:bbox": "-152.900000,22.650000,100.180000,57.620000",
    "geom:latitude": 47.29420882934298,
    "geom:longitude": -31.721134040280432,
    "src:alt_label": "swim-route",
    "src:geom": "swim",
    "swim:geom": "route",
    "wof:geomhash": "79bedabb6bce278b51ed1cee978005cb",
    "wof:id": 1981734623,
    "wof:repo": "sfomuseum-data-flights-2025-10"
  },
  "bbox": [
    -152.9,
    22.65,
    100.18,
    57.62
  ],
  "geometry": {"coordinates":[[[88.45,22.65],[89.9,25.11],[100.18,39.38]],[[-152.9,57.62],[-134.45,47.01],[-133.77,46.45],[-132.46,45.31],[-130.62,43.08],[-130,43],[-127.35,42],[-126.83,41.79],[-126.82,41.79],[-126.8,41.78],[-126.5,41.66],[-125.94,41.13],[-125.14,40.37],[-124.97,40.22],[-124.44,39.7],[-124.3,39.56],[-124.18,39.43],[-124.05,39.3],[-123.92,39.18],[-123.75,39],[-123.71,38.97],[-123.44,38.76],[-123.19,38.56],[-123.13,38.52],[-122.91,38.34],[-122.85,38.29],[-122.77,38.22],[-122.77,38.22],[-122.75,38.16],[-122.72,38.06],[-122.69,37.95],[-122.67,37.9],[-122.67,37.9],[-122.65,37.87],[-122.62,37.85],[-122.59,37.82],[-122.58,37.81],[-122.51,37.74],[-122.5,37.73],[-122.44,37.68],[-122.35,37.66],[-122.31,37.66],[-122.3,37.66],[-122.18,37.64],[-122.26,37.63],[-122.29,37.63],[-122.35,37.62],[-122.37,37.62],[-122.38,37.62]]],"type":"MultiLineString"}
}
