{
  "id": 1981639943,
  "type": "Feature",
  "properties": {
    "geom:area": 0,
    "geom:bbox": "-122.370370,36.721360,-121.877740,37.610150",
    "geom:latitude": 37.196482514181675,
    "geom:longitude": -122.16507457198264,
    "src:alt_label": "swim-approach",
    "src:geom": "swim",
    "swim:elevations": [
      5682,
      5353,
      5160,
      5052,
      4587,
      4409,
      4066,
      4035,
      3625,
      3604,
      3532,
      3224,
      3184,
      2950,
      2874,
      2825,
      2622,
      2410,
      2172,
      2134,
      2134,
      2108,
      1923,
      1803,
      1829,
      1829,
      1829,
      1829,
      1829,
      1802,
      1645,
      1350,
      1219,
      1032,
      794,
      792,
      792,
      792,
      698,
      614,
      432,
      306,
      272,
      91,
      38
    ],
    "swim:geom": "approach",
    "swim:timestamps": [
      1760175118,
      1760175147,
      1760175174,
      1760175187,
      1760175236,
      1760175256,
      1760175297,
      1760175300,
      1760175358,
      1760175363,
      1760175390,
      1760175448,
      1760175454,
      1760175487,
      1760175503,
      1760175510,
      1760175543,
      1760175576,
      1760175612,
      1760175634,
      1760175649,
      1760175668,
      1760175703,
      1760175721,
      1760175757,
      1760175807,
      1760175813,
      1760175860,
      1760175895,
      1760175912,
      1760175937,
      1760175967,
      1760175992,
      1760176036,
      1760176068,
      1760176089,
      1760176124,
      1760176141,
      1760176183,
      1760176202,
      1760176247,
      1760176280,
      1760176291,
      1760176345,
      1760176357
    ],
    "wof:geomhash": "bdc562b62f7ee082fdeb3625127e5ac0",
    "wof:id": 1981639943,
    "wof:repo": "sfomuseum-data-flights-2025-10"
  },
  "bbox": [
    -122.37037,
    36.72136,
    -121.87774,
    37.61015
  ],
  "geometry": {"coordinates":[[-121.87774,36.72136],[-121.89864,36.75921],[-121.90892,36.79592],[-121.91398,36.81357],[-121.93297,36.88095],[-121.94079,36.90878],[-121.98422,36.94752],[-121.98849,36.94919],[-122.07018,36.9793],[-122.07691,36.98185],[-122.11151,36.99486],[-122.17914,37.01948],[-122.18629,37.02204],[-122.21046,37.0489],[-122.21441,37.0655],[-122.21608,37.07295],[-122.22395,37.10678],[-122.2329,37.14031],[-122.2435,37.17616],[-122.26221,37.19203],[-122.2777,37.20036],[-122.29802,37.21104],[-122.3338,37.23015],[-122.35305,37.24032],[-122.37037,37.27287],[-122.34751,37.31655],[-122.34014,37.31918],[-122.28438,37.34389],[-122.24493,37.36396],[-122.22515,37.37388],[-122.197,37.38785],[-122.17032,37.40812],[-122.15621,37.42998],[-122.13457,37.46383],[-122.14481,37.48698],[-122.15614,37.50033],[-122.17512,37.5242],[-122.18526,37.53594],[-122.22151,37.55418],[-122.23884,37.56145],[-122.27755,37.57778],[-122.30056,37.58746],[-122.30796,37.59059],[-122.34599,37.60649],[-122.35463,37.61015]],"type":"LineString"}
}
