{
  "id": 1981550687,
  "type": "Feature",
  "properties": {
    "geom:area": 0,
    "geom:bbox": "-122.361490,36.724320,-121.880440,37.613260",
    "geom:latitude": 37.233751004204336,
    "geom:longitude": -122.09710212227766,
    "src:alt_label": "swim-approach",
    "src:geom": "swim",
    "swim:elevations": [
      5287,
      5234,
      5009,
      4710,
      4591,
      4260,
      3965,
      3906,
      3817,
      3549,
      3489,
      3196,
      3110,
      3046,
      2987,
      2971,
      2885,
      2750,
      2494,
      2313,
      2039,
      1952,
      1854,
      1828,
      1829,
      1829,
      1808,
      1564,
      1279,
      1217,
      1107,
      1061,
      1020,
      944,
      913,
      750,
      565,
      436,
      364,
      285,
      182,
      66,
      0
    ],
    "swim:geom": "approach",
    "swim:timestamps": [
      1759347401,
      1759347409,
      1759347437,
      1759347475,
      1759347493,
      1759347535,
      1759347568,
      1759347574,
      1759347587,
      1759347625,
      1759347633,
      1759347673,
      1759347700,
      1759347733,
      1759347748,
      1759347752,
      1759347768,
      1759347788,
      1759347825,
      1759347854,
      1759347896,
      1759347912,
      1759347926,
      1759347933,
      1759347958,
      1759347970,
      1759347992,
      1759348026,
      1759348072,
      1759348090,
      1759348107,
      1759348113,
      1759348124,
      1759348141,
      1759348171,
      1759348210,
      1759348251,
      1759348278,
      1759348295,
      1759348318,
      1759348345,
      1759348375,
      1759348392
    ],
    "wof:geomhash": "6d90eef11f5b85400cf800d51c9335fe",
    "wof:id": 1981550687,
    "wof:repo": "sfomuseum-data-flights-2025-10"
  },
  "bbox": [
    -122.36149,
    36.72432,
    -121.88044,
    37.61326
  ],
  "geometry": {"coordinates":[[-121.88044,36.72432],[-121.88747,36.73516],[-121.90362,36.77549],[-121.91956,36.83315],[-121.9273,36.86017],[-121.94491,36.92285],[-121.96037,36.97053],[-121.96373,36.97905],[-121.97089,36.9974],[-121.99125,37.05008],[-121.99531,37.06056],[-122.01707,37.11598],[-122.0345,37.15021],[-122.06647,37.18184],[-122.08012,37.19522],[-122.08349,37.19853],[-122.09798,37.21267],[-122.1159,37.22966],[-122.14975,37.26069],[-122.17664,37.285],[-122.21576,37.31882],[-122.23069,37.33163],[-122.23989,37.34525],[-122.24096,37.35293],[-122.2252,37.37688],[-122.21196,37.38521],[-122.1873,37.40033],[-122.15016,37.42315],[-122.11933,37.46655],[-122.11039,37.48376],[-122.10887,37.49989],[-122.1116,37.50534],[-122.1201,37.51274],[-122.13793,37.51918],[-122.16771,37.53141],[-122.20793,37.54851],[-122.24834,37.56551],[-122.27277,37.57578],[-122.28674,37.58167],[-122.3048,37.58924],[-122.32518,37.5978],[-122.34804,37.60742],[-122.36149,37.61326]],"type":"LineString"}
}
