{
  "id": 1981716701,
  "type": "Feature",
  "properties": {
    "geom:area": 0,
    "geom:bbox": "-122.360650,37.491550,-121.247080,37.615470",
    "geom:latitude": 37.54699924356551,
    "geom:longitude": -121.8089588905188,
    "src:alt_label": "swim-approach",
    "src:geom": "swim",
    "swim:elevations": [
      4713,
      4501,
      4181,
      4117,
      3950,
      3825,
      3421,
      3064,
      2864,
      2801,
      2776,
      2603,
      2476,
      2259,
      2095,
      1889,
      1826,
      1818,
      1486,
      1375,
      1070,
      998,
      840,
      704,
      553,
      549,
      496,
      287,
      121,
      60,
      0
    ],
    "swim:geom": "approach",
    "swim:timestamps": [
      1760989706,
      1760989730,
      1760989768,
      1760989787,
      1760989818,
      1760989831,
      1760989869,
      1760989905,
      1760989932,
      1760989948,
      1760989957,
      1760989997,
      1760990021,
      1760990047,
      1760990078,
      1760990109,
      1760990127,
      1760990149,
      1760990183,
      1760990195,
      1760990243,
      1760990252,
      1760990285,
      1760990308,
      1760990335,
      1760990350,
      1760990383,
      1760990427,
      1760990458,
      1760990480,
      1760990494
    ],
    "wof:geomhash": "6971c7db4a29941ec6d65d81083bc37f",
    "wof:id": 1981716701,
    "wof:repo": "sfomuseum-data-flights-2025-10"
  },
  "bbox": [
    -122.36065,
    37.49155,
    -121.24708,
    37.61547
  ],
  "geometry": {"coordinates":[[-121.24708,37.59479],[-121.2979,37.58818],[-121.37588,37.57959],[-121.41396,37.5752],[-121.47058,37.56861],[-121.49284,37.56603],[-121.55892,37.55836],[-121.62159,37.55089],[-121.66688,37.54065],[-121.6932,37.53423],[-121.70737,37.53086],[-121.76752,37.51665],[-121.80146,37.50857],[-121.84102,37.49899],[-121.8883,37.49155],[-121.93485,37.49256],[-121.96159,37.49315],[-121.99407,37.49714],[-122.03938,37.51151],[-122.05512,37.51663],[-122.11717,37.53668],[-122.12884,37.5404],[-122.16658,37.55264],[-122.19269,37.56106],[-122.22199,37.57054],[-122.23713,37.57544],[-122.26694,37.58494],[-122.3067,37.59598],[-122.33308,37.60372],[-122.35075,37.61075],[-122.36065,37.61547]],"type":"LineString"}
}
