{
  "id": 1981760003,
  "type": "Feature",
  "properties": {
    "geom:area": 0,
    "geom:bbox": "-122.533610,37.629210,-121.975060,38.516540",
    "geom:latitude": 38.05677779860258,
    "geom:longitude": -122.30113406731672,
    "src:alt_label": "swim-takeoff",
    "src:geom": "swim",
    "swim:elevations": [
      250,
      582,
      1038,
      1076,
      1201,
      1428,
      1458,
      2031,
      2107,
      2566,
      2894,
      3124,
      3249,
      3414,
      3566,
      3665,
      3717,
      4163,
      4470,
      4665,
      4823,
      5061,
      5433,
      5603,
      5668,
      5693,
      5817
    ],
    "swim:geom": "takeoff",
    "swim:timestamps": [
      1761336193,
      1761336219,
      1761336269,
      1761336272,
      1761336298,
      1761336326,
      1761336331,
      1761336386,
      1761336391,
      1761336429,
      1761336465,
      1761336487,
      1761336499,
      1761336527,
      1761336568,
      1761336592,
      1761336601,
      1761336655,
      1761336685,
      1761336709,
      1761336726,
      1761336757,
      1761336805,
      1761336829,
      1761336838,
      1761336842,
      1761336860
    ],
    "wof:geomhash": "fd986855cb4947b43eb87eff12308a74",
    "wof:id": 1981760003,
    "wof:repo": "sfomuseum-data-flights-2025-10"
  },
  "bbox": [
    -122.53361,
    37.62921,
    -121.97506,
    38.51654
  ],
  "geometry": {"coordinates":[[-122.4001,37.62921],[-122.42375,37.63931],[-122.47382,37.66072],[-122.47691,37.66202],[-122.50633,37.67441],[-122.53125,37.69777],[-122.53361,37.70336],[-122.52791,37.77426],[-122.52568,37.78107],[-122.49682,37.82776],[-122.46271,37.87122],[-122.44245,37.89905],[-122.43102,37.91445],[-122.40324,37.95167],[-122.35858,38.01169],[-122.32988,38.04997],[-122.31902,38.06431],[-122.25095,38.15434],[-122.21216,38.20509],[-122.18096,38.246],[-122.15864,38.27536],[-122.11775,38.32967],[-122.05272,38.4159],[-122.01911,38.45955],[-122.00633,38.47621],[-122.00157,38.48235],[-121.97506,38.51654]],"type":"LineString"}
}
