{
  "id": 1981666769,
  "type": "Feature",
  "properties": {
    "geom:area": 0,
    "geom:bbox": "-123.119850,37.400160,-122.109970,38.504980",
    "geom:latitude": 37.84568433711151,
    "geom:longitude": -122.56314666776277,
    "src:alt_label": "swim-approach",
    "src:geom": "swim",
    "swim:elevations": [
      7692,
      7382,
      7149,
      6696,
      6669,
      6463,
      6259,
      6042,
      5748,
      5628,
      5164,
      4865,
      4829,
      4459,
      4299,
      4268,
      4266,
      4146,
      4145,
      4145,
      4145,
      4005,
      3872,
      3746,
      3658,
      3504,
      3496,
      3388,
      3289,
      2987,
      2803,
      2486,
      2225,
      2076,
      1973,
      1858,
      1829,
      1829,
      1829,
      1831,
      1749,
      1505,
      1384,
      1291,
      1031,
      928,
      883,
      790,
      773,
      596,
      493,
      368,
      271,
      244,
      180,
      87
    ],
    "swim:geom": "approach",
    "swim:timestamps": [
      1760432378,
      1760432406,
      1760432430,
      1760432483,
      1760432486,
      1760432510,
      1760432526,
      1760432542,
      1760432574,
      1760432589,
      1760432636,
      1760432668,
      1760432671,
      1760432714,
      1760432733,
      1760432788,
      1760432791,
      1760432848,
      1760432854,
      1760432871,
      1760432894,
      1760432932,
      1760432965,
      1760432988,
      1760432998,
      1760433027,
      1760433030,
      1760433058,
      1760433086,
      1760433118,
      1760433136,
      1760433161,
      1760433204,
      1760433234,
      1760433251,
      1760433271,
      1760433326,
      1760433346,
      1760433387,
      1760433411,
      1760433422,
      1760433460,
      1760433481,
      1760433498,
      1760433535,
      1760433554,
      1760433565,
      1760433588,
      1760433612,
      1760433646,
      1760433665,
      1760433695,
      1760433717,
      1760433722,
      1760433737,
      1760433758
    ],
    "wof:geomhash": "ff8e4b7bf0301c92ecace7dc047c15b4",
    "wof:id": 1981666769,
    "wof:repo": "sfomuseum-data-flights-2025-10"
  },
  "bbox": [
    -123.11985,
    37.40016,
    -122.10997,
    38.50498
  ],
  "geometry": {"coordinates":[[-123.11985,38.50498],[-123.07982,38.47309],[-123.04975,38.4405],[-122.99383,38.36108],[-122.99083,38.35677],[-122.96671,38.32226],[-122.95057,38.29904],[-122.93479,38.27624],[-122.90206,38.22893],[-122.88686,38.20723],[-122.83863,38.13838],[-122.80732,38.09333],[-122.80436,38.08905],[-122.76205,38.02769],[-122.74345,38.00076],[-122.68988,37.92349],[-122.68689,37.91926],[-122.61849,37.84796],[-122.61131,37.84117],[-122.59106,37.82191],[-122.56625,37.79861],[-122.5269,37.7614],[-122.49472,37.73112],[-122.47283,37.71045],[-122.46334,37.70153],[-122.43616,37.67597],[-122.43327,37.67329],[-122.40693,37.64857],[-122.38185,37.62475],[-122.35773,37.5958],[-122.34922,37.5776],[-122.33543,37.55171],[-122.30958,37.50957],[-122.29173,37.4818],[-122.28126,37.46543],[-122.26728,37.44696],[-122.20377,37.42152],[-122.17969,37.41307],[-122.13345,37.40016],[-122.11257,37.4122],[-122.10997,37.42235],[-122.11496,37.45606],[-122.11914,37.47516],[-122.12889,37.48817],[-122.15386,37.51388],[-122.16695,37.52732],[-122.17471,37.53479],[-122.19497,37.54506],[-122.21816,37.55491],[-122.25171,37.56915],[-122.26966,37.57676],[-122.29407,37.58699],[-122.31156,37.5944],[-122.31518,37.5959],[-122.32769,37.60117],[-122.34449,37.60822]],"type":"LineString"}
}
