{
  "id": 1981606387,
  "type": "Feature",
  "properties": {
    "geom:area": 0,
    "geom:bbox": "-122.648340,37.436100,-122.075250,38.482620",
    "geom:latitude": 37.87894581016728,
    "geom:longitude": -122.3666014884801,
    "src:alt_label": "swim-approach",
    "src:geom": "swim",
    "swim:elevations": [
      7283,
      7121,
      6924,
      6911,
      6707,
      6377,
      6339,
      6106,
      5907,
      5794,
      5487,
      5321,
      5177,
      5091,
      4758,
      4458,
      4339,
      4117,
      3979,
      3805,
      3590,
      3493,
      3354,
      3353,
      3353,
      3353,
      3319,
      3166,
      3109,
      2643,
      2263,
      1953,
      1775,
      1647,
      1489,
      1401,
      1340,
      1281,
      1136,
      1044,
      1036,
      822,
      716,
      551,
      434,
      304,
      217,
      0,
      98
    ],
    "swim:geom": "approach",
    "swim:timestamps": [
      1759904756,
      1759904786,
      1759904817,
      1759904823,
      1759904856,
      1759904906,
      1759904916,
      1759904961,
      1759904994,
      1759905006,
      1759905053,
      1759905088,
      1759905116,
      1759905133,
      1759905173,
      1759905203,
      1759905212,
      1759905235,
      1759905250,
      1759905266,
      1759905286,
      1759905301,
      1759905347,
      1759905377,
      1759905412,
      1759905444,
      1759905472,
      1759905508,
      1759905514,
      1759905558,
      1759905595,
      1759905620,
      1759905638,
      1759905653,
      1759905688,
      1759905718,
      1759905733,
      1759905756,
      1759905806,
      1759905824,
      1759905828,
      1759905866,
      1759905885,
      1759905909,
      1759905938,
      1759905971,
      1759905992,
      1759906046,
      1759906050
    ],
    "wof:geomhash": "aa5c368909c5a81739d45196cbda16e8",
    "wof:id": 1981606387,
    "wof:repo": "sfomuseum-data-flights-2025-10"
  },
  "bbox": [
    -122.64834,
    37.4361,
    -122.07525,
    38.48262
  ],
  "geometry": {"coordinates":[[-122.07525,38.48262],[-122.11658,38.44266],[-122.15925,38.40137],[-122.16754,38.39336],[-122.21264,38.34982],[-122.27959,38.28448],[-122.2935,38.27089],[-122.35272,38.21342],[-122.39557,38.17198],[-122.41089,38.15713],[-122.46978,38.09922],[-122.51312,38.05649],[-122.54947,38.02098],[-122.57158,37.99918],[-122.62197,37.94947],[-122.64822,37.9085],[-122.64834,37.89369],[-122.63114,37.8604],[-122.6124,37.84227],[-122.59205,37.82261],[-122.56686,37.79886],[-122.54859,37.78166],[-122.49657,37.73231],[-122.46534,37.70312],[-122.42871,37.66897],[-122.39471,37.63702],[-122.36654,37.60979],[-122.34306,37.57313],[-122.34041,37.56695],[-122.31659,37.52376],[-122.29595,37.48963],[-122.28182,37.46615],[-122.26748,37.45018],[-122.2495,37.44455],[-122.20794,37.4361],[-122.176,37.43817],[-122.16756,37.44979],[-122.16289,37.4705],[-122.16343,37.51372],[-122.17598,37.52625],[-122.17916,37.52946],[-122.21193,37.55016],[-122.22915,37.5572],[-122.25003,37.56592],[-122.27344,37.57612],[-122.29952,37.58722],[-122.31636,37.59404],[-122.3594,37.61209],[-122.36144,37.61341]],"type":"LineString"}
}
