{
  "id": 1981795357,
  "type": "Feature",
  "properties": {
    "geom:area": 0,
    "geom:bbox": "-122.350000,30.296667,-98.236389,37.689722",
    "geom:latitude": 34.20870177525072,
    "geom:longitude": -110.31053225712972,
    "src:alt_label": "swim-path",
    "src:geom": "swim",
    "swim:altitudes": [
      "181",
      "181",
      "181",
      "181",
      "181",
      "181",
      "181",
      "228",
      "228",
      "228",
      "228",
      "228",
      "228",
      "247",
      "247",
      "247",
      "247",
      "247",
      "247",
      "247",
      "368",
      "368",
      "368",
      "368",
      "380C",
      "380C",
      "380C",
      "380C",
      "380C",
      "380C",
      "380C",
      "380C",
      "380C",
      "380C",
      "380C",
      "380C",
      "380C",
      "380C",
      "380C",
      "380C",
      "380C",
      "380C",
      "380C",
      "380C",
      "380C",
      "380C",
      "380C",
      "380C",
      "380C",
      "380C",
      "380C",
      "380C",
      "380C",
      "380C",
      "380C",
      "380C",
      "380C",
      "380C",
      "380C",
      "380C",
      "380C",
      "380C",
      "380C",
      "380C",
      "380C",
      "380C",
      "380C",
      "380C",
      "380C",
      "380C",
      "380C",
      "380C",
      "380C",
      "380C",
      "380C",
      "380C",
      "380C",
      "380C",
      "380C",
      "380C",
      "380C",
      "380C",
      "380C",
      "380C",
      "380C",
      "380C",
      "380C",
      "380C",
      "380C",
      "380C",
      "380C",
      "380C",
      "380C",
      "380C",
      "380C",
      "380C",
      "380C",
      "380C",
      "380C",
      "380C",
      "380C",
      "380C",
      "380C",
      "380C",
      "380C",
      "380C",
      "380C",
      "380C",
      "380C",
      "380C",
      "380C",
      "380C",
      "380C",
      "380C",
      "380C",
      "380C",
      "380C",
      "380C",
      "380C",
      "380C",
      "380C",
      "380C",
      "380C",
      "380C",
      "380C",
      "380C",
      "380C",
      "380C",
      "380C",
      "380C",
      "380C",
      "380C",
      "380C",
      "380C",
      "380C",
      "380C",
      "380C",
      "380C",
      "380C",
      "380C",
      "380C",
      "380C",
      "380C",
      "380C",
      "380C",
      "380C",
      "380C",
      "380C",
      "380C",
      "380C",
      "380C",
      "380C",
      "380C",
      "380C",
      "380C",
      "380C",
      "380C",
      "380C",
      "380C",
      "380C",
      "380C",
      "380C",
      "380C",
      "380C",
      "380C",
      "380C",
      "380C",
      "380C",
      "380C",
      "380C",
      "380C",
      "380C",
      "380C",
      "380C",
      "380C",
      "380C",
      "380C",
      "380C",
      "380C",
      "380C",
      "380C",
      "380C",
      "380C",
      "380C",
      "380C",
      "380C",
      "380C",
      "380C",
      "380C",
      "380C",
      "380C",
      "380C",
      "380C",
      "380C",
      "380C",
      "380C",
      "380C",
      "380C",
      "380C",
      "380C",
      "380C",
      "380C",
      "380C",
      "380C",
      "380C",
      "380C",
      "380C",
      "380C",
      "380C",
      "380C",
      "380C",
      "380C",
      "380C",
      "380C",
      "380C",
      "380C",
      "380C",
      "380C",
      "380C",
      "380C",
      "380C",
      "380C",
      "380C",
      "380C",
      "380C",
      "380C",
      "380C",
      "380C",
      "380C",
      "380C",
      "380C",
      "380C",
      "380C",
      "380C",
      "380C",
      "380C",
      "380C",
      "380C",
      "380C",
      "380C",
      "380C",
      "380C",
      "380C",
      "380C",
      "380C",
      "380C",
      "380C",
      "380C",
      "380C",
      "380C",
      "380C",
      "380C",
      "380C",
      "380C",
      "380C",
      "380C",
      "380C",
      "380C",
      "380C",
      "380C",
      "380C",
      "380C",
      "380C",
      "380C",
      "380C",
      "380C",
      "380C",
      "380C",
      "380C",
      "380C",
      "380C",
      "380C",
      "380C",
      "380C",
      "380C",
      "380C",
      "380C",
      "380C",
      "380C",
      "380C",
      "380C",
      "380C",
      "380C",
      "380C",
      "380C",
      "380C",
      "380C",
      "380C",
      "380C",
      "380",
      "380",
      "380",
      "380",
      "380",
      "380",
      "379",
      "379",
      "379",
      "379",
      "372",
      "362",
      "362",
      "362",
      "320",
      "320",
      "320",
      "300C",
      "300C",
      "300C",
      "300C",
      "300C",
      "300C",
      "300C",
      "282",
      "282",
      "223",
      "223",
      "200",
      "200",
      "200",
      "200",
      "200",
      "166",
      "166",
      "166",
      "166",
      "126",
      "103",
      "103",
      "103",
      "093",
      "093",
      "093",
      "051",
      "051",
      "051",
      "051",
      "040",
      "040",
      "040",
      "006",
      "006",
      "006",
      "006",
      "006",
      "003",
      "003",
      "003",
      "003",
      "003"
    ],
    "swim:geom": "path",
    "swim:speeds": [
      340,
      340,
      340,
      340,
      340,
      340,
      340,
      355,
      355,
      355,
      355,
      355,
      355,
      364,
      364,
      364,
      364,
      364,
      364,
      364,
      403,
      403,
      403,
      403,
      401,
      401,
      401,
      401,
      401,
      401,
      402,
      402,
      402,
      402,
      397,
      397,
      397,
      397,
      394,
      394,
      394,
      394,
      392,
      392,
      392,
      394,
      394,
      394,
      394,
      394,
      393,
      393,
      393,
      394,
      394,
      394,
      394,
      397,
      397,
      399,
      399,
      401,
      401,
      401,
      401,
      402,
      402,
      402,
      402,
      402,
      402,
      402,
      402,
      400,
      400,
      400,
      400,
      400,
      400,
      401,
      401,
      401,
      403,
      403,
      403,
      404,
      404,
      404,
      404,
      405,
      405,
      405,
      404,
      404,
      404,
      403,
      403,
      403,
      403,
      402,
      402,
      402,
      402,
      402,
      402,
      402,
      411,
      411,
      411,
      411,
      411,
      412,
      412,
      412,
      412,
      414,
      414,
      414,
      413,
      413,
      413,
      412,
      412,
      412,
      411,
      411,
      411,
      411,
      411,
      405,
      405,
      405,
      405,
      405,
      410,
      410,
      410,
      410,
      410,
      410,
      412,
      412,
      412,
      412,
      412,
      412,
      412,
      412,
      411,
      411,
      411,
      411,
      411,
      412,
      412,
      412,
      412,
      412,
      413,
      413,
      413,
      413,
      413,
      414,
      414,
      414,
      414,
      415,
      415,
      416,
      416,
      416,
      416,
      416,
      416,
      417,
      417,
      417,
      417,
      417,
      417,
      416,
      416,
      416,
      416,
      416,
      416,
      416,
      416,
      416,
      416,
      417,
      417,
      417,
      417,
      417,
      417,
      417,
      416,
      416,
      416,
      416,
      416,
      416,
      416,
      416,
      416,
      416,
      416,
      418,
      418,
      418,
      418,
      418,
      418,
      418,
      418,
      420,
      420,
      420,
      420,
      420,
      420,
      420,
      420,
      420,
      420,
      420,
      420,
      420,
      420,
      423,
      423,
      423,
      423,
      423,
      423,
      423,
      423,
      427,
      427,
      427,
      427,
      427,
      427,
      427,
      427,
      427,
      424,
      424,
      424,
      424,
      424,
      424,
      424,
      428,
      428,
      428,
      428,
      432,
      432,
      432,
      432,
      432,
      433,
      433,
      433,
      433,
      433,
      433,
      433,
      433,
      433,
      414,
      414,
      411,
      412,
      412,
      413,
      413,
      414,
      414,
      414,
      414,
      414,
      420,
      420,
      422,
      422,
      425,
      425,
      425,
      425,
      425,
      425,
      425,
      425,
      425,
      425,
      425,
      424,
      424,
      424,
      443,
      443,
      443,
      461,
      461,
      461,
      461,
      461,
      461,
      461,
      441,
      441,
      400,
      400,
      389,
      389,
      389,
      389,
      389,
      378,
      378,
      378,
      378,
      348,
      317,
      317,
      317,
      285,
      285,
      285,
      241,
      241,
      241,
      241,
      234,
      234,
      234,
      151,
      151,
      151,
      151,
      151,
      150,
      150,
      150,
      150,
      150
    ],
    "swim:timestamps": [
      1761746053,
      1761746053,
      1761746053,
      1761746053,
      1761746053,
      1761746053,
      1761746053,
      1761746173,
      1761746173,
      1761746173,
      1761746173,
      1761746173,
      1761746173,
      1761746233,
      1761746233,
      1761746233,
      1761746233,
      1761746233,
      1761746233,
      1761746233,
      1761746774,
      1761746774,
      1761746774,
      1761746774,
      1761746894,
      1761746894,
      1761746894,
      1761746894,
      1761746894,
      1761746894,
      1761746954,
      1761746954,
      1761746954,
      1761746954,
      1761747195,
      1761747195,
      1761747195,
      1761747195,
      1761747255,
      1761747255,
      1761747255,
      1761747255,
      1761747375,
      1761747375,
      1761747375,
      1761747555,
      1761747555,
      1761747583,
      1761747583,
      1761747583,
      1761747615,
      1761747615,
      1761747615,
      1761747643,
      1761747643,
      1761747643,
      1761747643,
      1761747856,
      1761747856,
      1761747884,
      1761747884,
      1761747944,
      1761747944,
      1761747944,
      1761747944,
      1761748004,
      1761748004,
      1761748004,
      1761748004,
      1761748156,
      1761748156,
      1761748156,
      1761748156,
      1761748244,
      1761748244,
      1761748244,
      1761748397,
      1761748397,
      1761748397,
      1761748485,
      1761748485,
      1761748485,
      1761748545,
      1761748545,
      1761748545,
      1761748665,
      1761748665,
      1761748665,
      1761748665,
      1761748725,
      1761748725,
      1761748725,
      1761748845,
      1761748845,
      1761748845,
      1761749025,
      1761749025,
      1761749025,
      1761749025,
      1761749266,
      1761749266,
      1761749266,
      1761749266,
      1761749266,
      1761749266,
      1761749266,
      1761749566,
      1761749566,
      1761749566,
      1761749566,
      1761749566,
      1761749626,
      1761749626,
      1761749626,
      1761749626,
      1761749867,
      1761749867,
      1761749867,
      1761749927,
      1761749927,
      1761749927,
      1761749987,
      1761749987,
      1761749987,
      1761750047,
      1761750047,
      1761750047,
      1761750047,
      1761750047,
      1761750167,
      1761750167,
      1761750167,
      1761750167,
      1761750167,
      1761750528,
      1761750528,
      1761750528,
      1761750528,
      1761750528,
      1761750528,
      1761750648,
      1761750648,
      1761750648,
      1761750648,
      1761750948,
      1761750948,
      1761750948,
      1761750948,
      1761751069,
      1761751069,
      1761751069,
      1761751069,
      1761751069,
      1761751189,
      1761751189,
      1761751189,
      1761751189,
      1761751189,
      1761751309,
      1761751309,
      1761751309,
      1761751309,
      1761751309,
      1761751369,
      1761751369,
      1761751369,
      1761751369,
      1761751429,
      1761751429,
      1761751489,
      1761751489,
      1761751549,
      1761751549,
      1761751549,
      1761751549,
      1761751970,
      1761751970,
      1761751970,
      1761751970,
      1761751970,
      1761751970,
      1761752057,
      1761752057,
      1761752057,
      1761752057,
      1761752057,
      1761752117,
      1761752117,
      1761752117,
      1761752117,
      1761752117,
      1761752297,
      1761752297,
      1761752297,
      1761752358,
      1761752358,
      1761752358,
      1761752391,
      1761752511,
      1761752511,
      1761752511,
      1761752511,
      1761752538,
      1761752538,
      1761752538,
      1761752538,
      1761752598,
      1761752598,
      1761752598,
      1761752898,
      1761752898,
      1761752898,
      1761752898,
      1761752898,
      1761752898,
      1761752898,
      1761752898,
      1761753232,
      1761753232,
      1761753292,
      1761753292,
      1761753292,
      1761753352,
      1761753352,
      1761753352,
      1761753352,
      1761753379,
      1761753379,
      1761753379,
      1761753379,
      1761753379,
      1761753980,
      1761753980,
      1761753980,
      1761753980,
      1761753980,
      1761753980,
      1761753980,
      1761753980,
      1761754341,
      1761754341,
      1761754401,
      1761754401,
      1761754401,
      1761754401,
      1761754521,
      1761754521,
      1761754521,
      1761754821,
      1761754821,
      1761754821,
      1761754821,
      1761754821,
      1761754821,
      1761754821,
      1761755109,
      1761755109,
      1761755109,
      1761755109,
      1761755242,
      1761755242,
      1761755242,
      1761755242,
      1761755242,
      1761755349,
      1761755349,
      1761755349,
      1761755349,
      1761755422,
      1761755422,
      1761755422,
      1761755422,
      1761755422,
      1761755529,
      1761755529,
      1761755663,
      1761755723,
      1761755723,
      1761755783,
      1761755783,
      1761755843,
      1761755843,
      1761755843,
      1761755843,
      1761755843,
      1761755903,
      1761755903,
      1761755950,
      1761755950,
      1761756010,
      1761756010,
      1761756010,
      1761756010,
      1761756010,
      1761756010,
      1761756023,
      1761756023,
      1761756023,
      1761756023,
      1761756070,
      1761756130,
      1761756130,
      1761756130,
      1761756310,
      1761756310,
      1761756310,
      1761756431,
      1761756431,
      1761756431,
      1761756431,
      1761756431,
      1761756431,
      1761756431,
      1761756671,
      1761756671,
      1761756809,
      1761756809,
      1761756869,
      1761756869,
      1761756869,
      1761756869,
      1761756869,
      1761756971,
      1761756971,
      1761756971,
      1761756971,
      1761757091,
      1761757169,
      1761757169,
      1761757169,
      1761757235,
      1761757235,
      1761757235,
      1761757475,
      1761757475,
      1761757475,
      1761757475,
      1761757529,
      1761757529,
      1761757529,
      1761757752,
      1761757752,
      1761757752,
      1761757752,
      1761757752,
      1761757769,
      1761757769,
      1761757769,
      1761757769,
      1761757769
    ],
    "wof:geomhash": "2bf2af43c71da39442bb9162e52777da",
    "wof:id": 1981795357,
    "wof:repo": "sfomuseum-data-flights-2025-10"
  },
  "bbox": [
    -122.35,
    30.296666666666667,
    -98.2363888888889,
    37.689722222222215
  ],
  "geometry": {"coordinates":[[-98.2363888888889,30.296666666666667],[-98.2363888888889,30.296666666666667],[-98.2363888888889,30.296666666666667],[-98.2363888888889,30.296666666666667],[-98.2363888888889,30.296666666666667],[-98.2363888888889,30.296666666666667],[-98.2363888888889,30.296666666666667],[-98.4575,30.34],[-98.4575,30.34],[-98.4575,30.34],[-98.4575,30.34],[-98.4575,30.34],[-98.4575,30.34],[-98.57166666666666,30.362222222222222],[-98.57166666666666,30.362222222222222],[-98.57166666666666,30.362222222222222],[-98.57166666666666,30.362222222222222],[-98.57166666666666,30.362222222222222],[-98.57166666666666,30.362222222222222],[-98.57166666666666,30.362222222222222],[-99.69888888888889,30.575833333333332],[-99.69888888888889,30.575833333333332],[-99.69888888888889,30.575833333333332],[-99.69888888888889,30.575833333333332],[-99.94694444444445,30.629722222222224],[-99.94694444444445,30.629722222222224],[-99.94694444444445,30.629722222222224],[-99.94694444444445,30.629722222222224],[-99.94694444444445,30.629722222222224],[-99.94694444444445,30.629722222222224],[-100.07083333333333,30.65833333333333],[-100.07083333333333,30.65833333333333],[-100.07083333333333,30.65833333333333],[-100.07083333333333,30.65833333333333],[-100.56527777777778,30.773333333333333],[-100.56527777777778,30.773333333333333],[-100.56527777777778,30.773333333333333],[-100.56527777777778,30.773333333333333],[-100.68666666666667,30.80138888888889],[-100.68666666666667,30.80138888888889],[-100.68666666666667,30.80138888888889],[-100.68666666666667,30.80138888888889],[-100.92944444444444,30.857222222222223],[-100.92944444444444,30.857222222222223],[-100.92944444444444,30.857222222222223],[-101.32277777777777,30.94638888888889],[-101.32277777777777,30.94638888888889],[-101.35777777777777,30.954166666666666],[-101.35777777777777,30.954166666666666],[-101.35777777777777,30.954166666666666],[-101.43138888888889,30.970555555555553],[-101.43138888888889,30.970555555555553],[-101.43138888888889,30.970555555555553],[-101.48222222222222,30.981944444444444],[-101.48222222222222,30.981944444444444],[-101.48222222222222,30.981944444444444],[-101.48222222222222,30.981944444444444],[-101.92805555555556,31.080833333333334],[-101.92805555555556,31.080833333333334],[-102.00027777777778,31.09638888888889],[-102.00027777777778,31.09638888888889],[-102.12638888888888,31.124166666666667],[-102.12638888888888,31.124166666666667],[-102.12638888888888,31.124166666666667],[-102.12638888888888,31.124166666666667],[-102.25277777777778,31.15138888888889],[-102.25277777777778,31.15138888888889],[-102.25277777777778,31.15138888888889],[-102.25277777777778,31.15138888888889],[-102.5675,31.224444444444444],[-102.5675,31.224444444444444],[-102.5675,31.224444444444444],[-102.5675,31.224444444444444],[-102.74194444444444,31.270833333333332],[-102.74194444444444,31.270833333333332],[-102.74194444444444,31.270833333333332],[-103.065,31.355833333333333],[-103.065,31.355833333333333],[-103.065,31.355833333333333],[-103.24083333333333,31.401944444444442],[-103.24083333333333,31.401944444444442],[-103.24083333333333,31.401944444444442],[-103.36583333333333,31.434166666666666],[-103.36583333333333,31.434166666666666],[-103.36583333333333,31.434166666666666],[-103.61861111111111,31.499166666666667],[-103.61861111111111,31.499166666666667],[-103.61861111111111,31.499166666666667],[-103.61861111111111,31.499166666666667],[-103.74444444444444,31.531388888888888],[-103.74444444444444,31.531388888888888],[-103.74444444444444,31.531388888888888],[-103.995,31.595],[-103.995,31.595],[-103.995,31.595],[-104.3711111111111,31.689722222222223],[-104.3711111111111,31.689722222222223],[-104.3711111111111,31.689722222222223],[-104.3711111111111,31.689722222222223],[-104.87388888888889,31.81361111111111],[-104.87388888888889,31.81361111111111],[-104.87388888888889,31.81361111111111],[-104.87388888888889,31.81361111111111],[-104.87388888888889,31.81361111111111],[-104.87388888888889,31.81361111111111],[-104.87388888888889,31.81361111111111],[-105.53861111111111,31.974444444444444],[-105.53861111111111,31.974444444444444],[-105.53861111111111,31.974444444444444],[-105.53861111111111,31.974444444444444],[-105.53861111111111,31.974444444444444],[-105.66166666666668,32.00388888888889],[-105.66166666666668,32.00388888888889],[-105.66166666666668,32.00388888888889],[-105.66166666666668,32.00388888888889],[-106.19222222222223,32.12861111111111],[-106.19222222222223,32.12861111111111],[-106.19222222222223,32.12861111111111],[-106.32194444444444,32.15888888888889],[-106.32194444444444,32.15888888888889],[-106.32194444444444,32.15888888888889],[-106.45138888888889,32.18888888888888],[-106.45138888888889,32.18888888888888],[-106.45138888888889,32.18888888888888],[-106.56972222222223,32.215833333333336],[-106.56972222222223,32.215833333333336],[-106.56972222222223,32.215833333333336],[-106.56972222222223,32.215833333333336],[-106.56972222222223,32.215833333333336],[-106.79055555555556,32.32027777777778],[-106.79055555555556,32.32027777777778],[-106.79055555555556,32.32027777777778],[-106.79055555555556,32.32027777777778],[-106.79055555555556,32.32027777777778],[-107.42111111111112,32.76444444444444],[-107.42111111111112,32.76444444444444],[-107.42111111111112,32.76444444444444],[-107.42111111111112,32.76444444444444],[-107.42111111111112,32.76444444444444],[-107.42111111111112,32.76444444444444],[-107.63083333333333,32.91111111111111],[-107.63083333333333,32.91111111111111],[-107.63083333333333,32.91111111111111],[-107.63083333333333,32.91111111111111],[-108.15805555555556,33.27444444444444],[-108.15805555555556,33.27444444444444],[-108.15805555555556,33.27444444444444],[-108.15805555555556,33.27444444444444],[-108.36833333333333,33.418055555555554],[-108.36833333333333,33.418055555555554],[-108.36833333333333,33.418055555555554],[-108.36833333333333,33.418055555555554],[-108.36833333333333,33.418055555555554],[-108.58166666666666,33.56305555555555],[-108.58166666666666,33.56305555555555],[-108.58166666666666,33.56305555555555],[-108.58166666666666,33.56305555555555],[-108.58166666666666,33.56305555555555],[-108.79472222222222,33.70666666666667],[-108.79472222222222,33.70666666666667],[-108.79472222222222,33.70666666666667],[-108.79472222222222,33.70666666666667],[-108.79472222222222,33.70666666666667],[-108.90166666666667,33.778888888888886],[-108.90166666666667,33.778888888888886],[-108.90166666666667,33.778888888888886],[-108.90166666666667,33.778888888888886],[-109.0025,33.846111111111114],[-109.0025,33.846111111111114],[-109.11222222222221,33.919444444444444],[-109.11222222222221,33.919444444444444],[-109.22027777777778,33.99166666666667],[-109.22027777777778,33.99166666666667],[-109.22027777777778,33.99166666666667],[-109.22027777777778,33.99166666666667],[-110.06916666666666,34.41888888888889],[-110.06916666666666,34.41888888888889],[-110.06916666666666,34.41888888888889],[-110.06916666666666,34.41888888888889],[-110.06916666666666,34.41888888888889],[-110.06916666666666,34.41888888888889],[-110.25111111111111,34.488055555555555],[-110.25111111111111,34.488055555555555],[-110.25111111111111,34.488055555555555],[-110.25111111111111,34.488055555555555],[-110.25111111111111,34.488055555555555],[-110.37944444444443,34.532222222222224],[-110.37944444444443,34.532222222222224],[-110.37944444444443,34.532222222222224],[-110.37944444444443,34.532222222222224],[-110.37944444444443,34.532222222222224],[-110.76611111111112,34.666666666666664],[-110.76611111111112,34.666666666666664],[-110.76611111111112,34.666666666666664],[-110.89666666666668,34.71138888888889],[-110.89666666666668,34.71138888888889],[-110.89666666666668,34.71138888888889],[-110.95166666666667,34.72805555555556],[-111.23527777777778,34.825833333333335],[-111.23527777777778,34.825833333333335],[-111.23527777777778,34.825833333333335],[-111.23527777777778,34.825833333333335],[-111.28472222222221,34.8425],[-111.28472222222221,34.8425],[-111.28472222222221,34.8425],[-111.28472222222221,34.8425],[-111.41444444444446,34.88666666666666],[-111.41444444444446,34.88666666666666],[-111.41444444444446,34.88666666666666],[-112.05444444444444,35.102222222222224],[-112.05444444444444,35.102222222222224],[-112.05444444444444,35.102222222222224],[-112.05444444444444,35.102222222222224],[-112.05444444444444,35.102222222222224],[-112.05444444444444,35.102222222222224],[-112.05444444444444,35.102222222222224],[-112.05444444444444,35.102222222222224],[-112.80305555555556,35.348888888888894],[-112.80305555555556,35.348888888888894],[-112.9363888888889,35.39194444444444],[-112.9363888888889,35.39194444444444],[-112.9363888888889,35.39194444444444],[-113.07055555555556,35.43527777777778],[-113.07055555555556,35.43527777777778],[-113.07055555555556,35.43527777777778],[-113.07055555555556,35.43527777777778],[-113.13138888888888,35.455000000000005],[-113.13138888888888,35.455000000000005],[-113.13138888888888,35.455000000000005],[-113.13138888888888,35.455000000000005],[-113.13138888888888,35.455000000000005],[-114.47972222222222,35.87861111111111],[-114.47972222222222,35.87861111111111],[-114.47972222222222,35.87861111111111],[-114.47972222222222,35.87861111111111],[-114.47972222222222,35.87861111111111],[-114.47972222222222,35.87861111111111],[-114.47972222222222,35.87861111111111],[-114.47972222222222,35.87861111111111],[-115.27166666666666,36.17388888888889],[-115.27166666666666,36.17388888888889],[-115.40166666666667,36.23027777777778],[-115.40166666666667,36.23027777777778],[-115.40166666666667,36.23027777777778],[-115.40166666666667,36.23027777777778],[-115.64583333333334,36.33555555555556],[-115.64583333333334,36.33555555555556],[-115.64583333333334,36.33555555555556],[-116.295,36.61138888888889],[-116.295,36.61138888888889],[-116.295,36.61138888888889],[-116.295,36.61138888888889],[-116.295,36.61138888888889],[-116.295,36.61138888888889],[-116.295,36.61138888888889],[-116.8775,36.91833333333333],[-116.8775,36.91833333333333],[-116.8775,36.91833333333333],[-116.8775,36.91833333333333],[-117.09805555555555,37.1175],[-117.09805555555555,37.1175],[-117.09805555555555,37.1175],[-117.09805555555555,37.1175],[-117.09805555555555,37.1175],[-117.28083333333333,37.28111111111111],[-117.28083333333333,37.28111111111111],[-117.28083333333333,37.28111111111111],[-117.28083333333333,37.28111111111111],[-117.40083333333334,37.388333333333335],[-117.40083333333334,37.388333333333335],[-117.40083333333334,37.388333333333335],[-117.40083333333334,37.388333333333335],[-117.40083333333334,37.388333333333335],[-117.61527777777778,37.501666666666665],[-117.61527777777778,37.501666666666665],[-117.93,37.52777777777778],[-118.07472222222222,37.53916666666667],[-118.07472222222222,37.53916666666667],[-118.21805555555555,37.55027777777777],[-118.21805555555555,37.55027777777777],[-118.36527777777778,37.561388888888885],[-118.36527777777778,37.561388888888885],[-118.36527777777778,37.561388888888885],[-118.36527777777778,37.561388888888885],[-118.36527777777778,37.561388888888885],[-118.5111111111111,37.572500000000005],[-118.5111111111111,37.572500000000005],[-118.63222222222221,37.58166666666667],[-118.63222222222221,37.58166666666667],[-118.78138888888888,37.5925],[-118.78138888888888,37.5925],[-118.78138888888888,37.5925],[-118.78138888888888,37.5925],[-118.78138888888888,37.5925],[-118.78138888888888,37.5925],[-118.80972222222222,37.594722222222224],[-118.80972222222222,37.594722222222224],[-118.80972222222222,37.594722222222224],[-118.80972222222222,37.594722222222224],[-118.915,37.602222222222224],[-119.06888888888888,37.613055555555555],[-119.06888888888888,37.613055555555555],[-119.06888888888888,37.613055555555555],[-119.52555555555556,37.64416666666666],[-119.52555555555556,37.64416666666666],[-119.52555555555556,37.64416666666666],[-119.84666666666666,37.665],[-119.84666666666666,37.665],[-119.84666666666666,37.665],[-119.84666666666666,37.665],[-119.84666666666666,37.665],[-119.84666666666666,37.665],[-119.84666666666666,37.665],[-120.48416666666667,37.689722222222215],[-120.48416666666667,37.689722222222215],[-120.83333333333333,37.65],[-120.83333333333333,37.65],[-120.96666666666667,37.63333333333333],[-120.96666666666667,37.63333333333333],[-120.96666666666667,37.63333333333333],[-120.96666666666667,37.63333333333333],[-120.96666666666667,37.63333333333333],[-121.17555555555556,37.60444444444445],[-121.17555555555556,37.60444444444445],[-121.17555555555556,37.60444444444445],[-121.17555555555556,37.60444444444445],[-121.42166666666667,37.574444444444445],[-121.58333333333333,37.55],[-121.58333333333333,37.55],[-121.58333333333333,37.55],[-121.7,37.53333333333333],[-121.7,37.53333333333333],[-121.7,37.53333333333333],[-122.05,37.516666666666666],[-122.05,37.516666666666666],[-122.05,37.516666666666666],[-122.05,37.516666666666666],[-122.11666666666666,37.53333333333333],[-122.11666666666666,37.53333333333333],[-122.11666666666666,37.53333333333333],[-122.32666666666667,37.602222222222224],[-122.32666666666667,37.602222222222224],[-122.32666666666667,37.602222222222224],[-122.32666666666667,37.602222222222224],[-122.32666666666667,37.602222222222224],[-122.35,37.61666666666667],[-122.35,37.61666666666667],[-122.35,37.61666666666667],[-122.35,37.61666666666667],[-122.35,37.61666666666667]],"type":"LineString"}
}
