{
  "id": 1981676121,
  "type": "Feature",
  "properties": {
    "geom:area": 0,
    "geom:bbox": "-122.362750,37.402390,-122.086720,37.613980",
    "geom:latitude": 37.52793146367829,
    "geom:longitude": -122.19644985275801,
    "src:alt_label": "swim-approach",
    "src:geom": "swim",
    "swim:elevations": [
      1524,
      1321,
      1216,
      1219,
      1182,
      893,
      792,
      792,
      792,
      554,
      440,
      273,
      216,
      149,
      0
    ],
    "swim:geom": "approach",
    "swim:timestamps": [
      1760542274,
      1760542313,
      1760542338,
      1760542353,
      1760542385,
      1760542435,
      1760542458,
      1760542473,
      1760542501,
      1760542553,
      1760542578,
      1760542617,
      1760542633,
      1760542654,
      1760542693
    ],
    "wof:geomhash": "431a1ebbd0791d7065df50d3beb18aff",
    "wof:id": 1981676121,
    "wof:repo": "sfomuseum-data-flights-2025-10"
  },
  "bbox": [
    -122.36275,
    37.40239,
    -122.08672,
    37.61398
  ],
  "geometry": {"coordinates":[[-122.11847,37.40239],[-122.09963,37.43364],[-122.08797,37.45328],[-122.08672,37.46552],[-122.10532,37.48886],[-122.14117,37.52026],[-122.16294,37.52962],[-122.17688,37.53541],[-122.20395,37.54683],[-122.25349,37.56773],[-122.27569,37.57699],[-122.30624,37.58982],[-122.3179,37.59469],[-122.33415,37.60158],[-122.36275,37.61398]],"type":"LineString"}
}
