{
  "id": 1981690539,
  "type": "Feature",
  "properties": {
    "geom:area": 0,
    "geom:bbox": "-122.348280,37.491220,-121.245670,37.609900",
    "geom:latitude": 37.54625455775826,
    "geom:longitude": -121.80166356308048,
    "src:alt_label": "swim-approach",
    "src:geom": "swim",
    "swim:elevations": [
      4760,
      4712,
      4562,
      4280,
      4040,
      3782,
      3758,
      3374,
      3173,
      3009,
      2740,
      2661,
      2359,
      2148,
      2108,
      2026,
      1919,
      1873,
      1572,
      1485,
      1434,
      1374,
      1238,
      1064,
      900,
      806,
      734,
      550,
      390,
      325,
      247,
      180,
      65
    ],
    "swim:geom": "approach",
    "swim:timestamps": [
      1760730027,
      1760730035,
      1760730051,
      1760730087,
      1760730115,
      1760730148,
      1760730152,
      1760730206,
      1760730233,
      1760730254,
      1760730294,
      1760730310,
      1760730353,
      1760730386,
      1760730396,
      1760730417,
      1760730443,
      1760730455,
      1760730507,
      1760730523,
      1760730530,
      1760730540,
      1760730567,
      1760730592,
      1760730627,
      1760730646,
      1760730662,
      1760730701,
      1760730733,
      1760730748,
      1760730765,
      1760730785,
      1760730813
    ],
    "wof:geomhash": "78d0eaf83dc443234f726254d6b25bf1",
    "wof:id": 1981690539,
    "wof:repo": "sfomuseum-data-flights-2025-10"
  },
  "bbox": [
    -122.34828,
    37.49122,
    -121.24567,
    37.6099
  ],
  "geometry": {"coordinates":[[-121.24567,37.59502],[-121.26081,37.59295],[-121.29283,37.5887],[-121.366,37.58078],[-121.42005,37.57481],[-121.4832,37.56767],[-121.49081,37.56681],[-121.58697,37.55505],[-121.63352,37.54833],[-121.6688,37.54019],[-121.73326,37.52467],[-121.75775,37.5188],[-121.82209,37.50366],[-121.87051,37.49241],[-121.88528,37.49122],[-121.91593,37.49174],[-121.95396,37.49276],[-121.97129,37.49331],[-122.03871,37.51122],[-122.05996,37.51809],[-122.06905,37.52092],[-122.08179,37.52495],[-122.11493,37.5356],[-122.14377,37.54538],[-122.18002,37.55665],[-122.19886,37.56256],[-122.21599,37.56811],[-122.25463,37.58092],[-122.28644,37.59028],[-122.29901,37.59387],[-122.31231,37.59781],[-122.32714,37.60253],[-122.34828,37.6099]],"type":"LineString"}
}
