{
  "id": 1981761711,
  "type": "Feature",
  "properties": {
    "geom:area": 0,
    "geom:bbox": "-123.390833,37.550000,-122.150000,47.441667",
    "geom:latitude": 42.690266870662185,
    "geom:longitude": -123.11991326024392,
    "src:alt_label": "swim-path",
    "src:geom": "swim",
    "swim:altitudes": [
      "011",
      "063",
      "146",
      "173",
      "241",
      "270",
      "270",
      "299",
      "336",
      "336",
      "350C",
      "350C",
      "350C",
      "350C",
      "350C",
      "350C",
      "350C",
      "350C",
      "350C",
      "350C",
      "350C",
      "350C",
      "350C",
      "350C",
      "350C",
      "350C",
      "350C",
      "350C",
      "350C",
      "350C",
      "350C",
      "350C",
      "350C",
      "350C",
      "350C",
      "350C",
      "350C",
      "350C",
      "350",
      "350",
      "350",
      "350",
      "273",
      "273",
      "203",
      "110",
      "103",
      "078",
      "042",
      "042"
    ],
    "swim:geom": "path",
    "swim:speeds": [
      163,
      228,
      313,
      333,
      371,
      372,
      372,
      390,
      439,
      439,
      453,
      453,
      453,
      450,
      450,
      450,
      450,
      450,
      450,
      439,
      439,
      439,
      446,
      446,
      447,
      447,
      448,
      452,
      459,
      454,
      452,
      452,
      452,
      449,
      453,
      453,
      457,
      471,
      477,
      478,
      478,
      479,
      469,
      469,
      395,
      305,
      289,
      264,
      195,
      195
    ],
    "swim:timestamps": [
      1761445406,
      1761445518,
      1761445699,
      1761445758,
      1761445937,
      1761445997,
      1761445997,
      1761446117,
      1761446299,
      1761446299,
      1761446480,
      1761446540,
      1761446540,
      1761446659,
      1761446719,
      1761446719,
      1761446839,
      1761446959,
      1761446959,
      1761447259,
      1761447259,
      1761447259,
      1761447980,
      1761447980,
      1761448221,
      1761448221,
      1761448236,
      1761448399,
      1761448476,
      1761448596,
      1761448700,
      1761448700,
      1761448700,
      1761448837,
      1761449181,
      1761449181,
      1761449257,
      1761449377,
      1761449600,
      1761449660,
      1761449677,
      1761449737,
      1761450037,
      1761450037,
      1761450278,
      1761450644,
      1761450698,
      1761450818,
      1761451004,
      1761451004
    ],
    "wof:geomhash": "d9c32505aed1726e664de1215787a77b",
    "wof:id": 1981761711,
    "wof:repo": "sfomuseum-data-flights-2025-10"
  },
  "bbox": [
    -123.39083333333333,
    37.55,
    -122.15,
    47.44166666666666
  ],
  "geometry": {"coordinates":[[-122.31,47.44166666666666],[-122.31222222222222,47.34138888888889],[-122.62249999999999,47.31194444444444],[-122.75916666666667,47.31388888888888],[-123.10805555555555,47.18111111111111],[-123.19944444444445,47.096944444444446],[-123.19944444444445,47.096944444444446],[-123.38111111111111,46.925],[-123.39083333333333,46.56777777777778],[-123.39083333333333,46.56777777777778],[-123.37972222222221,46.17583333333333],[-123.37638888888888,46.051111111111105],[-123.37638888888888,46.051111111111105],[-123.36749999999999,45.800555555555555],[-123.36388888888888,45.675],[-123.36388888888888,45.675],[-123.35583333333332,45.425],[-123.34833333333333,45.17472222222222],[-123.34833333333333,45.17472222222222],[-123.33138888888888,44.57638888888889],[-123.33138888888888,44.57638888888889],[-123.33138888888888,44.57638888888889],[-123.27388888888889,43.097500000000004],[-123.27388888888889,43.097500000000004],[-123.25472222222223,42.59777777777778],[-123.25472222222223,42.59777777777778],[-123.25166666666667,42.54722222222222],[-123.24055555555556,42.220555555555556],[-123.23416666666667,42.04388888888889],[-123.22527777777778,41.79277777777778],[-123.21777777777778,41.591944444444444],[-123.21777777777778,41.591944444444444],[-123.21777777777778,41.591944444444444],[-123.20777777777778,41.306666666666665],[-123.18972222222223,40.57555555555556],[-123.18972222222223,40.57555555555556],[-123.18555555555555,40.40416666666667],[-123.17944444444444,40.14333333333333],[-123.16000000000001,39.653888888888886],[-123.1538888888889,39.52111111111111],[-123.15222222222222,39.48277777777778],[-123.14722222222223,39.36055555555556],[-122.91027777777778,38.7075],[-122.91027777777778,38.7075],[-122.77666666666667,38.256388888888885],[-122.43333333333334,37.7],[-122.36083333333333,37.67805555555555],[-122.18333333333334,37.61666666666667],[-122.15,37.55],[-122.15,37.55]],"type":"LineString"}
}
