{
  "id": 1981728771,
  "type": "Feature",
  "properties": {
    "geom:area": 0,
    "geom:bbox": "-122.830250,37.556780,-122.093420,38.441110",
    "geom:latitude": 37.86109788928758,
    "geom:longitude": -122.49278739892586,
    "src:alt_label": "swim-approach",
    "src:geom": "swim",
    "swim:elevations": [
      7529,
      7263,
      6860,
      6749,
      6244,
      6132,
      5813,
      5341,
      4988,
      4660,
      4622,
      4149,
      4088,
      3867,
      3578,
      3416,
      3405,
      3342,
      2954,
      2850,
      2526,
      2216,
      1882,
      1829,
      1829,
      1787,
      1471,
      1409,
      1313,
      1126,
      763,
      621,
      455,
      293,
      149,
      112,
      29
    ],
    "swim:geom": "approach",
    "swim:timestamps": [
      1761043274,
      1761043299,
      1761043341,
      1761043353,
      1761043408,
      1761043420,
      1761043454,
      1761043511,
      1761043550,
      1761043587,
      1761043593,
      1761043648,
      1761043654,
      1761043683,
      1761043724,
      1761043766,
      1761043772,
      1761043800,
      1761043850,
      1761043861,
      1761043899,
      1761043934,
      1761043971,
      1761044007,
      1761044014,
      1761044049,
      1761044090,
      1761044100,
      1761044113,
      1761044141,
      1761044189,
      1761044205,
      1761044231,
      1761044269,
      1761044304,
      1761044321,
      1761044345
    ],
    "wof:geomhash": "d5ba75c94a0a5d4cd51b29384cf8c40c",
    "wof:id": 1981728771,
    "wof:repo": "sfomuseum-data-flights-2025-10"
  },
  "bbox": [
    -122.83025,
    37.55678,
    -122.09342,
    38.44111
  ],
  "geometry": {"coordinates":[[-122.83025,38.44111],[-122.81756,38.39712],[-122.79587,38.32373],[-122.78982,38.30304],[-122.76331,38.21202],[-122.75762,38.19277],[-122.74156,38.13757],[-122.71463,38.04409],[-122.69677,37.98316],[-122.68015,37.92582],[-122.67726,37.91596],[-122.6165,37.84688],[-122.60897,37.83964],[-122.57329,37.8059],[-122.52443,37.75967],[-122.47491,37.71894],[-122.46558,37.71608],[-122.4229,37.70713],[-122.35455,37.69275],[-122.34018,37.6894],[-122.28959,37.67803],[-122.2441,37.66802],[-122.19968,37.65251],[-122.15823,37.63175],[-122.15074,37.62802],[-122.1109,37.60824],[-122.09342,37.57314],[-122.10128,37.56411],[-122.11609,37.55678],[-122.15352,37.56003],[-122.21691,37.57297],[-122.23715,37.57712],[-122.26544,37.5842],[-122.30107,37.59482],[-122.32737,37.60242],[-122.33912,37.6061],[-122.35513,37.61258]],"type":"LineString"}
}
