{
  "id": 1997546639,
  "type": "Feature",
  "properties": {
    "geom:area": 0,
    "geom:bbox": "-157.916667,21.266667,-122.567222,37.635556",
    "geom:latitude": 29.014493929399663,
    "geom:longitude": -140.04323785646875,
    "src:alt_label": "swim-path",
    "src:geom": "swim",
    "swim:altitudes": [
      "067",
      "096",
      "096",
      "096",
      "115",
      "115",
      "115",
      "115",
      "115",
      "115",
      "316",
      "316",
      "340C",
      "340C",
      "340C",
      "340C",
      "340C",
      "340C",
      "340C",
      "340C",
      "340C",
      "340C",
      "340C",
      "340C",
      "340C",
      "340C",
      "340C",
      "340C",
      "340C",
      "340C",
      "340C",
      "350",
      "350",
      "350",
      "350",
      "350",
      "350",
      "350",
      "350",
      "350",
      "350",
      "350",
      "350",
      "350",
      "350",
      "350",
      "350",
      "350",
      "350",
      "350",
      "291T",
      "291T",
      "291T",
      "291T",
      "189T",
      "189T",
      "154T",
      "154T",
      "154T",
      "154T",
      "154T",
      "072T",
      "072T",
      "072T",
      "072T",
      "072T",
      "072T",
      "072T"
    ],
    "swim:geom": "path",
    "swim:speeds": [
      279,
      294,
      294,
      294,
      342,
      342,
      342,
      342,
      342,
      342,
      519,
      519,
      518,
      518,
      518,
      518,
      518,
      518,
      518,
      518,
      518,
      519,
      516,
      516,
      516,
      516,
      516,
      516,
      516,
      516,
      515,
      500,
      500,
      500,
      500,
      500,
      500,
      500,
      500,
      500,
      500,
      500,
      500,
      510,
      510,
      510,
      510,
      510,
      510,
      510,
      470,
      470,
      470,
      470,
      400,
      400,
      390,
      390,
      390,
      390,
      390,
      260,
      260,
      260,
      260,
      260,
      260,
      260
    ],
    "swim:timestamps": [
      1761929737,
      1761929797,
      1761929797,
      1761929797,
      1761929857,
      1761929857,
      1761929857,
      1761929857,
      1761929857,
      1761929857,
      1761930458,
      1761930458,
      1761930578,
      1761930578,
      1761930578,
      1761930578,
      1761930578,
      1761930638,
      1761930638,
      1761930638,
      1761930638,
      1761930698,
      1761931119,
      1761931119,
      1761931119,
      1761931119,
      1761931119,
      1761931119,
      1761931119,
      1761931119,
      1761931179,
      1761942235,
      1761942235,
      1761942235,
      1761942235,
      1761942235,
      1761942235,
      1761942716,
      1761942716,
      1761942716,
      1761942716,
      1761942716,
      1761942896,
      1761943017,
      1761943017,
      1761943258,
      1761943258,
      1761943258,
      1761943258,
      1761943258,
      1761943799,
      1761943799,
      1761943799,
      1761943799,
      1761944160,
      1761944160,
      1761944280,
      1761944280,
      1761944280,
      1761944280,
      1761944280,
      1761944822,
      1761944822,
      1761944822,
      1761944822,
      1761944822,
      1761944822,
      1761944822
    ],
    "wof:geomhash": "40990764001b26b8e670f35afe048efd",
    "wof:id": 1997546639,
    "wof:repo": "sfomuseum-data-flights-2025-10"
  },
  "bbox": [
    -157.91666666666666,
    21.266666666666666,
    -122.56722222222221,
    37.635555555555555
  ],
  "geometry": {"coordinates":[[-122.56722222222221,37.635555555555555],[-122.64500000000001,37.58416666666667],[-122.64500000000001,37.58416666666667],[-122.64500000000001,37.58416666666667],[-122.73333333333333,37.52777777777778],[-122.73333333333333,37.52777777777778],[-122.73333333333333,37.52777777777778],[-122.73333333333333,37.52777777777778],[-122.73333333333333,37.52777777777778],[-122.73333333333333,37.52777777777778],[-123.97916666666667,36.709722222222226],[-123.97916666666667,36.709722222222226],[-124.255,36.52472222222222],[-124.255,36.52472222222222],[-124.255,36.52472222222222],[-124.255,36.52472222222222],[-124.255,36.52472222222222],[-124.39027777777778,36.43333333333333],[-124.39027777777778,36.43333333333333],[-124.39027777777778,36.43333333333333],[-124.39027777777778,36.43333333333333],[-124.5286111111111,36.339444444444446],[-125.56138888888889,35.78666666666666],[-125.56138888888889,35.78666666666666],[-125.56138888888889,35.78666666666666],[-125.56138888888889,35.78666666666666],[-125.56138888888889,35.78666666666666],[-125.56138888888889,35.78666666666666],[-125.56138888888889,35.78666666666666],[-125.56138888888889,35.78666666666666],[-125.71194444444444,35.71138888888889],[-152.45,23.083333333333332],[-152.45,23.083333333333332],[-152.45,23.083333333333332],[-152.45,23.083333333333332],[-152.45,23.083333333333332],[-152.45,23.083333333333332],[-153.56666666666666,22.666666666666668],[-153.56666666666666,22.666666666666668],[-153.56666666666666,22.666666666666668],[-153.56666666666666,22.666666666666668],[-153.56666666666666,22.666666666666668],[-154,22.533333333333335],[-154.3,22.45],[-154.3,22.45],[-154.86666666666667,22.266666666666666],[-154.86666666666667,22.266666666666666],[-154.86666666666667,22.266666666666666],[-154.86666666666667,22.266666666666666],[-154.86666666666667,22.266666666666666],[-156.13333333333333,21.866666666666667],[-156.13333333333333,21.866666666666667],[-156.13333333333333,21.866666666666667],[-156.13333333333333,21.866666666666667],[-156.86666666666667,21.616666666666667],[-156.86666666666667,21.616666666666667],[-157.1,21.55],[-157.1,21.55],[-157.1,21.55],[-157.1,21.55],[-157.1,21.55],[-157.91666666666666,21.266666666666666],[-157.91666666666666,21.266666666666666],[-157.91666666666666,21.266666666666666],[-157.91666666666666,21.266666666666666],[-157.91666666666666,21.266666666666666],[-157.91666666666666,21.266666666666666],[-157.91666666666666,21.266666666666666]],"type":"LineString"}
}
