{
  "id": 1981735865,
  "type": "Feature",
  "properties": {
    "geom:area": 0,
    "geom:bbox": "-122.316667,33.650000,-84.450000,38.185556",
    "geom:latitude": 36.107033398148715,
    "geom:longitude": -103.40239419351359,
    "src:alt_label": "swim-path",
    "src:geom": "swim",
    "swim:altitudes": [
      "016",
      "016",
      "016",
      "016",
      "016",
      "091",
      "091",
      "115",
      "115",
      "159",
      "159",
      "195",
      "195",
      "195",
      "228",
      "228",
      "228",
      "228",
      "253",
      "253",
      "253",
      "298C",
      "298C",
      "298C",
      "298C",
      "300C",
      "300C",
      "300C",
      "300C",
      "300C",
      "300C",
      "300C",
      "300C",
      "300C",
      "300C",
      "300C",
      "300C",
      "300C",
      "300C",
      "300C",
      "300C",
      "300C",
      "300C",
      "300C",
      "300C",
      "300C",
      "300C",
      "300C",
      "300C",
      "300C",
      "300C",
      "300C",
      "300C",
      "300C",
      "300C",
      "300C",
      "300C",
      "300C",
      "300C",
      "300C",
      "300C",
      "300C",
      "300C",
      "300C",
      "300C",
      "300C",
      "300C",
      "300C",
      "300C",
      "300C",
      "300C",
      "300C",
      "300C",
      "300C",
      "300C",
      "300C",
      "300C",
      "300C",
      "300C",
      "300C",
      "300C",
      "300C",
      "300C",
      "300C",
      "300C",
      "300C",
      "300C",
      "300C",
      "300C",
      "300C",
      "300C",
      "300C",
      "300C",
      "300C",
      "300C",
      "300C",
      "300C",
      "300C",
      "300C",
      "300C",
      "300C",
      "300C",
      "300C",
      "300C",
      "300C",
      "300C",
      "300C",
      "300C",
      "300C",
      "300C",
      "300C",
      "300C",
      "300C",
      "300C",
      "300C",
      "300C",
      "300C",
      "300C",
      "300C",
      "300C",
      "300C",
      "300C",
      "300C",
      "300C",
      "300C",
      "300C",
      "300C",
      "300C",
      "300C",
      "300C",
      "300C",
      "300C",
      "300C",
      "300C",
      "300C",
      "300C",
      "300C",
      "300C",
      "300C",
      "300C",
      "300C",
      "300C",
      "300C",
      "300C",
      "300C",
      "300C",
      "300C",
      "300C",
      "300C",
      "300C",
      "300C",
      "300C",
      "300C",
      "300C",
      "300C",
      "300C",
      "300C",
      "300C",
      "300C",
      "300C",
      "300C",
      "300C",
      "300C",
      "300C",
      "300C",
      "300",
      "300",
      "300",
      "300",
      "300",
      "317",
      "317",
      "358C",
      "358C",
      "359C",
      "360C",
      "360C",
      "360C",
      "360C",
      "360C",
      "360C",
      "360C",
      "360C",
      "360C",
      "360C",
      "360C",
      "360C",
      "360C",
      "360C",
      "360C",
      "360C",
      "360C",
      "360C",
      "360C",
      "360C",
      "360C",
      "360C",
      "360C",
      "360C",
      "360C",
      "360C",
      "360C",
      "360C",
      "360C",
      "360C",
      "360C",
      "360C",
      "360C",
      "360C",
      "360C",
      "360C",
      "360C",
      "360C",
      "360C",
      "360C",
      "360C",
      "360C",
      "360C",
      "360C",
      "360C",
      "360C",
      "360C",
      "360C",
      "360C",
      "360C",
      "360C",
      "360C",
      "360C",
      "360C",
      "360C",
      "360C",
      "360C",
      "360C",
      "360C",
      "360C",
      "360C",
      "360C",
      "360C",
      "360C",
      "360C",
      "360C",
      "360C",
      "360C",
      "360C",
      "360C",
      "360C",
      "360C",
      "360C",
      "360C",
      "360C",
      "360C",
      "360C",
      "360C",
      "360C",
      "360C",
      "360C",
      "360C",
      "348",
      "348",
      "292",
      "271",
      "249",
      "229",
      "224",
      "212",
      "212",
      "202",
      "202",
      "192",
      "192",
      "184",
      "172",
      "143",
      "143",
      "132",
      "106",
      "102",
      "102",
      "091",
      "085",
      "081C",
      "081C",
      "081C",
      "066",
      "062",
      "049",
      "049",
      "032",
      "024",
      "024",
      "018",
      "010",
      "007",
      "007",
      "007",
      "007"
    ],
    "swim:geom": "path",
    "swim:speeds": [
      184,
      184,
      184,
      184,
      184,
      256,
      256,
      330,
      330,
      345,
      345,
      355,
      355,
      355,
      372,
      372,
      372,
      372,
      383,
      383,
      383,
      403,
      403,
      403,
      403,
      399,
      395,
      395,
      395,
      395,
      395,
      395,
      394,
      394,
      394,
      394,
      394,
      389,
      388,
      388,
      388,
      388,
      388,
      388,
      385,
      385,
      385,
      385,
      385,
      385,
      387,
      387,
      387,
      387,
      387,
      387,
      386,
      385,
      385,
      385,
      385,
      387,
      387,
      388,
      387,
      387,
      387,
      388,
      389,
      389,
      390,
      390,
      390,
      389,
      389,
      389,
      389,
      389,
      389,
      390,
      391,
      390,
      390,
      392,
      392,
      392,
      394,
      394,
      394,
      398,
      398,
      399,
      400,
      400,
      403,
      404,
      409,
      409,
      409,
      408,
      410,
      410,
      412,
      414,
      415,
      421,
      421,
      421,
      421,
      421,
      421,
      421,
      421,
      421,
      417,
      415,
      416,
      416,
      416,
      416,
      416,
      417,
      418,
      418,
      418,
      421,
      421,
      421,
      422,
      422,
      422,
      425,
      425,
      425,
      429,
      429,
      429,
      429,
      429,
      429,
      428,
      428,
      424,
      423,
      423,
      423,
      423,
      422,
      422,
      423,
      423,
      424,
      424,
      424,
      424,
      424,
      424,
      422,
      422,
      421,
      421,
      421,
      422,
      422,
      422,
      423,
      423,
      425,
      425,
      425,
      427,
      427,
      412,
      412,
      414,
      414,
      414,
      412,
      412,
      418,
      416,
      416,
      417,
      416,
      415,
      416,
      416,
      423,
      427,
      429,
      418,
      418,
      417,
      416,
      416,
      416,
      414,
      414,
      414,
      414,
      414,
      415,
      415,
      417,
      417,
      418,
      419,
      419,
      418,
      418,
      426,
      426,
      425,
      425,
      425,
      416,
      423,
      423,
      417,
      417,
      416,
      416,
      416,
      423,
      425,
      425,
      431,
      431,
      433,
      433,
      433,
      442,
      442,
      442,
      442,
      442,
      442,
      442,
      449,
      446,
      446,
      446,
      450,
      450,
      450,
      451,
      451,
      451,
      451,
      461,
      461,
      461,
      456,
      456,
      456,
      454,
      454,
      454,
      454,
      445,
      430,
      420,
      404,
      400,
      402,
      402,
      397,
      397,
      395,
      395,
      389,
      388,
      363,
      363,
      364,
      348,
      332,
      332,
      308,
      294,
      278,
      278,
      278,
      248,
      251,
      244,
      244,
      207,
      196,
      196,
      184,
      154,
      148,
      148,
      148,
      148
    ],
    "swim:timestamps": [
      1761174227,
      1761174227,
      1761174227,
      1761174227,
      1761174227,
      1761174429,
      1761174429,
      1761174549,
      1761174549,
      1761174668,
      1761174668,
      1761174788,
      1761174788,
      1761174788,
      1761174908,
      1761174908,
      1761174908,
      1761174908,
      1761175028,
      1761175028,
      1761175028,
      1761175269,
      1761175269,
      1761175269,
      1761175269,
      1761175331,
      1761175571,
      1761175571,
      1761175571,
      1761175631,
      1761175631,
      1761175631,
      1761175811,
      1761175931,
      1761175931,
      1761175931,
      1761175931,
      1761176242,
      1761176302,
      1761176302,
      1761176302,
      1761176302,
      1761176302,
      1761176302,
      1761176843,
      1761176843,
      1761176843,
      1761176843,
      1761176843,
      1761176843,
      1761177204,
      1761177204,
      1761177204,
      1761177204,
      1761177264,
      1761177264,
      1761177324,
      1761177564,
      1761177564,
      1761177564,
      1761177564,
      1761177744,
      1761177744,
      1761178066,
      1761178126,
      1761178126,
      1761178186,
      1761178427,
      1761178465,
      1761178547,
      1761178706,
      1761178706,
      1761178727,
      1761178826,
      1761178907,
      1761178907,
      1761178946,
      1761178967,
      1761178967,
      1761179186,
      1761179246,
      1761179268,
      1761179268,
      1761179367,
      1761179367,
      1761179388,
      1761179547,
      1761179547,
      1761179547,
      1761179929,
      1761179929,
      1761179989,
      1761180109,
      1761180109,
      1761180289,
      1761180349,
      1761180770,
      1761180770,
      1761180770,
      1761181032,
      1761181070,
      1761181070,
      1761181152,
      1761181212,
      1761181250,
      1761181611,
      1761181611,
      1761181611,
      1761181633,
      1761181693,
      1761181693,
      1761181851,
      1761181851,
      1761181851,
      1761182053,
      1761182174,
      1761182234,
      1761182234,
      1761182294,
      1761182294,
      1761182294,
      1761182354,
      1761182414,
      1761182414,
      1761182414,
      1761182714,
      1761182714,
      1761182714,
      1761182895,
      1761182895,
      1761182895,
      1761183135,
      1761183135,
      1761183135,
      1761183191,
      1761183191,
      1761183252,
      1761183372,
      1761183372,
      1761183372,
      1761183432,
      1761183432,
      1761183552,
      1761183672,
      1761183672,
      1761183732,
      1761183732,
      1761183792,
      1761183792,
      1761183912,
      1761183912,
      1761183973,
      1761184033,
      1761184033,
      1761184033,
      1761184277,
      1761184277,
      1761184393,
      1761184393,
      1761184453,
      1761184513,
      1761184513,
      1761184633,
      1761184633,
      1761184633,
      1761184874,
      1761184874,
      1761185047,
      1761185047,
      1761185047,
      1761185174,
      1761185174,
      1761185408,
      1761185408,
      1761185415,
      1761185475,
      1761185475,
      1761185528,
      1761185528,
      1761185588,
      1761185595,
      1761185595,
      1761185648,
      1761185708,
      1761185715,
      1761185768,
      1761185768,
      1761185948,
      1761186009,
      1761186015,
      1761186189,
      1761186189,
      1761186196,
      1761186249,
      1761186256,
      1761186256,
      1761186370,
      1761186370,
      1761186490,
      1761186496,
      1761186496,
      1761186550,
      1761186550,
      1761186616,
      1761186616,
      1761186670,
      1761186730,
      1761186730,
      1761186790,
      1761186790,
      1761187091,
      1761187091,
      1761187211,
      1761187211,
      1761187211,
      1761187331,
      1761187391,
      1761187391,
      1761187511,
      1761187511,
      1761187571,
      1761187571,
      1761187571,
      1761187749,
      1761187809,
      1761187809,
      1761187869,
      1761187869,
      1761187929,
      1761187929,
      1761187929,
      1761188226,
      1761188226,
      1761188286,
      1761188349,
      1761188349,
      1761188349,
      1761188349,
      1761188710,
      1761188827,
      1761188827,
      1761188827,
      1761189007,
      1761189007,
      1761189007,
      1761189071,
      1761189071,
      1761189127,
      1761189127,
      1761189367,
      1761189367,
      1761189487,
      1761189548,
      1761189548,
      1761189548,
      1761189608,
      1761189608,
      1761189728,
      1761189728,
      1761189848,
      1761189908,
      1761189968,
      1761190028,
      1761190055,
      1761190088,
      1761190088,
      1761190115,
      1761190115,
      1761190148,
      1761190148,
      1761190169,
      1761190208,
      1761190295,
      1761190295,
      1761190328,
      1761190409,
      1761190448,
      1761190448,
      1761190508,
      1761190529,
      1761190569,
      1761190569,
      1761190569,
      1761190649,
      1761190689,
      1761190749,
      1761190749,
      1761190835,
      1761190883,
      1761190883,
      1761190929,
      1761190989,
      1761191003,
      1761191003,
      1761191003,
      1761191003
    ],
    "wof:geomhash": "11a24fc6548eb7530d0503bb9bd19c00",
    "wof:id": 1981735865,
    "wof:repo": "sfomuseum-data-flights-2025-10"
  },
  "bbox": [
    -122.31666666666666,
    33.65,
    -84.45,
    38.18555555555555
  ],
  "geometry": {"coordinates":[[-84.45,33.65],[-84.45,33.65],[-84.45,33.65],[-84.45,33.65],[-84.45,33.65],[-84.69222222222223,33.68833333333333],[-84.69222222222223,33.68833333333333],[-84.88555555555556,33.69972222222222],[-84.88555555555556,33.69972222222222],[-85.10805555555555,33.69916666666666],[-85.10805555555555,33.69916666666666],[-85.34722222222221,33.697222222222216],[-85.34722222222221,33.697222222222216],[-85.34722222222221,33.697222222222216],[-85.59722222222221,33.69444444444444],[-85.59722222222221,33.69444444444444],[-85.59722222222221,33.69444444444444],[-85.59722222222221,33.69444444444444],[-85.85388888888889,33.68944444444444],[-85.85388888888889,33.68944444444444],[-85.85388888888889,33.68944444444444],[-86.37694444444443,33.78194444444444],[-86.37694444444443,33.78194444444444],[-86.37694444444443,33.78194444444444],[-86.37694444444443,33.78194444444444],[-86.50583333333333,33.805],[-87.02444444444444,33.89666666666667],[-87.02444444444444,33.89666666666667],[-87.02444444444444,33.89666666666667],[-87.15194444444445,33.91861111111111],[-87.15194444444445,33.91861111111111],[-87.15194444444445,33.91861111111111],[-87.5411111111111,33.98527777777778],[-87.80277777777778,34.02916666666667],[-87.80277777777778,34.02916666666667],[-87.80277777777778,34.02916666666667],[-87.80277777777778,34.02916666666667],[-88.47111111111111,34.13944444444444],[-88.59805555555555,34.159444444444446],[-88.59805555555555,34.159444444444446],[-88.59805555555555,34.159444444444446],[-88.59805555555555,34.159444444444446],[-88.59805555555555,34.159444444444446],[-88.59805555555555,34.159444444444446],[-89.74083333333333,34.33694444444445],[-89.74083333333333,34.33694444444445],[-89.74083333333333,34.33694444444445],[-89.74083333333333,34.33694444444445],[-89.74083333333333,34.33694444444445],[-89.74083333333333,34.33694444444445],[-90.51222222222222,34.45027777777778],[-90.51222222222222,34.45027777777778],[-90.51222222222222,34.45027777777778],[-90.51222222222222,34.45027777777778],[-90.64194444444445,34.46888888888889],[-90.64194444444445,34.46888888888889],[-90.77027777777778,34.48694444444445],[-91.28111111111112,34.558055555555555],[-91.28111111111112,34.558055555555555],[-91.28111111111112,34.558055555555555],[-91.28111111111112,34.558055555555555],[-91.66444444444446,34.61],[-91.66444444444446,34.61],[-92.36666666666666,34.70472222222222],[-92.49277777777777,34.72277777777778],[-92.49277777777777,34.72277777777778],[-92.62249999999999,34.74138888888889],[-93.14166666666668,34.81361111111111],[-93.21944444444445,34.824444444444445],[-93.37888888888888,34.846111111111114],[-93.74027777777778,34.894444444444446],[-93.74027777777778,34.894444444444446],[-93.76944444444445,34.89833333333333],[-94.00111111111111,34.92861111111111],[-94.16083333333334,34.94916666666666],[-94.16083333333334,34.94916666666666],[-94.26,34.96194444444445],[-94.29083333333332,34.965833333333336],[-94.29083333333332,34.965833333333336],[-94.78805555555556,35.02972222222222],[-94.91833333333334,35.047777777777775],[-94.94638888888889,35.05138888888889],[-94.94638888888889,35.05138888888889],[-95.15527777777778,35.07916666666667],[-95.15527777777778,35.07916666666667],[-95.20944444444444,35.08638888888889],[-95.55388888888889,35.130833333333335],[-95.55388888888889,35.130833333333335],[-95.55388888888889,35.130833333333335],[-96.41388888888889,35.224444444444444],[-96.41388888888889,35.224444444444444],[-96.55027777777778,35.23583333333333],[-96.82138888888889,35.25805555555556],[-96.82138888888889,35.25805555555556],[-97.21861111111112,35.28916666666667],[-97.35694444444444,35.29972222222222],[-98.34527777777777,35.37027777777778],[-98.34527777777777,35.37027777777778],[-98.34527777777777,35.37027777777778],[-98.94527777777778,35.40888888888889],[-99.02777777777777,35.41416666666667],[-99.02777777777777,35.41416666666667],[-99.22666666666667,35.42611111111111],[-99.36944444444444,35.43472222222222],[-99.45416666666667,35.43944444444444],[-100.31694444444445,35.48638888888889],[-100.31694444444445,35.48638888888889],[-100.31694444444445,35.48638888888889],[-100.34833333333333,35.488055555555555],[-100.49222222222222,35.49527777777778],[-100.49222222222222,35.49527777777778],[-100.88,35.51361111111111],[-100.88,35.51361111111111],[-100.88,35.51361111111111],[-101.35444444444444,35.58083333333334],[-101.62972222222221,35.62722222222222],[-101.76611111111112,35.65],[-101.76611111111112,35.65],[-101.90611111111112,35.67333333333333],[-101.90611111111112,35.67333333333333],[-101.90611111111112,35.67333333333333],[-102.04416666666667,35.69611111111111],[-102.18527777777778,35.71944444444445],[-102.18527777777778,35.71944444444445],[-102.18527777777778,35.71944444444445],[-102.8863888888889,35.83111111111111],[-102.8863888888889,35.83111111111111],[-102.8863888888889,35.83111111111111],[-103.3275,35.89944444444444],[-103.3275,35.89944444444444],[-103.3275,35.89944444444444],[-103.89722222222223,35.985],[-103.89722222222223,35.985],[-103.89722222222223,35.985],[-104.01555555555555,36.00388888888889],[-104.01555555555555,36.00388888888889],[-104.15805555555556,36.04083333333333],[-104.43833333333333,36.113055555555555],[-104.43833333333333,36.113055555555555],[-104.43833333333333,36.113055555555555],[-104.57805555555555,36.14861111111111],[-104.57805555555555,36.14861111111111],[-104.85666666666665,36.21888888888889],[-105.13972222222223,36.28972222222222],[-105.13972222222223,36.28972222222222],[-105.27888888888889,36.324444444444445],[-105.27888888888889,36.324444444444445],[-105.41638888888889,36.35805555555556],[-105.41638888888889,36.35805555555556],[-105.71722222222222,36.431666666666665],[-105.71722222222222,36.431666666666665],[-105.84833333333333,36.46333333333334],[-105.98972222222223,36.4975],[-105.98972222222223,36.4975],[-105.98972222222223,36.4975],[-106.57694444444444,36.57222222222222],[-106.57694444444444,36.57222222222222],[-106.83583333333333,36.603611111111114],[-106.83583333333333,36.603611111111114],[-106.97972222222222,36.620555555555555],[-107.15138888888889,36.64111111111111],[-107.15138888888889,36.64111111111111],[-107.43972222222223,36.67444444444444],[-107.43972222222223,36.67444444444444],[-107.43972222222223,36.67444444444444],[-108.01861111111111,36.739444444444445],[-108.01861111111111,36.739444444444445],[-108.41472222222222,36.8325],[-108.41472222222222,36.8325],[-108.41472222222222,36.8325],[-108.72222222222223,36.914722222222224],[-108.72222222222223,36.914722222222224],[-109.2461111111111,37.05138888888889],[-109.2461111111111,37.05138888888889],[-109.26888888888888,37.0575],[-109.40555555555557,37.0925],[-109.40555555555557,37.0925],[-109.52111111111111,37.12138888888889],[-109.52111111111111,37.12138888888889],[-109.65,37.155277777777776],[-109.68083333333334,37.16361111111111],[-109.68083333333334,37.16361111111111],[-109.78555555555555,37.189722222222215],[-109.92416666666666,37.224722222222226],[-109.95555555555556,37.2325],[-110.0611111111111,37.25888888888889],[-110.0611111111111,37.25888888888889],[-110.48166666666667,37.36333333333334],[-110.62638888888888,37.399166666666666],[-110.66027777777778,37.4075],[-111.04888888888888,37.501666666666665],[-111.04888888888888,37.501666666666665],[-111.08083333333333,37.509166666666665],[-111.18833333333333,37.53472222222222],[-111.22083333333333,37.5425],[-111.22083333333333,37.5425],[-111.46527777777779,37.60055555555556],[-111.46527777777779,37.60055555555556],[-111.74277777777777,37.66583333333333],[-111.77388888888889,37.67305555555555],[-111.77388888888889,37.67305555555555],[-111.88111111111111,37.69777777777777],[-111.88111111111111,37.69777777777777],[-112.05555555555556,37.73833333333334],[-112.05555555555556,37.73833333333334],[-112.16333333333334,37.76305555555555],[-112.33027777777778,37.80138888888889],[-112.33027777777778,37.80138888888889],[-112.47083333333333,37.833333333333336],[-112.47083333333333,37.833333333333336],[-113.17666666666668,37.99027777777778],[-113.17666666666668,37.99027777777778],[-113.46472222222222,38.05333333333333],[-113.46472222222222,38.05333333333333],[-113.46472222222222,38.05333333333333],[-113.75055555555555,38.114444444444445],[-113.89472222222223,38.144999999999996],[-113.89472222222223,38.144999999999996],[-114.18805555555556,38.18555555555555],[-114.18805555555556,38.18555555555555],[-114.3325,38.180277777777775],[-114.3325,38.180277777777775],[-114.3325,38.180277777777775],[-114.77333333333333,38.16],[-114.92305555555556,38.152499999999996],[-114.92305555555556,38.152499999999996],[-115.07722222222222,38.14472222222222],[-115.07722222222222,38.14472222222222],[-115.2286111111111,38.13666666666666],[-115.2286111111111,38.13666666666666],[-115.2286111111111,38.13666666666666],[-116.01083333333334,38.092222222222226],[-116.01083333333334,38.092222222222226],[-116.16555555555556,38.083333333333336],[-116.31916666666666,38.073888888888895],[-116.31916666666666,38.073888888888895],[-116.31916666666666,38.073888888888895],[-116.31916666666666,38.073888888888895],[-117.27305555555556,38.01083333333333],[-117.55888888888889,37.99],[-117.55888888888889,37.99],[-117.55888888888889,37.99],[-118.03222222222222,37.95444444444445],[-118.03222222222222,37.95444444444445],[-118.03222222222222,37.95444444444445],[-118.1875,37.94222222222222],[-118.1875,37.94222222222222],[-118.34666666666666,37.92972222222222],[-118.34666666666666,37.92972222222222],[-118.98916666666666,37.86972222222222],[-118.98916666666666,37.86972222222222],[-119.31944444444444,37.83166666666667],[-119.47833333333334,37.812777777777775],[-119.47833333333334,37.812777777777775],[-119.47833333333334,37.812777777777775],[-119.63611111111112,37.79416666666666],[-119.63611111111112,37.79416666666666],[-119.94972222222222,37.75555555555555],[-119.94972222222222,37.75555555555555],[-120.26388888888889,37.7175],[-120.41361111111112,37.69777777777777],[-120.56138888888889,37.68083333333333],[-120.70055555555555,37.664722222222224],[-120.76666666666667,37.65],[-120.83972222222222,37.64805555555556],[-120.83972222222222,37.64805555555556],[-120.9,37.63333333333333],[-120.9,37.63333333333333],[-120.9786111111111,37.63111111111111],[-120.9786111111111,37.63111111111111],[-121.03333333333333,37.61666666666667],[-121.11166666666666,37.613055555555555],[-121.3,37.583333333333336],[-121.3,37.583333333333336],[-121.36,37.58166666666667],[-121.53333333333333,37.56666666666667],[-121.60055555555554,37.553888888888885],[-121.60055555555554,37.553888888888885],[-121.70555555555556,37.53194444444444],[-121.75,37.516666666666666],[-121.80138888888888,37.50861111111111],[-121.80138888888888,37.50861111111111],[-121.80138888888888,37.50861111111111],[-121.91666666666667,37.5],[-121.97694444444444,37.49388888888889],[-122.05638888888889,37.51694444444444],[-122.05638888888889,37.51694444444444],[-122.16666666666667,37.55],[-122.21666666666667,37.56666666666667],[-122.21666666666667,37.56666666666667],[-122.25583333333333,37.58166666666667],[-122.30722222222222,37.59666666666667],[-122.31666666666666,37.6],[-122.31666666666666,37.6],[-122.31666666666666,37.6],[-122.31666666666666,37.6]],"type":"LineString"}
}
