{
  "id": 1981763627,
  "type": "Feature",
  "properties": {
    "geom:area": 0,
    "geom:bbox": "-122.380000,33.920000,-118.410000,37.620000",
    "geom:latitude": 35.471032844515946,
    "geom:longitude": -120.78026710535413,
    "src:alt_label": "swim-route",
    "src:geom": "swim",
    "swim:geom": "route",
    "wof:geomhash": "801ab413cfe2cc71a7fe03c624dae84e",
    "wof:id": 1981763627,
    "wof:repo": "sfomuseum-data-flights-2025-10"
  },
  "bbox": [
    -122.38,
    33.92,
    -118.41,
    37.62
  ],
  "geometry": {"coordinates":[[-118.41,33.94],[-118.47,33.94],[-118.5,33.94],[-118.51,33.94],[-118.53,33.94],[-118.53,33.94],[-118.56,33.94],[-118.59,33.94],[-118.61,33.93],[-118.62,33.93],[-118.64,33.93],[-118.65,33.93],[-118.68,33.93],[-118.71,33.93],[-118.83,33.92],[-118.86,33.92],[-118.87,33.96],[-118.89,33.95],[-119.02,33.92],[-119.06,33.94],[-119.1,33.96],[-119.13,33.98],[-119.16,34],[-119.19,34.01],[-119.19,34.02],[-119.22,34.02],[-119.26,34.04],[-119.51,34.11],[-119.61,34.13],[-119.63,34.17],[-119.68,34.21],[-119.69,34.23],[-119.8,34.36],[-119.86,34.42],[-119.91,34.48],[-119.91,34.48],[-120.82,35.48],[-120.86,35.53],[-120.83,35.4],[-121.4,35.46],[-121.41,35.58],[-121.42,35.66],[-121.45,35.74],[-121.51,35.84],[-121.52,35.89],[-121.53,35.94],[-121.57,36.06],[-121.57,36.07],[-121.6,36.15],[-121.4,35.76],[-121.53,36.08],[-121.69,36.46],[-121.7,36.5],[-121.71,36.5],[-121.76,36.57],[-121.82,36.65],[-121.84,36.67],[-121.89,36.74],[-121.9,36.76],[-121.94,36.91],[-121.95,36.95],[-121.97,36.99],[-122,37.07],[-122.08,37.27],[-122.08,37.28],[-122.1,37.33],[-122.12,37.37],[-122.17,37.43],[-122.22,37.47],[-122.24,37.49],[-122.31,37.56],[-122.36,37.6],[-122.37,37.61],[-122.38,37.62]],"type":"LineString"}
}
