{
  "id": 1981745945,
  "type": "Feature",
  "properties": {
    "geom:area": 0,
    "geom:bbox": "-122.750000,37.416667,-77.765556,42.404167",
    "geom:latitude": 41.07554506292737,
    "geom:longitude": -101.07624435507715,
    "src:alt_label": "swim-path",
    "src:geom": "swim",
    "swim:altitudes": [
      "136",
      "136",
      "136",
      "136",
      "136",
      "136",
      "158",
      "174",
      "174",
      "192",
      "192",
      "192",
      "192",
      "192",
      "222",
      "222",
      "222",
      "222",
      "279C",
      "279C",
      "279C",
      "279C",
      "300C",
      "300C",
      "300C",
      "300C",
      "300C",
      "300C",
      "300C",
      "300C",
      "300C",
      "300C",
      "300C",
      "300C",
      "300C",
      "300C",
      "300C",
      "300C",
      "300C",
      "300C",
      "300C",
      "300C",
      "300C",
      "300C",
      "300",
      "300",
      "313",
      "320C",
      "320C",
      "320C",
      "340C",
      "340C",
      "340C",
      "340C",
      "340C",
      "340C",
      "340C",
      "340C",
      "340C",
      "340C",
      "340C",
      "340C",
      "340C",
      "340C",
      "340C",
      "340C",
      "340C",
      "340C",
      "340C",
      "340C",
      "340C",
      "340C",
      "340C",
      "340C",
      "340C",
      "340C",
      "340C",
      "340C",
      "340C",
      "340C",
      "340C",
      "340C",
      "340C",
      "340C",
      "340C",
      "340C",
      "340C",
      "340C",
      "340C",
      "340C",
      "340C",
      "340C",
      "340C",
      "340C",
      "340C",
      "340C",
      "340C",
      "340C",
      "340C",
      "340C",
      "340C",
      "340C",
      "340C",
      "340C",
      "340C",
      "340C",
      "340C",
      "340C",
      "340C",
      "340C",
      "340C",
      "340C",
      "340C",
      "340C",
      "340C",
      "340C",
      "340C",
      "340C",
      "340C",
      "340C",
      "340C",
      "340C",
      "340C",
      "340C",
      "340C",
      "340C",
      "340C",
      "340C",
      "340C",
      "340C",
      "340C",
      "340C",
      "340C",
      "340C",
      "340C",
      "340C",
      "340C",
      "340C",
      "340C",
      "340C",
      "340C",
      "340C",
      "340C",
      "340C",
      "340C",
      "340C",
      "340C",
      "340C",
      "340C",
      "340C",
      "340C",
      "340C",
      "340C",
      "340C",
      "340C",
      "340C",
      "340C",
      "340C",
      "340C",
      "340C",
      "340C",
      "340C",
      "340C",
      "340C",
      "340C",
      "340C",
      "340C",
      "340C",
      "340C",
      "340C",
      "340C",
      "340C",
      "340C",
      "340C",
      "340C",
      "340C",
      "340C",
      "340C",
      "340C",
      "340C",
      "340C",
      "340C",
      "340C",
      "340C",
      "340C",
      "340C",
      "340C",
      "340C",
      "340C",
      "340C",
      "340C",
      "340C",
      "340C",
      "340C",
      "340C",
      "340C",
      "340C",
      "340C",
      "340C",
      "340C",
      "340C",
      "340C",
      "340C",
      "340C",
      "340C",
      "340C",
      "340C",
      "340C",
      "340C",
      "340C",
      "340C",
      "340C",
      "340C",
      "340C",
      "340C",
      "340C",
      "340C",
      "340C",
      "340C",
      "340C",
      "340C",
      "340C",
      "340C",
      "340C",
      "340C",
      "340C",
      "340C",
      "340C",
      "340C",
      "340C",
      "340C",
      "340C",
      "340C",
      "340C",
      "340C",
      "340C",
      "340C",
      "340C",
      "340C",
      "340C",
      "340C",
      "340C",
      "340C",
      "340C",
      "340C",
      "340C",
      "340C",
      "340C",
      "340C",
      "340C",
      "340C",
      "340C",
      "340C",
      "340C",
      "340C",
      "340C",
      "340C",
      "340C",
      "340C",
      "340C",
      "340C",
      "340C",
      "340C",
      "340C",
      "340C",
      "340C",
      "340C",
      "340C",
      "340C",
      "340C",
      "340C",
      "340C",
      "340C",
      "340C",
      "340C",
      "340C",
      "340C",
      "340C",
      "340C",
      "340C",
      "340C",
      "340C",
      "340C",
      "340C",
      "340C",
      "340C",
      "340C",
      "340C",
      "340C",
      "340C",
      "340C",
      "340C",
      "340C",
      "340C",
      "340C",
      "340C",
      "340C",
      "340C",
      "340C",
      "340C",
      "340C",
      "340C",
      "340C",
      "340C",
      "340C",
      "340C",
      "340C",
      "340C",
      "340C",
      "340C",
      "340C",
      "340C",
      "340C",
      "340C",
      "340C",
      "340C",
      "340C",
      "340C",
      "335",
      "260",
      "240",
      "240",
      "200",
      "129",
      "129",
      "122",
      "110",
      "110",
      "110",
      "110",
      "110C",
      "110C",
      "103",
      "103",
      "103",
      "073",
      "054",
      "054",
      "054",
      "040",
      "040",
      "024",
      "024",
      "024",
      "007",
      "110",
      "110"
    ],
    "swim:geom": "path",
    "swim:speeds": [
      361,
      361,
      361,
      361,
      361,
      361,
      371,
      379,
      379,
      382,
      382,
      382,
      382,
      382,
      403,
      403,
      403,
      403,
      417,
      417,
      417,
      417,
      415,
      415,
      415,
      415,
      414,
      414,
      414,
      414,
      414,
      416,
      416,
      416,
      416,
      416,
      416,
      416,
      416,
      416,
      416,
      416,
      416,
      416,
      417,
      417,
      424,
      419,
      419,
      414,
      393,
      393,
      393,
      388,
      388,
      388,
      388,
      383,
      380,
      380,
      380,
      380,
      379,
      379,
      379,
      379,
      378,
      378,
      378,
      378,
      378,
      378,
      378,
      378,
      378,
      380,
      380,
      380,
      380,
      380,
      380,
      370,
      370,
      370,
      370,
      370,
      370,
      370,
      371,
      371,
      371,
      371,
      371,
      371,
      383,
      383,
      383,
      383,
      383,
      383,
      383,
      401,
      401,
      401,
      407,
      407,
      407,
      407,
      407,
      407,
      407,
      416,
      416,
      416,
      418,
      418,
      418,
      418,
      418,
      414,
      414,
      414,
      414,
      414,
      409,
      409,
      409,
      409,
      409,
      409,
      409,
      409,
      409,
      409,
      409,
      409,
      411,
      411,
      411,
      415,
      415,
      415,
      415,
      415,
      414,
      414,
      414,
      414,
      414,
      414,
      418,
      418,
      418,
      418,
      418,
      418,
      420,
      420,
      420,
      420,
      417,
      417,
      416,
      416,
      417,
      417,
      417,
      417,
      417,
      419,
      419,
      419,
      419,
      419,
      422,
      422,
      422,
      421,
      421,
      421,
      421,
      421,
      421,
      424,
      424,
      424,
      426,
      426,
      426,
      425,
      425,
      425,
      425,
      424,
      424,
      424,
      424,
      424,
      424,
      423,
      423,
      423,
      423,
      423,
      423,
      423,
      423,
      424,
      424,
      424,
      424,
      425,
      425,
      425,
      425,
      439,
      439,
      440,
      440,
      440,
      441,
      441,
      441,
      459,
      459,
      459,
      459,
      459,
      460,
      460,
      460,
      470,
      477,
      477,
      477,
      477,
      475,
      475,
      475,
      475,
      475,
      463,
      461,
      461,
      461,
      461,
      457,
      457,
      458,
      458,
      458,
      459,
      459,
      459,
      459,
      460,
      460,
      464,
      462,
      462,
      462,
      462,
      465,
      465,
      465,
      465,
      464,
      464,
      469,
      469,
      470,
      470,
      470,
      470,
      478,
      478,
      476,
      475,
      475,
      474,
      474,
      472,
      472,
      472,
      472,
      470,
      470,
      470,
      468,
      468,
      468,
      468,
      468,
      468,
      467,
      467,
      465,
      465,
      465,
      465,
      465,
      465,
      464,
      454,
      454,
      449,
      449,
      449,
      441,
      441,
      441,
      440,
      438,
      438,
      428,
      428,
      428,
      428,
      438,
      417,
      408,
      408,
      393,
      360,
      360,
      361,
      313,
      313,
      313,
      313,
      315,
      289,
      260,
      260,
      260,
      249,
      240,
      240,
      240,
      209,
      193,
      181,
      181,
      181,
      144,
      143,
      143
    ],
    "swim:timestamps": [
      1761261614,
      1761261614,
      1761261614,
      1761261614,
      1761261614,
      1761261614,
      1761261674,
      1761261734,
      1761261734,
      1761261800,
      1761261800,
      1761261800,
      1761261800,
      1761261800,
      1761261914,
      1761261914,
      1761261914,
      1761261914,
      1761262155,
      1761262155,
      1761262155,
      1761262155,
      1761262576,
      1761262576,
      1761262576,
      1761262576,
      1761262635,
      1761262635,
      1761262797,
      1761262797,
      1761262797,
      1761262876,
      1761262876,
      1761262936,
      1761262936,
      1761262936,
      1761262936,
      1761262996,
      1761262996,
      1761262996,
      1761263056,
      1761263056,
      1761263056,
      1761263056,
      1761263898,
      1761263898,
      1761264000,
      1761264078,
      1761264078,
      1761264258,
      1761264859,
      1761264859,
      1761264859,
      1761265022,
      1761265022,
      1761265022,
      1761265022,
      1761265160,
      1761265280,
      1761265280,
      1761265280,
      1761265280,
      1761265382,
      1761265442,
      1761265460,
      1761265460,
      1761265502,
      1761265502,
      1761265563,
      1761265563,
      1761265563,
      1761265563,
      1761265923,
      1761265923,
      1761265923,
      1761266103,
      1761266103,
      1761266103,
      1761266103,
      1761266103,
      1761266103,
      1761266344,
      1761266344,
      1761266344,
      1761266764,
      1761266764,
      1761266764,
      1761266764,
      1761266884,
      1761266884,
      1761266884,
      1761266884,
      1761266884,
      1761266884,
      1761267488,
      1761267488,
      1761267488,
      1761267488,
      1761267488,
      1761267488,
      1761267488,
      1761268026,
      1761268026,
      1761268026,
      1761268450,
      1761268450,
      1761268450,
      1761268450,
      1761268450,
      1761268450,
      1761268450,
      1761269111,
      1761269111,
      1761269111,
      1761269231,
      1761269231,
      1761269231,
      1761269231,
      1761269231,
      1761269351,
      1761269351,
      1761269351,
      1761269351,
      1761269351,
      1761269711,
      1761269711,
      1761269711,
      1761269711,
      1761269711,
      1761269952,
      1761269952,
      1761269952,
      1761269952,
      1761269952,
      1761269952,
      1761269952,
      1761270427,
      1761270427,
      1761270427,
      1761270613,
      1761270613,
      1761270613,
      1761270613,
      1761270613,
      1761270793,
      1761270793,
      1761270793,
      1761270793,
      1761270793,
      1761270793,
      1761271268,
      1761271268,
      1761271268,
      1761271268,
      1761271268,
      1761271268,
      1761271388,
      1761271388,
      1761271388,
      1761271388,
      1761271749,
      1761271749,
      1761271809,
      1761271809,
      1761271929,
      1761271929,
      1761271929,
      1761271929,
      1761271929,
      1761271989,
      1761271989,
      1761271989,
      1761271989,
      1761271989,
      1761272350,
      1761272350,
      1761272350,
      1761272410,
      1761272410,
      1761272410,
      1761272530,
      1761272530,
      1761272530,
      1761272650,
      1761272650,
      1761272650,
      1761272770,
      1761272770,
      1761272770,
      1761272950,
      1761272950,
      1761272950,
      1761272950,
      1761273011,
      1761273011,
      1761273188,
      1761273188,
      1761273188,
      1761273188,
      1761273309,
      1761273309,
      1761273371,
      1761273371,
      1761273429,
      1761273429,
      1761273429,
      1761273429,
      1761273549,
      1761273549,
      1761273549,
      1761273549,
      1761273611,
      1761273611,
      1761273611,
      1761273611,
      1761273970,
      1761273970,
      1761274032,
      1761274032,
      1761274032,
      1761274092,
      1761274092,
      1761274092,
      1761274631,
      1761274631,
      1761274631,
      1761274631,
      1761274631,
      1761274751,
      1761274751,
      1761274751,
      1761274931,
      1761275051,
      1761275232,
      1761275232,
      1761275232,
      1761275412,
      1761275412,
      1761275412,
      1761275412,
      1761275412,
      1761275772,
      1761275833,
      1761275833,
      1761275833,
      1761275833,
      1761275953,
      1761275953,
      1761276133,
      1761276133,
      1761276133,
      1761276253,
      1761276253,
      1761276313,
      1761276313,
      1761276414,
      1761276414,
      1761276494,
      1761276534,
      1761276534,
      1761276534,
      1761276534,
      1761276614,
      1761276614,
      1761276614,
      1761276614,
      1761276714,
      1761276714,
      1761276854,
      1761276854,
      1761276954,
      1761276954,
      1761276954,
      1761276954,
      1761277134,
      1761277134,
      1761277276,
      1761277315,
      1761277315,
      1761277336,
      1761277336,
      1761277396,
      1761277396,
      1761277435,
      1761277435,
      1761277555,
      1761277555,
      1761277555,
      1761277817,
      1761277817,
      1761277877,
      1761277877,
      1761277877,
      1761277877,
      1761277937,
      1761277937,
      1761278175,
      1761278175,
      1761278175,
      1761278216,
      1761278216,
      1761278216,
      1761278276,
      1761278576,
      1761278576,
      1761278636,
      1761278636,
      1761278636,
      1761278816,
      1761278816,
      1761278816,
      1761278876,
      1761278996,
      1761278996,
      1761279236,
      1761279236,
      1761279236,
      1761279236,
      1761279297,
      1761279537,
      1761279597,
      1761279597,
      1761279704,
      1761279932,
      1761279932,
      1761279957,
      1761280052,
      1761280052,
      1761280052,
      1761280052,
      1761280077,
      1761280137,
      1761280197,
      1761280197,
      1761280197,
      1761280292,
      1761280353,
      1761280353,
      1761280353,
      1761280412,
      1761280438,
      1761280618,
      1761280618,
      1761280618,
      1761280738,
      1761280798,
      1761280798
    ],
    "wof:geomhash": "964f0b1df07a3f662710489382cf713a",
    "wof:id": 1981745945,
    "wof:repo": "sfomuseum-data-flights-2025-10"
  },
  "bbox": [
    -122.75,
    37.416666666666664,
    -77.76555555555555,
    42.40416666666667
  ],
  "geometry": {"coordinates":[[-77.76555555555555,39.37722222222222],[-77.76555555555555,39.37722222222222],[-77.76555555555555,39.37722222222222],[-77.76555555555555,39.37722222222222],[-77.76555555555555,39.37722222222222],[-77.76555555555555,39.37722222222222],[-77.82305555555556,39.476111111111116],[-77.90472222222223,39.55222222222222],[-77.90472222222223,39.55222222222222],[-78.03166666666667,39.59111111111111],[-78.03166666666667,39.59111111111111],[-78.03166666666667,39.59111111111111],[-78.03166666666667,39.59111111111111],[-78.03166666666667,39.59111111111111],[-78.30166666666666,39.672777777777775],[-78.30166666666666,39.672777777777775],[-78.30166666666666,39.672777777777775],[-78.30166666666666,39.672777777777775],[-78.88583333333334,39.81166666666666],[-78.88583333333334,39.81166666666666],[-78.88583333333334,39.81166666666666],[-78.88583333333334,39.81166666666666],[-79.87805555555555,40.003055555555555],[-79.87805555555555,40.003055555555555],[-79.87805555555555,40.003055555555555],[-79.87805555555555,40.003055555555555],[-80.04194444444444,40.03388888888889],[-80.04194444444444,40.03388888888889],[-80.3938888888889,40.098888888888894],[-80.3938888888889,40.098888888888894],[-80.3938888888889,40.098888888888894],[-80.63166666666666,40.14222222222222],[-80.63166666666666,40.14222222222222],[-80.7775,40.16861111111111],[-80.7775,40.16861111111111],[-80.7775,40.16861111111111],[-80.7775,40.16861111111111],[-80.9263888888889,40.195277777777775],[-80.9263888888889,40.195277777777775],[-80.9263888888889,40.195277777777775],[-81.07416666666666,40.22138888888889],[-81.07416666666666,40.22138888888889],[-81.07416666666666,40.22138888888889],[-81.07416666666666,40.22138888888889],[-83.13583333333334,40.56527777777777],[-83.13583333333334,40.56527777777777],[-83.39583333333334,40.605555555555554],[-83.58722222222222,40.63527777777778],[-83.58722222222222,40.63527777777778],[-84.02916666666667,40.70194444444445],[-85.46694444444445,40.90611111111111],[-85.46694444444445,40.90611111111111],[-85.46694444444445,40.90611111111111],[-85.86472222222221,40.95916666666667],[-85.86472222222221,40.95916666666667],[-85.86472222222221,40.95916666666667],[-85.86472222222221,40.95916666666667],[-86.16611111111112,40.998333333333335],[-86.44111111111111,41.03361111111111],[-86.44111111111111,41.03361111111111],[-86.44111111111111,41.03361111111111],[-86.44111111111111,41.03361111111111],[-86.68833333333333,41.06472222222222],[-86.8086111111111,41.07944444444445],[-86.8625,41.086111111111116],[-86.8625,41.086111111111116],[-86.94694444444445,41.09638888888889],[-86.94694444444445,41.09638888888889],[-87.08472222222221,41.113055555555555],[-87.08472222222221,41.113055555555555],[-87.08472222222221,41.113055555555555],[-87.08472222222221,41.113055555555555],[-87.90916666666668,41.20916666666667],[-87.90916666666668,41.20916666666667],[-87.90916666666668,41.20916666666667],[-88.33277777777778,41.256388888888885],[-88.33277777777778,41.256388888888885],[-88.33277777777778,41.256388888888885],[-88.33277777777778,41.256388888888885],[-88.33277777777778,41.256388888888885],[-88.33277777777778,41.256388888888885],[-88.87472222222222,41.31444444444444],[-88.87472222222222,41.31444444444444],[-88.87472222222222,41.31444444444444],[-89.81777777777778,41.40861111111111],[-89.81777777777778,41.40861111111111],[-89.81777777777778,41.40861111111111],[-89.81777777777778,41.40861111111111],[-90.08888888888889,41.43416666666666],[-90.08888888888889,41.43416666666666],[-90.08888888888889,41.43416666666666],[-90.08888888888889,41.43416666666666],[-90.08888888888889,41.43416666666666],[-90.08888888888889,41.43416666666666],[-91.46083333333334,41.553888888888885],[-91.46083333333334,41.553888888888885],[-91.46083333333334,41.553888888888885],[-91.46083333333334,41.553888888888885],[-91.46083333333334,41.553888888888885],[-91.46083333333334,41.553888888888885],[-91.46083333333334,41.553888888888885],[-92.7911111111111,41.653888888888886],[-92.7911111111111,41.653888888888886],[-92.7911111111111,41.653888888888886],[-93.83083333333333,41.75527777777778],[-93.83083333333333,41.75527777777778],[-93.83083333333333,41.75527777777778],[-93.83083333333333,41.75527777777778],[-93.83083333333333,41.75527777777778],[-93.83083333333333,41.75527777777778],[-93.83083333333333,41.75527777777778],[-95.24555555555555,42.40416666666667],[-95.24555555555555,42.40416666666667],[-95.24555555555555,42.40416666666667],[-95.55722222222222,42.40361111111111],[-95.55722222222222,42.40361111111111],[-95.55722222222222,42.40361111111111],[-95.55722222222222,42.40361111111111],[-95.55722222222222,42.40361111111111],[-95.86666666666666,42.40277777777778],[-95.86666666666666,42.40277777777778],[-95.86666666666666,42.40277777777778],[-95.86666666666666,42.40277777777778],[-95.86666666666666,42.40277777777778],[-96.78527777777778,42.39555555555555],[-96.78527777777778,42.39555555555555],[-96.78527777777778,42.39555555555555],[-96.78527777777778,42.39555555555555],[-96.78527777777778,42.39555555555555],[-97.39555555555556,42.38638888888889],[-97.39555555555556,42.38638888888889],[-97.39555555555556,42.38638888888889],[-97.39555555555556,42.38638888888889],[-97.39555555555556,42.38638888888889],[-97.39555555555556,42.38638888888889],[-97.39555555555556,42.38638888888889],[-98.60888888888888,42.35916666666667],[-98.60888888888888,42.35916666666667],[-98.60888888888888,42.35916666666667],[-99.07555555555555,42.345],[-99.07555555555555,42.345],[-99.07555555555555,42.345],[-99.07555555555555,42.345],[-99.07555555555555,42.345],[-99.57111111111111,42.32833333333333],[-99.57111111111111,42.32833333333333],[-99.57111111111111,42.32833333333333],[-99.57111111111111,42.32833333333333],[-99.57111111111111,42.32833333333333],[-99.57111111111111,42.32833333333333],[-100.77555555555556,42.27777777777778],[-100.77555555555556,42.27777777777778],[-100.77555555555556,42.27777777777778],[-100.77555555555556,42.27777777777778],[-100.77555555555556,42.27777777777778],[-100.77555555555556,42.27777777777778],[-101.08944444444444,42.26277777777778],[-101.08944444444444,42.26277777777778],[-101.08944444444444,42.26277777777778],[-101.08944444444444,42.26277777777778],[-102.02166666666666,42.213055555555556],[-102.02166666666666,42.213055555555556],[-102.2088888888889,42.20166666666667],[-102.2088888888889,42.20166666666667],[-102.50805555555556,42.18388888888889],[-102.50805555555556,42.18388888888889],[-102.50805555555556,42.18388888888889],[-102.50805555555556,42.18388888888889],[-102.50805555555556,42.18388888888889],[-102.665,42.17361111111111],[-102.665,42.17361111111111],[-102.665,42.17361111111111],[-102.665,42.17361111111111],[-102.665,42.17361111111111],[-103.61027777777777,42.109722222222224],[-103.61027777777777,42.109722222222224],[-103.61027777777777,42.109722222222224],[-103.76833333333333,42.098333333333336],[-103.76833333333333,42.098333333333336],[-103.76833333333333,42.098333333333336],[-104.08166666666666,42.07472222222223],[-104.08166666666666,42.07472222222223],[-104.08166666666666,42.07472222222223],[-104.39833333333334,42.05027777777777],[-104.39833333333334,42.05027777777777],[-104.39833333333334,42.05027777777777],[-104.71916666666667,42.02472222222222],[-104.71916666666667,42.02472222222222],[-104.71916666666667,42.02472222222222],[-105.19250000000001,41.984722222222224],[-105.19250000000001,41.984722222222224],[-105.19250000000001,41.984722222222224],[-105.19250000000001,41.984722222222224],[-105.35055555555554,41.971111111111114],[-105.35055555555554,41.971111111111114],[-105.78916666666666,41.93111111111111],[-105.78916666666666,41.93111111111111],[-105.78916666666666,41.93111111111111],[-105.78916666666666,41.93111111111111],[-106.10333333333332,41.90277777777778],[-106.10333333333332,41.90277777777778],[-106.28888888888889,41.88527777777778],[-106.28888888888889,41.88527777777778],[-106.43333333333334,41.87138888888889],[-106.43333333333334,41.87138888888889],[-106.43333333333334,41.87138888888889],[-106.43333333333334,41.87138888888889],[-106.74805555555555,41.84],[-106.74805555555555,41.84],[-106.74805555555555,41.84],[-106.74805555555555,41.84],[-106.90611111111112,41.82416666666667],[-106.90611111111112,41.82416666666667],[-106.90611111111112,41.82416666666667],[-106.90611111111112,41.82416666666667],[-107.86944444444444,41.722500000000004],[-107.86944444444444,41.722500000000004],[-108.03111111111112,41.70444444444445],[-108.03111111111112,41.70444444444445],[-108.03111111111112,41.70444444444445],[-108.19333333333334,41.68611111111111],[-108.19333333333334,41.68611111111111],[-108.19333333333334,41.68611111111111],[-109.68555555555555,41.57083333333334],[-109.68555555555555,41.57083333333334],[-109.68555555555555,41.57083333333334],[-109.68555555555555,41.57083333333334],[-109.68555555555555,41.57083333333334],[-110.02416666666666,41.559444444444445],[-110.02416666666666,41.559444444444445],[-110.02416666666666,41.559444444444445],[-110.54527777777777,41.540277777777774],[-110.89694444444446,41.52583333333333],[-111.44666666666667,41.50111111111111],[-111.44666666666667,41.50111111111111],[-111.44666666666667,41.50111111111111],[-111.9675,41.47555555555556],[-111.9675,41.47555555555556],[-111.9675,41.47555555555556],[-111.9675,41.47555555555556],[-111.9675,41.47555555555556],[-112.99361111111111,41.41777777777777],[-113.1613888888889,41.407222222222224],[-113.1613888888889,41.407222222222224],[-113.1613888888889,41.407222222222224],[-113.1613888888889,41.407222222222224],[-113.49555555555555,41.38583333333333],[-113.49555555555555,41.38583333333333],[-113.99,41.32666666666667],[-113.99,41.32666666666667],[-113.99,41.32666666666667],[-114.31305555555555,41.24777777777778],[-114.31305555555555,41.24777777777778],[-114.47277777777778,41.208333333333336],[-114.47277777777778,41.208333333333336],[-114.75694444444444,41.13861111111111],[-114.75694444444444,41.13861111111111],[-114.98388888888888,41.08027777777778],[-115.08222222222221,41.0575],[-115.08222222222221,41.0575],[-115.08222222222221,41.0575],[-115.08222222222221,41.0575],[-115.30805555555555,40.9975],[-115.30805555555555,40.9975],[-115.30805555555555,40.9975],[-115.30805555555555,40.9975],[-115.56555555555555,40.93277777777777],[-115.56555555555555,40.93277777777777],[-115.95416666666667,40.82944444444445],[-115.95416666666667,40.82944444444445],[-116.21666666666667,40.76083333333333],[-116.21666666666667,40.76083333333333],[-116.21666666666667,40.76083333333333],[-116.21666666666667,40.76083333333333],[-116.70805555555556,40.62777777777778],[-116.70805555555556,40.62777777777778],[-117.08916666666666,40.525555555555556],[-117.18944444444445,40.499722222222225],[-117.18944444444445,40.499722222222225],[-117.25055555555555,40.48361111111111],[-117.25055555555555,40.48361111111111],[-117.41333333333334,40.440555555555555],[-117.41333333333334,40.440555555555555],[-117.51,40.415],[-117.51,40.415],[-117.83138888888888,40.32888888888889],[-117.83138888888888,40.32888888888889],[-117.83138888888888,40.32888888888889],[-118.53472222222221,40.1375],[-118.53472222222221,40.1375],[-118.71416666666667,40.084722222222226],[-118.71416666666667,40.084722222222226],[-118.71416666666667,40.084722222222226],[-118.71416666666667,40.084722222222226],[-118.86972222222222,40.03722222222222],[-118.86972222222222,40.03722222222222],[-119.48944444444444,39.84805555555556],[-119.48944444444444,39.84805555555556],[-119.48944444444444,39.84805555555556],[-119.58333333333333,39.81888888888889],[-119.58333333333333,39.81888888888889],[-119.58333333333333,39.81888888888889],[-119.73916666666666,39.77055555555555],[-120.49194444444444,39.5325],[-120.49194444444444,39.5325],[-120.63916666666667,39.485],[-120.63916666666667,39.485],[-120.63916666666667,39.485],[-121.07472222222222,39.34277777777778],[-121.07472222222222,39.34277777777778],[-121.07472222222222,39.34277777777778],[-121.20472222222223,39.27333333333333],[-121.45333333333333,39.12861111111111],[-121.45333333333333,39.12861111111111],[-122.01527777777778,38.91694444444444],[-122.01527777777778,38.91694444444444],[-122.01527777777778,38.91694444444444],[-122.01527777777778,38.91694444444444],[-122.14722222222223,38.86194444444445],[-122.50111111111111,38.48388888888889],[-122.59083333333332,38.396388888888886],[-122.59083333333332,38.396388888888886],[-122.75,38.233333333333334],[-122.61666666666666,37.85],[-122.61666666666666,37.85],[-122.5911111111111,37.82166666666667],[-122.46666666666667,37.71666666666667],[-122.46666666666667,37.71666666666667],[-122.46666666666667,37.71666666666667],[-122.46666666666667,37.71666666666667],[-122.44277777777778,37.68222222222222],[-122.37555555555555,37.618611111111115],[-122.335,37.55305555555555],[-122.335,37.55305555555555],[-122.335,37.55305555555555],[-122.26666666666667,37.45],[-122.2,37.416666666666664],[-122.2,37.416666666666664],[-122.2,37.416666666666664],[-122.13333333333334,37.416666666666664],[-122.12694444444443,37.4375],[-122.22055555555556,37.55361111111111],[-122.22055555555556,37.55361111111111],[-122.22055555555556,37.55361111111111],[-122.31916666666666,37.59527777777778],[-122.36305555555555,37.61361111111111],[-122.36305555555555,37.61361111111111]],"type":"LineString"}
}
