{
  "id": 1981745945,
  "type": "Feature",
  "properties": {
    "geom:area": 0,
    "geom:bbox": "-122.770000,37.620000,-77.460000,42.360000",
    "geom:latitude": 41.09403461489985,
    "geom:longitude": -100.51413446756231,
    "src:alt_label": "swim-route",
    "src:geom": "swim",
    "swim:geom": "route",
    "wof:geomhash": "fa9dbbc31515a927f61c97d515c2f7d2",
    "wof:id": 1981745945,
    "wof:repo": "sfomuseum-data-flights-2025-10"
  },
  "bbox": [
    -122.77,
    37.62,
    -77.46,
    42.36
  ],
  "geometry": {"coordinates":[[-77.46,38.95],[-77.5,39.01],[-77.52,39.03],[-77.52,39.03],[-77.54,39.05],[-77.55,39.07],[-77.56,39.09],[-77.57,39.09],[-77.58,39.12],[-77.6,39.14],[-77.62,39.16],[-77.63,39.18],[-77.72,39.3],[-77.78,39.39],[-77.81,39.45],[-77.81,39.46],[-77.83,39.49],[-77.85,39.52],[-77.86,39.54],[-77.87,39.54],[-77.88,39.54],[-77.9,39.55],[-77.99,39.58],[-77.99,39.58],[-78.11,39.61],[-78.18,39.64],[-78.24,39.65],[-78.28,39.67],[-78.32,39.67],[-78.38,39.69],[-78.46,39.7],[-78.48,39.71],[-78.68,39.75],[-78.7,39.75],[-78.79,39.77],[-78.88,39.79],[-79.33,39.87],[-79.6,39.95],[-79.79,39.99],[-80.27,40.08],[-81.68,40.33],[-82.31,40.43],[-82.95,40.53],[-83.05,40.55],[-83.16,40.57],[-83.44,40.61],[-83.67,40.65],[-83.76,40.66],[-83.85,40.67],[-84.28,40.74],[-84.39,40.75],[-84.49,40.77],[-84.69,40.8],[-84.73,40.8],[-84.96,40.84],[-85.01,40.84],[-85.16,40.86],[-85.76,40.94],[-86,40.98],[-87,41.1],[-87.83,41.2],[-89.22,41.35],[-89.28,41.36],[-89.42,41.37],[-89.67,41.39],[-91.18,41.53],[-93.24,41.68],[-93.45,41.7],[-94.32,42.01],[-94.91,42.33],[-94.98,42.36],[-96.29,42.36],[-99.27,42.31],[-102.17,42.18],[-104.08,42.07],[-104.62,42.02],[-106.75,41.84],[-107.87,41.72],[-108.19,41.69],[-109.02,41.59],[-109.18,41.59],[-110.79,41.53],[-111.1,41.52],[-112.59,41.44],[-112.9,41.42],[-112.99,41.42],[-113.83,41.36],[-113.84,41.36],[-114.46,41.21],[-115.39,40.98],[-116.41,40.71],[-116.92,40.57],[-118.03,40.27],[-118.58,40.13],[-120.5,39.53],[-121.1,39.34],[-121.3,39.22],[-121.6,39.04],[-121.65,39.02],[-121.82,38.91],[-121.84,38.9],[-121.92,38.85],[-122.25,38.66],[-122.29,38.63],[-122.44,38.54],[-122.68,38.31],[-122.69,38.3],[-122.77,38.22],[-122.75,38.16],[-122.7,38],[-122.69,37.95],[-122.67,37.9],[-122.65,37.87],[-122.59,37.82],[-122.58,37.81],[-122.53,37.77],[-122.51,37.74],[-122.5,37.74],[-122.5,37.73],[-122.44,37.68],[-122.37,37.62],[-122.38,37.62]],"type":"LineString"}
}
