{
  "id": 1997546819,
  "type": "Feature",
  "properties": {
    "geom:area": 0,
    "geom:bbox": "-122.380000,32.900000,-97.040000,38.520000",
    "geom:latitude": 36.49353849783741,
    "geom:longitude": -109.58239146035831,
    "src:alt_label": "swim-route",
    "src:geom": "swim",
    "swim:geom": "route",
    "wof:geomhash": "9d2bd6b21e408a78ca8ad563b97ebb92",
    "wof:id": 1997546819,
    "wof:repo": "sfomuseum-data-flights-2025-10"
  },
  "bbox": [
    -122.38,
    32.9,
    -97.04,
    38.52
  ],
  "geometry": {"coordinates":[[-122.38,37.62],[-122.28,37.68],[-122.27,37.69],[-122.27,37.69],[-122.21,37.72],[-122.21,37.72],[-122.2,37.72],[-122.18,37.73],[-122.18,37.74],[-122.16,37.75],[-122.12,37.76],[-122.11,37.77],[-122,37.83],[-121.93,37.84],[-121.73,37.88],[-121.7,37.88],[-121.65,37.89],[-121.58,37.91],[-121.43,37.93],[-121.34,37.95],[-121.32,37.95],[-121.2,37.97],[-121.16,37.98],[-121.1,37.99],[-121.09,37.99],[-120.83,38.03],[-120.73,38.05],[-120.64,38.06],[-120.58,38.07],[-120.54,38.08],[-120.12,38.14],[-119.18,38.27],[-117.29,38.52],[-117.28,38.52],[-114.33,38.4],[-113.95,38.31],[-112.57,37.97],[-112,37.83],[-111.72,37.71],[-111.43,37.6],[-111.23,37.51],[-110,37],[-109.21,36.75],[-107.48,36.2],[-107.46,36.19],[-106.96,36.02],[-105.88,35.66],[-105.45,35.51],[-104.06,35.02],[-104,35],[-103.55,34.9],[-102.66,34.69],[-102.17,34.57],[-101.06,34.3],[-100.59,34.24],[-100.25,34.2],[-99.54,33.99],[-99.49,33.97],[-99.04,33.83],[-98.95,33.8],[-98.78,33.75],[-98.76,33.74],[-98.61,33.7],[-98.61,33.69],[-98.52,33.67],[-98.49,33.66],[-98.43,33.64],[-98.29,33.59],[-98.2,33.56],[-98.13,33.54],[-98.07,33.52],[-98.02,33.5],[-97.92,33.47],[-97.78,33.43],[-97.72,33.41],[-97.64,33.38],[-97.6,33.36],[-97.55,33.33],[-97.46,33.27],[-97.36,33.18],[-97.29,33.11],[-97.24,33.06],[-97.23,33.05],[-97.19,33.01],[-97.18,33],[-97.16,32.99],[-97.09,32.94],[-97.04,32.9]],"type":"LineString"}
}
