{
  "id": 1981719491,
  "type": "Feature",
  "properties": {
    "geom:area": 0,
    "geom:bbox": "-122.359240,37.466930,-121.262460,37.614470",
    "geom:latitude": 37.54707053027222,
    "geom:longitude": -121.81401032660834,
    "src:alt_label": "swim-approach",
    "src:geom": "swim",
    "swim:elevations": [
      4569,
      4466,
      4020,
      3876,
      3507,
      3353,
      3353,
      3305,
      3132,
      3055,
      3048,
      2855,
      2781,
      2584,
      2438,
      2443,
      2377,
      2226,
      2012,
      1870,
      1826,
      1598,
      1401,
      1177,
      1038,
      762,
      687,
      638,
      517,
      398,
      367,
      204,
      52,
      0
    ],
    "swim:geom": "approach",
    "swim:timestamps": [
      1760962247,
      1760962260,
      1760962307,
      1760962324,
      1760962371,
      1760962408,
      1760962420,
      1760962454,
      1760962478,
      1760962505,
      1760962537,
      1760962580,
      1760962591,
      1760962628,
      1760962672,
      1760962695,
      1760962708,
      1760962727,
      1760962764,
      1760962795,
      1760962811,
      1760962848,
      1760962867,
      1760962894,
      1760962923,
      1760962971,
      1760962993,
      1760963001,
      1760963032,
      1760963066,
      1760963072,
      1760963114,
      1760963156,
      1760963167
    ],
    "wof:geomhash": "4b51a8ad914343b2a49ed6fb40b8171b",
    "wof:id": 1981719491,
    "wof:repo": "sfomuseum-data-flights-2025-10"
  },
  "bbox": [
    -122.35924,
    37.46693,
    -121.26246,
    37.61447
  ],
  "geometry": {"coordinates":[[-121.26246,37.59289],[-121.28671,37.5897],[-121.37691,37.57972],[-121.40585,37.5764],[-121.48562,37.56714],[-121.54083,37.56072],[-121.55859,37.55861],[-121.60788,37.55286],[-121.64172,37.5518],[-121.67493,37.56868],[-121.71835,37.58216],[-121.76905,37.5686],[-121.7733,37.55663],[-121.78585,37.51699],[-121.80785,37.47325],[-121.83766,37.46693],[-121.85621,37.46975],[-121.8817,37.47478],[-121.93132,37.48402],[-121.97086,37.49118],[-121.99106,37.49575],[-122.03459,37.50985],[-122.05739,37.51722],[-122.09036,37.52797],[-122.12306,37.53853],[-122.177,37.55609],[-122.20145,37.56394],[-122.21032,37.56678],[-122.24373,37.57758],[-122.27739,37.58767],[-122.28314,37.58923],[-122.31835,37.59803],[-122.35115,37.61103],[-122.35924,37.61447]],"type":"LineString"}
}
