{
  "id": 1981648603,
  "type": "Feature",
  "properties": {
    "geom:area": 0,
    "geom:bbox": "-122.360940,37.490280,-121.257800,37.614930",
    "geom:latitude": 37.54607872390957,
    "geom:longitude": -121.81434935002454,
    "src:alt_label": "swim-approach",
    "src:geom": "swim",
    "swim:elevations": [
      5031,
      4608,
      4363,
      4089,
      3770,
      3442,
      3421,
      3209,
      3108,
      2863,
      2797,
      2650,
      2586,
      2476,
      2326,
      2097,
      1946,
      1891,
      1800,
      1470,
      1249,
      1153,
      956,
      824,
      639,
      613,
      562,
      468,
      314,
      227,
      134,
      60,
      0
    ],
    "swim:geom": "approach",
    "swim:timestamps": [
      1760306567,
      1760306607,
      1760306632,
      1760306659,
      1760306690,
      1760306728,
      1760306737,
      1760306787,
      1760306802,
      1760306838,
      1760306847,
      1760306876,
      1760306905,
      1760306924,
      1760306945,
      1760306987,
      1760307022,
      1760307031,
      1760307065,
      1760307115,
      1760307147,
      1760307162,
      1760307199,
      1760307223,
      1760307268,
      1760307274,
      1760307314,
      1760307341,
      1760307380,
      1760307409,
      1760307444,
      1760307462,
      1760307480
    ],
    "wof:geomhash": "e0b835b2d68b6eb2cea2c9a0880280ff",
    "wof:id": 1981648603,
    "wof:repo": "sfomuseum-data-flights-2025-10"
  },
  "bbox": [
    -122.36094,
    37.49028,
    -121.2578,
    37.61493
  ],
  "geometry": {"coordinates":[[-121.2578,37.59307],[-121.33352,37.58366],[-121.38053,37.57845],[-121.43024,37.57281],[-121.48679,37.56627],[-121.55333,37.55844],[-121.56796,37.55678],[-121.63979,37.5466],[-121.65932,37.5417],[-121.70358,37.53108],[-121.7143,37.52848],[-121.74978,37.52026],[-121.78523,37.51192],[-121.80993,37.50605],[-121.83541,37.49987],[-121.88673,37.49028],[-121.93018,37.49198],[-121.94159,37.49239],[-121.9838,37.49378],[-122.04245,37.51206],[-122.07953,37.52432],[-122.09696,37.52988],[-122.13686,37.54263],[-122.16087,37.55027],[-122.20401,37.56456],[-122.20987,37.56653],[-122.24678,37.57861],[-122.27105,37.58609],[-122.29953,37.59438],[-122.31801,37.59975],[-122.34036,37.60663],[-122.35068,37.6108],[-122.36094,37.61493]],"type":"LineString"}
}
