{
  "id": 1981776125,
  "type": "Feature",
  "properties": {
    "geom:area": 0,
    "geom:bbox": "-122.556380,36.719450,-121.440530,37.650550",
    "geom:latitude": 37.20835600101491,
    "geom:longitude": -122.06766743757052,
    "src:alt_label": "swim-takeoff",
    "src:geom": "swim",
    "swim:elevations": [
      152,
      907,
      1144,
      2438,
      2575,
      3273,
      3327,
      3576,
      3761,
      3973,
      4213,
      4425,
      4819,
      5262,
      5586,
      5694,
      5827,
      6106,
      6296,
      6826,
      7002,
      7100,
      7658,
      7779,
      8121,
      8271
    ],
    "swim:geom": "takeoff",
    "swim:timestamps": [
      1761498958,
      1761499011,
      1761499030,
      1761499136,
      1761499147,
      1761499192,
      1761499201,
      1761499249,
      1761499277,
      1761499293,
      1761499314,
      1761499334,
      1761499369,
      1761499401,
      1761499435,
      1761499451,
      1761499465,
      1761499492,
      1761499508,
      1761499556,
      1761499576,
      1761499591,
      1761499668,
      1761499687,
      1761499735,
      1761499759
    ],
    "wof:geomhash": "4790343dd81c9d3522abc1e5fbacfcb7",
    "wof:id": 1981776125,
    "wof:repo": "sfomuseum-data-flights-2025-10"
  },
  "bbox": [
    -122.55638,
    36.71945,
    -121.44053,
    37.65055
  ],
  "geometry": {"coordinates":[[-122.38836,37.62431],[-122.43318,37.64404],[-122.4484,37.65055],[-122.55638,37.6283],[-122.55432,37.61394],[-122.51716,37.55587],[-122.50993,37.54541],[-122.4572,37.47758],[-122.40933,37.44105],[-122.38003,37.41952],[-122.34341,37.3926],[-122.30666,37.36568],[-122.23977,37.31655],[-122.1778,37.27101],[-122.11323,37.2233],[-122.0832,37.20108],[-122.05364,37.17908],[-121.99994,37.1391],[-121.96703,37.1146],[-121.87083,37.04305],[-121.82946,37.01213],[-121.79882,36.98922],[-121.6363,36.86717],[-121.59541,36.83689],[-121.49153,36.75869],[-121.44053,36.71945]],"type":"LineString"}
}
