{
  "id": 1981627297,
  "type": "Feature",
  "properties": {
    "geom:area": 0,
    "geom:bbox": "-122.359180,37.637210,-121.459560,38.499260",
    "geom:latitude": 38.06157798623424,
    "geom:longitude": -121.90457969218703,
    "src:alt_label": "swim-takeoff",
    "src:geom": "swim",
    "swim:elevations": [
      359,
      586,
      882,
      1089,
      1387,
      1530,
      2030,
      2093,
      2361,
      2524,
      3012,
      3251,
      3268,
      3463,
      3567,
      3671,
      4018,
      4308,
      4520,
      4878,
      4946,
      5088,
      5353,
      5533,
      5757,
      6011,
      6074
    ],
    "swim:geom": "takeoff",
    "swim:timestamps": [
      1760043951,
      1760043983,
      1760044016,
      1760044045,
      1760044079,
      1760044092,
      1760044134,
      1760044140,
      1760044164,
      1760044176,
      1760044223,
      1760044255,
      1760044261,
      1760044298,
      1760044317,
      1760044336,
      1760044374,
      1760044403,
      1760044430,
      1760044468,
      1760044478,
      1760044498,
      1760044527,
      1760044549,
      1760044587,
      1760044617,
      1760044626
    ],
    "wof:geomhash": "4f0ef2629e1212e1e36b1dcb6ee7999a",
    "wof:id": 1981627297,
    "wof:repo": "sfomuseum-data-flights-2025-10"
  },
  "bbox": [
    -122.35918,
    37.63721,
    -121.45956,
    38.49926
  ],
  "geometry": {"coordinates":[[-122.35918,37.63721],[-122.33155,37.65459],[-122.29656,37.67354],[-122.26398,37.69203],[-122.22165,37.71487],[-122.20615,37.72704],[-122.16552,37.77191],[-122.15943,37.77865],[-122.13487,37.8058],[-122.12201,37.82012],[-122.07157,37.8759],[-122.03569,37.91529],[-122.02855,37.92314],[-121.98158,37.97455],[-121.95611,38.00249],[-121.92993,38.03128],[-121.8769,38.0895],[-121.83398,38.13644],[-121.7941,38.18009],[-121.73621,38.24335],[-121.72122,38.25969],[-121.69052,38.29318],[-121.64423,38.34353],[-121.61009,38.38062],[-121.546,38.44616],[-121.48054,38.48669],[-121.45956,38.49926]],"type":"LineString"}
}
