{
  "id": 1981741629,
  "type": "Feature",
  "properties": {
    "geom:area": 0,
    "geom:bbox": "-123.262222,37.650000,-122.244167,44.336667",
    "geom:latitude": 41.154464337552575,
    "geom:longitude": -122.70080394843896,
    "src:alt_label": "swim-path",
    "src:geom": "swim",
    "swim:altitudes": [
      "026",
      "026",
      "026",
      "026",
      "040",
      "040",
      "222",
      "222",
      "222",
      "222",
      "240",
      "240",
      "240",
      "240",
      "259C",
      "259C",
      "260C",
      "260C",
      "260C",
      "260C",
      "260C",
      "260C",
      "260C",
      "260C",
      "260C",
      "260C",
      "260C",
      "260C",
      "260C",
      "260C",
      "260C",
      "260C",
      "260C",
      "260",
      "260",
      "260",
      "236",
      "236",
      "226",
      "226",
      "157",
      "157",
      "157",
      "138",
      "138",
      "080",
      "080",
      "050",
      "050",
      "050",
      "050",
      "050",
      "050",
      "032",
      "032",
      "030",
      "030",
      "030",
      "007",
      "007",
      "004",
      "004",
      "004",
      "004",
      "004"
    ],
    "swim:geom": "path",
    "swim:speeds": [
      183,
      183,
      183,
      183,
      196,
      196,
      423,
      423,
      423,
      423,
      437,
      437,
      437,
      437,
      450,
      450,
      453,
      453,
      453,
      453,
      450,
      450,
      450,
      450,
      450,
      442,
      442,
      442,
      442,
      445,
      445,
      445,
      445,
      444,
      444,
      444,
      379,
      379,
      374,
      374,
      358,
      358,
      358,
      360,
      360,
      282,
      282,
      274,
      274,
      274,
      274,
      234,
      234,
      216,
      216,
      215,
      201,
      201,
      146,
      146,
      36,
      36,
      36,
      36,
      36
    ],
    "swim:timestamps": [
      1761175433,
      1761175433,
      1761175433,
      1761175433,
      1761175480,
      1761175480,
      1761175960,
      1761175960,
      1761175960,
      1761175960,
      1761176080,
      1761176080,
      1761176080,
      1761176080,
      1761176200,
      1761176200,
      1761176321,
      1761176321,
      1761176321,
      1761176321,
      1761176861,
      1761176861,
      1761176861,
      1761176861,
      1761176861,
      1761177222,
      1761177222,
      1761177222,
      1761177222,
      1761177402,
      1761177402,
      1761177402,
      1761177402,
      1761177882,
      1761177882,
      1761177882,
      1761178062,
      1761178062,
      1761178122,
      1761178122,
      1761178483,
      1761178483,
      1761178483,
      1761178543,
      1761178543,
      1761178783,
      1761178783,
      1761178976,
      1761178976,
      1761178976,
      1761178976,
      1761179036,
      1761179036,
      1761179213,
      1761179213,
      1761179273,
      1761179396,
      1761179396,
      1761179577,
      1761179577,
      1761179682,
      1761179682,
      1761179682,
      1761179682,
      1761179682
    ],
    "wof:geomhash": "6675cc1d28efd44764bbdc9f1e10bf6b",
    "wof:id": 1981741629,
    "wof:repo": "sfomuseum-data-flights-2025-10"
  },
  "bbox": [
    -123.26222222222222,
    37.65,
    -122.24416666666667,
    44.336666666666666
  ],
  "geometry": {"coordinates":[[-122.33333333333333,37.65],[-122.33333333333333,37.65],[-122.33333333333333,37.65],[-122.33333333333333,37.65],[-122.29861111111111,37.67194444444444],[-122.29861111111111,37.67194444444444],[-122.24416666666667,38.43194444444444],[-122.24416666666667,38.43194444444444],[-122.24416666666667,38.43194444444444],[-122.24416666666667,38.43194444444444],[-122.28222222222222,38.671388888888885],[-122.28222222222222,38.671388888888885],[-122.28222222222222,38.671388888888885],[-122.28222222222222,38.671388888888885],[-122.32138888888889,38.91888888888889],[-122.32138888888889,38.91888888888889],[-122.36194444444443,39.17027777777778],[-122.36194444444443,39.17027777777778],[-122.36194444444443,39.17027777777778],[-122.36194444444443,39.17027777777778],[-122.54527777777777,40.29],[-122.54527777777777,40.29],[-122.54527777777777,40.29],[-122.54527777777777,40.29],[-122.54527777777777,40.29],[-122.66916666666667,41.02583333333333],[-122.66916666666667,41.02583333333333],[-122.66916666666667,41.02583333333333],[-122.66916666666667,41.02583333333333],[-122.73,41.380833333333335],[-122.73,41.380833333333335],[-122.73,41.380833333333335],[-122.73,41.380833333333335],[-122.90194444444445,42.36527777777778],[-122.90194444444445,42.36527777777778],[-122.90194444444445,42.36527777777778],[-122.96305555555556,42.7075],[-122.96305555555556,42.7075],[-122.98138888888889,42.80916666666666],[-122.98138888888889,42.80916666666666],[-123.13333333333334,43.40888888888889],[-123.13333333333334,43.40888888888889],[-123.13333333333334,43.40888888888889],[-123.14472222222223,43.50833333333333],[-123.14472222222223,43.50833333333333],[-123.08111111111111,43.85305555555556],[-123.08111111111111,43.85305555555556],[-123.05388888888889,44.10638888888889],[-123.05388888888889,44.10638888888889],[-123.05388888888889,44.10638888888889],[-123.05388888888889,44.10638888888889],[-123.04666666666667,44.17388888888889],[-123.04666666666667,44.17388888888889],[-123.09166666666667,44.33555555555556],[-123.09166666666667,44.33555555555556],[-123.17527777777778,44.336666666666666],[-123.26222222222222,44.28],[-123.26222222222222,44.28],[-123.22,44.151111111111106],[-123.22,44.151111111111106],[-123.21638888888889,44.11944444444445],[-123.21638888888889,44.11944444444445],[-123.21638888888889,44.11944444444445],[-123.21638888888889,44.11944444444445],[-123.21638888888889,44.11944444444445]],"type":"LineString"}
}
