{
  "id": 1981576165,
  "type": "Feature",
  "properties": {
    "geom:area": 0,
    "geom:bbox": "-122.366950,37.725730,-122.234460,38.499300",
    "geom:latitude": 38.11175019367107,
    "geom:longitude": -122.29505699692858,
    "src:alt_label": "swim-takeoff",
    "src:geom": "swim",
    "swim:elevations": [
      1880,
      2272,
      2646,
      3214,
      3450,
      3683,
      4253,
      4375,
      5177,
      5684,
      5857,
      6304,
      6696,
      7352,
      7672,
      7865,
      7925,
      8036
    ],
    "swim:geom": "takeoff",
    "swim:timestamps": [
      1759511406,
      1759511441,
      1759511464,
      1759511509,
      1759511545,
      1759511571,
      1759511608,
      1759511612,
      1759511654,
      1759511693,
      1759511704,
      1759511736,
      1759511767,
      1759511808,
      1759511837,
      1759511862,
      1759511886,
      1759511919
    ],
    "wof:geomhash": "397500b3a8ede12ff9cd45a8cab51044",
    "wof:id": 1981576165,
    "wof:repo": "sfomuseum-data-flights-2025-10"
  },
  "bbox": [
    -122.36695,
    37.72573,
    -122.23446,
    38.4993
  ],
  "geometry": {"coordinates":[[-122.35724,37.72573],[-122.36286,37.76355],[-122.36695,37.79155],[-122.3572,37.84778],[-122.34482,37.90016],[-122.33488,37.94078],[-122.31874,38.00269],[-122.31697,38.00975],[-122.30055,38.07628],[-122.28509,38.1383],[-122.28029,38.15683],[-122.26778,38.20814],[-122.25488,38.25847],[-122.23873,38.32358],[-122.23446,38.36789],[-122.23735,38.40703],[-122.24147,38.44684],[-122.24718,38.4993]],"type":"LineString"}
}
