{
  "id": 1997537469,
  "type": "Feature",
  "properties": {
    "date:cessation_lower": "2025-10-31",
    "date:cessation_upper": "2025-10-31",
    "date:inception_lower": "2025-10-31",
    "date:inception_upper": "2025-10-31",
    "edtf:cessation": "2025-10-31T03:05:00Z",
    "edtf:inception": "2025-10-31T01:43:00Z",
    "flysfo:actual_timestamp": -1,
    "flysfo:airline": "F9",
    "flysfo:date": "2025-10-30",
    "flysfo:estimated_timestamp": 1761874740,
    "flysfo:event": "D",
    "flysfo:flight_number": "F91504",
    "flysfo:gate": "A15",
    "flysfo:journey": "SFO-SLC",
    "flysfo:scheduled_timestamp": 1761874740,
    "flysfo:timestamp": 1761874740,
    "geom:area": 0,
    "geom:bbox": "-122.370943,37.617990,-111.980566,40.782170",
    "geom:latitude": 39.20008,
    "geom:longitude": -117.1757545,
    "iata:airline": "F9",
    "icao:aircraft": "A20N",
    "icao:airline": "FFT",
    "lbl:latitude": 37.611664,
    "lbl:longitude": -122.390495,
    "sfomuseum:aircraft_id": 1377564295,
    "sfomuseum:airline_id": 1159284401,
    "sfomuseum:arrival_id": 102527363,
    "sfomuseum:departure_id": 102527513,
    "sfomuseum:flight_id": "20251030-D-FFT-1504",
    "sfomuseum:flight_number": [
      "FFT1504",
      "F91504"
    ],
    "sfomuseum:placetype": "flight",
    "src:geom": "flysfo",
    "src:geom_alt": [
      "swim-route",
      "swim-path",
      "swim-takeoff"
    ],
    "swim:tail_number": "N348FR",
    "wof:belongsto": [
      1947304067,
      102527513,
      1947304073,
      102191575,
      85633793,
      102087579,
      85922583,
      554784711,
      85688637,
      1947304095,
      1947304069,
      102085387
    ],
    "wof:concordances": {
      "swim:gufi": "KO02809600"
    },
    "wof:country": "US",
    "wof:created": 1761927232,
    "wof:geomhash": "b2ae00b77ffd1072a2eb4148779a5d9e",
    "wof:hierarchy": [
      {
        "building_id": 1947304067,
        "campus_id": 102527513,
        "concourse_id": 1947304073,
        "continent_id": 102191575,
        "country_id": 85633793,
        "county_id": 102087579,
        "custom_id": 1997537469,
        "flight_id": 1997537469,
        "locality_id": 85922583,
        "postalcode_id": 554784711,
        "region_id": 85688637,
        "venue_id": 1947304095,
        "wing_id": 1947304069
      },
      {
        "building_id": 1947304067,
        "campus_id": 102527513,
        "concourse_id": 1947304073,
        "continent_id": 102191575,
        "country_id": 85633793,
        "county_id": 102085387,
        "custom_id": 1997537469,
        "flight_id": 1997537469,
        "region_id": 85688637,
        "venue_id": 1947304095,
        "wing_id": 1947304069
      }
    ],
    "wof:id": 1997537469,
    "wof:involves": [
      102527513,
      1159284401,
      1947304095,
      1377564295,
      102527363
    ],
    "wof:lastmodified": 1761927489,
    "wof:name": "F91504 (SFO-SLC)",
    "wof:parent_id": 1947304095,
    "wof:placetype": "custom",
    "wof:placetype_alt": [
      "flight"
    ],
    "wof:repo": "sfomuseum-data-flights-2025-10",
    "wof:superseded_by": [],
    "wof:supersedes": []
  },
  "bbox": [
    -122.370943,
    37.61799,
    -111.980566,
    40.78217
  ],
  "geometry": {"coordinates":[[-122.370943,37.61799],[-111.980566,40.78217]],"type":"MultiPoint"}
}
