{
  "id": 1981571159,
  "type": "Feature",
  "properties": {
    "geom:area": 0,
    "geom:bbox": "-122.362700,37.426550,-121.270890,37.615290",
    "geom:latitude": 37.53048959101076,
    "geom:longitude": -121.81899244760004,
    "src:alt_label": "swim-approach",
    "src:geom": "swim",
    "swim:elevations": [
      4635,
      4524,
      4279,
      3948,
      3560,
      3431,
      3263,
      3155,
      3061,
      2850,
      2677,
      2470,
      2322,
      2178,
      2134,
      2134,
      2134,
      1885,
      1834,
      1612,
      1434,
      1223,
      1048,
      947,
      827,
      591,
      519,
      250,
      239,
      91,
      135
    ],
    "swim:geom": "approach",
    "swim:timestamps": [
      1759515625,
      1759515637,
      1759515663,
      1759515695,
      1759515747,
      1759515771,
      1759515807,
      1759515839,
      1759515857,
      1759515886,
      1759515918,
      1759515957,
      1759515986,
      1759516005,
      1759516048,
      1759516060,
      1759516081,
      1759516132,
      1759516146,
      1759516187,
      1759516218,
      1759516252,
      1759516286,
      1759516302,
      1759516326,
      1759516373,
      1759516383,
      1759516433,
      1759516451,
      1759516491,
      1759516519
    ],
    "wof:geomhash": "46fd6109a4af2baa0128ff1bcf5d083f",
    "wof:id": 1981571159,
    "wof:repo": "sfomuseum-data-flights-2025-10"
  },
  "bbox": [
    -122.3627,
    37.42655,
    -121.27089,
    37.61529
  ],
  "geometry": {"coordinates":[[-121.27089,37.59179],[-121.29442,37.58875],[-121.34403,37.58318],[-121.40589,37.57645],[-121.50278,37.5654],[-121.54392,37.5605],[-121.59986,37.55368],[-121.64475,37.54504],[-121.66537,37.5301],[-121.69286,37.50328],[-121.72406,37.47295],[-121.76165,37.43666],[-121.7982,37.42655],[-121.82116,37.43297],[-121.87184,37.45164],[-121.88581,37.45673],[-121.91039,37.46589],[-121.97038,37.48827],[-121.98624,37.49403],[-122.03366,37.50944],[-122.07196,37.52186],[-122.11249,37.53502],[-122.15088,37.54749],[-122.1676,37.55293],[-122.19359,37.5612],[-122.24054,37.57616],[-122.2512,37.57771],[-122.29821,37.58717],[-122.31263,37.59246],[-122.34303,37.60522],[-122.3627,37.61529]],"type":"LineString"}
}
