{
  "id": 1981701303,
  "type": "Feature",
  "properties": {
    "geom:area": 0,
    "geom:bbox": "-122.355030,37.491700,-121.245970,37.612640",
    "geom:latitude": 37.54673578780038,
    "geom:longitude": -121.80533689983803,
    "src:alt_label": "swim-approach",
    "src:geom": "swim",
    "swim:elevations": [
      4540,
      4260,
      4061,
      3826,
      3624,
      3506,
      3458,
      3258,
      3057,
      2983,
      2797,
      2613,
      2513,
      2377,
      2222,
      2035,
      1928,
      1887,
      1713,
      1662,
      1540,
      1418,
      1113,
      964,
      739,
      701,
      613,
      451,
      426,
      276,
      152,
      30
    ],
    "swim:geom": "approach",
    "swim:timestamps": [
      1760820928,
      1760820957,
      1760820982,
      1760821018,
      1760821045,
      1760821064,
      1760821070,
      1760821097,
      1760821138,
      1760821154,
      1760821194,
      1760821225,
      1760821246,
      1760821271,
      1760821301,
      1760821342,
      1760821369,
      1760821378,
      1760821407,
      1760821415,
      1760821435,
      1760821462,
      1760821494,
      1760821517,
      1760821556,
      1760821577,
      1760821601,
      1760821642,
      1760821652,
      1760821691,
      1760821723,
      1760821754
    ],
    "wof:geomhash": "4b1b30baca8572776e2c9751694e5e6c",
    "wof:id": 1981701303,
    "wof:repo": "sfomuseum-data-flights-2025-10"
  },
  "bbox": [
    -122.35503,
    37.4917,
    -121.24597,
    37.61264
  ],
  "geometry": {"coordinates":[[-121.24597,37.595],[-121.30508,37.58735],[-121.35504,37.58205],[-121.42421,37.57437],[-121.4742,37.56851],[-121.50599,37.56472],[-121.51643,37.5635],[-121.56415,37.55785],[-121.63299,37.54846],[-121.65774,37.54299],[-121.71444,37.52937],[-121.7573,37.51906],[-121.78568,37.51225],[-121.81806,37.50452],[-121.85819,37.49494],[-121.9145,37.4917],[-121.95194,37.49279],[-121.96428,37.49315],[-122.00366,37.49958],[-122.01311,37.50254],[-122.04034,37.51146],[-122.07338,37.52254],[-122.11197,37.53507],[-122.14037,37.54427],[-122.1858,37.55898],[-122.20808,37.56612],[-122.23298,37.57408],[-122.27147,37.58612],[-122.27962,37.58855],[-122.30864,37.59715],[-122.33291,37.60425],[-122.35503,37.61264]],"type":"LineString"}
}
