{
  "id": 1997543207,
  "type": "Feature",
  "properties": {
    "geom:area": 0,
    "geom:bbox": "-122.362600,37.491820,-121.250760,37.616080",
    "geom:latitude": 37.547129647151785,
    "geom:longitude": -121.81170215807953,
    "src:alt_label": "swim-approach",
    "src:geom": "swim",
    "swim:elevations": [
      4903,
      4411,
      4099,
      3876,
      3598,
      3442,
      3239,
      3128,
      2879,
      2696,
      2554,
      2459,
      2371,
      2202,
      2016,
      1953,
      1890,
      1601,
      1409,
      1382,
      1335,
      1120,
      949,
      850,
      693,
      547,
      512,
      490,
      397,
      239,
      97,
      86,
      225
    ],
    "swim:geom": "approach",
    "swim:timestamps": [
      1761941650,
      1761941696,
      1761941724,
      1761941745,
      1761941769,
      1761941785,
      1761941814,
      1761941842,
      1761941877,
      1761941898,
      1761941926,
      1761941948,
      1761941965,
      1761941990,
      1761942024,
      1761942042,
      1761942061,
      1761942116,
      1761942148,
      1761942151,
      1761942159,
      1761942201,
      1761942234,
      1761942255,
      1761942288,
      1761942321,
      1761942327,
      1761942330,
      1761942351,
      1761942386,
      1761942418,
      1761942445,
      1761942451
    ],
    "wof:geomhash": "76bbe4be01dd2106c2dfb90a17aad96c",
    "wof:id": 1997543207,
    "wof:repo": "sfomuseum-data-flights-2025-10"
  },
  "bbox": [
    -122.3626,
    37.49182,
    -121.25076,
    37.61608
  ],
  "geometry": {"coordinates":[[-121.25076,37.59438],[-121.34634,37.58327],[-121.40237,37.57685],[-121.44558,37.57186],[-121.49368,37.56614],[-121.52582,37.56238],[-121.58369,37.55555],[-121.63346,37.54859],[-121.69163,37.5348],[-121.72566,37.5267],[-121.7711,37.51579],[-121.80526,37.50764],[-121.83001,37.50174],[-121.86535,37.49333],[-121.9134,37.49182],[-121.93883,37.49236],[-121.96464,37.49318],[-122.03473,37.50977],[-122.07352,37.5225],[-122.07769,37.52383],[-122.08663,37.52668],[-122.13333,37.54187],[-122.16782,37.55298],[-122.18986,37.56021],[-122.2236,37.57103],[-122.2567,37.58178],[-122.26259,37.58368],[-122.26552,37.58455],[-122.28536,37.58995],[-122.31467,37.59862],[-122.33901,37.60624],[-122.35856,37.61419],[-122.3626,37.61608]],"type":"LineString"}
}
