{
  "id": 1981685867,
  "type": "Feature",
  "properties": {
    "geom:area": 0,
    "geom:bbox": "-122.385540,37.627560,-121.293910,37.991090",
    "geom:latitude": 37.9328032771914,
    "geom:longitude": -121.9610602453463,
    "src:alt_label": "swim-takeoff",
    "src:geom": "swim",
    "swim:elevations": [
      122,
      590,
      840,
      1026,
      1196,
      1656,
      2116,
      2471,
      2932,
      3219,
      3330,
      3391,
      3652,
      3776,
      4051,
      4352,
      4588,
      4698,
      5051,
      5188,
      5351,
      5781,
      6125,
      6416,
      6671,
      6855,
      6906
    ],
    "swim:geom": "takeoff",
    "swim:timestamps": [
      1760681083,
      1760681119,
      1760681147,
      1760681170,
      1760681183,
      1760681216,
      1760681247,
      1760681277,
      1760681308,
      1760681338,
      1760681368,
      1760681377,
      1760681426,
      1760681452,
      1760681488,
      1760681514,
      1760681545,
      1760681564,
      1760681606,
      1760681624,
      1760681645,
      1760681688,
      1760681710,
      1760681747,
      1760681786,
      1760681815,
      1760681821
    ],
    "wof:geomhash": "820fc31869964d0c45081b0f27de8eb7",
    "wof:id": 1981685867,
    "wof:repo": "sfomuseum-data-flights-2025-10"
  },
  "bbox": [
    -122.38554,
    37.62756,
    -121.29391,
    37.99109
  ],
  "geometry": {"coordinates":[[-122.36714,37.62756],[-122.34383,37.65066],[-122.32208,37.66955],[-122.31063,37.69209],[-122.31387,37.70623],[-122.33375,37.74165],[-122.35229,37.77584],[-122.36908,37.8105],[-122.38554,37.84728],[-122.38486,37.88511],[-122.37535,37.92596],[-122.3645,37.93644],[-122.26993,37.96351],[-122.21201,37.97528],[-122.12851,37.98797],[-122.0667,37.98815],[-121.99315,37.98893],[-121.9456,37.98923],[-121.84013,37.98979],[-121.79437,37.98999],[-121.74146,37.99025],[-121.63104,37.99063],[-121.57609,37.99077],[-121.48245,37.99101],[-121.38515,37.99106],[-121.31169,37.99109],[-121.29391,37.99107]],"type":"LineString"}
}
