{
  "id": 1981746061,
  "type": "Feature",
  "properties": {
    "geom:area": 0,
    "geom:bbox": "-156.400000,20.950000,-122.091944,37.528889",
    "geom:latitude": 29.765330902581503,
    "geom:longitude": -139.58338492348722,
    "src:alt_label": "swim-path",
    "src:geom": "swim",
    "swim:altitudes": [
      "023C",
      "023C",
      "023C",
      "023C",
      "104C",
      "104C",
      "104C",
      "117C",
      "117C",
      "117C",
      "117C",
      "117C",
      "117C",
      "138C",
      "138C",
      "161C",
      "161C",
      "194C",
      "194C",
      "194C",
      "194C",
      "194C",
      "241C",
      "241C",
      "241C",
      "241C",
      "241C",
      "293C",
      "293C",
      "338C",
      "348C",
      "348C",
      "348C",
      "348C",
      "348C",
      "348C",
      "359C",
      "359C",
      "359C",
      "359C",
      "359C",
      "364C",
      "364C",
      "364C",
      "364C",
      "364C",
      "370",
      "370",
      "370",
      "370",
      "370",
      "370",
      "370",
      "370",
      "370",
      "370",
      "370",
      "370",
      "370",
      "370",
      "370",
      "370",
      "370",
      "370",
      "370",
      "370",
      "370",
      "370",
      "370",
      "370",
      "370",
      "370",
      "370C",
      "370C",
      "370C",
      "370C",
      "370C",
      "370C",
      "370",
      "370",
      "370",
      "370",
      "370",
      "370",
      "370",
      "370",
      "370",
      "370",
      "370",
      "370",
      "370",
      "370",
      "370",
      "370",
      "370",
      "370",
      "370",
      "352",
      "290",
      "290",
      "290",
      "290",
      "290",
      "290",
      "264",
      "264",
      "264",
      "142",
      "142",
      "099C",
      "099C",
      "099C",
      "099C",
      "099C",
      "099C",
      "093",
      "093",
      "093",
      "093",
      "088",
      "088",
      "080",
      "080",
      "080",
      "080",
      "080",
      "036",
      "036",
      "036",
      "036",
      "036",
      "036",
      "036",
      "030",
      "030",
      "030",
      "030",
      "030",
      "030",
      "030",
      "030",
      "030",
      "030"
    ],
    "swim:geom": "path",
    "swim:speeds": [
      210,
      210,
      210,
      210,
      280,
      280,
      280,
      320,
      320,
      320,
      320,
      320,
      320,
      350,
      350,
      360,
      360,
      380,
      380,
      380,
      380,
      380,
      410,
      410,
      410,
      410,
      410,
      440,
      440,
      420,
      420,
      420,
      420,
      420,
      420,
      420,
      460,
      460,
      460,
      460,
      460,
      460,
      460,
      460,
      460,
      460,
      460,
      460,
      460,
      460,
      460,
      460,
      460,
      460,
      460,
      460,
      460,
      450,
      450,
      450,
      450,
      450,
      450,
      460,
      460,
      460,
      460,
      460,
      460,
      460,
      460,
      460,
      441,
      441,
      441,
      441,
      441,
      441,
      440,
      440,
      440,
      440,
      437,
      440,
      440,
      440,
      440,
      435,
      435,
      435,
      435,
      435,
      435,
      435,
      426,
      426,
      426,
      427,
      449,
      449,
      449,
      449,
      449,
      449,
      443,
      443,
      443,
      389,
      389,
      295,
      295,
      295,
      295,
      295,
      295,
      283,
      283,
      283,
      283,
      276,
      276,
      272,
      272,
      272,
      272,
      272,
      215,
      215,
      215,
      215,
      215,
      215,
      215,
      199,
      199,
      199,
      199,
      199,
      199,
      199,
      199,
      199,
      199
    ],
    "swim:timestamps": [
      1761208211,
      1761208211,
      1761208211,
      1761208211,
      1761208391,
      1761208391,
      1761208391,
      1761208451,
      1761208451,
      1761208451,
      1761208451,
      1761208451,
      1761208451,
      1761208511,
      1761208511,
      1761208571,
      1761208571,
      1761208692,
      1761208692,
      1761208692,
      1761208692,
      1761208692,
      1761208872,
      1761208872,
      1761208872,
      1761208872,
      1761208872,
      1761209112,
      1761209112,
      1761209292,
      1761209353,
      1761209353,
      1761209353,
      1761209353,
      1761209353,
      1761209353,
      1761209533,
      1761209533,
      1761209533,
      1761209533,
      1761209533,
      1761209593,
      1761209593,
      1761209593,
      1761209593,
      1761209593,
      1761209653,
      1761209653,
      1761209653,
      1761209713,
      1761209713,
      1761209893,
      1761209893,
      1761210014,
      1761210014,
      1761210014,
      1761210014,
      1761210134,
      1761210134,
      1761210134,
      1761210134,
      1761210134,
      1761210134,
      1761210381,
      1761210381,
      1761210381,
      1761210381,
      1761210381,
      1761210381,
      1761210381,
      1761210381,
      1761210381,
      1761223127,
      1761223127,
      1761223127,
      1761223127,
      1761223127,
      1761223127,
      1761223405,
      1761223405,
      1761223405,
      1761223405,
      1761223487,
      1761223525,
      1761223525,
      1761223525,
      1761223525,
      1761223547,
      1761223547,
      1761223547,
      1761223547,
      1761223547,
      1761223547,
      1761223547,
      1761224088,
      1761224088,
      1761224088,
      1761224208,
      1761224328,
      1761224328,
      1761224328,
      1761224328,
      1761224328,
      1761224328,
      1761224388,
      1761224388,
      1761224388,
      1761224688,
      1761224688,
      1761224868,
      1761224868,
      1761224868,
      1761224868,
      1761224868,
      1761224868,
      1761224928,
      1761224928,
      1761224928,
      1761224928,
      1761224982,
      1761224982,
      1761225168,
      1761225168,
      1761225168,
      1761225168,
      1761225168,
      1761225468,
      1761225468,
      1761225468,
      1761225468,
      1761225468,
      1761225468,
      1761225468,
      1761225528,
      1761225528,
      1761225528,
      1761225528,
      1761225528,
      1761225528,
      1761225528,
      1761225528,
      1761225528,
      1761225528
    ],
    "wof:geomhash": "9842493013d8f07a3c9313439122067e",
    "wof:id": 1981746061,
    "wof:repo": "sfomuseum-data-flights-2025-10"
  },
  "bbox": [
    -156.4,
    20.95,
    -122.09194444444444,
    37.528888888888886
  ],
  "geometry": {"coordinates":[[-156.4,20.95],[-156.4,20.95],[-156.4,20.95],[-156.4,20.95],[-156.38333333333333,21.166666666666668],[-156.38333333333333,21.166666666666668],[-156.38333333333333,21.166666666666668],[-156.31666666666666,21.233333333333334],[-156.31666666666666,21.233333333333334],[-156.31666666666666,21.233333333333334],[-156.31666666666666,21.233333333333334],[-156.31666666666666,21.233333333333334],[-156.31666666666666,21.233333333333334],[-156.23333333333332,21.3],[-156.23333333333332,21.3],[-156.16666666666666,21.366666666666667],[-156.16666666666666,21.366666666666667],[-156,21.5],[-156,21.5],[-156,21.5],[-156,21.5],[-156,21.5],[-155.73333333333332,21.733333333333334],[-155.73333333333332,21.733333333333334],[-155.73333333333332,21.733333333333334],[-155.73333333333332,21.733333333333334],[-155.73333333333332,21.733333333333334],[-155.36666666666667,22.066666666666666],[-155.36666666666667,22.066666666666666],[-155.08333333333334,22.3],[-154.98333333333332,22.383333333333333],[-154.98333333333332,22.383333333333333],[-154.98333333333332,22.383333333333333],[-154.98333333333332,22.383333333333333],[-154.98333333333332,22.383333333333333],[-154.98333333333332,22.383333333333333],[-154.68333333333334,22.633333333333333],[-154.68333333333334,22.633333333333333],[-154.68333333333334,22.633333333333333],[-154.68333333333334,22.633333333333333],[-154.68333333333334,22.633333333333333],[-154.58333333333334,22.733333333333334],[-154.58333333333334,22.733333333333334],[-154.58333333333334,22.733333333333334],[-154.58333333333334,22.733333333333334],[-154.58333333333334,22.733333333333334],[-154.48333333333332,22.816666666666666],[-154.48333333333332,22.816666666666666],[-154.48333333333332,22.816666666666666],[-154.38333333333333,22.9],[-154.38333333333333,22.9],[-154.08333333333334,23.166666666666668],[-154.08333333333334,23.166666666666668],[-153.88333333333333,23.333333333333332],[-153.88333333333333,23.333333333333332],[-153.88333333333333,23.333333333333332],[-153.88333333333333,23.333333333333332],[-153.68333333333334,23.5],[-153.68333333333334,23.5],[-153.68333333333334,23.5],[-153.68333333333334,23.5],[-153.68333333333334,23.5],[-153.68333333333334,23.5],[-153.25,23.833333333333332],[-153.25,23.833333333333332],[-153.25,23.833333333333332],[-153.25,23.833333333333332],[-153.25,23.833333333333332],[-153.25,23.833333333333332],[-153.25,23.833333333333332],[-153.25,23.833333333333332],[-153.25,23.833333333333332],[-126.38138888888888,35.63194444444444],[-126.38138888888888,35.63194444444444],[-126.38138888888888,35.63194444444444],[-126.38138888888888,35.63194444444444],[-126.38138888888888,35.63194444444444],[-126.38138888888888,35.63194444444444],[-125.8,35.916666666666664],[-125.8,35.916666666666664],[-125.8,35.916666666666664],[-125.8,35.916666666666664],[-125.60805555555555,36.00138888888889],[-125.53333333333333,36.05],[-125.53333333333333,36.05],[-125.53333333333333,36.05],[-125.53333333333333,36.05],[-125.48,36.0625],[-125.48,36.0625],[-125.48,36.0625],[-125.48,36.0625],[-125.48,36.0625],[-125.48,36.0625],[-125.48,36.0625],[-124.34027777777777,36.594722222222224],[-124.34027777777777,36.594722222222224],[-124.34027777777777,36.594722222222224],[-124.08388888888888,36.71194444444445],[-123.82111111111111,36.83111111111111],[-123.82111111111111,36.83111111111111],[-123.82111111111111,36.83111111111111],[-123.82111111111111,36.83111111111111],[-123.82111111111111,36.83111111111111],[-123.82111111111111,36.83111111111111],[-123.68722222222223,36.89138888888889],[-123.68722222222223,36.89138888888889],[-123.68722222222223,36.89138888888889],[-123.06944444444444,37.16694444444444],[-123.06944444444444,37.16694444444444],[-122.74055555555556,37.28638888888889],[-122.74055555555556,37.28638888888889],[-122.74055555555556,37.28638888888889],[-122.74055555555556,37.28638888888889],[-122.74055555555556,37.28638888888889],[-122.74055555555556,37.28638888888889],[-122.64666666666668,37.30833333333333],[-122.64666666666668,37.30833333333333],[-122.64666666666668,37.30833333333333],[-122.64666666666668,37.30833333333333],[-122.55,37.333333333333336],[-122.55,37.333333333333336],[-122.28222222222222,37.39222222222222],[-122.28222222222222,37.39222222222222],[-122.28222222222222,37.39222222222222],[-122.28222222222222,37.39222222222222],[-122.28222222222222,37.39222222222222],[-122.09194444444444,37.514722222222225],[-122.09194444444444,37.514722222222225],[-122.09194444444444,37.514722222222225],[-122.09194444444444,37.514722222222225],[-122.09194444444444,37.514722222222225],[-122.09194444444444,37.514722222222225],[-122.09194444444444,37.514722222222225],[-122.15777777777778,37.528888888888886],[-122.15777777777778,37.528888888888886],[-122.15777777777778,37.528888888888886],[-122.15777777777778,37.528888888888886],[-122.15777777777778,37.528888888888886],[-122.15777777777778,37.528888888888886],[-122.15777777777778,37.528888888888886],[-122.15777777777778,37.528888888888886],[-122.15777777777778,37.528888888888886],[-122.15777777777778,37.528888888888886]],"type":"LineString"}
}
