{
  "id": 1981698683,
  "type": "Feature",
  "properties": {
    "date:inception_lower": "2025-10-17",
    "date:inception_upper": "2025-10-17",
    "edtf:cessation": "",
    "edtf:inception": "2025-10-17",
    "flysfo:actual_timestamp": -1,
    "flysfo:airline": "UA",
    "flysfo:date": "2025-10-17",
    "flysfo:estimated_timestamp": -1,
    "flysfo:event": "D",
    "flysfo:flight_number": "UA3215",
    "flysfo:gate": "",
    "flysfo:journey": "SFO-MUC",
    "flysfo:scheduled_timestamp": 1760734800,
    "flysfo:timestamp": 1760734800,
    "geom:area": 0,
    "geom:bbox": "-122.370943,37.617990,11.776808,48.352681",
    "geom:latitude": 42.9853355,
    "geom:longitude": -55.2970675,
    "iata:airline": "UA",
    "icao:airline": "UAL",
    "lbl:latitude": 37.61799,
    "lbl:longitude": -122.370943,
    "sfomuseum:airline_id": 1159285413,
    "sfomuseum:arrival_id": 102549067,
    "sfomuseum:departure_id": 102527513,
    "sfomuseum:flight_id": "20251017-D-UAL-3215",
    "sfomuseum:flight_number": [
      "UAL3215",
      "UA3215"
    ],
    "sfomuseum:placetype": "flight",
    "src:geom": "flysfo",
    "wof:belongsto": [],
    "wof:country": "US",
    "wof:created": 1760804203,
    "wof:geomhash": "d9a5d9d800d6bc92413ff3768040f8da",
    "wof:hierarchy": [
      {
        "custom_id": 1981698683,
        "flight_id": 1981698683
      }
    ],
    "wof:id": 1981698683,
    "wof:involves": [
      102549067,
      102527513,
      1159285413,
      -1
    ],
    "wof:lastmodified": 1760804203,
    "wof:name": "UA3215 (SFO-MUC)",
    "wof:parent_id": -1,
    "wof:placetype": "custom",
    "wof:placetype_alt": [
      "flight"
    ],
    "wof:repo": "sfomuseum-data-flights-2025-10",
    "wof:superseded_by": [],
    "wof:supersedes": []
  },
  "bbox": [
    -122.370943,
    37.61799,
    11.776808,
    48.352681
  ],
  "geometry": {"coordinates":[[-122.370943,37.61799],[11.776808,48.352681]],"type":"MultiPoint"}
}
