{
  "id": 1981767243,
  "type": "Feature",
  "properties": {
    "geom:area": 0,
    "geom:bbox": "-122.390000,37.620000,-104.670000,39.920000",
    "geom:latitude": 38.526695592803684,
    "geom:longitude": -113.51702628392583,
    "src:alt_label": "swim-route",
    "src:geom": "swim",
    "swim:geom": "route",
    "wof:geomhash": "814accd8468d4afd42b80de03b7ba672",
    "wof:id": 1981767243,
    "wof:repo": "sfomuseum-data-flights-2025-10"
  },
  "bbox": [
    -122.39,
    37.62,
    -104.67,
    39.92
  ],
  "geometry": {"coordinates":[[-122.38,37.62],[-122.3,37.68],[-122.31,37.7],[-122.31,37.7],[-122.34,37.75],[-122.34,37.76],[-122.34,37.76],[-122.35,37.78],[-122.37,37.82],[-122.38,37.83],[-122.39,37.85],[-122.38,37.94],[-122.31,37.96],[-122.1,38],[-122.02,38.01],[-121.95,38.03],[-121.79,38.06],[-121.68,38.08],[-121.59,38.1],[-121.56,38.1],[-121.5,38.12],[-121.28,38.16],[-121.21,38.17],[-121.15,38.18],[-121.13,38.19],[-121.06,38.2],[-121.04,38.21],[-120.76,38.24],[-120.39,38.3],[-120.14,38.33],[-119.68,38.39],[-119.22,38.45],[-118.31,38.56],[-118.23,38.57],[-117.47,38.66],[-117.29,38.65],[-117.27,38.65],[-113.78,38.49],[-111.95,38.37],[-110.72,38.27],[-109.98,38.2],[-109.95,38.2],[-109.04,38.11],[-108.94,38.1],[-108.15,38.41],[-108.01,38.46],[-107.49,38.65],[-106.87,38.89],[-106.74,38.94],[-106.58,39],[-106.23,39.12],[-106.19,39.14],[-106.16,39.15],[-106.16,39.15],[-105.99,39.21],[-105.92,39.24],[-105.88,39.25],[-105.82,39.27],[-105.71,39.31],[-105.67,39.32],[-105.65,39.33],[-105.62,39.34],[-105.58,39.36],[-105.42,39.42],[-105.38,39.44],[-105.23,39.52],[-105.19,39.54],[-105.18,39.55],[-105.07,39.6],[-104.9,39.7],[-104.84,39.73],[-104.84,39.84],[-104.84,39.89],[-104.84,39.92],[-104.68,39.86],[-104.67,39.86]],"type":"LineString"}
}
