{
  "id": 1981801403,
  "type": "Feature",
  "properties": {
    "geom:area": 0,
    "geom:bbox": "-122.441944,33.950000,-118.200000,37.620833",
    "geom:latitude": 35.639514531434465,
    "geom:longitude": -120.3121629324398,
    "src:alt_label": "swim-path",
    "src:geom": "swim",
    "swim:altitudes": [
      "077",
      "077",
      "077",
      "077",
      "127",
      "127",
      "177",
      "177",
      "240",
      "240",
      "240",
      "240",
      "240",
      "277",
      "277",
      "277",
      "277",
      "277",
      "277",
      "277",
      "229",
      "229",
      "229",
      "229",
      "229",
      "191",
      "191",
      "173",
      "160",
      "160",
      "145",
      "145",
      "131",
      "093",
      "093",
      "093",
      "065",
      "065",
      "065",
      "065",
      "037",
      "037",
      "037",
      "025",
      "025",
      "007",
      "007",
      "007",
      "007",
      "007"
    ],
    "swim:geom": "path",
    "swim:speeds": [
      285,
      285,
      285,
      285,
      346,
      346,
      382,
      382,
      421,
      421,
      421,
      421,
      421,
      434,
      434,
      434,
      434,
      434,
      434,
      434,
      366,
      366,
      366,
      366,
      366,
      350,
      350,
      334,
      330,
      330,
      319,
      319,
      311,
      256,
      256,
      256,
      207,
      207,
      207,
      207,
      205,
      205,
      205,
      197,
      197,
      150,
      150,
      150,
      150,
      150
    ],
    "swim:timestamps": [
      1761772520,
      1761772520,
      1761772520,
      1761772520,
      1761772640,
      1761772640,
      1761772760,
      1761772760,
      1761772940,
      1761772940,
      1761772940,
      1761772940,
      1761772940,
      1761774142,
      1761774142,
      1761774142,
      1761774142,
      1761774142,
      1761774142,
      1761774142,
      1761774562,
      1761774562,
      1761774562,
      1761774562,
      1761774562,
      1761774747,
      1761774747,
      1761774818,
      1761774867,
      1761774867,
      1761774928,
      1761774928,
      1761774988,
      1761775177,
      1761775177,
      1761775177,
      1761775358,
      1761775358,
      1761775358,
      1761775358,
      1761775538,
      1761775538,
      1761775538,
      1761775589,
      1761775589,
      1761775718,
      1761775718,
      1761775718,
      1761775718,
      1761775718
    ],
    "wof:geomhash": "9da744e7b77518b4a650d7901db68708",
    "wof:id": 1981801403,
    "wof:repo": "sfomuseum-data-flights-2025-10"
  },
  "bbox": [
    -122.44194444444445,
    33.95,
    -118.2,
    37.62083333333334
  ],
  "geometry": {"coordinates":[[-122.44194444444445,37.62083333333334],[-122.44194444444445,37.62083333333334],[-122.44194444444445,37.62083333333334],[-122.44194444444445,37.62083333333334],[-122.36583333333333,37.46416666666667],[-122.36583333333333,37.46416666666667],[-122.18138888888889,37.32],[-122.18138888888889,37.32],[-121.87638888888888,37.081388888888895],[-121.87638888888888,37.081388888888895],[-121.87638888888888,37.081388888888895],[-121.87638888888888,37.081388888888895],[-121.87638888888888,37.081388888888895],[-119.92472222222223,35.26638888888889],[-119.92472222222223,35.26638888888889],[-119.92472222222223,35.26638888888889],[-119.92472222222223,35.26638888888889],[-119.92472222222223,35.26638888888889],[-119.92472222222223,35.26638888888889],[-119.92472222222223,35.26638888888889],[-119.31194444444444,34.731388888888894],[-119.31194444444444,34.731388888888894],[-119.31194444444444,34.731388888888894],[-119.31194444444444,34.731388888888894],[-119.31194444444444,34.731388888888894],[-119.08583333333333,34.472500000000004],[-119.08583333333333,34.472500000000004],[-119,34.38333333333333],[-118.95527777777778,34.32222222222222],[-118.95527777777778,34.32222222222222],[-118.89055555555557,34.25222222222222],[-118.89055555555557,34.25222222222222],[-118.82777777777777,34.183611111111105],[-118.6,34.016666666666666],[-118.6,34.016666666666666],[-118.6,34.016666666666666],[-118.36666666666666,34.03333333333333],[-118.36666666666666,34.03333333333333],[-118.36666666666666,34.03333333333333],[-118.36666666666666,34.03333333333333],[-118.2,34],[-118.2,34],[-118.2,34],[-118.24944444444445,33.969166666666666],[-118.24944444444445,33.969166666666666],[-118.36666666666666,33.95],[-118.36666666666666,33.95],[-118.36666666666666,33.95],[-118.36666666666666,33.95],[-118.36666666666666,33.95]],"type":"LineString"}
}
