{
  "id": 1981553155,
  "type": "Feature",
  "properties": {
    "geom:area": 0,
    "geom:bbox": "-123.470020,37.199880,-122.088690,37.612110",
    "geom:latitude": 37.33575796354318,
    "geom:longitude": -122.64979081217062,
    "src:alt_label": "swim-approach",
    "src:geom": "swim",
    "swim:elevations": [
      5142,
      4890,
      4631,
      4507,
      4301,
      3995,
      3791,
      3601,
      3461,
      3257,
      3111,
      3022,
      2958,
      2806,
      2672,
      2563,
      2438,
      2438,
      2438,
      2438,
      2438,
      2438,
      2438,
      2438,
      2438,
      2438,
      2438,
      2318,
      2112,
      1997,
      1841,
      1728,
      1645,
      1401,
      1217,
      1220,
      1219,
      1219,
      1028,
      889,
      714,
      574,
      480,
      305,
      133,
      29
    ],
    "swim:geom": "approach",
    "swim:timestamps": [
      1759315318,
      1759315346,
      1759315377,
      1759315393,
      1759315419,
      1759315458,
      1759315486,
      1759315516,
      1759315532,
      1759315570,
      1759315603,
      1759315622,
      1759315660,
      1759315700,
      1759315720,
      1759315741,
      1759315787,
      1759315800,
      1759315837,
      1759315880,
      1759315897,
      1759315922,
      1759315948,
      1759315960,
      1759315993,
      1759316006,
      1759316023,
      1759316056,
      1759316088,
      1759316109,
      1759316136,
      1759316177,
      1759316192,
      1759316240,
      1759316278,
      1759316287,
      1759316325,
      1759316362,
      1759316395,
      1759316418,
      1759316452,
      1759316481,
      1759316500,
      1759316537,
      1759316578,
      1759316597
    ],
    "wof:geomhash": "64228f5be353c531624030773eb28b9d",
    "wof:id": 1981553155,
    "wof:repo": "sfomuseum-data-flights-2025-10"
  },
  "bbox": [
    -123.47002,
    37.19988,
    -122.08869,
    37.61211
  ],
  "geometry": {"coordinates":[[-123.47002,37.24827],[-123.40672,37.23823],[-123.34066,37.22762],[-123.3055,37.22179],[-123.2499,37.21277],[-123.16913,37.19988],[-123.11148,37.20002],[-123.05483,37.21278],[-123.02362,37.22006],[-122.9532,37.23663],[-122.89524,37.25023],[-122.86259,37.25788],[-122.80182,37.27205],[-122.74256,37.28591],[-122.71237,37.29296],[-122.68028,37.29595],[-122.61214,37.28873],[-122.59278,37.28636],[-122.53948,37.27953],[-122.47498,37.27116],[-122.44899,37.26947],[-122.41652,37.28334],[-122.40719,37.3131],[-122.41313,37.32588],[-122.43418,37.35836],[-122.43563,37.37358],[-122.42544,37.39186],[-122.38033,37.40482],[-122.34273,37.3852],[-122.31438,37.37841],[-122.27659,37.38154],[-122.22288,37.40026],[-122.20517,37.41057],[-122.14521,37.43412],[-122.09614,37.45053],[-122.08869,37.45839],[-122.09258,37.49801],[-122.13087,37.51822],[-122.16516,37.53275],[-122.18889,37.54276],[-122.22422,37.55766],[-122.25232,37.56949],[-122.26892,37.5765],[-122.3008,37.58987],[-122.33656,37.60492],[-122.35371,37.61211]],"type":"LineString"}
}
