{
  "id": 1981597739,
  "type": "Feature",
  "properties": {
    "geom:area": 0,
    "geom:bbox": "-122.756870,37.576810,-122.104730,38.481360",
    "geom:latitude": 37.90905932637619,
    "geom:longitude": -122.49091593222897,
    "src:alt_label": "swim-approach",
    "src:geom": "swim",
    "swim:elevations": [
      7590,
      7267,
      6966,
      6820,
      6373,
      6157,
      5758,
      5613,
      5273,
      5210,
      5020,
      4732,
      4527,
      4454,
      4001,
      3858,
      3644,
      3430,
      3353,
      3353,
      3353,
      3353,
      3353,
      3316,
      3248,
      2887,
      2680,
      2454,
      2234,
      1848,
      1646,
      1478,
      1460,
      1108,
      935,
      789,
      670,
      438,
      356,
      249,
      203,
      147,
      71
    ],
    "swim:geom": "approach",
    "swim:timestamps": [
      1759761687,
      1759761717,
      1759761745,
      1759761759,
      1759761802,
      1759761823,
      1759761864,
      1759761884,
      1759761924,
      1759761944,
      1759761977,
      1759762012,
      1759762041,
      1759762051,
      1759762107,
      1759762123,
      1759762144,
      1759762182,
      1759762216,
      1759762251,
      1759762275,
      1759762308,
      1759762330,
      1759762371,
      1759762385,
      1759762431,
      1759762460,
      1759762487,
      1759762509,
      1759762546,
      1759762564,
      1759762615,
      1759762620,
      1759762676,
      1759762705,
      1759762726,
      1759762745,
      1759762785,
      1759762803,
      1759762828,
      1759762843,
      1759762864,
      1759762903
    ],
    "wof:geomhash": "f41357eb2d9eb150d73f0f64c346c8ce",
    "wof:id": 1981597739,
    "wof:repo": "sfomuseum-data-flights-2025-10"
  },
  "bbox": [
    -122.75687,
    37.57681,
    -122.10473,
    38.48136
  ],
  "geometry": {"coordinates":[[-122.50358,38.48136],[-122.55097,38.43531],[-122.59403,38.39355],[-122.61598,38.37227],[-122.6804,38.30946],[-122.7111,38.27944],[-122.75687,38.21645],[-122.75459,38.18344],[-122.73551,38.11565],[-122.72664,38.08398],[-122.71247,38.035],[-122.69787,37.98471],[-122.68614,37.94381],[-122.68193,37.92912],[-122.63355,37.86203],[-122.61516,37.84467],[-122.59169,37.82249],[-122.54992,37.78281],[-122.51332,37.7484],[-122.48066,37.71749],[-122.46048,37.69857],[-122.42817,37.68306],[-122.401,37.67986],[-122.35265,37.6739],[-122.33655,37.67164],[-122.28356,37.66138],[-122.25133,37.65479],[-122.22045,37.64895],[-122.19589,37.64439],[-122.1557,37.63261],[-122.13707,37.62644],[-122.10473,37.59412],[-122.10649,37.59025],[-122.16242,37.57681],[-122.19448,37.57864],[-122.21515,37.57939],[-122.23478,37.57999],[-122.27292,37.58559],[-122.2865,37.58975],[-122.305,37.59586],[-122.31543,37.59903],[-122.33094,37.60358],[-122.35686,37.61314]],"type":"LineString"}
}
