{
  "id": 1981720171,
  "type": "Feature",
  "properties": {
    "geom:area": 0,
    "geom:bbox": "-122.380000,35.680000,-78.790000,38.330000",
    "geom:latitude": 37.00173252157744,
    "geom:longitude": -100.61503845757615,
    "src:alt_label": "swim-route",
    "src:geom": "swim",
    "swim:geom": "route",
    "wof:geomhash": "10086bd35f7d6fdb10d466ba42fbb6f4",
    "wof:id": 1981720171,
    "wof:repo": "sfomuseum-data-flights-2025-10"
  },
  "bbox": [
    -122.38,
    35.68,
    -78.79,
    38.33
  ],
  "geometry": {"coordinates":[[-78.79,35.88],[-79.3,35.84],[-79.45,35.82],[-79.51,35.82],[-79.53,35.82],[-79.65,35.8],[-79.77,35.78],[-79.79,35.77],[-79.93,35.75],[-80.02,35.73],[-80.07,35.73],[-80.14,35.71],[-80.16,35.71],[-80.3,35.68],[-80.33,35.68],[-80.35,35.68],[-80.36,35.68],[-80.44,35.69],[-80.62,35.71],[-80.73,35.72],[-81.22,35.76],[-81.56,35.79],[-81.82,35.82],[-83.35,35.94],[-84.56,36.02],[-85.37,36.07],[-86.68,36.14],[-87.47,36.17],[-88.96,36.22],[-89.28,36.23],[-89.39,36.23],[-90.39,36.25],[-93.07,36.26],[-94.12,36.25],[-94.79,36.34],[-96.81,36.61],[-97.74,36.72],[-99.05,36.86],[-99.49,36.9],[-99.93,36.94],[-100.15,36.96],[-100.37,36.98],[-100.75,37.02],[-101.39,37.08],[-101.78,37.11],[-101.88,37.11],[-102.03,37.12],[-102.26,37.14],[-102.33,37.15],[-103.08,37.2],[-103.39,37.22],[-103.43,37.22],[-103.61,37.23],[-104.54,37.29],[-104.75,37.3],[-104.83,37.31],[-104.98,37.33],[-105.19,37.36],[-105.61,37.41],[-106.23,37.5],[-107.78,37.68],[-108.93,37.81],[-109.08,37.83],[-109.12,37.83],[-109.47,37.87],[-110.19,37.94],[-110.53,37.98],[-112.31,38.14],[-113.98,38.27],[-114.96,38.33],[-115.12,38.33],[-115.88,38.33],[-116.33,38.33],[-116.33,38.33],[-116.9,38.21],[-117.27,38.12],[-117.27,38.12],[-117.77,38],[-118.76,37.9],[-119.1,37.86],[-119.42,37.82],[-119.54,37.81],[-119.99,37.75],[-120.04,37.74],[-120.26,37.72],[-120.28,37.72],[-120.38,37.7],[-120.4,37.7],[-120.75,37.66],[-120.78,37.66],[-120.83,37.65],[-120.96,37.63],[-121,37.63],[-121.08,37.62],[-121.18,37.6],[-121.26,37.59],[-121.39,37.58],[-121.41,37.58],[-121.6,37.55],[-121.61,37.55],[-121.62,37.55],[-121.7,37.53],[-121.8,37.51],[-121.83,37.5],[-121.88,37.49],[-122.08,37.54],[-122.14,37.56],[-122.18,37.57],[-122.28,37.59],[-122.33,37.61],[-122.36,37.61],[-122.38,37.62]],"type":"LineString"}
}
