{
  "id": 1981632785,
  "type": "Feature",
  "properties": {
    "geom:area": 0,
    "geom:bbox": "-122.357940,37.490860,-121.279060,37.614000",
    "geom:latitude": 37.545470356634844,
    "geom:longitude": -121.82336382113353,
    "src:alt_label": "swim-approach",
    "src:geom": "swim",
    "swim:elevations": [
      5558,
      5499,
      5338,
      5250,
      4983,
      4667,
      4635,
      4575,
      4517,
      4499,
      4347,
      4231,
      4022,
      3808,
      3779,
      3460,
      3274,
      3250,
      3119,
      2787,
      2447,
      2334,
      2163,
      2053,
      1881,
      1852,
      1704,
      1471,
      1430,
      1197,
      1097,
      1004,
      949,
      883,
      761,
      611,
      550,
      365,
      304,
      268,
      204,
      78,
      0
    ],
    "swim:geom": "approach",
    "swim:timestamps": [
      1760130448,
      1760130457,
      1760130475,
      1760130487,
      1760130520,
      1760130563,
      1760130590,
      1760130611,
      1760130627,
      1760130630,
      1760130658,
      1760130681,
      1760130711,
      1760130746,
      1760130752,
      1760130787,
      1760130808,
      1760130811,
      1760130825,
      1760130861,
      1760130892,
      1760130903,
      1760130941,
      1760130962,
      1760130988,
      1760130992,
      1760131014,
      1760131045,
      1760131054,
      1760131108,
      1760131135,
      1760131161,
      1760131170,
      1760131187,
      1760131213,
      1760131247,
      1760131263,
      1760131314,
      1760131338,
      1760131348,
      1760131363,
      1760131395,
      1760131411
    ],
    "wof:geomhash": "64ca236efeb13b5cf65ff193e212a962",
    "wof:id": 1981632785,
    "wof:repo": "sfomuseum-data-flights-2025-10"
  },
  "bbox": [
    -122.35794,
    37.49086,
    -121.27906,
    37.614
  ],
  "geometry": {"coordinates":[[-121.27906,37.59059],[-121.29415,37.58876],[-121.32406,37.5856],[-121.34416,37.58348],[-121.39872,37.57742],[-121.46681,37.56929],[-121.50809,37.56442],[-121.53743,37.56098],[-121.55924,37.55832],[-121.56327,37.55785],[-121.60071,37.55341],[-121.62981,37.54948],[-121.6677,37.54055],[-121.7109,37.53019],[-121.71826,37.52845],[-121.75982,37.51845],[-121.78548,37.51244],[-121.78914,37.51157],[-121.80642,37.50741],[-121.84953,37.49701],[-121.88795,37.49086],[-121.90329,37.4914],[-121.952,37.49288],[-121.97583,37.49351],[-122.00364,37.49964],[-122.00807,37.50109],[-122.03007,37.50812],[-122.06102,37.51828],[-122.06997,37.52127],[-122.1176,37.53685],[-122.14066,37.54485],[-122.1632,37.5518],[-122.17193,37.55452],[-122.18715,37.55938],[-122.20969,37.56666],[-122.23854,37.57559],[-122.25055,37.57954],[-122.28772,37.59046],[-122.30489,37.59545],[-122.313,37.5978],[-122.32361,37.60115],[-122.34677,37.60909],[-122.35794,37.614]],"type":"LineString"}
}
