{
  "id": 1981737681,
  "type": "Feature",
  "properties": {
    "geom:area": 0,
    "geom:bbox": "-122.361530,37.504160,-121.267590,37.614610",
    "geom:latitude": 37.54690522464234,
    "geom:longitude": -121.82160123969376,
    "src:alt_label": "swim-approach",
    "src:geom": "swim",
    "swim:elevations": [
      4501,
      4379,
      4253,
      4097,
      3548,
      3259,
      3136,
      3077,
      2853,
      2712,
      2449,
      2253,
      2230,
      2021,
      1794,
      1734,
      1289,
      1220,
      1220,
      1024,
      913,
      861,
      757,
      518,
      486,
      361,
      148,
      107,
      0
    ],
    "swim:geom": "approach",
    "swim:timestamps": [
      1761122331,
      1761122344,
      1761122357,
      1761122372,
      1761122427,
      1761122456,
      1761122480,
      1761122506,
      1761122536,
      1761122558,
      1761122603,
      1761122637,
      1761122641,
      1761122691,
      1761122724,
      1761122733,
      1761122783,
      1761122805,
      1761122825,
      1761122874,
      1761122892,
      1761122902,
      1761122921,
      1761122968,
      1761122977,
      1761123000,
      1761123054,
      1761123063,
      1761123090
    ],
    "wof:geomhash": "3a801d0f5a4582a78dc10dfb195962f0",
    "wof:id": 1981737681,
    "wof:repo": "sfomuseum-data-flights-2025-10"
  },
  "bbox": [
    -122.36153,
    37.50416,
    -121.26759,
    37.61461
  ],
  "geometry": {"coordinates":[[-121.26759,37.59202],[-121.29432,37.58846],[-121.32232,37.58537],[-121.35489,37.58188],[-121.46865,37.56932],[-121.52726,37.56241],[-121.57528,37.55673],[-121.62385,37.5506],[-121.67498,37.53886],[-121.71303,37.52986],[-121.79085,37.52301],[-121.84629,37.5196],[-121.85361,37.51913],[-121.93168,37.51411],[-121.97847,37.51087],[-121.99143,37.51001],[-122.06096,37.50572],[-122.09057,37.50416],[-122.11488,37.51096],[-122.16873,37.53425],[-122.18837,37.54255],[-122.19945,37.54726],[-122.21926,37.55554],[-122.26369,37.5742],[-122.2715,37.57755],[-122.29107,37.58586],[-122.33427,37.60405],[-122.34119,37.60693],[-122.36153,37.61461]],"type":"LineString"}
}
