{
  "id": 1981591619,
  "type": "Feature",
  "properties": {
    "geom:area": 0,
    "geom:bbox": "-122.470670,36.721330,-121.415930,37.730570",
    "geom:latitude": 37.249909289757106,
    "geom:longitude": -122.03725347248006,
    "src:alt_label": "swim-takeoff",
    "src:geom": "swim",
    "swim:elevations": [
      244,
      452,
      854,
      1144,
      1455,
      2020,
      2963,
      3284,
      4112,
      4292,
      4471,
      5111,
      5361,
      5884,
      6381,
      6425,
      6459,
      7018,
      7157,
      7530,
      7644,
      8328,
      8441,
      8665,
      8839,
      8839,
      8839,
      8839,
      8839,
      8839,
      8839,
      8839,
      8839
    ],
    "swim:geom": "takeoff",
    "swim:timestamps": [
      1759656229,
      1759656244,
      1759656272,
      1759656294,
      1759656314,
      1759656345,
      1759656385,
      1759656400,
      1759656448,
      1759656457,
      1759656467,
      1759656501,
      1759656529,
      1759656568,
      1759656598,
      1759656601,
      1759656604,
      1759656651,
      1759656667,
      1759656713,
      1759656725,
      1759656770,
      1759656781,
      1759656812,
      1759656848,
      1759656878,
      1759656908,
      1759656940,
      1759656956,
      1759656975,
      1759656995,
      1759657029,
      1759657054
    ],
    "wof:geomhash": "68e48d9e6c68a97e8f51b60c579d37f8",
    "wof:id": 1981591619,
    "wof:repo": "sfomuseum-data-flights-2025-10"
  },
  "bbox": [
    -122.47067,
    36.72133,
    -121.41593,
    37.73057
  ],
  "geometry": {"coordinates":[[-122.36914,37.6285],[-122.36586,37.63867],[-122.36272,37.66003],[-122.3602,37.68016],[-122.36099,37.70125],[-122.38905,37.73057],[-122.45037,37.72311],[-122.46411,37.70746],[-122.47059,37.63691],[-122.47058,37.62314],[-122.47067,37.6072],[-122.45423,37.55401],[-122.41226,37.51829],[-122.34613,37.46756],[-122.29391,37.42657],[-122.28867,37.42248],[-122.2833,37.41823],[-122.19849,37.35074],[-122.17004,37.32806],[-122.08014,37.25642],[-122.05655,37.23762],[-121.96944,37.1682],[-121.94854,37.15187],[-121.88945,37.10359],[-121.81935,37.04734],[-121.75895,36.99881],[-121.69891,36.9512],[-121.63764,36.90088],[-121.60528,36.87511],[-121.56909,36.84532],[-121.52953,36.81429],[-121.46374,36.76039],[-121.41593,36.72133]],"type":"LineString"}
}
