{
  "id": 1997542945,
  "type": "Feature",
  "properties": {
    "geom:area": 0,
    "geom:bbox": "-122.314167,33.433333,-111.860278,37.655000",
    "geom:latitude": 36.355932243310335,
    "geom:longitude": -116.77828617414008,
    "src:alt_label": "swim-path",
    "src:geom": "swim",
    "swim:altitudes": [
      "042",
      "042",
      "042",
      "056",
      "056",
      "056",
      "056",
      "056",
      "198",
      "198",
      "198",
      "198",
      "198",
      "198",
      "292",
      "292",
      "292",
      "340",
      "340",
      "340",
      "360C",
      "360C",
      "360C",
      "360C",
      "360C",
      "360C",
      "360C",
      "360C",
      "360C",
      "360C",
      "360C",
      "360C",
      "360C",
      "360C",
      "360C",
      "360C",
      "360C",
      "360C",
      "360C",
      "360C",
      "360C",
      "360C",
      "360C",
      "360C",
      "360C",
      "360C",
      "360C",
      "360C",
      "360C",
      "360C",
      "360C",
      "360C",
      "360C",
      "360C",
      "360C",
      "360C",
      "360C",
      "350",
      "350",
      "350",
      "350",
      "221",
      "221",
      "221",
      "100",
      "100",
      "080",
      "080",
      "080",
      "080",
      "080",
      "060",
      "060",
      "060",
      "019",
      "016",
      "016",
      "016",
      "008",
      "008",
      "008",
      "008",
      "008"
    ],
    "swim:geom": "path",
    "swim:speeds": [
      232,
      232,
      232,
      276,
      276,
      276,
      276,
      276,
      413,
      413,
      413,
      413,
      413,
      413,
      438,
      438,
      438,
      416,
      416,
      416,
      408,
      408,
      408,
      408,
      427,
      427,
      427,
      427,
      432,
      432,
      452,
      452,
      452,
      452,
      428,
      428,
      428,
      407,
      407,
      385,
      385,
      384,
      384,
      384,
      419,
      419,
      429,
      429,
      429,
      435,
      435,
      435,
      436,
      436,
      436,
      434,
      434,
      441,
      441,
      441,
      441,
      403,
      403,
      403,
      243,
      243,
      244,
      244,
      244,
      244,
      244,
      232,
      232,
      232,
      194,
      192,
      192,
      192,
      158,
      158,
      158,
      158,
      158
    ],
    "swim:timestamps": [
      1761931027,
      1761931027,
      1761931027,
      1761931073,
      1761931073,
      1761931073,
      1761931073,
      1761931073,
      1761931433,
      1761931433,
      1761931433,
      1761931433,
      1761931433,
      1761931433,
      1761931736,
      1761931736,
      1761931736,
      1761932096,
      1761932096,
      1761932096,
      1761932394,
      1761932394,
      1761932394,
      1761932394,
      1761932697,
      1761932697,
      1761932697,
      1761932697,
      1761932817,
      1761932817,
      1761933478,
      1761933478,
      1761933478,
      1761933478,
      1761933810,
      1761933810,
      1761933810,
      1761933990,
      1761933990,
      1761934139,
      1761934139,
      1761934199,
      1761934199,
      1761934199,
      1761934291,
      1761934291,
      1761934351,
      1761934351,
      1761934351,
      1761934620,
      1761934620,
      1761934620,
      1761934952,
      1761934952,
      1761934952,
      1761935072,
      1761935072,
      1761935312,
      1761935312,
      1761935312,
      1761935312,
      1761935613,
      1761935613,
      1761935613,
      1761936093,
      1761936093,
      1761936379,
      1761936379,
      1761936379,
      1761936379,
      1761936379,
      1761936574,
      1761936574,
      1761936574,
      1761936799,
      1761936814,
      1761936814,
      1761936814,
      1761936874,
      1761936874,
      1761936874,
      1761936874,
      1761936874
    ],
    "wof:geomhash": "dcdf09cd9dfd5ea9b6fb09a76dd470ae",
    "wof:id": 1997542945,
    "wof:repo": "sfomuseum-data-flights-2025-10"
  },
  "bbox": [
    -122.31416666666667,
    33.43333333333333,
    -111.86027777777777,
    37.655
  ],
  "geometry": {"coordinates":[[-111.91666666666667,33.43333333333333],[-111.91666666666667,33.43333333333333],[-111.91666666666667,33.43333333333333],[-111.86027777777777,33.44555555555555],[-111.86027777777777,33.44555555555555],[-111.86027777777777,33.44555555555555],[-111.86027777777777,33.44555555555555],[-111.86027777777777,33.44555555555555],[-112.18472222222222,33.91416666666667],[-112.18472222222222,33.91416666666667],[-112.18472222222222,33.91416666666667],[-112.18472222222222,33.91416666666667],[-112.18472222222222,33.91416666666667],[-112.18472222222222,33.91416666666667],[-112.66666666666667,34.35666666666667],[-112.66666666666667,34.35666666666667],[-112.66666666666667,34.35666666666667],[-113.27333333333333,34.836111111111116],[-113.27333333333333,34.836111111111116],[-113.27333333333333,34.836111111111116],[-113.85944444444443,35.12222222222222],[-113.85944444444443,35.12222222222222],[-113.85944444444443,35.12222222222222],[-113.85944444444443,35.12222222222222],[-114.46388888888889,35.459722222222226],[-114.46388888888889,35.459722222222226],[-114.46388888888889,35.459722222222226],[-114.46388888888889,35.459722222222226],[-114.7088888888889,35.595],[-114.7088888888889,35.595],[-116.08972222222222,36.33916666666667],[-116.08972222222222,36.33916666666667],[-116.08972222222222,36.33916666666667],[-116.08972222222222,36.33916666666667],[-116.74194444444444,36.77027777777778],[-116.74194444444444,36.77027777777778],[-116.74194444444444,36.77027777777778],[-116.98555555555555,37.06166666666666],[-116.98555555555555,37.06166666666666],[-117.16611111111112,37.27611111111111],[-117.16611111111112,37.27611111111111],[-117.24583333333334,37.36055555555556],[-117.24583333333334,37.36055555555556],[-117.24583333333334,37.36055555555556],[-117.44388888888889,37.44777777777777],[-117.44388888888889,37.44777777777777],[-117.59444444444443,37.462500000000006],[-117.59444444444443,37.462500000000006],[-117.59444444444443,37.462500000000006],[-118.25333333333333,37.524166666666666],[-118.25333333333333,37.524166666666666],[-118.25333333333333,37.524166666666666],[-119.10305555555556,37.59805555555556],[-119.10305555555556,37.59805555555556],[-119.10305555555556,37.59805555555556],[-119.4038888888889,37.620555555555555],[-119.4038888888889,37.620555555555555],[-120.015,37.64],[-120.015,37.64],[-120.015,37.64],[-120.015,37.64],[-120.77888888888889,37.655],[-120.77888888888889,37.655],[-120.77888888888889,37.655],[-121.69916666666667,37.56361111111111],[-121.69916666666667,37.56361111111111],[-121.93333333333334,37.55],[-121.93333333333334,37.55],[-121.93333333333334,37.55],[-121.93333333333334,37.55],[-121.93333333333334,37.55],[-122.0111111111111,37.467222222222226],[-122.0111111111111,37.467222222222226],[-122.0111111111111,37.467222222222226],[-122.25,37.56666666666667],[-122.26416666666667,37.574444444444445],[-122.26416666666667,37.574444444444445],[-122.26416666666667,37.574444444444445],[-122.31416666666667,37.59527777777778],[-122.31416666666667,37.59527777777778],[-122.31416666666667,37.59527777777778],[-122.31416666666667,37.59527777777778],[-122.31416666666667,37.59527777777778]],"type":"LineString"}
}
