{
  "id": 1981606397,
  "type": "Feature",
  "properties": {
    "geom:area": 0,
    "geom:bbox": "-122.842180,37.326750,-122.137130,38.480620",
    "geom:latitude": 37.76166083665906,
    "geom:longitude": -122.483641043277,
    "src:alt_label": "swim-approach",
    "src:geom": "swim",
    "swim:elevations": [
      7736,
      7639,
      7576,
      7258,
      6819,
      6675,
      6241,
      6015,
      5729,
      5616,
      5105,
      4917,
      4599,
      4345,
      4171,
      3837,
      3754,
      3357,
      3316,
      3353,
      3325,
      3345,
      3353,
      3353,
      3284,
      3225,
      3203,
      2810,
      2744,
      2743,
      2743,
      2743,
      2560,
      2341,
      2120,
      1967,
      1830,
      1830,
      1829,
      1826,
      1614,
      1400,
      1273,
      1219,
      1216,
      1125,
      1004,
      913,
      844,
      766,
      611,
      422,
      311,
      161,
      89,
      0
    ],
    "swim:geom": "approach",
    "swim:timestamps": [
      1759825225,
      1759825232,
      1759825239,
      1759825272,
      1759825317,
      1759825332,
      1759825376,
      1759825401,
      1759825433,
      1759825445,
      1759825496,
      1759825519,
      1759825556,
      1759825586,
      1759825604,
      1759825646,
      1759825659,
      1759825705,
      1759825720,
      1759825764,
      1759825788,
      1759825805,
      1759825848,
      1759825882,
      1759825909,
      1759825918,
      1759825921,
      1759825972,
      1759825996,
      1759826038,
      1759826069,
      1759826080,
      1759826126,
      1759826158,
      1759826182,
      1759826194,
      1759826214,
      1759826224,
      1759826251,
      1759826262,
      1759826301,
      1759826332,
      1759826357,
      1759826394,
      1759826401,
      1759826420,
      1759826443,
      1759826471,
      1759826503,
      1759826520,
      1759826552,
      1759826599,
      1759826624,
      1759826664,
      1759826683,
      1759826706
    ],
    "wof:geomhash": "89cf22530c9761548b19f581c8097b02",
    "wof:id": 1981606397,
    "wof:repo": "sfomuseum-data-flights-2025-10"
  },
  "bbox": [
    -122.84218,
    37.32675,
    -122.13713,
    38.48062
  ],
  "geometry": {"coordinates":[[-122.84218,38.48062],[-122.83783,38.46581],[-122.83418,38.45377],[-122.81652,38.39299],[-122.7933,38.314],[-122.78555,38.28782],[-122.76318,38.21085],[-122.75117,38.16948],[-122.73506,38.11444],[-122.72942,38.09459],[-122.70501,38.01065],[-122.69437,37.97371],[-122.67754,37.91605],[-122.64643,37.87454],[-122.62305,37.8524],[-122.56956,37.80212],[-122.5548,37.78813],[-122.50565,37.74216],[-122.49096,37.72893],[-122.43218,37.71033],[-122.39957,37.70174],[-122.37971,37.69017],[-122.36712,37.64335],[-122.36276,37.60363],[-122.35927,37.5731],[-122.35812,37.56285],[-122.35772,37.55952],[-122.35089,37.50241],[-122.34824,37.47705],[-122.34357,37.4315],[-122.36147,37.40204],[-122.3712,37.39173],[-122.39287,37.34811],[-122.36178,37.32683],[-122.33076,37.32675],[-122.31509,37.33251],[-122.28976,37.3433],[-122.27781,37.34832],[-122.24582,37.36154],[-122.23377,37.36836],[-122.20403,37.40402],[-122.18279,37.43109],[-122.16546,37.45261],[-122.14305,37.48059],[-122.13945,37.48533],[-122.13713,37.49956],[-122.14994,37.5153],[-122.1686,37.53212],[-122.19787,37.54635],[-122.21335,37.55305],[-122.24177,37.56505],[-122.28264,37.58223],[-122.30182,37.59035],[-122.33113,37.60264],[-122.34441,37.60822],[-122.35995,37.61441]],"type":"LineString"}
}
