{
  "id": 1981689225,
  "type": "Feature",
  "properties": {
    "geom:area": 0,
    "geom:bbox": "-122.428930,36.739970,-121.379260,37.692150",
    "geom:latitude": 37.17888285330094,
    "geom:longitude": -122.0363562301155,
    "src:alt_label": "swim-takeoff",
    "src:geom": "swim",
    "swim:elevations": [
      122,
      273,
      576,
      932,
      1056,
      1208,
      1490,
      1686,
      2006,
      2296,
      2810,
      2894,
      3359,
      3405,
      3636,
      3754,
      4086,
      4357,
      4484,
      4947,
      5351,
      5679,
      5776,
      6157,
      6724,
      6808,
      7019,
      7225,
      7335,
      7566,
      7588,
      7925,
      8196,
      8391,
      8465,
      8682,
      8768
    ],
    "swim:geom": "takeoff",
    "swim:timestamps": [
      1760643235,
      1760643245,
      1760643266,
      1760643296,
      1760643315,
      1760643337,
      1760643384,
      1760643399,
      1760643416,
      1760643440,
      1760643474,
      1760643481,
      1760643538,
      1760643545,
      1760643565,
      1760643572,
      1760643598,
      1760643627,
      1760643636,
      1760643672,
      1760643709,
      1760643746,
      1760643757,
      1760643792,
      1760643833,
      1760643845,
      1760643878,
      1760643906,
      1760643921,
      1760643957,
      1760643960,
      1760644007,
      1760644048,
      1760644078,
      1760644090,
      1760644127,
      1760644144
    ],
    "wof:geomhash": "8548487e7797d8044f0650a00f1bcb11",
    "wof:id": 1981689225,
    "wof:repo": "sfomuseum-data-flights-2025-10"
  },
  "bbox": [
    -122.42893,
    36.73997,
    -121.37926,
    37.69215
  ],
  "geometry": {"coordinates":[[-122.37022,37.62633],[-122.36592,37.63264],[-122.36359,37.64696],[-122.36312,37.66666],[-122.36347,37.6797],[-122.37663,37.69215],[-122.42652,37.66745],[-122.42893,37.64742],[-122.42718,37.62519],[-122.42438,37.59242],[-122.4208,37.54373],[-122.41992,37.53322],[-122.4129,37.44503],[-122.41173,37.43203],[-122.40844,37.39662],[-122.40721,37.38426],[-122.3993,37.33879],[-122.36066,37.29898],[-122.34526,37.29061],[-122.28097,37.25646],[-122.2141,37.21759],[-122.14607,37.17928],[-122.12566,37.16788],[-122.0601,37.13107],[-121.98493,37.08846],[-121.96324,37.07617],[-121.90135,37.04091],[-121.84897,37.011],[-121.82138,36.9952],[-121.75224,36.95556],[-121.74626,36.95214],[-121.65487,36.90004],[-121.57274,36.85242],[-121.5128,36.81744],[-121.49019,36.80437],[-121.41509,36.76103],[-121.37926,36.73997]],"type":"LineString"}
}
