{
  "id": 1981775419,
  "type": "Feature",
  "properties": {
    "geom:area": 0,
    "geom:bbox": "-122.353020,37.640290,-121.261330,38.118670",
    "geom:latitude": 37.89408171267422,
    "geom:longitude": -121.81395830234472,
    "src:alt_label": "swim-takeoff",
    "src:geom": "swim",
    "swim:elevations": [
      379,
      474,
      711,
      1152,
      1451,
      1578,
      1838,
      2274,
      2326,
      2807,
      3115,
      3315,
      3408,
      3531,
      3597,
      4007,
      4218,
      4662,
      4974,
      5183,
      5424,
      5536,
      5855,
      5885
    ],
    "swim:geom": "takeoff",
    "swim:timestamps": [
      1761507748,
      1761507760,
      1761507794,
      1761507837,
      1761507861,
      1761507870,
      1761507893,
      1761507928,
      1761507931,
      1761507973,
      1761508002,
      1761508033,
      1761508052,
      1761508078,
      1761508086,
      1761508131,
      1761508150,
      1761508193,
      1761508227,
      1761508251,
      1761508284,
      1761508296,
      1761508347,
      1761508356
    ],
    "wof:geomhash": "e1a7506ed011987d4c3f674fd01bd8ec",
    "wof:id": 1981775419,
    "wof:repo": "sfomuseum-data-flights-2025-10"
  },
  "bbox": [
    -122.35302,
    37.64029,
    -121.26133,
    38.11867
  ],
  "geometry": {"coordinates":[[-122.35302,37.64029],[-122.34352,37.64605],[-122.3104,37.6652],[-122.26026,37.69393],[-122.22673,37.7111],[-122.2143,37.71744],[-122.18281,37.7336],[-122.1308,37.76038],[-122.12625,37.76267],[-122.06371,37.79488],[-122.01861,37.81869],[-121.96471,37.84262],[-121.92974,37.85642],[-121.87815,37.87635],[-121.86107,37.88304],[-121.76993,37.91921],[-121.72796,37.93588],[-121.63621,37.97204],[-121.56107,38.00156],[-121.50842,38.02224],[-121.43191,38.05217],[-121.40484,38.0628],[-121.28342,38.11009],[-121.26133,38.11867]],"type":"LineString"}
}
