{
  "id": 1981671419,
  "type": "Feature",
  "properties": {
    "geom:area": 0,
    "geom:bbox": "-122.366830,37.628080,-121.244500,37.969160",
    "geom:latitude": 37.854758186447704,
    "geom:longitude": -121.83949904093497,
    "src:alt_label": "swim-takeoff",
    "src:geom": "swim",
    "swim:elevations": [
      152,
      543,
      980,
      1507,
      1835,
      2255,
      2715,
      3316,
      3343,
      3779,
      4020,
      4444,
      5013,
      5227,
      5665,
      6067,
      7052,
      7374,
      7488,
      7632,
      7866,
      7924,
      8139,
      8164,
      8283,
      8465,
      8686
    ],
    "swim:geom": "takeoff",
    "swim:timestamps": [
      1760444554,
      1760444586,
      1760444624,
      1760444666,
      1760444685,
      1760444710,
      1760444737,
      1760444788,
      1760444797,
      1760444827,
      1760444842,
      1760444866,
      1760444906,
      1760444921,
      1760444953,
      1760444974,
      1760445028,
      1760445056,
      1760445076,
      1760445096,
      1760445136,
      1760445150,
      1760445178,
      1760445182,
      1760445200,
      1760445221,
      1760445252
    ],
    "wof:geomhash": "6ea7f75a12e5609029e1a5255fa0e868",
    "wof:id": 1981671419,
    "wof:repo": "sfomuseum-data-flights-2025-10"
  },
  "bbox": [
    -122.36683,
    37.62808,
    -121.2445,
    37.96916
  ],
  "geometry": {"coordinates":[[-122.36683,37.62808],[-122.34495,37.64626],[-122.30553,37.66797],[-122.25946,37.69885],[-122.25061,37.72171],[-122.24136,37.75309],[-122.23153,37.78617],[-122.16544,37.82261],[-122.14868,37.82498],[-122.09006,37.83404],[-122.06077,37.83883],[-122.01408,37.84659],[-121.93522,37.85969],[-121.90551,37.8646],[-121.84066,37.87503],[-121.79791,37.88186],[-121.6958,37.89815],[-121.64354,37.90641],[-121.6075,37.91203],[-121.56812,37.91824],[-121.48978,37.93085],[-121.46123,37.93523],[-121.40148,37.94461],[-121.39519,37.94557],[-121.35599,37.95181],[-121.31087,37.95886],[-121.2445,37.96916]],"type":"LineString"}
}
