{
  "id": 1981716783,
  "type": "Feature",
  "properties": {
    "geom:area": 0,
    "geom:bbox": "-122.358950,37.492560,-121.291200,37.614620",
    "geom:latitude": 37.544692297940685,
    "geom:longitude": -121.83018783421753,
    "src:alt_label": "swim-approach",
    "src:geom": "swim",
    "swim:elevations": [
      4462,
      4247,
      4088,
      4066,
      3800,
      3674,
      3647,
      3444,
      3233,
      2917,
      2632,
      2574,
      2383,
      2216,
      2173,
      1856,
      1829,
      1829,
      1768,
      1621,
      1423,
      1369,
      1252,
      961,
      790,
      760,
      410,
      274,
      108,
      78,
      0
    ],
    "swim:geom": "approach",
    "swim:timestamps": [
      1760950915,
      1760950940,
      1760950959,
      1760950962,
      1760951003,
      1760951038,
      1760951046,
      1760951079,
      1760951111,
      1760951151,
      1760951184,
      1760951188,
      1760951212,
      1760951245,
      1760951251,
      1760951307,
      1760951336,
      1760951347,
      1760951366,
      1760951394,
      1760951426,
      1760951443,
      1760951467,
      1760951508,
      1760951547,
      1760951556,
      1760951606,
      1760951630,
      1760951667,
      1760951676,
      1760951692
    ],
    "wof:geomhash": "7f2cb54a70a6748a7f7f4b3053809224",
    "wof:id": 1981716783,
    "wof:repo": "sfomuseum-data-flights-2025-10"
  },
  "bbox": [
    -122.35895,
    37.49256,
    -121.2912,
    37.61462
  ],
  "geometry": {"coordinates":[[-121.2912,37.58889],[-121.34254,37.58319],[-121.38057,37.57899],[-121.38657,37.5783],[-121.46659,37.56908],[-121.52993,37.56189],[-121.5428,37.56042],[-121.59776,37.55378],[-121.64895,37.54482],[-121.71185,37.5298],[-121.76204,37.51777],[-121.7681,37.51629],[-121.80367,37.50782],[-121.85255,37.49607],[-121.86038,37.49417],[-121.94292,37.49256],[-121.98456,37.49426],[-121.99983,37.49767],[-122.02488,37.50594],[-122.06029,37.51825],[-122.09895,37.53079],[-122.12013,37.53759],[-122.14611,37.54564],[-122.19061,37.55965],[-122.23223,37.57299],[-122.24149,37.57598],[-122.28932,37.58667],[-122.31029,37.5942],[-122.34006,37.60636],[-122.34662,37.60912],[-122.35895,37.61462]],"type":"LineString"}
}
