{
  "id": 1981729139,
  "type": "Feature",
  "properties": {
    "geom:area": 0,
    "geom:bbox": "-122.357222,33.400000,-112.166667,37.611111",
    "geom:latitude": 34.886602455474076,
    "geom:longitude": -117.62995750017376,
    "src:alt_label": "swim-path",
    "src:geom": "swim",
    "swim:altitudes": [
      "059",
      "059",
      "095",
      "095",
      "095",
      "108",
      "108",
      "108",
      "108",
      "108",
      "293",
      "293",
      "293",
      "293",
      "293",
      "333",
      "346",
      "346",
      "346",
      "360C",
      "360C",
      "360C",
      "360C",
      "360C",
      "360C",
      "360C",
      "360C",
      "360C",
      "360C",
      "360C",
      "360C",
      "360C",
      "360C",
      "360C",
      "360C",
      "360C",
      "360C",
      "360C",
      "360C",
      "360C",
      "360C",
      "360C",
      "360C",
      "360C",
      "360C",
      "360C",
      "360C",
      "360C",
      "360C",
      "360C",
      "360C",
      "360C",
      "360C",
      "360C",
      "360C",
      "360C",
      "360C",
      "360C",
      "360C",
      "360C",
      "360C",
      "360C",
      "360C",
      "360C",
      "360C",
      "360C",
      "360C",
      "360C",
      "360C",
      "360C",
      "360C",
      "360C",
      "360C",
      "360C",
      "360C",
      "360C",
      "360C",
      "360C",
      "360C",
      "360C",
      "360C",
      "360C",
      "360C",
      "360C",
      "360C",
      "360C",
      "360C",
      "360C",
      "360C",
      "360C",
      "360",
      "360",
      "360",
      "360",
      "360",
      "360",
      "320",
      "320",
      "320",
      "320",
      "294",
      "263",
      "251",
      "251",
      "251",
      "211",
      "211",
      "211",
      "116",
      "116",
      "116",
      "099",
      "088",
      "088",
      "054",
      "039",
      "019",
      "001",
      "001",
      "001",
      "001",
      "001",
      "001"
    ],
    "swim:geom": "path",
    "swim:speeds": [
      254,
      254,
      288,
      288,
      288,
      305,
      305,
      305,
      305,
      305,
      436,
      436,
      436,
      436,
      436,
      418,
      414,
      414,
      414,
      412,
      412,
      412,
      412,
      417,
      417,
      417,
      419,
      419,
      419,
      422,
      422,
      422,
      422,
      425,
      425,
      426,
      426,
      426,
      426,
      426,
      427,
      427,
      428,
      429,
      429,
      429,
      433,
      433,
      433,
      433,
      436,
      436,
      436,
      443,
      443,
      443,
      460,
      460,
      460,
      465,
      467,
      467,
      467,
      469,
      469,
      469,
      471,
      471,
      471,
      469,
      470,
      470,
      469,
      469,
      469,
      469,
      470,
      473,
      475,
      475,
      477,
      477,
      477,
      477,
      477,
      477,
      479,
      479,
      486,
      486,
      495,
      495,
      496,
      496,
      496,
      496,
      498,
      498,
      498,
      498,
      492,
      472,
      457,
      457,
      457,
      437,
      437,
      437,
      376,
      376,
      376,
      305,
      273,
      273,
      213,
      198,
      194,
      154,
      154,
      154,
      154,
      154,
      154
    ],
    "swim:timestamps": [
      1761101805,
      1761101805,
      1761101865,
      1761101865,
      1761101865,
      1761101900,
      1761101900,
      1761101900,
      1761101900,
      1761101900,
      1761102380,
      1761102380,
      1761102380,
      1761102380,
      1761102380,
      1761102505,
      1761102561,
      1761102561,
      1761102561,
      1761102741,
      1761102741,
      1761102741,
      1761102741,
      1761103045,
      1761103045,
      1761103045,
      1761103105,
      1761103105,
      1761103166,
      1761103286,
      1761103286,
      1761103286,
      1761103286,
      1761103406,
      1761103406,
      1761103586,
      1761103646,
      1761103706,
      1761103706,
      1761103706,
      1761103766,
      1761103766,
      1761103887,
      1761103947,
      1761103947,
      1761103947,
      1761104127,
      1761104127,
      1761104187,
      1761104187,
      1761104307,
      1761104307,
      1761104307,
      1761104427,
      1761104427,
      1761104427,
      1761104487,
      1761104487,
      1761104487,
      1761104572,
      1761104632,
      1761104632,
      1761104632,
      1761104788,
      1761104788,
      1761104788,
      1761104812,
      1761104812,
      1761104812,
      1761104848,
      1761104872,
      1761104872,
      1761104968,
      1761104968,
      1761105028,
      1761105028,
      1761105052,
      1761105112,
      1761105148,
      1761105148,
      1761105208,
      1761105208,
      1761105208,
      1761105233,
      1761105233,
      1761105233,
      1761105293,
      1761105293,
      1761105389,
      1761105389,
      1761105473,
      1761105473,
      1761105533,
      1761105533,
      1761105533,
      1761105533,
      1761105773,
      1761105773,
      1761105773,
      1761105773,
      1761105833,
      1761105908,
      1761105950,
      1761105950,
      1761105950,
      1761106073,
      1761106073,
      1761106073,
      1761106374,
      1761106374,
      1761106374,
      1761106494,
      1761106544,
      1761106544,
      1761106671,
      1761106724,
      1761106794,
      1761106914,
      1761106914,
      1761106914,
      1761106914,
      1761106914,
      1761106914
    ],
    "wof:geomhash": "7445632b1a7f8c35b6d788b53df3efa2",
    "wof:id": 1981729139,
    "wof:repo": "sfomuseum-data-flights-2025-10"
  },
  "bbox": [
    -122.35722222222222,
    33.4,
    -112.16666666666667,
    37.611111111111114
  ],
  "geometry": {"coordinates":[[-112.16666666666667,33.4],[-112.16666666666667,33.4],[-112.25,33.4],[-112.25,33.4],[-112.25,33.4],[-112.30277777777778,33.40694444444444],[-112.30277777777778,33.40694444444444],[-112.30277777777778,33.40694444444444],[-112.30277777777778,33.40694444444444],[-112.30277777777778,33.40694444444444],[-113.37305555555555,33.559444444444445],[-113.37305555555555,33.559444444444445],[-113.37305555555555,33.559444444444445],[-113.37305555555555,33.559444444444445],[-113.37305555555555,33.559444444444445],[-113.65055555555556,33.61027777777778],[-113.79555555555555,33.63805555555555],[-113.79555555555555,33.63805555555555],[-113.79555555555555,33.63805555555555],[-114.19,33.73083333333334],[-114.19,33.73083333333334],[-114.19,33.73083333333334],[-114.19,33.73083333333334],[-114.87027777777777,33.89944444444444],[-114.87027777777777,33.89944444444444],[-114.87027777777777,33.89944444444444],[-115.00472222222223,33.93222222222222],[-115.00472222222223,33.93222222222222],[-115.13916666666667,33.965],[-115.40972222222223,34.02972222222222],[-115.40972222222223,34.02972222222222],[-115.40972222222223,34.02972222222222],[-115.40972222222223,34.02972222222222],[-115.68472222222222,34.09527777777778],[-115.68472222222222,34.09527777777778],[-116.10083333333333,34.19277777777778],[-116.23805555555556,34.224722222222226],[-116.375,34.25611111111111],[-116.375,34.25611111111111],[-116.375,34.25611111111111],[-116.51361111111112,34.288333333333334],[-116.51361111111112,34.288333333333334],[-116.7911111111111,34.35111111111111],[-116.93166666666667,34.382777777777775],[-116.93166666666667,34.382777777777775],[-116.93166666666667,34.382777777777775],[-117.3561111111111,34.4775],[-117.3561111111111,34.4775],[-117.4975,34.50861111111111],[-117.4975,34.50861111111111],[-117.78194444444445,34.57055555555556],[-117.78194444444445,34.57055555555556],[-117.78194444444445,34.57055555555556],[-118.04416666666667,34.62861111111111],[-118.04416666666667,34.62861111111111],[-118.04416666666667,34.62861111111111],[-118.1825,34.687777777777775],[-118.1825,34.687777777777775],[-118.1825,34.687777777777775],[-118.38833333333334,34.783055555555556],[-118.5261111111111,34.847500000000004],[-118.5261111111111,34.847500000000004],[-118.5261111111111,34.847500000000004],[-118.885,35.018055555555556],[-118.885,35.018055555555556],[-118.885,35.018055555555556],[-118.94083333333333,35.04388888888889],[-118.94083333333333,35.04388888888889],[-118.94083333333333,35.04388888888889],[-119.02388888888889,35.08222222222223],[-119.07888888888888,35.10805555555556],[-119.07888888888888,35.10805555555556],[-119.30222222222221,35.211111111111116],[-119.30222222222221,35.211111111111116],[-119.43916666666667,35.27388888888889],[-119.43916666666667,35.27388888888889],[-119.49666666666667,35.3],[-119.63666666666667,35.36388888888889],[-119.72194444444445,35.40277777777778],[-119.72194444444445,35.40277777777778],[-119.86388888888888,35.466944444444444],[-119.86388888888888,35.466944444444444],[-119.86388888888888,35.466944444444444],[-119.9225,35.493611111111115],[-119.9225,35.493611111111115],[-119.9225,35.493611111111115],[-120.0625,35.55638888888888],[-120.0625,35.55638888888888],[-120.3,35.66444444444444],[-120.3,35.66444444444444],[-120.48111111111112,35.77361111111111],[-120.48111111111112,35.77361111111111],[-120.61583333333333,35.85472222222222],[-120.61583333333333,35.85472222222222],[-120.61583333333333,35.85472222222222],[-120.61583333333333,35.85472222222222],[-121.16583333333334,36.18194444444444],[-121.16583333333334,36.18194444444444],[-121.16583333333334,36.18194444444444],[-121.16583333333334,36.18194444444444],[-121.30083333333333,36.26222222222222],[-121.48333333333333,36.36666666666667],[-121.58333333333333,36.416666666666664],[-121.58333333333333,36.416666666666664],[-121.58333333333333,36.416666666666664],[-121.77222222222223,36.58833333333334],[-121.77222222222223,36.58833333333334],[-121.77222222222223,36.58833333333334],[-122.0175,37.117222222222225],[-122.0175,37.117222222222225],[-122.0175,37.117222222222225],[-122.08666666666666,37.293055555555554],[-122.11666666666666,37.35],[-122.11666666666666,37.35],[-122.16666666666667,37.483333333333334],[-122.2,37.53333333333333],[-122.25527777777778,37.568333333333335],[-122.35722222222222,37.611111111111114],[-122.35722222222222,37.611111111111114],[-122.35722222222222,37.611111111111114],[-122.35722222222222,37.611111111111114],[-122.35722222222222,37.611111111111114],[-122.35722222222222,37.611111111111114]],"type":"LineString"}
}
