{
  "id": 1981797549,
  "type": "Feature",
  "properties": {
    "geom:area": 0,
    "geom:bbox": "-122.283333,37.493889,-77.516667,39.836389",
    "geom:latitude": 38.91027055431875,
    "geom:longitude": -99.91296438475908,
    "src:alt_label": "swim-path",
    "src:geom": "swim",
    "swim:altitudes": [
      "022",
      "022",
      "027",
      "027",
      "051",
      "051",
      "108",
      "108",
      "108",
      "108",
      "193",
      "193",
      "193",
      "193",
      "253",
      "253",
      "253",
      "295",
      "295",
      "295",
      "304",
      "304",
      "304",
      "304",
      "320C",
      "320C",
      "320C",
      "320C",
      "320C",
      "320C",
      "320C",
      "320C",
      "320C",
      "320C",
      "320C",
      "320C",
      "320C",
      "320C",
      "320C",
      "320C",
      "320C",
      "320C",
      "320C",
      "320C",
      "320C",
      "320C",
      "320C",
      "320C",
      "320C",
      "320C",
      "320C",
      "320C",
      "329",
      "329",
      "340C",
      "340C",
      "340C",
      "340C",
      "340C",
      "340C",
      "340C",
      "340C",
      "340C",
      "340C",
      "340C",
      "340C",
      "340C",
      "340C",
      "340C",
      "340C",
      "340C",
      "340C",
      "340C",
      "340C",
      "340C",
      "340C",
      "340C",
      "340C",
      "340C",
      "340C",
      "340C",
      "340C",
      "340C",
      "340C",
      "340C",
      "340C",
      "340C",
      "340C",
      "340C",
      "340C",
      "340C",
      "340C",
      "340C",
      "340C",
      "340C",
      "340C",
      "340C",
      "340C",
      "340C",
      "340C",
      "340C",
      "340C",
      "340C",
      "340C",
      "340C",
      "340C",
      "340C",
      "340C",
      "340C",
      "340C",
      "340C",
      "340C",
      "340C",
      "340C",
      "340C",
      "340C",
      "340C",
      "340C",
      "340C",
      "340C",
      "340C",
      "340C",
      "340C",
      "340C",
      "340C",
      "340C",
      "340C",
      "340C",
      "340C",
      "340C",
      "340C",
      "340C",
      "340C",
      "340C",
      "340C",
      "340C",
      "340C",
      "340C",
      "340C",
      "340C",
      "340C",
      "340C",
      "340C",
      "340C",
      "340C",
      "340C",
      "340C",
      "340C",
      "340C",
      "340C",
      "340C",
      "340C",
      "340C",
      "340C",
      "340C",
      "340C",
      "340C",
      "340C",
      "340C",
      "340C",
      "340C",
      "340C",
      "340C",
      "340C",
      "340C",
      "340C",
      "340C",
      "340C",
      "340C",
      "340C",
      "340C",
      "340C",
      "340C",
      "340C",
      "340C",
      "340C",
      "340C",
      "340C",
      "340C",
      "340C",
      "340C",
      "340C",
      "340C",
      "340C",
      "340C",
      "340C",
      "340C",
      "340C",
      "340C",
      "340C",
      "340C",
      "340C",
      "340C",
      "340C",
      "350C",
      "350C",
      "350C",
      "350C",
      "350C",
      "350C",
      "350C",
      "350C",
      "350C",
      "350C",
      "350C",
      "350C",
      "355",
      "355",
      "360C",
      "360C",
      "360C",
      "360C",
      "360C",
      "360C",
      "360C",
      "360C",
      "360C",
      "360C",
      "360C",
      "360C",
      "360C",
      "360C",
      "360C",
      "360C",
      "360C",
      "360C",
      "360C",
      "360C",
      "360C",
      "360C",
      "360C",
      "360C",
      "360C",
      "360C",
      "360C",
      "360C",
      "360C",
      "360C",
      "360C",
      "360C",
      "360C",
      "360C",
      "360C",
      "360C",
      "360C",
      "360C",
      "360C",
      "360C",
      "360C",
      "360C",
      "360C",
      "360C",
      "360C",
      "360C",
      "360C",
      "360C",
      "360C",
      "360C",
      "360",
      "360",
      "360",
      "360",
      "353",
      "336",
      "304",
      "304",
      "292",
      "276",
      "271",
      "253",
      "253",
      "225",
      "225",
      "171",
      "171",
      "100",
      "100",
      "100",
      "061",
      "036",
      "036",
      "036",
      "031",
      "025",
      "021",
      "014"
    ],
    "swim:geom": "path",
    "swim:speeds": [
      251,
      251,
      258,
      258,
      275,
      275,
      287,
      287,
      287,
      287,
      348,
      348,
      348,
      348,
      361,
      361,
      361,
      376,
      376,
      376,
      389,
      389,
      389,
      389,
      414,
      414,
      414,
      414,
      414,
      416,
      422,
      422,
      428,
      428,
      435,
      435,
      435,
      434,
      434,
      434,
      434,
      434,
      434,
      435,
      435,
      439,
      441,
      441,
      460,
      460,
      460,
      460,
      465,
      465,
      461,
      461,
      461,
      461,
      461,
      461,
      461,
      464,
      464,
      464,
      461,
      461,
      465,
      465,
      467,
      465,
      467,
      470,
      470,
      473,
      473,
      471,
      471,
      463,
      463,
      463,
      462,
      462,
      460,
      460,
      460,
      460,
      458,
      458,
      458,
      457,
      457,
      457,
      457,
      457,
      457,
      457,
      453,
      453,
      449,
      449,
      449,
      449,
      454,
      454,
      461,
      461,
      461,
      461,
      459,
      457,
      457,
      457,
      457,
      455,
      455,
      453,
      453,
      449,
      448,
      448,
      448,
      447,
      448,
      448,
      448,
      448,
      441,
      441,
      441,
      438,
      435,
      435,
      432,
      432,
      432,
      432,
      432,
      432,
      432,
      439,
      441,
      441,
      442,
      442,
      442,
      442,
      432,
      432,
      432,
      430,
      430,
      423,
      423,
      422,
      418,
      418,
      418,
      418,
      418,
      418,
      418,
      419,
      418,
      418,
      418,
      417,
      417,
      417,
      416,
      415,
      415,
      415,
      414,
      412,
      409,
      409,
      409,
      407,
      407,
      406,
      406,
      405,
      406,
      407,
      407,
      407,
      407,
      407,
      406,
      406,
      406,
      407,
      407,
      407,
      413,
      413,
      415,
      415,
      416,
      417,
      417,
      417,
      419,
      420,
      420,
      420,
      420,
      420,
      417,
      416,
      416,
      413,
      413,
      413,
      415,
      414,
      413,
      413,
      413,
      413,
      413,
      414,
      415,
      415,
      415,
      417,
      417,
      418,
      417,
      415,
      414,
      414,
      414,
      414,
      414,
      414,
      413,
      414,
      413,
      413,
      416,
      416,
      417,
      417,
      418,
      418,
      418,
      419,
      419,
      420,
      420,
      420,
      420,
      420,
      420,
      418,
      418,
      417,
      420,
      421,
      421,
      423,
      422,
      421,
      425,
      425,
      431,
      431,
      429,
      424,
      424,
      421,
      421,
      395,
      395,
      378,
      378,
      352,
      259,
      245,
      245,
      245,
      236,
      199,
      191,
      169
    ],
    "swim:timestamps": [
      1761793479,
      1761793479,
      1761793504,
      1761793504,
      1761793564,
      1761793564,
      1761793684,
      1761793684,
      1761793684,
      1761793684,
      1761793983,
      1761793983,
      1761793983,
      1761793983,
      1761794223,
      1761794223,
      1761794223,
      1761794463,
      1761794463,
      1761794463,
      1761794580,
      1761794580,
      1761794580,
      1761794580,
      1761794821,
      1761794821,
      1761794821,
      1761794821,
      1761794821,
      1761794881,
      1761794941,
      1761794941,
      1761795001,
      1761795001,
      1761795182,
      1761795182,
      1761795182,
      1761795362,
      1761795362,
      1761795362,
      1761795422,
      1761795422,
      1761795422,
      1761795482,
      1761795482,
      1761795542,
      1761795602,
      1761795602,
      1761795963,
      1761795963,
      1761795963,
      1761795963,
      1761796083,
      1761796083,
      1761796203,
      1761796305,
      1761796305,
      1761796323,
      1761796365,
      1761796425,
      1761796425,
      1761796443,
      1761796443,
      1761796443,
      1761796485,
      1761796485,
      1761796500,
      1761796500,
      1761796621,
      1761796666,
      1761796863,
      1761796966,
      1761796966,
      1761797027,
      1761797027,
      1761797102,
      1761797102,
      1761797344,
      1761797344,
      1761797344,
      1761797388,
      1761797401,
      1761797461,
      1761797461,
      1761797461,
      1761797461,
      1761797566,
      1761797566,
      1761797566,
      1761797868,
      1761797868,
      1761797868,
      1761797868,
      1761797868,
      1761797882,
      1761797882,
      1761798065,
      1761798065,
      1761798242,
      1761798242,
      1761798286,
      1761798286,
      1761798346,
      1761798346,
      1761798646,
      1761798646,
      1761798646,
      1761798646,
      1761798766,
      1761798829,
      1761798829,
      1761798829,
      1761798829,
      1761798886,
      1761798886,
      1761799006,
      1761799006,
      1761799127,
      1761799248,
      1761799248,
      1761799306,
      1761799368,
      1761799429,
      1761799429,
      1761799429,
      1761799429,
      1761799489,
      1761799489,
      1761799489,
      1761799606,
      1761799729,
      1761799729,
      1761799908,
      1761799908,
      1761799908,
      1761799908,
      1761799969,
      1761799969,
      1761799969,
      1761800147,
      1761800327,
      1761800510,
      1761800567,
      1761800567,
      1761800567,
      1761800567,
      1761801049,
      1761801049,
      1761801049,
      1761801109,
      1761801109,
      1761801287,
      1761801287,
      1761801349,
      1761801517,
      1761801517,
      1761801517,
      1761801517,
      1761801517,
      1761801577,
      1761801588,
      1761801637,
      1761801757,
      1761801767,
      1761801828,
      1761801877,
      1761801947,
      1761802057,
      1761802177,
      1761802297,
      1761802357,
      1761802428,
      1761802538,
      1761802608,
      1761802838,
      1761802958,
      1761802958,
      1761803258,
      1761803258,
      1761803378,
      1761803378,
      1761803558,
      1761803618,
      1761803798,
      1761803798,
      1761803798,
      1761803858,
      1761803858,
      1761804038,
      1761804038,
      1761804038,
      1761804098,
      1761804455,
      1761804455,
      1761804937,
      1761804937,
      1761804999,
      1761804999,
      1761805536,
      1761805656,
      1761805656,
      1761805779,
      1761806016,
      1761806196,
      1761806259,
      1761806259,
      1761806376,
      1761806376,
      1761806556,
      1761806676,
      1761806676,
      1761806858,
      1761806916,
      1761806916,
      1761807156,
      1761807217,
      1761807276,
      1761807276,
      1761807336,
      1761807396,
      1761807396,
      1761807578,
      1761807638,
      1761807638,
      1761807638,
      1761807902,
      1761807902,
      1761808080,
      1761808140,
      1761808321,
      1761808439,
      1761808439,
      1761808439,
      1761808439,
      1761808501,
      1761808622,
      1761808859,
      1761808919,
      1761808982,
      1761808982,
      1761809118,
      1761809159,
      1761809178,
      1761809221,
      1761809280,
      1761809280,
      1761809280,
      1761809359,
      1761809402,
      1761809479,
      1761809522,
      1761809522,
      1761809579,
      1761809659,
      1761809659,
      1761809761,
      1761809839,
      1761809881,
      1761810139,
      1761810199,
      1761810199,
      1761810499,
      1761810559,
      1761810619,
      1761810679,
      1761810679,
      1761810695,
      1761810739,
      1761810749,
      1761810799,
      1761810799,
      1761810859,
      1761810859,
      1761810989,
      1761810989,
      1761811159,
      1761811159,
      1761811169,
      1761811459,
      1761811578,
      1761811578,
      1761811578,
      1761811606,
      1761811638,
      1761811666,
      1761811704
    ],
    "wof:geomhash": "03d482cbc97e2e31839adab55bb9d973",
    "wof:id": 1981797549,
    "wof:repo": "sfomuseum-data-flights-2025-10"
  },
  "bbox": [
    -122.28333333333333,
    37.49388888888889,
    -77.51666666666667,
    39.83638888888889
  ],
  "geometry": {"coordinates":[[-77.51666666666667,39],[-77.51666666666667,39],[-77.54527777777777,38.98388888888889],[-77.54527777777777,38.98388888888889],[-77.62916666666666,38.94222222222222],[-77.62916666666666,38.94222222222222],[-77.81722222222221,38.920833333333334],[-77.81722222222221,38.920833333333334],[-77.81722222222221,38.920833333333334],[-77.81722222222221,38.920833333333334],[-78.36388888888888,38.97027777777778],[-78.36388888888888,38.97027777777778],[-78.36388888888888,38.97027777777778],[-78.36388888888888,38.97027777777778],[-78.87527777777777,39.00194444444445],[-78.87527777777777,39.00194444444445],[-78.87527777777777,39.00194444444445],[-79.40305555555557,39.03444444444444],[-79.40305555555557,39.03444444444444],[-79.40305555555557,39.03444444444444],[-79.65222222222222,39.05],[-79.65222222222222,39.05],[-79.65222222222222,39.05],[-79.65222222222222,39.05],[-80.2275,39.08444444444444],[-80.2275,39.08444444444444],[-80.2275,39.08444444444444],[-80.2275,39.08444444444444],[-80.2275,39.08444444444444],[-80.37694444444443,39.09305555555556],[-80.525,39.102222222222224],[-80.525,39.102222222222224],[-80.67916666666667,39.12083333333334],[-80.67916666666667,39.12083333333334],[-81.14111111111112,39.17527777777777],[-81.14111111111112,39.17527777777777],[-81.14111111111112,39.17527777777777],[-81.62194444444444,39.22972222222222],[-81.62194444444444,39.22972222222222],[-81.62194444444444,39.22972222222222],[-81.77555555555556,39.24666666666667],[-81.77555555555556,39.24666666666667],[-81.77555555555556,39.24666666666667],[-81.93027777777779,39.26361111111111],[-81.93027777777779,39.26361111111111],[-82.08638888888889,39.28055555555555],[-82.24138888888889,39.29722222222222],[-82.24138888888889,39.29722222222222],[-83.21111111111111,39.39527777777778],[-83.21111111111111,39.39527777777778],[-83.21111111111111,39.39527777777778],[-83.21111111111111,39.39527777777778],[-83.51944444444445,39.425],[-83.51944444444445,39.425],[-83.85777777777777,39.45638888888889],[-84.13972222222223,39.4825],[-84.13972222222223,39.4825],[-84.1888888888889,39.486111111111114],[-84.30638888888889,39.49805555555556],[-84.47222222222223,39.51138888888889],[-84.47222222222223,39.51138888888889],[-84.52055555555556,39.515],[-84.52055555555556,39.515],[-84.52055555555556,39.515],[-84.63805555555557,39.524166666666666],[-84.63805555555557,39.524166666666666],[-84.68916666666667,39.529444444444444],[-84.68916666666667,39.529444444444444],[-85.0175,39.55638888888888],[-85.14222222222223,39.56777777777778],[-85.705,39.61],[-85.98,39.63111111111111],[-85.98,39.63111111111111],[-86.15055555555556,39.64194444444444],[-86.15055555555556,39.64194444444444],[-86.37305555555555,39.65833333333333],[-86.37305555555555,39.65833333333333],[-87.04027777777777,39.70277777777778],[-87.04027777777777,39.70277777777778],[-87.04027777777777,39.70277777777778],[-87.15222222222222,39.709722222222226],[-87.20416666666667,39.71277777777778],[-87.36805555555554,39.723055555555554],[-87.36805555555554,39.723055555555554],[-87.36805555555554,39.723055555555554],[-87.36805555555554,39.723055555555554],[-87.6463888888889,39.739444444444445],[-87.6463888888889,39.739444444444445],[-87.6463888888889,39.739444444444445],[-88.45777777777778,39.78388888888889],[-88.45777777777778,39.78388888888889],[-88.45777777777778,39.78388888888889],[-88.45777777777778,39.78388888888889],[-88.45777777777778,39.78388888888889],[-88.50722222222223,39.78611111111111],[-88.50722222222223,39.78611111111111],[-88.99444444444444,39.809999999999995],[-88.99444444444444,39.809999999999995],[-89.48,39.831388888888895],[-89.48,39.831388888888895],[-89.59722222222221,39.83638888888889],[-89.59722222222221,39.83638888888889],[-89.7611111111111,39.834722222222226],[-89.7611111111111,39.834722222222226],[-90.5936111111111,39.78138888888889],[-90.5936111111111,39.78138888888889],[-90.5936111111111,39.78138888888889],[-90.5936111111111,39.78138888888889],[-90.9238888888889,39.75861111111111],[-91.08638888888889,39.746944444444445],[-91.08638888888889,39.746944444444445],[-91.08638888888889,39.746944444444445],[-91.08638888888889,39.746944444444445],[-91.24972222222222,39.73527777777778],[-91.24972222222222,39.73527777777778],[-91.57388888888889,39.711111111111116],[-91.57388888888889,39.711111111111116],[-91.89277777777778,39.68611111111111],[-92.215,39.66027777777778],[-92.215,39.66027777777778],[-92.3761111111111,39.64666666666667],[-92.53805555555556,39.63305555555556],[-92.69916666666667,39.61972222222222],[-92.69916666666667,39.61972222222222],[-92.69916666666667,39.61972222222222],[-92.69916666666667,39.61972222222222],[-92.85749999999999,39.60583333333334],[-92.85749999999999,39.60583333333334],[-92.85749999999999,39.60583333333334],[-93.17027777777778,39.57805555555556],[-93.48055555555555,39.54944444444444],[-93.48055555555555,39.54944444444444],[-93.95,39.505],[-93.95,39.505],[-93.95,39.505],[-93.95,39.505],[-94.10638888888889,39.490833333333335],[-94.10638888888889,39.490833333333335],[-94.10638888888889,39.490833333333335],[-94.56972222222223,39.45194444444445],[-95.04055555555556,39.41],[-95.50277777777778,39.36694444444444],[-95.65861111111111,39.35194444444445],[-95.65861111111111,39.35194444444445],[-95.65861111111111,39.35194444444445],[-95.65861111111111,39.35194444444445],[-96.90222222222222,39.254444444444445],[-96.90222222222222,39.254444444444445],[-96.90222222222222,39.254444444444445],[-97.05527777777777,39.243611111111115],[-97.05527777777777,39.243611111111115],[-97.50583333333333,39.21138888888889],[-97.50583333333333,39.21138888888889],[-97.65611111111112,39.2],[-98.08972222222222,39.166666666666664],[-98.08972222222222,39.166666666666664],[-98.08972222222222,39.166666666666664],[-98.08972222222222,39.166666666666664],[-98.08972222222222,39.166666666666664],[-98.23972222222223,39.15472222222222],[-98.26444444444445,39.15277777777778],[-98.38777777777779,39.14277777777778],[-98.68611111111112,39.11805555555556],[-98.70805555555556,39.11638888888889],[-98.85472222222222,39.10388888888889],[-98.98194444444445,39.09277777777778],[-99.15055555555556,39.07805555555556],[-99.4113888888889,39.055],[-99.70444444444445,39.02777777777778],[-99.99805555555555,39.000277777777775],[-100.15694444444445,38.98416666666667],[-100.31833333333333,38.9675],[-100.58166666666666,38.940555555555555],[-100.75361111111111,38.92222222222222],[-101.30083333333333,38.862500000000004],[-101.58888888888889,38.830000000000005],[-101.58888888888889,38.830000000000005],[-102.30472222222222,38.74611111111111],[-102.30472222222222,38.74611111111111],[-102.58638888888889,38.71194444444445],[-102.58638888888889,38.71194444444445],[-103.02083333333333,38.6575],[-103.16194444444444,38.644999999999996],[-103.61027777777777,38.670833333333334],[-103.61027777777777,38.670833333333334],[-103.61027777777777,38.670833333333334],[-103.74972222222222,38.69916666666666],[-103.74972222222222,38.69916666666666],[-104.15611111111112,38.75527777777778],[-104.15611111111112,38.75527777777778],[-104.15611111111112,38.75527777777778],[-104.30111111111111,38.75388888888889],[-105.16944444444445,38.7425],[-105.16944444444445,38.7425],[-106.34722222222221,38.716944444444444],[-106.34722222222221,38.716944444444444],[-106.49361111111111,38.71638888888889],[-106.49361111111111,38.71638888888889],[-107.83277777777778,38.67194444444444],[-108.12972222222221,38.66],[-108.12972222222221,38.66],[-108.42194444444445,38.649166666666666],[-109.01888888888888,38.621944444444445],[-109.46777777777778,38.599444444444444],[-109.61555555555555,38.59166666666667],[-109.61555555555555,38.59166666666667],[-109.91305555555556,38.57527777777778],[-109.91305555555556,38.57527777777778],[-110.35444444444444,38.54972222222222],[-110.64777777777779,38.53194444444444],[-110.64777777777779,38.53194444444444],[-111.08055555555555,38.50416666666667],[-111.22555555555556,38.49472222222222],[-111.22555555555556,38.49472222222222],[-111.81166666666667,38.453611111111115],[-111.95777777777778,38.44277777777778],[-112.10166666666666,38.43222222222222],[-112.10166666666666,38.43222222222222],[-112.24777777777778,38.42111111111111],[-112.39194444444445,38.41],[-112.39194444444445,38.41],[-112.83222222222221,38.375277777777775],[-112.97694444444444,38.36333333333334],[-112.97694444444444,38.36333333333334],[-112.97694444444444,38.36333333333334],[-113.60833333333333,38.35416666666667],[-113.60833333333333,38.35416666666667],[-114.04916666666666,38.34777777777778],[-114.19583333333334,38.34527777777778],[-114.63722222222223,38.33638888888889],[-114.92750000000001,38.32972222222222],[-114.92750000000001,38.32972222222222],[-114.92750000000001,38.32972222222222],[-114.92750000000001,38.32972222222222],[-115.07444444444444,38.330000000000005],[-115.36694444444444,38.331944444444446],[-115.95111111111112,38.33361111111111],[-116.09972222222221,38.33361111111111],[-116.24555555555555,38.33361111111111],[-116.24555555555555,38.33361111111111],[-116.58944444444444,38.27583333333333],[-116.6738888888889,38.25666666666667],[-116.73277777777778,38.24333333333333],[-116.81472222222222,38.224444444444444],[-116.95777777777778,38.19194444444444],[-116.95777777777778,38.19194444444444],[-116.95777777777778,38.19194444444444],[-117.16333333333334,38.144444444444446],[-117.25138888888888,38.12388888888889],[-117.42777777777778,38.08305555555556],[-117.54055555555556,38.05694444444444],[-117.54055555555556,38.05694444444444],[-117.68388888888889,38.02361111111111],[-117.85694444444444,37.994166666666665],[-117.85694444444444,37.994166666666665],[-118.11777777777777,37.96666666666667],[-118.2936111111111,37.9475],[-118.40833333333335,37.93527777777778],[-119.02527777777777,37.86611111111111],[-119.1713888888889,37.84916666666667],[-119.1713888888889,37.84916666666667],[-119.9075,37.76111111111111],[-120.05194444444444,37.74333333333333],[-120.19888888888889,37.725],[-120.34666666666666,37.70638888888889],[-120.34666666666666,37.70638888888889],[-120.4,37.7],[-120.49833333333333,37.68833333333333],[-120.53333333333333,37.68333333333333],[-120.64444444444445,37.67111111111111],[-120.64444444444445,37.67111111111111],[-120.7911111111111,37.65361111111111],[-120.7911111111111,37.65361111111111],[-121.1,37.61666666666667],[-121.1,37.61666666666667],[-121.4786111111111,37.56777777777778],[-121.4786111111111,37.56777777777778],[-121.5,37.56666666666667],[-121.97777777777777,37.49388888888889],[-122.13333333333334,37.55],[-122.13333333333334,37.55],[-122.13333333333334,37.55],[-122.16972222222223,37.55361111111111],[-122.21666666666667,37.56666666666667],[-122.235,37.57472222222223],[-122.28333333333333,37.583333333333336]],"type":"LineString"}
}
