{
  "id": 1981588555,
  "type": "Feature",
  "properties": {
    "geom:area": 0,
    "geom:bbox": "-122.343190,37.491310,-121.263640,37.607580",
    "geom:latitude": 37.545253580842626,
    "geom:longitude": -121.80790004515663,
    "src:alt_label": "swim-approach",
    "src:geom": "swim",
    "swim:elevations": [
      4668,
      4392,
      4363,
      4204,
      3947,
      3906,
      3656,
      3592,
      3490,
      3270,
      3091,
      2750,
      2671,
      2490,
      2343,
      2134,
      2090,
      1982,
      1875,
      1577,
      1418,
      1333,
      1031,
      867,
      733,
      670,
      577,
      401,
      292,
      226,
      88
    ],
    "swim:geom": "approach",
    "swim:timestamps": [
      1759684875,
      1759684914,
      1759684923,
      1759684947,
      1759684975,
      1759684980,
      1759685023,
      1759685043,
      1759685063,
      1759685094,
      1759685115,
      1759685157,
      1759685168,
      1759685209,
      1759685235,
      1759685270,
      1759685283,
      1759685311,
      1759685340,
      1759685391,
      1759685414,
      1759685430,
      1759685486,
      1759685514,
      1759685547,
      1759685566,
      1759685585,
      1759685628,
      1759685654,
      1759685673,
      1759685702
    ],
    "wof:geomhash": "f417d200161f7af3642a88accb1cfa35",
    "wof:id": 1981588555,
    "wof:repo": "sfomuseum-data-flights-2025-10"
  },
  "bbox": [
    -122.34319,
    37.49131,
    -121.26364,
    37.60758
  ],
  "geometry": {"coordinates":[[-121.26364,37.59275],[-121.34126,37.5839],[-121.35786,37.58207],[-121.40099,37.57697],[-121.44997,37.57107],[-121.45776,37.57019],[-121.53139,37.56169],[-121.56242,37.55809],[-121.59339,37.55444],[-121.63821,37.54765],[-121.66705,37.54068],[-121.72484,37.52685],[-121.74022,37.52321],[-121.79654,37.50975],[-121.8311,37.50152],[-121.87827,37.49196],[-121.89713,37.49131],[-121.93588,37.49239],[-121.9759,37.49366],[-122.04092,37.5118],[-122.07078,37.52149],[-122.09079,37.52799],[-122.1553,37.54889],[-122.1823,37.55773],[-122.21246,37.56755],[-122.22947,37.5729],[-122.24517,37.57808],[-122.28187,37.58893],[-122.30413,37.59558],[-122.31929,37.60013],[-122.34319,37.60758]],"type":"LineString"}
}
