{
  "id": 1997542859,
  "type": "Feature",
  "properties": {
    "geom:area": 0,
    "geom:bbox": "-122.380000,28.350000,-81.310000,38.170000",
    "geom:latitude": 34.57323986521223,
    "geom:longitude": -101.55138269428974,
    "src:alt_label": "swim-route",
    "src:geom": "swim",
    "swim:geom": "route",
    "wof:geomhash": "94f68650a57f740e3bc0f7c3f36ac256",
    "wof:id": 1997542859,
    "wof:repo": "sfomuseum-data-flights-2025-10"
  },
  "bbox": [
    -122.38,
    28.35,
    -81.31,
    38.17
  ],
  "geometry": {"coordinates":[[-81.31,28.43],[-81.35,28.36],[-81.35,28.35],[-81.37,28.35],[-81.39,28.36],[-81.45,28.36],[-81.51,28.37],[-81.54,28.38],[-81.72,28.4],[-81.78,28.41],[-81.92,28.43],[-81.96,28.44],[-81.96,28.45],[-82,28.46],[-82,28.46],[-82.05,28.48],[-82.06,28.49],[-82.13,28.52],[-82.32,28.61],[-82.44,28.66],[-82.5,28.69],[-82.52,28.7],[-82.62,28.74],[-82.68,28.77],[-82.76,28.8],[-82.91,28.87],[-83.27,29.03],[-83.28,29.03],[-83.36,29.06],[-83.69,29.21],[-84.11,29.35],[-84.14,29.4],[-84.72,29.65],[-84.88,29.72],[-85.31,29.9],[-85.74,30.07],[-85.81,30.1],[-86.32,30.31],[-86.6,30.42],[-86.89,30.54],[-87.1,30.62],[-87.68,30.85],[-89.12,31.4],[-89.72,31.62],[-90.03,31.73],[-90.44,31.88],[-91.45,32.24],[-91.66,32.31],[-91.84,32.35],[-92.07,32.45],[-92.27,32.52],[-92.89,32.73],[-93.14,32.81],[-94.12,33.13],[-94.46,33.24],[-95.35,33.52],[-96.32,33.81],[-96.54,33.88],[-96.77,33.95],[-97.22,34.08],[-97.45,34.14],[-97.65,34.2],[-98.13,34.34],[-99.47,34.7],[-99.67,34.76],[-100.28,34.92],[-101.91,35.31],[-102.98,35.58],[-104.91,36.01],[-105.4,36.11],[-106.41,36.31],[-106.55,36.33],[-106.88,36.43],[-107.45,36.58],[-107.62,36.63],[-108.02,36.74],[-109.18,37.04],[-110.25,37.31],[-111.33,37.57],[-111.44,37.6],[-112.7,37.89],[-114.07,38.16],[-114.1,38.17],[-114.37,38.16],[-114.54,38.15],[-117.02,38.02],[-117.18,37.98],[-117.9,37.93],[-119.09,37.83],[-119.13,37.83],[-119.62,37.78],[-119.98,37.74],[-120.04,37.74],[-120.26,37.71],[-120.28,37.71],[-120.38,37.7],[-120.4,37.7],[-120.75,37.66],[-120.78,37.66],[-120.83,37.65],[-120.96,37.63],[-121,37.63],[-121.08,37.62],[-121.18,37.6],[-121.26,37.59],[-121.39,37.58],[-121.41,37.58],[-121.6,37.55],[-121.61,37.55],[-121.62,37.55],[-121.7,37.53],[-121.8,37.51],[-121.83,37.5],[-121.88,37.49],[-122.08,37.54],[-122.14,37.56],[-122.18,37.57],[-122.28,37.59],[-122.33,37.61],[-122.36,37.61],[-122.38,37.62]],"type":"LineString"}
}
