{
  "id": 1981806823,
  "type": "Feature",
  "properties": {
    "geom:area": 0,
    "geom:bbox": "-121.916944,32.650000,-97.050000,38.338889",
    "geom:latitude": 36.62019074484682,
    "geom:longitude": -109.02234158354902,
    "src:alt_label": "swim-path",
    "src:geom": "swim",
    "swim:altitudes": [
      "127",
      "150",
      "150",
      "150",
      "171",
      "171",
      "171",
      "171",
      "326",
      "350C",
      "350C",
      "350C",
      "350C",
      "350C",
      "350C",
      "350C",
      "350C",
      "350C",
      "350C",
      "350C",
      "350C",
      "350C",
      "350C",
      "350C",
      "350C",
      "350C",
      "350C",
      "350C",
      "350C",
      "350C",
      "350C",
      "350C",
      "350C",
      "350C",
      "350C",
      "350C",
      "350C",
      "350C",
      "350C",
      "350C",
      "350C",
      "350C",
      "350C",
      "350C",
      "350C",
      "350C",
      "350C",
      "350C",
      "350C",
      "350C",
      "350C",
      "350C",
      "350C",
      "350C",
      "350C",
      "350C",
      "350C",
      "350C",
      "350C",
      "350C",
      "350C",
      "350C",
      "350C",
      "350C",
      "350C",
      "350C",
      "350C",
      "350C",
      "350C",
      "350C",
      "350C",
      "350C",
      "350C",
      "350C",
      "350C",
      "350C",
      "350C",
      "350C",
      "350C",
      "350C",
      "350C",
      "350C",
      "350C",
      "350C",
      "350C",
      "350C",
      "350C",
      "350C",
      "350C",
      "350C",
      "350C",
      "350C",
      "350C",
      "350C",
      "350C",
      "350C",
      "350C",
      "350C",
      "350C",
      "350C",
      "350C",
      "350C",
      "350C",
      "350C",
      "350C",
      "350C",
      "350C",
      "350C",
      "350C",
      "350C",
      "350C",
      "350C",
      "350C",
      "350C",
      "350C",
      "350C",
      "350C",
      "350C",
      "350C",
      "350C",
      "350C",
      "350C",
      "350C",
      "350C",
      "350C",
      "350C",
      "350C",
      "350C",
      "350C",
      "350C",
      "350C",
      "350C",
      "350C",
      "350C",
      "350C",
      "351C",
      "351C",
      "351C",
      "350C",
      "350C",
      "350C",
      "350C",
      "350C",
      "350C",
      "350C",
      "350C",
      "350C",
      "350C",
      "350C",
      "350C",
      "350C",
      "350C",
      "350C",
      "350C",
      "350C",
      "350C",
      "350C",
      "350C",
      "350C",
      "350C",
      "350C",
      "350C",
      "350C",
      "350C",
      "350C",
      "350C",
      "350C",
      "350C",
      "350C",
      "350C",
      "350C",
      "350C",
      "350C",
      "351C",
      "351C",
      "351C",
      "350C",
      "350C",
      "350C",
      "350C",
      "350C",
      "350C",
      "350C",
      "350C",
      "350C",
      "350C",
      "350C",
      "350C",
      "350C",
      "350C",
      "350C",
      "350C",
      "350C",
      "350C",
      "350C",
      "350C",
      "350C",
      "350C",
      "350",
      "350",
      "350",
      "322",
      "322",
      "322",
      "322",
      "322",
      "292",
      "292",
      "292",
      "282",
      "282",
      "282",
      "214",
      "214",
      "214",
      "214",
      "214",
      "176",
      "171",
      "171",
      "155",
      "155",
      "146",
      "146",
      "146",
      "141",
      "129",
      "129",
      "120",
      "120",
      "111",
      "111",
      "107",
      "107",
      "107",
      "082",
      "082",
      "082",
      "078",
      "078",
      "067",
      "067",
      "067",
      "030",
      "030",
      "023",
      "023",
      "023",
      "023",
      "008",
      "008",
      "008",
      "008",
      "008"
    ],
    "swim:geom": "path",
    "swim:speeds": [
      364,
      375,
      375,
      375,
      394,
      394,
      394,
      394,
      504,
      496,
      496,
      496,
      492,
      491,
      491,
      491,
      491,
      493,
      493,
      493,
      493,
      493,
      493,
      493,
      493,
      493,
      491,
      491,
      491,
      490,
      490,
      490,
      490,
      491,
      491,
      491,
      491,
      491,
      491,
      491,
      491,
      491,
      491,
      491,
      497,
      497,
      497,
      497,
      497,
      497,
      499,
      499,
      499,
      498,
      498,
      498,
      497,
      497,
      497,
      497,
      497,
      497,
      497,
      497,
      497,
      497,
      497,
      496,
      495,
      495,
      495,
      494,
      494,
      494,
      494,
      497,
      497,
      499,
      499,
      499,
      498,
      497,
      497,
      496,
      495,
      495,
      495,
      495,
      495,
      495,
      495,
      495,
      495,
      495,
      495,
      495,
      495,
      496,
      496,
      496,
      496,
      496,
      496,
      495,
      495,
      495,
      495,
      495,
      495,
      495,
      496,
      496,
      496,
      496,
      494,
      494,
      494,
      494,
      493,
      493,
      492,
      492,
      493,
      493,
      493,
      493,
      493,
      490,
      490,
      490,
      489,
      489,
      489,
      489,
      489,
      491,
      491,
      491,
      491,
      491,
      482,
      482,
      482,
      482,
      488,
      488,
      487,
      487,
      487,
      486,
      486,
      487,
      487,
      487,
      487,
      487,
      487,
      488,
      488,
      487,
      487,
      487,
      486,
      486,
      486,
      486,
      486,
      486,
      487,
      487,
      487,
      487,
      488,
      492,
      492,
      493,
      493,
      493,
      492,
      492,
      492,
      492,
      492,
      492,
      492,
      492,
      492,
      492,
      494,
      493,
      493,
      494,
      494,
      495,
      495,
      495,
      495,
      495,
      496,
      496,
      496,
      492,
      492,
      492,
      492,
      492,
      489,
      489,
      489,
      486,
      486,
      486,
      428,
      428,
      428,
      428,
      428,
      401,
      386,
      386,
      369,
      369,
      355,
      355,
      355,
      345,
      347,
      347,
      295,
      295,
      271,
      271,
      265,
      265,
      265,
      260,
      260,
      260,
      255,
      255,
      254,
      254,
      254,
      202,
      202,
      176,
      176,
      176,
      176,
      140,
      140,
      140,
      140,
      140
    ],
    "swim:timestamps": [
      1761869321,
      1761869381,
      1761869381,
      1761869381,
      1761869441,
      1761869441,
      1761869441,
      1761869441,
      1761870222,
      1761870402,
      1761870402,
      1761870402,
      1761870588,
      1761870648,
      1761870648,
      1761870648,
      1761870648,
      1761870943,
      1761870943,
      1761870943,
      1761870943,
      1761871063,
      1761871063,
      1761871123,
      1761871123,
      1761871123,
      1761871243,
      1761871249,
      1761871249,
      1761871309,
      1761871309,
      1761871363,
      1761871363,
      1761871423,
      1761871423,
      1761871423,
      1761871429,
      1761871429,
      1761871429,
      1761871484,
      1761871484,
      1761871484,
      1761871484,
      1761871484,
      1761872330,
      1761872330,
      1761872330,
      1761872330,
      1761872511,
      1761872511,
      1761872669,
      1761872669,
      1761872669,
      1761872909,
      1761872909,
      1761872909,
      1761872931,
      1761872931,
      1761873089,
      1761873089,
      1761873112,
      1761873112,
      1761873112,
      1761873172,
      1761873172,
      1761873269,
      1761873269,
      1761873329,
      1761873389,
      1761873412,
      1761873412,
      1761873472,
      1761873472,
      1761873472,
      1761873472,
      1761873690,
      1761873690,
      1761873810,
      1761873810,
      1761873810,
      1761873930,
      1761873990,
      1761873990,
      1761874050,
      1761874110,
      1761874110,
      1761874110,
      1761874110,
      1761874170,
      1761874261,
      1761874291,
      1761874321,
      1761874321,
      1761874321,
      1761874321,
      1761874351,
      1761874351,
      1761874411,
      1761874411,
      1761874471,
      1761874471,
      1761874471,
      1761874471,
      1761874531,
      1761874531,
      1761874711,
      1761874711,
      1761874711,
      1761874741,
      1761874741,
      1761874982,
      1761874982,
      1761874982,
      1761874982,
      1761875102,
      1761875132,
      1761875132,
      1761875132,
      1761875162,
      1761875192,
      1761875252,
      1761875252,
      1761875282,
      1761875342,
      1761875342,
      1761875342,
      1761875342,
      1761875582,
      1761875582,
      1761875582,
      1761875703,
      1761875703,
      1761875703,
      1761875703,
      1761875703,
      1761875763,
      1761875763,
      1761875763,
      1761875823,
      1761875823,
      1761875928,
      1761875928,
      1761875928,
      1761875928,
      1761876063,
      1761876063,
      1761876123,
      1761876123,
      1761876123,
      1761876348,
      1761876348,
      1761876408,
      1761876408,
      1761876408,
      1761876424,
      1761876424,
      1761876424,
      1761876469,
      1761876469,
      1761876589,
      1761876589,
      1761876589,
      1761876604,
      1761876649,
      1761876649,
      1761876664,
      1761876709,
      1761876709,
      1761876784,
      1761876784,
      1761876784,
      1761876784,
      1761876829,
      1761876949,
      1761876949,
      1761877009,
      1761877069,
      1761877069,
      1761877085,
      1761877085,
      1761877085,
      1761877129,
      1761877129,
      1761877129,
      1761877325,
      1761877325,
      1761877325,
      1761877325,
      1761877370,
      1761877385,
      1761877385,
      1761877430,
      1761877430,
      1761877490,
      1761877490,
      1761877505,
      1761877505,
      1761877505,
      1761877550,
      1761877550,
      1761877550,
      1761877730,
      1761877730,
      1761877730,
      1761877730,
      1761877730,
      1761877910,
      1761877910,
      1761877910,
      1761877971,
      1761877971,
      1761877971,
      1761878271,
      1761878271,
      1761878271,
      1761878271,
      1761878271,
      1761878391,
      1761878410,
      1761878410,
      1761878465,
      1761878465,
      1761878511,
      1761878511,
      1761878511,
      1761878525,
      1761878571,
      1761878571,
      1761878764,
      1761878764,
      1761878812,
      1761878812,
      1761878824,
      1761878824,
      1761878824,
      1761878932,
      1761878932,
      1761878932,
      1761878945,
      1761878945,
      1761878992,
      1761878992,
      1761878992,
      1761879245,
      1761879245,
      1761879412,
      1761879412,
      1761879412,
      1761879412,
      1761879533,
      1761879533,
      1761879533,
      1761879533,
      1761879533
    ],
    "wof:geomhash": "c2774e2f3c541249ed528e757f178961",
    "wof:id": 1981806823,
    "wof:repo": "sfomuseum-data-flights-2025-10"
  },
  "bbox": [
    -121.91694444444445,
    32.65,
    -97.05,
    38.33888888888889
  ],
  "geometry": {"coordinates":[[-121.91694444444445,37.83638888888889],[-121.79027777777777,37.861111111111114],[-121.79027777777777,37.861111111111114],[-121.79027777777777,37.861111111111114],[-121.65583333333333,37.886944444444445],[-121.65583333333333,37.886944444444445],[-121.65583333333333,37.886944444444445],[-121.65583333333333,37.886944444444445],[-119.57722222222222,38.1175],[-119.06722222222221,38.155277777777776],[-119.06722222222221,38.155277777777776],[-119.06722222222221,38.155277777777776],[-118.51916666666666,38.19361111111111],[-118.34583333333333,38.205000000000005],[-118.34583333333333,38.205000000000005],[-118.34583333333333,38.205000000000005],[-118.34583333333333,38.205000000000005],[-117.50638888888889,38.257222222222225],[-117.50638888888889,38.257222222222225],[-117.50638888888889,38.257222222222225],[-117.50638888888889,38.257222222222225],[-117.135,38.27833333333333],[-117.135,38.27833333333333],[-116.97333333333333,38.28722222222222],[-116.97333333333333,38.28722222222222],[-116.97333333333333,38.28722222222222],[-116.6261111111111,38.30555555555555],[-116.62638888888888,38.30555555555555],[-116.62638888888888,38.30555555555555],[-116.45472222222223,38.314166666666665],[-116.45472222222223,38.314166666666665],[-116.2786111111111,38.32277777777778],[-116.2786111111111,38.32277777777778],[-116.10388888888889,38.33111111111111],[-116.10388888888889,38.33111111111111],[-116.10388888888889,38.33111111111111],[-116.1086111111111,38.33083333333334],[-116.1086111111111,38.33083333333334],[-116.1086111111111,38.33083333333334],[-115.93166666666667,38.33888888888889],[-115.93166666666667,38.33888888888889],[-115.93166666666667,38.33888888888889],[-115.93166666666667,38.33888888888889],[-115.93166666666667,38.33888888888889],[-113.52,38.206944444444446],[-113.52,38.206944444444446],[-113.52,38.206944444444446],[-113.52,38.206944444444446],[-113.01416666666667,38.08361111111111],[-113.01416666666667,38.08361111111111],[-112.57666666666667,37.974722222222226],[-112.57666666666667,37.974722222222226],[-112.57666666666667,37.974722222222226],[-111.90583333333333,37.80694444444444],[-111.90583333333333,37.80694444444444],[-111.90583333333333,37.80694444444444],[-111.83722222222222,37.79138888888889],[-111.83722222222222,37.79138888888889],[-111.40138888888889,37.691111111111105],[-111.40138888888889,37.691111111111105],[-111.33527777777778,37.67583333333333],[-111.33527777777778,37.67583333333333],[-111.33527777777778,37.67583333333333],[-111.16666666666667,37.63722222222222],[-111.16666666666667,37.63722222222222],[-110.89944444444446,37.581944444444446],[-110.89944444444446,37.581944444444446],[-110.73055555555555,37.546388888888885],[-110.56444444444445,37.51111111111111],[-110.49694444444445,37.49666666666667],[-110.49694444444445,37.49666666666667],[-110.33166666666666,37.46138888888889],[-110.33166666666666,37.46138888888889],[-110.33166666666666,37.46138888888889],[-110.33166666666666,37.46138888888889],[-109.72472222222223,37.32888888888889],[-109.72472222222223,37.32888888888889],[-109.38722222222223,37.25388888888889],[-109.38722222222223,37.25388888888889],[-109.38722222222223,37.25388888888889],[-109.05472222222222,37.17861111111111],[-108.8888888888889,37.14083333333333],[-108.8888888888889,37.14083333333333],[-108.7225,37.10277777777778],[-108.55611111111111,37.064166666666665],[-108.55611111111111,37.064166666666665],[-108.55611111111111,37.064166666666665],[-108.55611111111111,37.064166666666665],[-108.39166666666668,37.025555555555556],[-108.15861111111111,36.97083333333334],[-108.09388888888888,36.95583333333334],[-107.99277777777777,36.931666666666665],[-107.99277777777777,36.931666666666665],[-107.99277777777777,36.931666666666665],[-107.99277777777777,36.931666666666665],[-107.92694444444444,36.91611111111111],[-107.92694444444444,36.91611111111111],[-107.76277777777777,36.876666666666665],[-107.76277777777777,36.876666666666665],[-107.59694444444445,36.836666666666666],[-107.59694444444445,36.836666666666666],[-107.59694444444445,36.836666666666666],[-107.59694444444445,36.836666666666666],[-107.43388888888889,36.79722222222222],[-107.43388888888889,36.79722222222222],[-106.94027777777778,36.67583333333333],[-106.94027777777778,36.67583333333333],[-106.94027777777778,36.67583333333333],[-106.84388888888888,36.651666666666664],[-106.84388888888888,36.651666666666664],[-106.17861111111111,36.473888888888894],[-106.17861111111111,36.473888888888894],[-106.17861111111111,36.473888888888894],[-106.17861111111111,36.473888888888894],[-105.86444444444444,36.3825],[-105.7775,36.356944444444444],[-105.7775,36.356944444444444],[-105.7775,36.356944444444444],[-105.7038888888889,36.33527777777778],[-105.63,36.31333333333333],[-105.48416666666667,36.27027777777778],[-105.48416666666667,36.27027777777778],[-105.41166666666668,36.24861111111111],[-105.25166666666667,36.200833333333335],[-105.25166666666667,36.200833333333335],[-105.25166666666667,36.200833333333335],[-105.25166666666667,36.200833333333335],[-104.62083333333332,36.00972222222222],[-104.62083333333332,36.00972222222222],[-104.62083333333332,36.00972222222222],[-104.30555555555556,35.91277777777778],[-104.30555555555556,35.91277777777778],[-104.30555555555556,35.91277777777778],[-104.30555555555556,35.91277777777778],[-104.30555555555556,35.91277777777778],[-104.14583333333334,35.86333333333334],[-104.14583333333334,35.86333333333334],[-104.14583333333334,35.86333333333334],[-103.98944444444444,35.81444444444444],[-103.98944444444444,35.81444444444444],[-103.69527777777778,35.720555555555556],[-103.69527777777778,35.720555555555556],[-103.69527777777778,35.720555555555556],[-103.69527777777778,35.720555555555556],[-103.36555555555555,35.617222222222225],[-103.36555555555555,35.617222222222225],[-103.21000000000001,35.56722222222223],[-103.21000000000001,35.56722222222223],[-103.21000000000001,35.56722222222223],[-102.61694444444444,35.375],[-102.61694444444444,35.375],[-102.46361111111112,35.324444444444445],[-102.46361111111112,35.324444444444445],[-102.46361111111112,35.324444444444445],[-102.43083333333334,35.31361111111111],[-102.43083333333334,35.31361111111111],[-102.43083333333334,35.31361111111111],[-102.31055555555555,35.27388888888889],[-102.31055555555555,35.27388888888889],[-102.00583333333333,35.1725],[-102.00583333333333,35.1725],[-102.00583333333333,35.1725],[-101.97305555555556,35.16138888888889],[-101.85583333333332,35.12222222222222],[-101.85583333333332,35.12222222222222],[-101.82694444444444,35.112500000000004],[-101.70527777777778,35.07138888888889],[-101.70527777777778,35.07138888888889],[-101.52472222222222,35.01027777777778],[-101.52472222222222,35.01027777777778],[-101.52472222222222,35.01027777777778],[-101.52472222222222,35.01027777777778],[-101.40472222222223,34.96944444444445],[-101.09861111111111,34.864444444444445],[-101.09861111111111,34.864444444444445],[-100.94500000000001,34.81166666666666],[-100.79166666666667,34.75833333333333],[-100.79166666666667,34.75833333333333],[-100.76,34.74722222222222],[-100.76,34.74722222222222],[-100.76,34.74722222222222],[-100.63944444444445,34.70527777777778],[-100.63944444444445,34.70527777777778],[-100.63944444444445,34.70527777777778],[-100.15,34.533055555555556],[-100.15,34.533055555555556],[-100.15,34.533055555555556],[-100.15,34.533055555555556],[-100.00555555555556,34.481388888888894],[-99.99,34.475833333333334],[-99.99,34.475833333333334],[-99.85305555555556,34.426944444444445],[-99.85305555555556,34.426944444444445],[-99.71555555555555,34.37777777777778],[-99.71555555555555,34.37777777777778],[-99.68194444444445,34.36555555555556],[-99.68194444444445,34.36555555555556],[-99.68194444444445,34.36555555555556],[-99.57527777777777,34.32611111111112],[-99.57527777777777,34.32611111111112],[-99.57527777777777,34.32611111111112],[-99.14472222222223,34.12138888888889],[-99.14472222222223,34.12138888888889],[-99.14472222222223,34.12138888888889],[-99.14472222222223,34.12138888888889],[-99.14472222222223,34.12138888888889],[-98.70333333333333,33.90833333333333],[-98.70333333333333,33.90833333333333],[-98.70333333333333,33.90833333333333],[-98.56416666666667,33.840833333333336],[-98.56416666666667,33.840833333333336],[-98.56416666666667,33.840833333333336],[-97.91222222222223,33.51888888888889],[-97.91222222222223,33.51888888888889],[-97.91222222222223,33.51888888888889],[-97.91222222222223,33.51888888888889],[-97.91222222222223,33.51888888888889],[-97.67944444444444,33.40277777777778],[-97.63333333333334,33.38333333333333],[-97.63333333333334,33.38333333333333],[-97.55,33.31666666666667],[-97.55,33.31666666666667],[-97.49972222222222,33.26305555555555],[-97.49972222222222,33.26305555555555],[-97.49972222222222,33.26305555555555],[-97.48333333333333,33.25],[-97.41888888888889,33.193888888888885],[-97.41888888888889,33.193888888888885],[-97.18333333333334,32.983333333333334],[-97.18333333333334,32.983333333333334],[-97.16861111111112,32.93583333333333],[-97.16861111111112,32.93583333333333],[-97.16666666666667,32.916666666666664],[-97.16666666666667,32.916666666666664],[-97.16666666666667,32.916666666666664],[-97.16055555555556,32.79138888888889],[-97.16055555555556,32.79138888888889],[-97.16055555555556,32.79138888888889],[-97.16666666666667,32.766666666666666],[-97.16666666666667,32.766666666666666],[-97.16083333333334,32.721111111111114],[-97.16083333333334,32.721111111111114],[-97.16083333333334,32.721111111111114],[-97.05,32.65],[-97.05,32.65],[-97.05527777777777,32.78972222222222],[-97.05527777777777,32.78972222222222],[-97.05527777777777,32.78972222222222],[-97.05527777777777,32.78972222222222],[-97.05499999999999,32.87],[-97.05499999999999,32.87],[-97.05499999999999,32.87],[-97.05499999999999,32.87],[-97.05499999999999,32.87]],"type":"LineString"}
}
