{
  "id": 1981595303,
  "type": "Feature",
  "properties": {
    "geom:area": 0,
    "geom:bbox": "-123.166330,37.443540,-122.104450,38.454830",
    "geom:latitude": 37.84588929592584,
    "geom:longitude": -122.58209766129976,
    "src:alt_label": "swim-approach",
    "src:geom": "swim",
    "swim:elevations": [
      7437,
      7163,
      6959,
      6858,
      6610,
      6204,
      5987,
      5438,
      5334,
      5041,
      4713,
      4602,
      4278,
      4077,
      3566,
      3466,
      3414,
      3353,
      3357,
      3353,
      3241,
      3052,
      2839,
      2694,
      2563,
      2365,
      2168,
      2068,
      1868,
      1565,
      1451,
      1384,
      1217,
      1219,
      1094,
      963,
      635,
      360,
      233,
      120,
      151
    ],
    "swim:geom": "approach",
    "swim:timestamps": [
      1759754209,
      1759754243,
      1759754269,
      1759754283,
      1759754311,
      1759754360,
      1759754388,
      1759754455,
      1759754468,
      1759754502,
      1759754540,
      1759754552,
      1759754590,
      1759754612,
      1759754667,
      1759754683,
      1759754704,
      1759754755,
      1759754775,
      1759754814,
      1759754838,
      1759754866,
      1759754903,
      1759754926,
      1759754946,
      1759754979,
      1759755011,
      1759755030,
      1759755063,
      1759755114,
      1759755139,
      1759755153,
      1759755190,
      1759755213,
      1759755243,
      1759755271,
      1759755316,
      1759755352,
      1759755380,
      1759755402,
      1759755436
    ],
    "wof:geomhash": "df2729f3c4674ad04654cd1ccb412421",
    "wof:id": 1981595303,
    "wof:repo": "sfomuseum-data-flights-2025-10"
  },
  "bbox": [
    -123.16633,
    37.44354,
    -122.10445,
    38.45483
  ],
  "geometry": {"coordinates":[[-123.16633,38.45483],[-123.11739,38.40139],[-123.08064,38.36013],[-123.06173,38.33897],[-123.02319,38.29608],[-122.95602,38.2201],[-122.91969,38.17883],[-122.83268,38.08044],[-122.81634,38.0619],[-122.77299,38.01302],[-122.7264,37.9602],[-122.71299,37.94476],[-122.66711,37.89402],[-122.63885,37.86669],[-122.5662,37.79865],[-122.54566,37.77898],[-122.52019,37.75487],[-122.46279,37.70079],[-122.44257,37.68191],[-122.40515,37.64669],[-122.38372,37.62649],[-122.35993,37.60145],[-122.33811,37.5645],[-122.32558,37.54199],[-122.31308,37.52198],[-122.27797,37.49968],[-122.24107,37.48116],[-122.21959,37.47093],[-122.18295,37.45349],[-122.11976,37.44354],[-122.10445,37.4657],[-122.1085,37.47989],[-122.13579,37.51188],[-122.15582,37.5264],[-122.18744,37.5399],[-122.21532,37.55158],[-122.26047,37.57056],[-122.29384,37.58457],[-122.31741,37.59415],[-122.33547,37.60202],[-122.36288,37.61422]],"type":"LineString"}
}
