{
  "id": 1981763513,
  "type": "Feature",
  "properties": {
    "geom:area": 0,
    "geom:bbox": "-122.055833,37.500000,-77.600000,42.880833",
    "geom:latitude": 40.86626002186136,
    "geom:longitude": -99.65201674803629,
    "src:alt_label": "swim-path",
    "src:geom": "swim",
    "swim:altitudes": [
      "049",
      "049",
      "099",
      "118",
      "118",
      "118",
      "140",
      "140",
      "140",
      "151",
      "166",
      "195",
      "195",
      "210",
      "210",
      "210",
      "210",
      "210",
      "258",
      "297",
      "297",
      "300C",
      "300C",
      "300C",
      "300C",
      "300C",
      "300C",
      "300C",
      "300C",
      "300C",
      "300C",
      "300C",
      "300C",
      "300C",
      "300C",
      "300C",
      "300C",
      "300C",
      "300C",
      "300C",
      "300C",
      "300C",
      "300C",
      "300C",
      "300C",
      "300C",
      "300C",
      "300C",
      "300C",
      "300C",
      "300C",
      "300C",
      "300C",
      "300C",
      "300C",
      "300C",
      "300C",
      "300C",
      "300C",
      "300C",
      "300C",
      "300C",
      "300C",
      "300C",
      "300C",
      "300C",
      "300C",
      "300C",
      "300C",
      "300C",
      "300C",
      "300C",
      "300C",
      "300C",
      "300C",
      "300C",
      "300C",
      "300C",
      "300C",
      "300C",
      "300C",
      "300C",
      "300C",
      "300C",
      "300C",
      "300C",
      "300C",
      "300C",
      "300C",
      "300C",
      "300C",
      "300C",
      "300C",
      "300C",
      "300C",
      "300C",
      "300C",
      "300C",
      "300C",
      "300C",
      "300C",
      "300C",
      "300C",
      "300C",
      "300C",
      "300C",
      "300C",
      "300C",
      "300C",
      "300C",
      "300C",
      "300C",
      "300C",
      "300C",
      "300C",
      "300C",
      "300C",
      "300C",
      "300C",
      "300C",
      "300C",
      "300C",
      "300C",
      "300C",
      "300C",
      "300C",
      "300C",
      "300C",
      "300C",
      "300C",
      "300C",
      "300C",
      "300C",
      "300C",
      "300C",
      "300C",
      "300C",
      "300C",
      "300C",
      "300C",
      "300C",
      "300C",
      "300C",
      "300C",
      "300C",
      "300C",
      "300C",
      "300C",
      "300C",
      "300C",
      "300C",
      "300C",
      "300C",
      "300C",
      "300C",
      "300C",
      "300C",
      "300C",
      "300C",
      "300C",
      "300C",
      "300C",
      "300C",
      "300C",
      "300C",
      "300C",
      "300C",
      "320C",
      "320C",
      "320C",
      "320C",
      "320C",
      "320C",
      "320C",
      "320C",
      "320C",
      "320C",
      "320C",
      "320C",
      "320C",
      "320C",
      "320C",
      "320C",
      "320C",
      "320C",
      "320C",
      "320C",
      "320C",
      "320C",
      "320C",
      "320C",
      "320C",
      "320C",
      "320C",
      "320C",
      "320C",
      "320C",
      "320C",
      "320C",
      "320C",
      "320C",
      "320C",
      "320C",
      "320C",
      "320C",
      "320C",
      "320C",
      "320C",
      "320C",
      "320C",
      "320C",
      "320C",
      "320C",
      "320C",
      "320C",
      "320C",
      "320C",
      "320C",
      "320C",
      "320C",
      "320C",
      "320C",
      "320C",
      "320C",
      "320C",
      "320C",
      "320C",
      "320C",
      "320C",
      "320C",
      "320C",
      "320C",
      "320C",
      "320C",
      "320C",
      "320C",
      "320C",
      "320C",
      "320C",
      "320C",
      "320C",
      "320",
      "320",
      "328",
      "328",
      "328",
      "328",
      "343",
      "343",
      "343",
      "357",
      "357",
      "360C",
      "360C",
      "360C",
      "360C",
      "360C",
      "360C",
      "360C",
      "360C",
      "360C",
      "360C",
      "360C",
      "360C",
      "360C",
      "360C",
      "360",
      "360",
      "360",
      "360",
      "343",
      "343",
      "334",
      "334",
      "334",
      "325",
      "325",
      "325",
      "300C",
      "300C",
      "300C",
      "300C",
      "300C",
      "300C",
      "300C",
      "300C",
      "300C",
      "300C",
      "300C",
      "300C",
      "300C",
      "300C",
      "300C",
      "300C",
      "300C",
      "300C",
      "300C",
      "300C",
      "300C",
      "300C",
      "300C",
      "300C",
      "300C",
      "300C",
      "300C",
      "300C",
      "300C",
      "300C",
      "300C",
      "300C",
      "300C",
      "300C",
      "300C",
      "300C",
      "300C",
      "300C",
      "300C",
      "300C",
      "300C",
      "300C",
      "300C",
      "300C",
      "300C",
      "300C",
      "300C",
      "300C",
      "300C",
      "300C",
      "300C",
      "300C",
      "300C",
      "300C",
      "300C",
      "300C",
      "300C",
      "300C",
      "300C",
      "300C",
      "300C",
      "300C",
      "300C",
      "300C",
      "300C",
      "300C",
      "300C",
      "278",
      "278",
      "278",
      "260",
      "260",
      "260",
      "260",
      "260",
      "241",
      "241",
      "241",
      "167",
      "167",
      "167",
      "167",
      "167",
      "167",
      "088",
      "088",
      "088",
      "085",
      "085",
      "079",
      "070",
      "070",
      "070",
      "070",
      "055",
      "055",
      "055",
      "055",
      "055"
    ],
    "swim:geom": "path",
    "swim:speeds": [
      243,
      243,
      269,
      270,
      270,
      270,
      271,
      271,
      271,
      295,
      325,
      351,
      351,
      358,
      358,
      358,
      358,
      358,
      388,
      405,
      405,
      399,
      399,
      399,
      399,
      399,
      400,
      400,
      400,
      400,
      400,
      400,
      400,
      400,
      400,
      400,
      400,
      400,
      400,
      400,
      400,
      399,
      400,
      401,
      401,
      401,
      402,
      402,
      402,
      403,
      403,
      403,
      406,
      406,
      406,
      406,
      406,
      406,
      407,
      407,
      407,
      407,
      407,
      407,
      407,
      409,
      411,
      411,
      412,
      412,
      412,
      412,
      411,
      411,
      411,
      409,
      409,
      409,
      403,
      403,
      402,
      402,
      402,
      402,
      404,
      404,
      405,
      405,
      405,
      405,
      400,
      400,
      400,
      400,
      401,
      397,
      397,
      397,
      397,
      394,
      394,
      397,
      397,
      397,
      403,
      403,
      403,
      406,
      406,
      406,
      417,
      417,
      417,
      417,
      422,
      422,
      424,
      424,
      429,
      429,
      435,
      435,
      435,
      445,
      445,
      445,
      445,
      445,
      458,
      458,
      467,
      467,
      467,
      468,
      468,
      468,
      468,
      468,
      468,
      468,
      469,
      475,
      475,
      475,
      475,
      475,
      478,
      478,
      478,
      478,
      478,
      482,
      482,
      484,
      484,
      484,
      484,
      484,
      489,
      490,
      490,
      490,
      490,
      491,
      491,
      491,
      491,
      490,
      490,
      489,
      489,
      489,
      489,
      487,
      487,
      487,
      488,
      488,
      486,
      486,
      486,
      486,
      486,
      486,
      486,
      486,
      488,
      488,
      488,
      488,
      488,
      488,
      485,
      485,
      483,
      483,
      483,
      486,
      486,
      486,
      486,
      486,
      486,
      482,
      481,
      479,
      479,
      479,
      478,
      478,
      478,
      476,
      476,
      476,
      470,
      470,
      470,
      470,
      473,
      473,
      465,
      465,
      463,
      463,
      463,
      462,
      462,
      461,
      461,
      456,
      456,
      456,
      456,
      454,
      454,
      454,
      454,
      450,
      450,
      450,
      450,
      449,
      449,
      449,
      449,
      449,
      449,
      438,
      438,
      438,
      429,
      429,
      423,
      423,
      423,
      423,
      423,
      423,
      423,
      423,
      418,
      418,
      418,
      417,
      417,
      417,
      417,
      417,
      417,
      417,
      417,
      417,
      417,
      417,
      417,
      418,
      418,
      418,
      421,
      421,
      421,
      421,
      419,
      419,
      419,
      419,
      415,
      415,
      415,
      415,
      414,
      414,
      415,
      415,
      415,
      414,
      414,
      414,
      414,
      418,
      418,
      418,
      417,
      417,
      417,
      417,
      417,
      419,
      419,
      417,
      417,
      417,
      417,
      417,
      410,
      410,
      410,
      406,
      406,
      406,
      406,
      405,
      405,
      405,
      405,
      405,
      405,
      405,
      413,
      413,
      413,
      417,
      417,
      417,
      418,
      418,
      418,
      418,
      422,
      422,
      422,
      422,
      422,
      422,
      422,
      389,
      389,
      389,
      376,
      376,
      376,
      376,
      376,
      363,
      363,
      363,
      316,
      316,
      316,
      316,
      316,
      316,
      262,
      262,
      262,
      251,
      251,
      237,
      231,
      231,
      231,
      231,
      234,
      234,
      234,
      234,
      234
    ],
    "swim:timestamps": [
      1761388895,
      1761388895,
      1761389068,
      1761389128,
      1761389128,
      1761389128,
      1761389188,
      1761389188,
      1761389188,
      1761389248,
      1761389308,
      1761389428,
      1761389428,
      1761389488,
      1761389488,
      1761389488,
      1761389488,
      1761389488,
      1761389728,
      1761389968,
      1761389968,
      1761390149,
      1761390149,
      1761390149,
      1761390149,
      1761390149,
      1761390269,
      1761390269,
      1761390449,
      1761390449,
      1761390449,
      1761390689,
      1761390689,
      1761390749,
      1761390749,
      1761390749,
      1761390809,
      1761390929,
      1761390929,
      1761390929,
      1761390929,
      1761391050,
      1761391110,
      1761391170,
      1761391230,
      1761391230,
      1761391410,
      1761391410,
      1761391410,
      1761391470,
      1761391590,
      1761391590,
      1761391887,
      1761391887,
      1761391947,
      1761391947,
      1761391947,
      1761391947,
      1761392007,
      1761392187,
      1761392187,
      1761392187,
      1761392187,
      1761392187,
      1761392307,
      1761392548,
      1761392608,
      1761392608,
      1761392788,
      1761392788,
      1761392788,
      1761392788,
      1761392908,
      1761392908,
      1761392908,
      1761393088,
      1761393088,
      1761393088,
      1761393329,
      1761393329,
      1761393389,
      1761393389,
      1761393389,
      1761393389,
      1761393449,
      1761393449,
      1761393569,
      1761393569,
      1761393569,
      1761393569,
      1761393989,
      1761393989,
      1761393989,
      1761393989,
      1761394170,
      1761394486,
      1761394486,
      1761394486,
      1761394486,
      1761394542,
      1761394542,
      1761394662,
      1761394662,
      1761394662,
      1761394907,
      1761394907,
      1761394907,
      1761394963,
      1761394963,
      1761394963,
      1761395087,
      1761395087,
      1761395087,
      1761395087,
      1761395267,
      1761395267,
      1761395387,
      1761395387,
      1761395503,
      1761395503,
      1761395683,
      1761395683,
      1761395683,
      1761395864,
      1761395864,
      1761395864,
      1761395864,
      1761395864,
      1761396108,
      1761396108,
      1761396228,
      1761396228,
      1761396228,
      1761396288,
      1761396288,
      1761396288,
      1761396408,
      1761396408,
      1761396408,
      1761396528,
      1761396588,
      1761396769,
      1761396769,
      1761396769,
      1761396769,
      1761396769,
      1761396829,
      1761396829,
      1761396829,
      1761396829,
      1761396829,
      1761397429,
      1761397489,
      1761397550,
      1761397550,
      1761397550,
      1761397550,
      1761397550,
      1761397670,
      1761397790,
      1761397790,
      1761397790,
      1761397790,
      1761397915,
      1761397915,
      1761397915,
      1761397915,
      1761398150,
      1761398150,
      1761398210,
      1761398210,
      1761398210,
      1761398210,
      1761398281,
      1761398281,
      1761398281,
      1761398341,
      1761398341,
      1761398575,
      1761398575,
      1761398575,
      1761398635,
      1761398635,
      1761398635,
      1761398635,
      1761398635,
      1761398822,
      1761398822,
      1761398996,
      1761398996,
      1761398996,
      1761398996,
      1761399116,
      1761399116,
      1761399296,
      1761399296,
      1761399296,
      1761399303,
      1761399303,
      1761399422,
      1761399422,
      1761399422,
      1761399422,
      1761399476,
      1761399596,
      1761399716,
      1761399776,
      1761399776,
      1761399897,
      1761399897,
      1761399897,
      1761400077,
      1761400077,
      1761400077,
      1761400377,
      1761400377,
      1761400377,
      1761400377,
      1761400383,
      1761400383,
      1761400503,
      1761400503,
      1761400618,
      1761400618,
      1761400618,
      1761400678,
      1761400678,
      1761400978,
      1761400978,
      1761401098,
      1761401098,
      1761401104,
      1761401104,
      1761401158,
      1761401158,
      1761401158,
      1761401164,
      1761401338,
      1761401338,
      1761401344,
      1761401344,
      1761401519,
      1761401519,
      1761401579,
      1761401579,
      1761401579,
      1761401579,
      1761401639,
      1761401639,
      1761401639,
      1761401705,
      1761401705,
      1761401945,
      1761401945,
      1761401945,
      1761401945,
      1761401945,
      1761401945,
      1761401945,
      1761401945,
      1761402368,
      1761402368,
      1761402368,
      1761402428,
      1761402428,
      1761402428,
      1761402548,
      1761402548,
      1761402548,
      1761402548,
      1761402668,
      1761402668,
      1761402726,
      1761402726,
      1761402726,
      1761402786,
      1761402786,
      1761402786,
      1761403026,
      1761403026,
      1761403026,
      1761403026,
      1761403387,
      1761403387,
      1761403387,
      1761403387,
      1761403687,
      1761403747,
      1761403747,
      1761403747,
      1761403754,
      1761403754,
      1761403868,
      1761403868,
      1761403868,
      1761403874,
      1761403874,
      1761403874,
      1761403874,
      1761403994,
      1761403994,
      1761403994,
      1761404048,
      1761404048,
      1761404048,
      1761404108,
      1761404108,
      1761404114,
      1761404114,
      1761404294,
      1761404294,
      1761404294,
      1761404294,
      1761404294,
      1761404589,
      1761404589,
      1761404589,
      1761404709,
      1761404709,
      1761404709,
      1761404709,
      1761404769,
      1761404769,
      1761404769,
      1761404769,
      1761404895,
      1761404895,
      1761404895,
      1761405130,
      1761405130,
      1761405130,
      1761405250,
      1761405250,
      1761405250,
      1761405315,
      1761405315,
      1761405315,
      1761405315,
      1761405615,
      1761405615,
      1761405615,
      1761405615,
      1761405615,
      1761405615,
      1761405615,
      1761406096,
      1761406096,
      1761406096,
      1761406165,
      1761406165,
      1761406165,
      1761406165,
      1761406165,
      1761406216,
      1761406216,
      1761406216,
      1761406456,
      1761406456,
      1761406456,
      1761406456,
      1761406456,
      1761406456,
      1761406757,
      1761406757,
      1761406757,
      1761406771,
      1761406771,
      1761406817,
      1761406885,
      1761406885,
      1761406885,
      1761406885,
      1761406997,
      1761406997,
      1761406997,
      1761406997,
      1761406997
    ],
    "wof:geomhash": "e814b46a1c924e89265c2e01279c32e6",
    "wof:id": 1981763513,
    "wof:repo": "sfomuseum-data-flights-2025-10"
  },
  "bbox": [
    -122.05583333333333,
    37.5,
    -77.6,
    42.880833333333335
  ],
  "geometry": {"coordinates":[[-77.6,39.05],[-77.6,39.05],[-77.64444444444445,39.24888888888889],[-77.68222222222222,39.31777777777778],[-77.68222222222222,39.31777777777778],[-77.68222222222222,39.31777777777778],[-77.73055555555555,39.37722222222222],[-77.73055555555555,39.37722222222222],[-77.73055555555555,39.37722222222222],[-77.7875,39.447222222222216],[-77.85,39.52444444444444],[-78.07527777777777,39.60444444444445],[-78.07527777777777,39.60444444444445],[-78.19555555555556,39.64083333333333],[-78.19555555555556,39.64083333333333],[-78.19555555555556,39.64083333333333],[-78.19555555555556,39.64083333333333],[-78.19555555555556,39.64083333333333],[-78.69277777777778,39.79055555555556],[-79.23833333333333,39.95166666666667],[-79.23833333333333,39.95166666666667],[-79.61611111111111,40.10638888888889],[-79.61611111111111,40.10638888888889],[-79.61611111111111,40.10638888888889],[-79.61611111111111,40.10638888888889],[-79.61611111111111,40.10638888888889],[-79.85888888888888,40.230555555555554],[-79.85888888888888,40.230555555555554],[-80.22416666666666,40.41555555555556],[-80.22416666666666,40.41555555555556],[-80.22416666666666,40.41555555555556],[-80.71666666666667,40.66027777777778],[-80.71666666666667,40.66027777777778],[-80.85888888888888,40.702222222222225],[-80.85888888888888,40.702222222222225],[-80.85888888888888,40.702222222222225],[-80.99833333333333,40.73694444444445],[-81.27083333333333,40.80444444444444],[-81.27083333333333,40.80444444444444],[-81.27083333333333,40.80444444444444],[-81.27083333333333,40.80444444444444],[-81.55055555555555,40.87305555555555],[-81.69083333333333,40.90694444444444],[-81.83111111111111,40.94083333333333],[-81.97527777777778,40.97527777777778],[-81.97527777777778,40.97527777777778],[-82.40083333333334,41.07611111111112],[-82.40083333333334,41.07611111111112],[-82.40083333333334,41.07611111111112],[-82.54083333333332,41.10861111111111],[-82.82583333333334,41.17472222222222],[-82.82583333333334,41.17472222222222],[-83.52527777777777,41.33305555555556],[-83.52527777777777,41.33305555555556],[-83.66861111111112,41.365],[-83.66861111111112,41.365],[-83.66861111111112,41.365],[-83.66861111111112,41.365],[-83.81388888888888,41.39722222222222],[-84.24694444444445,41.49138888888889],[-84.24694444444445,41.49138888888889],[-84.24694444444445,41.49138888888889],[-84.24694444444445,41.49138888888889],[-84.24694444444445,41.49138888888889],[-84.5363888888889,41.55333333333333],[-85.11805555555554,41.67527777777777],[-85.26416666666667,41.70527777777778],[-85.26416666666667,41.70527777777778],[-85.72833333333334,41.79972222222222],[-85.72833333333334,41.79972222222222],[-85.72833333333334,41.79972222222222],[-85.72833333333334,41.79972222222222],[-86.02111111111111,41.85777777777778],[-86.02111111111111,41.85777777777778],[-86.02111111111111,41.85777777777778],[-86.46333333333334,41.94444444444444],[-86.46333333333334,41.94444444444444],[-86.46333333333334,41.94444444444444],[-87.05027777777778,42.05638888888888],[-87.05027777777778,42.05638888888888],[-87.19388888888889,42.08305555555556],[-87.19388888888889,42.08305555555556],[-87.19388888888889,42.08305555555556],[-87.19388888888889,42.08305555555556],[-87.34194444444444,42.11055555555556],[-87.34194444444444,42.11055555555556],[-87.63722222222223,42.16444444444444],[-87.63722222222223,42.16444444444444],[-87.63722222222223,42.16444444444444],[-87.63722222222223,42.16444444444444],[-88.65972222222223,42.31333333333333],[-88.65972222222223,42.31333333333333],[-88.65972222222223,42.31333333333333],[-88.65972222222223,42.31333333333333],[-89.1036111111111,42.368611111111115],[-89.88166666666666,42.46083333333333],[-89.88166666666666,42.46083333333333],[-89.88166666666666,42.46083333333333],[-89.88166666666666,42.46083333333333],[-90.02694444444444,42.47833333333333],[-90.02694444444444,42.47833333333333],[-90.32055555555556,42.51166666666666],[-90.32055555555556,42.51166666666666],[-90.32055555555556,42.51166666666666],[-90.91805555555555,42.57666666666667],[-90.91805555555555,42.57666666666667],[-90.91805555555555,42.57666666666667],[-91.07027777777778,42.5925],[-91.07027777777778,42.5925],[-91.07027777777778,42.5925],[-91.38444444444445,42.625],[-91.38444444444445,42.625],[-91.38444444444445,42.625],[-91.38444444444445,42.625],[-91.86749999999999,42.67333333333333],[-91.86749999999999,42.67333333333333],[-92.18666666666667,42.70388888888889],[-92.18666666666667,42.70388888888889],[-92.47722222222222,42.73111111111111],[-92.47722222222222,42.73111111111111],[-92.96638888888889,42.775],[-92.96638888888889,42.775],[-92.96638888888889,42.775],[-93.46611111111112,42.81777777777778],[-93.46611111111112,42.81777777777778],[-93.46611111111112,42.81777777777778],[-93.46611111111112,42.81777777777778],[-93.46611111111112,42.81777777777778],[-94.18805555555556,42.87555555555556],[-94.18805555555556,42.87555555555556],[-94.53805555555556,42.880833333333335],[-94.53805555555556,42.880833333333335],[-94.53805555555556,42.880833333333335],[-94.71333333333334,42.86361111111111],[-94.71333333333334,42.86361111111111],[-94.71333333333334,42.86361111111111],[-95.06638888888888,42.82777777777778],[-95.06638888888888,42.82777777777778],[-95.06638888888888,42.82777777777778],[-95.41611111111112,42.79138888888889],[-95.59055555555555,42.772777777777776],[-96.12194444444444,42.71472222222223],[-96.12194444444444,42.71472222222223],[-96.12194444444444,42.71472222222223],[-96.12194444444444,42.71472222222223],[-96.12194444444444,42.71472222222223],[-96.28472222222221,42.69611111111111],[-96.28472222222221,42.69611111111111],[-96.28472222222221,42.69611111111111],[-96.28472222222221,42.69611111111111],[-96.28472222222221,42.69611111111111],[-98.09166666666667,42.476111111111116],[-98.27111111111111,42.45277777777778],[-98.45,42.42916666666667],[-98.45,42.42916666666667],[-98.45,42.42916666666667],[-98.45,42.42916666666667],[-98.45,42.42916666666667],[-98.81138888888889,42.38027777777778],[-99.17361111111111,42.33027777777778],[-99.17361111111111,42.33027777777778],[-99.17361111111111,42.33027777777778],[-99.17361111111111,42.33027777777778],[-99.53138888888888,42.279444444444444],[-99.53138888888888,42.279444444444444],[-99.53138888888888,42.279444444444444],[-99.53138888888888,42.279444444444444],[-100.24916666666667,42.17388888888889],[-100.24916666666667,42.17388888888889],[-100.42361111111111,42.147777777777776],[-100.42361111111111,42.147777777777776],[-100.42361111111111,42.147777777777776],[-100.42361111111111,42.147777777777776],[-100.62694444444443,42.11472222222223],[-100.62694444444443,42.11472222222223],[-100.62694444444443,42.11472222222223],[-100.80777777777777,42.086666666666666],[-100.80777777777777,42.086666666666666],[-101.49583333333334,41.97916666666667],[-101.49583333333334,41.97916666666667],[-101.49583333333334,41.97916666666667],[-101.67055555555557,41.950833333333335],[-101.67055555555557,41.950833333333335],[-101.67055555555557,41.950833333333335],[-101.67055555555557,41.950833333333335],[-101.67055555555557,41.950833333333335],[-102.22555555555556,41.85722222222223],[-102.22555555555556,41.85722222222223],[-102.7575,41.76722222222222],[-102.7575,41.76722222222222],[-102.7575,41.76722222222222],[-102.7575,41.76722222222222],[-103.10749999999999,41.70583333333334],[-103.10749999999999,41.70583333333334],[-103.63055555555555,41.611666666666665],[-103.63055555555555,41.611666666666665],[-103.63055555555555,41.611666666666665],[-103.63138888888888,41.61083333333333],[-103.63138888888888,41.61083333333333],[-103.98055555555555,41.546388888888885],[-103.98055555555555,41.546388888888885],[-103.98055555555555,41.546388888888885],[-103.98055555555555,41.546388888888885],[-104.15166666666667,41.515],[-104.49694444444445,41.44972222222222],[-104.83972222222222,41.38361111111111],[-105.01277777777777,41.349722222222226],[-105.01277777777777,41.349722222222226],[-105.35305555555556,41.2825],[-105.35305555555556,41.2825],[-105.35305555555556,41.2825],[-105.86277777777777,41.17944444444444],[-105.86277777777777,41.17944444444444],[-105.86277777777777,41.17944444444444],[-106.69333333333334,41.00611111111111],[-106.69333333333334,41.00611111111111],[-106.69333333333334,41.00611111111111],[-106.69333333333334,41.00611111111111],[-106.69361111111111,41.00611111111111],[-106.69361111111111,41.00611111111111],[-107.02222222222223,40.93555555555555],[-107.02222222222223,40.93555555555555],[-107.34666666666666,40.865],[-107.34666666666666,40.865],[-107.34666666666666,40.865],[-107.50916666666667,40.82916666666667],[-107.50916666666667,40.82916666666667],[-108.31527777777778,40.64722222222222],[-108.31527777777778,40.64722222222222],[-108.63361111111112,40.573888888888895],[-108.63361111111112,40.573888888888895],[-108.6388888888889,40.57277777777778],[-108.6388888888889,40.57277777777778],[-108.78944444444444,40.5375],[-108.78944444444444,40.5375],[-108.78944444444444,40.5375],[-108.79694444444445,40.53583333333333],[-109.25638888888889,40.426944444444445],[-109.25638888888889,40.426944444444445],[-109.25638888888889,40.426944444444445],[-109.25638888888889,40.426944444444445],[-109.72055555555556,40.315],[-109.72055555555556,40.315],[-109.87472222222222,40.27722222222222],[-109.87472222222222,40.27722222222222],[-109.87472222222222,40.27722222222222],[-109.87472222222222,40.27722222222222],[-110.0275,40.239444444444445],[-110.0275,40.239444444444445],[-110.0275,40.239444444444445],[-110.20583333333333,40.19555555555555],[-110.20583333333333,40.19555555555555],[-110.78472222222221,40.04972222222222],[-110.78472222222221,40.04972222222222],[-110.78472222222221,40.04972222222222],[-110.78472222222221,40.04972222222222],[-110.78472222222221,40.04972222222222],[-110.78472222222221,40.04972222222222],[-110.78472222222221,40.04972222222222],[-110.78472222222221,40.04972222222222],[-111.77805555555555,39.79111111111111],[-111.77805555555555,39.79111111111111],[-111.77805555555555,39.79111111111111],[-111.92111111111112,39.75277777777778],[-111.92111111111112,39.75277777777778],[-111.92111111111112,39.75277777777778],[-112.20666666666666,39.67611111111111],[-112.20666666666666,39.67611111111111],[-112.20666666666666,39.67611111111111],[-112.20666666666666,39.67611111111111],[-112.48944444444444,39.599444444444444],[-112.48944444444444,39.599444444444444],[-112.63222222222221,39.56027777777778],[-112.63222222222221,39.56027777777778],[-112.63222222222221,39.56027777777778],[-112.77305555555556,39.52166666666667],[-112.77305555555556,39.52166666666667],[-112.77305555555556,39.52166666666667],[-113.3436111111111,39.36222222222222],[-113.3436111111111,39.36222222222222],[-113.3436111111111,39.36222222222222],[-113.3436111111111,39.36222222222222],[-114.20361111111112,39.13472222222222],[-114.20361111111112,39.13472222222222],[-114.20361111111112,39.13472222222222],[-114.20361111111112,39.13472222222222],[-114.90416666666667,38.95861111111111],[-115.04444444444444,38.922777777777775],[-115.04444444444444,38.922777777777775],[-115.04444444444444,38.922777777777775],[-115.04416666666667,38.92388888888889],[-115.04416666666667,38.92388888888889],[-115.32638888888889,38.85],[-115.32638888888889,38.85],[-115.32638888888889,38.85],[-115.32416666666666,38.85111111111111],[-115.32416666666666,38.85111111111111],[-115.32416666666666,38.85111111111111],[-115.32416666666666,38.85111111111111],[-115.61694444444444,38.77361111111111],[-115.61694444444444,38.77361111111111],[-115.61694444444444,38.77361111111111],[-115.76027777777777,38.736666666666665],[-115.76027777777777,38.736666666666665],[-115.76027777777777,38.736666666666665],[-115.90111111111112,38.69916666666666],[-115.90111111111112,38.69916666666666],[-115.90277777777779,38.69888888888889],[-115.90277777777779,38.69888888888889],[-116.32055555555556,38.58722222222222],[-116.32055555555556,38.58722222222222],[-116.32055555555556,38.58722222222222],[-116.32055555555556,38.58722222222222],[-116.32055555555556,38.58722222222222],[-117.00777777777778,38.39888888888889],[-117.00777777777778,38.39888888888889],[-117.00777777777778,38.39888888888889],[-117.27527777777777,38.32472222222223],[-117.27527777777777,38.32472222222223],[-117.27527777777777,38.32472222222223],[-117.27527777777777,38.32472222222223],[-117.4063888888889,38.28777777777778],[-117.4063888888889,38.28777777777778],[-117.4063888888889,38.28777777777778],[-117.4063888888889,38.28777777777778],[-117.67472222222223,38.212500000000006],[-117.67472222222223,38.212500000000006],[-117.67472222222223,38.212500000000006],[-118.24027777777778,38.111666666666665],[-118.24027777777778,38.111666666666665],[-118.24027777777778,38.111666666666665],[-118.52888888888889,38.05916666666666],[-118.52888888888889,38.05916666666666],[-118.52888888888889,38.05916666666666],[-118.67333333333333,38.0325],[-118.67333333333333,38.0325],[-118.67333333333333,38.0325],[-118.67333333333333,38.0325],[-119.42166666666667,37.89194444444444],[-119.42166666666667,37.89194444444444],[-119.42166666666667,37.89194444444444],[-119.42166666666667,37.89194444444444],[-119.42166666666667,37.89194444444444],[-119.42166666666667,37.89194444444444],[-119.42166666666667,37.89194444444444],[-120.53472222222221,37.68388888888889],[-120.53472222222221,37.68388888888889],[-120.53472222222221,37.68388888888889],[-120.68333333333334,37.666666666666664],[-120.68333333333334,37.666666666666664],[-120.68333333333334,37.666666666666664],[-120.68333333333334,37.666666666666664],[-120.68333333333334,37.666666666666664],[-120.79333333333334,37.65333333333333],[-120.79333333333334,37.65333333333333],[-120.79333333333334,37.65333333333333],[-121.2425,37.59527777777778],[-121.2425,37.59527777777778],[-121.2425,37.59527777777778],[-121.2425,37.59527777777778],[-121.2425,37.59527777777778],[-121.2425,37.59527777777778],[-121.73861111111111,37.52361111111111],[-121.73861111111111,37.52361111111111],[-121.73861111111111,37.52361111111111],[-121.76666666666667,37.516666666666666],[-121.76666666666667,37.516666666666666],[-121.81916666666666,37.50416666666667],[-121.91666666666667,37.5],[-121.91666666666667,37.5],[-121.91666666666667,37.5],[-121.91666666666667,37.5],[-122.05583333333333,37.516666666666666],[-122.05583333333333,37.516666666666666],[-122.05583333333333,37.516666666666666],[-122.05583333333333,37.516666666666666],[-122.05583333333333,37.516666666666666]],"type":"LineString"}
}
