{
  "id": 1981562917,
  "type": "Feature",
  "properties": {
    "geom:area": 0,
    "geom:bbox": "-123.472030,37.038690,-122.161860,37.608210",
    "geom:latitude": 37.299625795851526,
    "geom:longitude": -122.72284253933395,
    "src:alt_label": "swim-approach",
    "src:geom": "swim",
    "swim:elevations": [
      3962,
      3840,
      3749,
      3605,
      3337,
      3135,
      3047,
      3048,
      3048,
      3048,
      3048,
      3048,
      3048,
      3048,
      3048,
      3037,
      2803,
      2623,
      2548,
      2360,
      2283,
      2232,
      1998,
      1830,
      1830,
      1765,
      1473,
      1372,
      1221,
      1219,
      1191,
      932,
      851,
      853,
      625,
      614,
      441,
      377,
      224,
      90,
      57
    ],
    "swim:geom": "approach",
    "swim:timestamps": [
      1759414494,
      1759414514,
      1759414526,
      1759414542,
      1759414577,
      1759414601,
      1759414626,
      1759414676,
      1759414705,
      1759414718,
      1759414754,
      1759414778,
      1759414814,
      1759414856,
      1759414866,
      1759414898,
      1759414936,
      1759414965,
      1759414982,
      1759415011,
      1759415031,
      1759415046,
      1759415078,
      1759415123,
      1759415146,
      1759415167,
      1759415214,
      1759415229,
      1759415262,
      1759415286,
      1759415310,
      1759415349,
      1759415386,
      1759415400,
      1759415458,
      1759415462,
      1759415513,
      1759415530,
      1759415573,
      1759415607,
      1759415618
    ],
    "wof:geomhash": "9060d13d76cf96f83207839ec614af04",
    "wof:id": 1981562917,
    "wof:repo": "sfomuseum-data-flights-2025-10"
  },
  "bbox": [
    -123.47203,
    37.03869,
    -122.16186,
    37.60821
  ],
  "geometry": {"coordinates":[[-123.47203,37.03869],[-123.42875,37.05425],[-123.40464,37.06531],[-123.37119,37.07727],[-123.29831,37.10334],[-123.24857,37.12104],[-123.19841,37.13894],[-123.10595,37.17194],[-123.05215,37.19096],[-123.02893,37.19919],[-122.9637,37.22221],[-122.9187,37.2381],[-122.85111,37.2601],[-122.7698,37.27954],[-122.75112,37.2839],[-122.69202,37.29779],[-122.62791,37.31286],[-122.57987,37.32404],[-122.55285,37.33012],[-122.50637,37.34115],[-122.47565,37.34842],[-122.45424,37.35318],[-122.40591,37.36427],[-122.34311,37.37875],[-122.31066,37.38601],[-122.28159,37.39302],[-122.22381,37.40774],[-122.20608,37.4123],[-122.17987,37.43344],[-122.16753,37.45297],[-122.16186,37.47237],[-122.17254,37.50269],[-122.18296,37.53058],[-122.18923,37.5393],[-122.23558,37.55997],[-122.23781,37.561],[-122.27452,37.57648],[-122.28741,37.58199],[-122.31779,37.59468],[-122.34237,37.60501],[-122.34991,37.60821]],"type":"LineString"}
}
