{
  "id": 1981701241,
  "type": "Feature",
  "properties": {
    "geom:area": 0,
    "geom:bbox": "-122.344930,37.492470,-121.270110,37.608380",
    "geom:latitude": 37.544918022142184,
    "geom:longitude": -121.8120431054089,
    "src:alt_label": "swim-approach",
    "src:geom": "swim",
    "swim:elevations": [
      4575,
      4452,
      3973,
      3697,
      3425,
      3272,
      3172,
      2912,
      2767,
      2612,
      2485,
      2232,
      2181,
      2021,
      1942,
      1754,
      1467,
      1208,
      978,
      763,
      616,
      553,
      549,
      368,
      250,
      128,
      91
    ],
    "swim:geom": "approach",
    "swim:timestamps": [
      1760781982,
      1760781995,
      1760782037,
      1760782068,
      1760782099,
      1760782124,
      1760782150,
      1760782193,
      1760782213,
      1760782234,
      1760782265,
      1760782313,
      1760782320,
      1760782361,
      1760782393,
      1760782424,
      1760782461,
      1760782485,
      1760782514,
      1760782550,
      1760782583,
      1760782597,
      1760782621,
      1760782665,
      1760782700,
      1760782732,
      1760782742
    ],
    "wof:geomhash": "c728d19c46385000d855df22343dbbf2",
    "wof:id": 1981701241,
    "wof:repo": "sfomuseum-data-flights-2025-10"
  },
  "bbox": [
    -122.34493,
    37.49247,
    -121.27011,
    37.60838
  ],
  "geometry": {"coordinates":[[-121.27011,37.59161],[-121.29658,37.58826],[-121.38121,37.57903],[-121.44377,37.57183],[-121.5038,37.56488],[-121.55264,37.55912],[-121.59878,37.55373],[-121.67131,37.53945],[-121.70464,37.53144],[-121.73774,37.52347],[-121.78622,37.51193],[-121.8594,37.49464],[-121.86937,37.49247],[-121.93145,37.49249],[-121.98028,37.49407],[-122.02061,37.50553],[-122.06489,37.51968],[-122.09419,37.52912],[-122.12784,37.5401],[-122.16794,37.55304],[-122.20222,37.56423],[-122.21768,37.56914],[-122.24299,37.57735],[-122.28532,37.59018],[-122.31327,37.59847],[-122.3374,37.60557],[-122.34493,37.60838]],"type":"LineString"}
}
