{
  "id": 1981660765,
  "type": "Feature",
  "properties": {
    "geom:area": 0,
    "geom:bbox": "-123.502110,36.936440,-122.400720,37.666600",
    "geom:latitude": 37.37264168325137,
    "geom:longitude": -122.99497692503638,
    "src:alt_label": "swim-takeoff",
    "src:geom": "swim",
    "swim:elevations": [
      183,
      213,
      606,
      805,
      1084,
      1200,
      1406,
      1675,
      1874,
      2007,
      2149,
      2441,
      2689,
      3085,
      3148,
      3210,
      3306,
      3338,
      3391,
      3474,
      3639,
      4013,
      4315,
      4511,
      4644,
      4911,
      4984,
      5341,
      5600,
      5679,
      5706,
      5819,
      5974,
      6035,
      6157
    ],
    "swim:geom": "takeoff",
    "swim:timestamps": [
      1760391987,
      1760391990,
      1760392017,
      1760392035,
      1760392078,
      1760392099,
      1760392117,
      1760392137,
      1760392152,
      1760392166,
      1760392182,
      1760392211,
      1760392234,
      1760392286,
      1760392305,
      1760392323,
      1760392347,
      1760392351,
      1760392366,
      1760392384,
      1760392411,
      1760392460,
      1760392495,
      1760392524,
      1760392545,
      1760392584,
      1760392593,
      1760392645,
      1760392674,
      1760392686,
      1760392698,
      1760392710,
      1760392734,
      1760392758,
      1760392778
    ],
    "wof:geomhash": "69fa50bf76b4ef88b5da742425fa7699",
    "wof:id": 1981660765,
    "wof:repo": "sfomuseum-data-flights-2025-10"
  },
  "bbox": [
    -123.50211,
    36.93644,
    -122.40072,
    37.6666
  ],
  "geometry": {"coordinates":[[-122.40072,37.62919],[-122.40378,37.63044],[-122.42971,37.64186],[-122.44724,37.64986],[-122.49646,37.6666],[-122.526,37.66019],[-122.54787,37.64634],[-122.57445,37.62957],[-122.59447,37.6191],[-122.61299,37.60982],[-122.6362,37.59829],[-122.67665,37.57814],[-122.70869,37.5625],[-122.78385,37.52677],[-122.8117,37.51385],[-122.84008,37.5006],[-122.87978,37.48203],[-122.88707,37.47864],[-122.91155,37.46716],[-122.94296,37.45227],[-122.98934,37.42711],[-123.06498,37.36888],[-123.1172,37.32767],[-123.16276,37.29146],[-123.19403,37.26662],[-123.25501,37.2184],[-123.26899,37.20713],[-123.35176,37.14125],[-123.39592,37.10503],[-123.41178,37.08756],[-123.41975,37.07696],[-123.43948,37.05071],[-123.46478,37.01228],[-123.48603,36.97175],[-123.50211,36.93644]],"type":"LineString"}
}
