{
  "id": 1981720465,
  "type": "Feature",
  "properties": {
    "geom:area": 0,
    "geom:bbox": "-123.658889,37.472500,-122.115833,48.992778",
    "geom:latitude": 43.088362580413346,
    "geom:longitude": -123.26479646047768,
    "src:alt_label": "swim-path",
    "src:geom": "swim",
    "swim:altitudes": [
      "140",
      "140",
      "140",
      "140",
      "140",
      "140",
      "185",
      "185",
      "185",
      "185",
      "201",
      "201",
      "201",
      "267",
      "267",
      "267",
      "277",
      "277",
      "277",
      "295",
      "330",
      "330",
      "330",
      "330",
      "330",
      "330",
      "350C",
      "350C",
      "350C",
      "350C",
      "350C",
      "350C",
      "350C",
      "350C",
      "350C",
      "350C",
      "350C",
      "350C",
      "350C",
      "350C",
      "350C",
      "350C",
      "350C",
      "350C",
      "350C",
      "350C",
      "350C",
      "350C",
      "350C",
      "350C",
      "350C",
      "350C",
      "350C",
      "350C",
      "350C",
      "350C",
      "350C",
      "349C",
      "350C",
      "350C",
      "350C",
      "350C",
      "350C",
      "350C",
      "350C",
      "350C",
      "350C",
      "350C",
      "350C",
      "350C",
      "350C",
      "350C",
      "350C",
      "350C",
      "350C",
      "350C",
      "350C",
      "350C",
      "350C",
      "350C",
      "350C",
      "350C",
      "350C",
      "350C",
      "350C",
      "350C",
      "350C",
      "350C",
      "350",
      "350",
      "350",
      "350",
      "350",
      "350",
      "350",
      "350",
      "237",
      "237",
      "237",
      "237",
      "237",
      "237",
      "122",
      "122",
      "122",
      "122",
      "110",
      "110",
      "110",
      "110",
      "110",
      "071",
      "071",
      "071",
      "047",
      "047",
      "047",
      "047",
      "047",
      "047",
      "047",
      "047"
    ],
    "swim:geom": "path",
    "swim:speeds": [
      326,
      326,
      326,
      326,
      326,
      326,
      340,
      340,
      340,
      340,
      395,
      395,
      395,
      462,
      462,
      462,
      473,
      473,
      473,
      487,
      479,
      479,
      479,
      479,
      479,
      479,
      472,
      472,
      472,
      472,
      472,
      472,
      472,
      472,
      472,
      476,
      476,
      476,
      476,
      474,
      474,
      474,
      474,
      474,
      475,
      475,
      475,
      475,
      475,
      475,
      475,
      461,
      461,
      461,
      461,
      463,
      463,
      462,
      462,
      462,
      463,
      463,
      463,
      465,
      465,
      465,
      465,
      465,
      465,
      465,
      465,
      465,
      465,
      465,
      465,
      465,
      465,
      465,
      465,
      463,
      463,
      463,
      463,
      463,
      458,
      458,
      458,
      458,
      459,
      459,
      459,
      459,
      459,
      459,
      459,
      459,
      429,
      429,
      429,
      429,
      429,
      429,
      332,
      332,
      332,
      332,
      274,
      274,
      274,
      274,
      274,
      242,
      242,
      242,
      195,
      195,
      195,
      195,
      195,
      195,
      195,
      195
    ],
    "swim:timestamps": [
      1760980941,
      1760980941,
      1760980941,
      1760980941,
      1760980941,
      1760980941,
      1760981061,
      1760981061,
      1760981061,
      1760981061,
      1760981122,
      1760981122,
      1760981122,
      1760981422,
      1760981422,
      1760981422,
      1760981482,
      1760981482,
      1760981482,
      1760981602,
      1760981783,
      1760981783,
      1760981783,
      1760981783,
      1760981783,
      1760981783,
      1760982023,
      1760982023,
      1760982023,
      1760982023,
      1760982023,
      1760982023,
      1760982023,
      1760982023,
      1760982023,
      1760982744,
      1760982744,
      1760982744,
      1760982744,
      1760982981,
      1760982981,
      1760982981,
      1760982981,
      1760982981,
      1760983342,
      1760983342,
      1760983342,
      1760983342,
      1760983342,
      1760983342,
      1760983342,
      1760983732,
      1760983732,
      1760983732,
      1760983732,
      1760983943,
      1760983943,
      1760984063,
      1760984093,
      1760984093,
      1760984123,
      1760984123,
      1760984123,
      1760984333,
      1760984333,
      1760984333,
      1760984333,
      1760984333,
      1760984393,
      1760984393,
      1760984393,
      1760984604,
      1760984694,
      1760984694,
      1760984694,
      1760984754,
      1760984754,
      1760984784,
      1760984784,
      1760985114,
      1760985114,
      1760985114,
      1760985114,
      1760985114,
      1760985355,
      1760985355,
      1760985355,
      1760985355,
      1760985505,
      1760985505,
      1760985505,
      1760985505,
      1760985505,
      1760985505,
      1760985505,
      1760985505,
      1760986015,
      1760986015,
      1760986015,
      1760986015,
      1760986015,
      1760986015,
      1760986376,
      1760986376,
      1760986376,
      1760986376,
      1760986439,
      1760986439,
      1760986439,
      1760986439,
      1760986439,
      1760986736,
      1760986736,
      1760986736,
      1760986917,
      1760986917,
      1760986917,
      1760986917,
      1760986917,
      1760986917,
      1760986917,
      1760986917
    ],
    "wof:geomhash": "4ba2c071188ff262bdc7d0862da002bd",
    "wof:id": 1981720465,
    "wof:repo": "sfomuseum-data-flights-2025-10"
  },
  "bbox": [
    -123.6588888888889,
    37.472500000000004,
    -122.11583333333333,
    48.99277777777778
  ],
  "geometry": {"coordinates":[[-123.40222222222222,48.99277777777778],[-123.40222222222222,48.99277777777778],[-123.40222222222222,48.99277777777778],[-123.40222222222222,48.99277777777778],[-123.40222222222222,48.99277777777778],[-123.40222222222222,48.99277777777778],[-123.64611111111111,48.89944444444444],[-123.64611111111111,48.89944444444444],[-123.64611111111111,48.89944444444444],[-123.64611111111111,48.89944444444444],[-123.6588888888889,48.79722222222222],[-123.6588888888889,48.79722222222222],[-123.6588888888889,48.79722222222222],[-123.5675,48.18444444444444],[-123.5675,48.18444444444444],[-123.5675,48.18444444444444],[-123.5586111111111,48.05555555555555],[-123.5586111111111,48.05555555555555],[-123.5586111111111,48.05555555555555],[-123.54055555555556,47.79138888888889],[-123.51361111111112,47.39388888888889],[-123.51361111111112,47.39388888888889],[-123.51361111111112,47.39388888888889],[-123.51361111111112,47.39388888888889],[-123.51361111111112,47.39388888888889],[-123.51361111111112,47.39388888888889],[-123.4786111111111,46.86972222222222],[-123.4786111111111,46.86972222222222],[-123.4786111111111,46.86972222222222],[-123.4786111111111,46.86972222222222],[-123.4786111111111,46.86972222222222],[-123.4786111111111,46.86972222222222],[-123.4786111111111,46.86972222222222],[-123.4786111111111,46.86972222222222],[-123.4786111111111,46.86972222222222],[-123.3761111111111,45.27166666666667],[-123.3761111111111,45.27166666666667],[-123.3761111111111,45.27166666666667],[-123.3761111111111,45.27166666666667],[-123.345,44.763333333333335],[-123.345,44.763333333333335],[-123.345,44.763333333333335],[-123.345,44.763333333333335],[-123.345,44.763333333333335],[-123.30749999999999,43.97],[-123.30749999999999,43.97],[-123.30749999999999,43.97],[-123.30749999999999,43.97],[-123.30749999999999,43.97],[-123.30749999999999,43.97],[-123.30749999999999,43.97],[-123.27055555555556,43.111111111111114],[-123.27055555555556,43.111111111111114],[-123.27055555555556,43.111111111111114],[-123.27055555555556,43.111111111111114],[-123.25722222222223,42.67444444444444],[-123.25722222222223,42.67444444444444],[-123.24777777777778,42.418055555555554],[-123.24416666666667,42.34111111111111],[-123.24416666666667,42.34111111111111],[-123.24305555555556,42.288888888888884],[-123.24305555555556,42.288888888888884],[-123.24305555555556,42.288888888888884],[-123.22611111111111,41.828611111111115],[-123.22611111111111,41.828611111111115],[-123.22611111111111,41.828611111111115],[-123.22611111111111,41.828611111111115],[-123.22611111111111,41.828611111111115],[-123.2213888888889,41.69888888888889],[-123.2213888888889,41.69888888888889],[-123.2213888888889,41.69888888888889],[-123.2063888888889,41.24666666666667],[-123.20111111111112,41.03972222222222],[-123.20111111111112,41.03972222222222],[-123.20111111111112,41.03972222222222],[-123.19805555555556,40.91083333333333],[-123.19805555555556,40.91083333333333],[-123.19666666666667,40.85888888888889],[-123.19666666666667,40.85888888888889],[-123.2175,40.147777777777776],[-123.2175,40.147777777777776],[-123.2175,40.147777777777776],[-123.2175,40.147777777777776],[-123.2175,40.147777777777776],[-123.48,39.696666666666665],[-123.48,39.696666666666665],[-123.48,39.696666666666665],[-123.48,39.696666666666665],[-123.42472222222223,39.373333333333335],[-123.42472222222223,39.373333333333335],[-123.42472222222223,39.373333333333335],[-123.42472222222223,39.373333333333335],[-123.42472222222223,39.373333333333335],[-123.42472222222223,39.373333333333335],[-123.42472222222223,39.373333333333335],[-123.42472222222223,39.373333333333335],[-122.87472222222222,38.414722222222224],[-122.87472222222222,38.414722222222224],[-122.87472222222222,38.414722222222224],[-122.87472222222222,38.414722222222224],[-122.87472222222222,38.414722222222224],[-122.87472222222222,38.414722222222224],[-122.60388888888889,37.83444444444444],[-122.60388888888889,37.83444444444444],[-122.60388888888889,37.83444444444444],[-122.60388888888889,37.83444444444444],[-122.53333333333333,37.766666666666666],[-122.53333333333333,37.766666666666666],[-122.53333333333333,37.766666666666666],[-122.53333333333333,37.766666666666666],[-122.53333333333333,37.766666666666666],[-122.29555555555555,37.489444444444445],[-122.29555555555555,37.489444444444445],[-122.29555555555555,37.489444444444445],[-122.11583333333333,37.472500000000004],[-122.11583333333333,37.472500000000004],[-122.11583333333333,37.472500000000004],[-122.11583333333333,37.472500000000004],[-122.11583333333333,37.472500000000004],[-122.11583333333333,37.472500000000004],[-122.11583333333333,37.472500000000004],[-122.11583333333333,37.472500000000004]],"type":"LineString"}
}
