{
  "id": 1981806781,
  "type": "Feature",
  "properties": {
    "geom:area": 0,
    "geom:bbox": "-122.533333,33.277222,-112.021111,37.703611",
    "geom:latitude": 34.88231163107056,
    "geom:longitude": -117.62333125485006,
    "src:alt_label": "swim-path",
    "src:geom": "swim",
    "swim:altitudes": [
      "018",
      "018",
      "018",
      "018",
      "018",
      "069",
      "069",
      "069",
      "069",
      "069",
      "084",
      "084",
      "140",
      "140",
      "140",
      "140",
      "140",
      "180",
      "180",
      "180",
      "180",
      "180",
      "180",
      "180",
      "180",
      "180",
      "298",
      "298",
      "298",
      "298",
      "298",
      "298",
      "298",
      "298",
      "325",
      "325",
      "325",
      "325",
      "350C",
      "350C",
      "350C",
      "350C",
      "350C",
      "350C",
      "350C",
      "350C",
      "350C",
      "350C",
      "350C",
      "350C",
      "350C",
      "350C",
      "350C",
      "350C",
      "350C",
      "350C",
      "350C",
      "350C",
      "350C",
      "350C",
      "350C",
      "350C",
      "350C",
      "350C",
      "350C",
      "350C",
      "350C",
      "350C",
      "350C",
      "350C",
      "350C",
      "350C",
      "350C",
      "350C",
      "350C",
      "350C",
      "350C",
      "350C",
      "350C",
      "350C",
      "350C",
      "350C",
      "350C",
      "350C",
      "350C",
      "350C",
      "350C",
      "350C",
      "350C",
      "350C",
      "350C",
      "350C",
      "350C",
      "350C",
      "350C",
      "350C",
      "350C",
      "350C",
      "350C",
      "350C",
      "350C",
      "350C",
      "350",
      "350",
      "345",
      "263",
      "263",
      "263",
      "263",
      "263",
      "263",
      "263",
      "263",
      "235",
      "235",
      "235",
      "235",
      "215",
      "215",
      "215",
      "215",
      "163",
      "129",
      "129",
      "129",
      "129",
      "129",
      "129",
      "129",
      "129",
      "122",
      "122",
      "122",
      "072",
      "072",
      "067",
      "067",
      "067",
      "060",
      "060",
      "060",
      "060",
      "060",
      "031",
      "031",
      "031",
      "031",
      "031",
      "031",
      "031",
      "027",
      "011",
      "011",
      "011",
      "011",
      "011",
      "011",
      "011",
      "011",
      "011"
    ],
    "swim:geom": "path",
    "swim:speeds": [
      172,
      172,
      172,
      172,
      172,
      269,
      269,
      269,
      269,
      269,
      285,
      285,
      337,
      337,
      337,
      337,
      337,
      362,
      362,
      362,
      362,
      362,
      362,
      362,
      362,
      362,
      481,
      481,
      481,
      481,
      481,
      481,
      481,
      481,
      490,
      490,
      490,
      490,
      480,
      480,
      480,
      480,
      480,
      480,
      480,
      480,
      479,
      479,
      479,
      479,
      479,
      481,
      481,
      481,
      481,
      481,
      481,
      481,
      481,
      481,
      481,
      481,
      484,
      484,
      484,
      484,
      484,
      486,
      486,
      486,
      486,
      486,
      486,
      486,
      486,
      487,
      487,
      487,
      487,
      487,
      487,
      487,
      487,
      487,
      487,
      486,
      486,
      486,
      486,
      486,
      486,
      487,
      487,
      487,
      487,
      487,
      487,
      488,
      488,
      488,
      488,
      488,
      489,
      489,
      489,
      426,
      426,
      426,
      426,
      426,
      426,
      426,
      426,
      404,
      404,
      404,
      404,
      385,
      385,
      385,
      385,
      336,
      331,
      331,
      331,
      331,
      331,
      331,
      331,
      331,
      328,
      328,
      328,
      241,
      241,
      235,
      235,
      235,
      210,
      210,
      210,
      210,
      210,
      185,
      185,
      185,
      185,
      185,
      185,
      185,
      172,
      139,
      139,
      139,
      139,
      139,
      139,
      139,
      139,
      139
    ],
    "swim:timestamps": [
      1761840458,
      1761840458,
      1761840458,
      1761840458,
      1761840458,
      1761840578,
      1761840578,
      1761840578,
      1761840578,
      1761840578,
      1761840604,
      1761840604,
      1761840758,
      1761840758,
      1761840758,
      1761840758,
      1761840758,
      1761840878,
      1761840878,
      1761840878,
      1761840878,
      1761840878,
      1761840878,
      1761840878,
      1761840878,
      1761840878,
      1761841474,
      1761841474,
      1761841474,
      1761841474,
      1761841474,
      1761841474,
      1761841474,
      1761841474,
      1761841594,
      1761841594,
      1761841594,
      1761841594,
      1761841895,
      1761841895,
      1761841895,
      1761841895,
      1761841895,
      1761841895,
      1761841895,
      1761841895,
      1761842315,
      1761842315,
      1761842315,
      1761842315,
      1761842315,
      1761842435,
      1761842435,
      1761842435,
      1761842556,
      1761842556,
      1761842556,
      1761842556,
      1761842556,
      1761842556,
      1761842556,
      1761842556,
      1761842916,
      1761842916,
      1761842916,
      1761842916,
      1761842916,
      1761843217,
      1761843217,
      1761843217,
      1761843217,
      1761843217,
      1761843217,
      1761843217,
      1761843217,
      1761843457,
      1761843457,
      1761843457,
      1761843457,
      1761843457,
      1761843517,
      1761843517,
      1761843517,
      1761843517,
      1761843517,
      1761843577,
      1761843697,
      1761843697,
      1761843697,
      1761843697,
      1761843697,
      1761843938,
      1761843938,
      1761843938,
      1761843938,
      1761843938,
      1761843938,
      1761843998,
      1761843998,
      1761844049,
      1761844049,
      1761844049,
      1761844169,
      1761844169,
      1761844238,
      1761844478,
      1761844478,
      1761844478,
      1761844478,
      1761844478,
      1761844478,
      1761844478,
      1761844478,
      1761844599,
      1761844599,
      1761844599,
      1761844599,
      1761844719,
      1761844719,
      1761844719,
      1761844719,
      1761844959,
      1761845070,
      1761845070,
      1761845070,
      1761845070,
      1761845070,
      1761845070,
      1761845070,
      1761845070,
      1761845096,
      1761845096,
      1761845096,
      1761845431,
      1761845431,
      1761845450,
      1761845450,
      1761845450,
      1761845516,
      1761845516,
      1761845516,
      1761845516,
      1761845516,
      1761845696,
      1761845696,
      1761845696,
      1761845696,
      1761845696,
      1761845696,
      1761845696,
      1761845731,
      1761845852,
      1761845852,
      1761845852,
      1761845852,
      1761845852,
      1761845852,
      1761845852,
      1761845852,
      1761845852
    ],
    "wof:geomhash": "7b4905fd5bfbb94f02fcfb3c616fb83b",
    "wof:id": 1981806781,
    "wof:repo": "sfomuseum-data-flights-2025-10"
  },
  "bbox": [
    -122.53333333333333,
    33.27722222222222,
    -112.02111111111111,
    37.703611111111115
  ],
  "geometry": {"coordinates":[[-122.36277777777777,37.66444444444444],[-122.36277777777777,37.66444444444444],[-122.36277777777777,37.66444444444444],[-122.36277777777777,37.66444444444444],[-122.36277777777777,37.66444444444444],[-122.49833333333333,37.703611111111115],[-122.49833333333333,37.703611111111115],[-122.49833333333333,37.703611111111115],[-122.49833333333333,37.703611111111115],[-122.49833333333333,37.703611111111115],[-122.53333333333333,37.666666666666664],[-122.53333333333333,37.666666666666664],[-122.48222222222222,37.49194444444444],[-122.48222222222222,37.49194444444444],[-122.48222222222222,37.49194444444444],[-122.48222222222222,37.49194444444444],[-122.48222222222222,37.49194444444444],[-122.27972222222222,37.38138888888889],[-122.27972222222222,37.38138888888889],[-122.27972222222222,37.38138888888889],[-122.27972222222222,37.38138888888889],[-122.27972222222222,37.38138888888889],[-122.27972222222222,37.38138888888889],[-122.27972222222222,37.38138888888889],[-122.27972222222222,37.38138888888889],[-122.27972222222222,37.38138888888889],[-121.17694444444444,36.64],[-121.17694444444444,36.64],[-121.17694444444444,36.64],[-121.17694444444444,36.64],[-121.17694444444444,36.64],[-121.17694444444444,36.64],[-121.17694444444444,36.64],[-121.17694444444444,36.64],[-120.88583333333334,36.44611111111111],[-120.88583333333334,36.44611111111111],[-120.88583333333334,36.44611111111111],[-120.88583333333334,36.44611111111111],[-120.2761111111111,36.035555555555554],[-120.2761111111111,36.035555555555554],[-120.2761111111111,36.035555555555554],[-120.2761111111111,36.035555555555554],[-120.2761111111111,36.035555555555554],[-120.2761111111111,36.035555555555554],[-120.2761111111111,36.035555555555554],[-120.2761111111111,36.035555555555554],[-119.40277777777779,35.425],[-119.40277777777779,35.425],[-119.40277777777779,35.425],[-119.40277777777779,35.425],[-119.40277777777779,35.425],[-119.155,35.2475],[-119.155,35.2475],[-119.155,35.2475],[-118.91055555555556,35.07138888888889],[-118.91055555555556,35.07138888888889],[-118.91055555555556,35.07138888888889],[-118.91055555555556,35.07138888888889],[-118.91055555555556,35.07138888888889],[-118.91055555555556,35.07138888888889],[-118.91055555555556,35.07138888888889],[-118.91055555555556,35.07138888888889],[-118.16111111111111,34.52305555555555],[-118.16111111111111,34.52305555555555],[-118.16111111111111,34.52305555555555],[-118.16111111111111,34.52305555555555],[-118.16111111111111,34.52305555555555],[-117.41000000000001,34.27444444444444],[-117.41000000000001,34.27444444444444],[-117.41000000000001,34.27444444444444],[-117.41000000000001,34.27444444444444],[-117.41000000000001,34.27444444444444],[-117.41000000000001,34.27444444444444],[-117.41000000000001,34.27444444444444],[-117.41000000000001,34.27444444444444],[-116.79138888888889,34.12222222222222],[-116.79138888888889,34.12222222222222],[-116.79138888888889,34.12222222222222],[-116.79138888888889,34.12222222222222],[-116.79138888888889,34.12222222222222],[-116.64916666666667,34.086666666666666],[-116.64916666666667,34.086666666666666],[-116.64916666666667,34.086666666666666],[-116.64916666666667,34.086666666666666],[-116.64916666666667,34.086666666666666],[-116.49222222222222,34.04722222222222],[-116.17972222222222,33.967777777777776],[-116.17972222222222,33.967777777777776],[-116.17972222222222,33.967777777777776],[-116.17972222222222,33.967777777777776],[-116.17972222222222,33.967777777777776],[-115.55611111111111,33.80694444444444],[-115.55611111111111,33.80694444444444],[-115.55611111111111,33.80694444444444],[-115.55611111111111,33.80694444444444],[-115.55611111111111,33.80694444444444],[-115.55611111111111,33.80694444444444],[-115.40111111111112,33.76638888888889],[-115.40111111111112,33.76638888888889],[-115.28,33.73277777777778],[-115.28,33.73277777777778],[-115.28,33.73277777777778],[-114.94277777777778,33.64472222222222],[-114.94277777777778,33.64472222222222],[-114.77777777777777,33.60055555555556],[-114.15555555555557,33.477222222222224],[-114.15555555555557,33.477222222222224],[-114.15555555555557,33.477222222222224],[-114.15555555555557,33.477222222222224],[-114.15555555555557,33.477222222222224],[-114.15555555555557,33.477222222222224],[-114.15555555555557,33.477222222222224],[-114.15555555555557,33.477222222222224],[-113.89444444444445,33.42527777777777],[-113.89444444444445,33.42527777777777],[-113.89444444444445,33.42527777777777],[-113.89444444444445,33.42527777777777],[-113.64555555555556,33.375],[-113.64555555555556,33.375],[-113.64555555555556,33.375],[-113.64555555555556,33.375],[-113.18111111111112,33.29055555555556],[-112.96666666666667,33.27722222222222],[-112.96666666666667,33.27722222222222],[-112.96666666666667,33.27722222222222],[-112.96666666666667,33.27722222222222],[-112.96666666666667,33.27722222222222],[-112.96666666666667,33.27722222222222],[-112.96666666666667,33.27722222222222],[-112.96666666666667,33.27722222222222],[-112.91666666666667,33.28333333333333],[-112.91666666666667,33.28333333333333],[-112.91666666666667,33.28333333333333],[-112.4588888888889,33.39611111111111],[-112.4588888888889,33.39611111111111],[-112.41666666666667,33.4],[-112.41666666666667,33.4],[-112.41666666666667,33.4],[-112.33333333333333,33.416666666666664],[-112.33333333333333,33.416666666666664],[-112.33333333333333,33.416666666666664],[-112.33333333333333,33.416666666666664],[-112.33333333333333,33.416666666666664],[-112.15,33.43333333333333],[-112.15,33.43333333333333],[-112.15,33.43333333333333],[-112.15,33.43333333333333],[-112.15,33.43333333333333],[-112.15,33.43333333333333],[-112.15,33.43333333333333],[-112.12222222222222,33.44083333333333],[-112.02111111111111,33.44083333333333],[-112.02111111111111,33.44083333333333],[-112.02111111111111,33.44083333333333],[-112.02111111111111,33.44083333333333],[-112.02111111111111,33.44083333333333],[-112.02111111111111,33.44083333333333],[-112.02111111111111,33.44083333333333],[-112.02111111111111,33.44083333333333],[-112.02111111111111,33.44083333333333]],"type":"LineString"}
}
