{
  "id": 1981693921,
  "type": "Feature",
  "properties": {
    "geom:area": 0,
    "geom:bbox": "-122.749830,37.557700,-122.086960,38.489370",
    "geom:latitude": 37.90245291721144,
    "geom:longitude": -122.47912391272135,
    "src:alt_label": "swim-approach",
    "src:geom": "swim",
    "swim:elevations": [
      7919,
      7665,
      7469,
      7105,
      6962,
      6440,
      6175,
      5672,
      5538,
      5122,
      4815,
      4522,
      4451,
      4450,
      4369,
      4297,
      4145,
      4086,
      3889,
      3619,
      3442,
      3272,
      3107,
      3036,
      3003,
      2612,
      2374,
      2108,
      1829,
      1808,
      1731,
      1505,
      1430,
      1249,
      1219,
      958,
      936,
      659,
      529,
      425,
      265,
      103,
      71,
      0
    ],
    "swim:geom": "approach",
    "swim:timestamps": [
      1760700449,
      1760700477,
      1760700502,
      1760700534,
      1760700549,
      1760700595,
      1760700613,
      1760700658,
      1760700669,
      1760700714,
      1760700743,
      1760700772,
      1760700804,
      1760700810,
      1760700838,
      1760700860,
      1760700894,
      1760700907,
      1760700936,
      1760700971,
      1760700995,
      1760701024,
      1760701063,
      1760701078,
      1760701084,
      1760701135,
      1760701159,
      1760701186,
      1760701227,
      1760701255,
      1760701272,
      1760701315,
      1760701326,
      1760701368,
      1760701388,
      1760701438,
      1760701445,
      1760701495,
      1760701515,
      1760701536,
      1760701570,
      1760701616,
      1760701629,
      1760701650
    ],
    "wof:geomhash": "9e9935465dbc05c23341a1b3a473c114",
    "wof:id": 1981693921,
    "wof:repo": "sfomuseum-data-flights-2025-10"
  },
  "bbox": [
    -122.74983,
    37.5577,
    -122.08696,
    38.48937
  ],
  "geometry": {"coordinates":[[-122.49596,38.48937],[-122.54275,38.44406],[-122.58208,38.40496],[-122.63313,38.35542],[-122.65567,38.33348],[-122.72608,38.26477],[-122.74983,38.23417],[-122.74567,38.1501],[-122.73961,38.12965],[-122.71616,38.04855],[-122.70179,37.99838],[-122.68708,37.94693],[-122.66718,37.89626],[-122.66172,37.88972],[-122.62847,37.85761],[-122.60372,37.83438],[-122.56741,37.80006],[-122.55376,37.78695],[-122.52454,37.75913],[-122.48778,37.72487],[-122.45522,37.71036],[-122.41495,37.6982],[-122.36402,37.68369],[-122.34609,37.67825],[-122.33997,37.67641],[-122.28125,37.65831],[-122.25465,37.65145],[-122.22441,37.64369],[-122.17925,37.63149],[-122.14765,37.62262],[-122.12803,37.61714],[-122.08801,37.59611],[-122.08696,37.58566],[-122.11767,37.5577],[-122.13938,37.5603],[-122.19045,37.5697],[-122.19763,37.57104],[-122.24519,37.57964],[-122.26359,37.58275],[-122.28091,37.58612],[-122.3062,37.59543],[-122.33872,37.60633],[-122.34764,37.6097],[-122.36205,37.61579]],"type":"LineString"}
}
