{
  "id": 1981596305,
  "type": "Feature",
  "properties": {
    "geom:area": 0,
    "geom:bbox": "-122.356760,37.491320,-121.258310,37.613450",
    "geom:latitude": 37.542490548243,
    "geom:longitude": -121.81438417772046,
    "src:alt_label": "swim-approach",
    "src:geom": "swim",
    "swim:elevations": [
      4563,
      4310,
      3974,
      3674,
      3359,
      3213,
      3112,
      2890,
      2538,
      2478,
      2415,
      2413,
      2377,
      2130,
      2057,
      1870,
      1829,
      1823,
      1684,
      1270,
      1145,
      890,
      719,
      650,
      628,
      497,
      303,
      188,
      145,
      3
    ],
    "swim:geom": "approach",
    "swim:timestamps": [
      1759795317,
      1759795343,
      1759795376,
      1759795407,
      1759795438,
      1759795459,
      1759795482,
      1759795521,
      1759795557,
      1759795565,
      1759795592,
      1759795613,
      1759795622,
      1759795672,
      1759795684,
      1759795714,
      1759795762,
      1759795783,
      1759795802,
      1759795850,
      1759795868,
      1759795915,
      1759795947,
      1759795963,
      1759795966,
      1759795990,
      1759796035,
      1759796063,
      1759796080,
      1759796111
    ],
    "wof:geomhash": "9671bf11387524d60c2d38f0205fc5ac",
    "wof:id": 1981596305,
    "wof:repo": "sfomuseum-data-flights-2025-10"
  },
  "bbox": [
    -122.35676,
    37.49132,
    -121.25831,
    37.61345
  ],
  "geometry": {"coordinates":[[-121.25831,37.59338],[-121.31372,37.58617],[-121.38298,37.57861],[-121.44509,37.57164],[-121.5068,37.56459],[-121.54758,37.55981],[-121.59029,37.55482],[-121.65565,37.54363],[-121.71495,37.52909],[-121.72826,37.52591],[-121.76773,37.51651],[-121.79624,37.50982],[-121.80831,37.5069],[-121.87406,37.49168],[-121.89073,37.49132],[-121.93218,37.49414],[-121.99831,37.49818],[-122.02738,37.49985],[-122.05412,37.50142],[-122.11683,37.51274],[-122.13779,37.52127],[-122.18815,37.54238],[-122.21958,37.55566],[-122.23503,37.56223],[-122.23801,37.56348],[-122.26193,37.57353],[-122.30328,37.59089],[-122.32437,37.59979],[-122.33624,37.60474],[-122.35676,37.61345]],"type":"LineString"}
}
