{
  "id": 1981793255,
  "type": "Feature",
  "properties": {
    "geom:area": 0,
    "geom:bbox": "-122.380000,35.880000,-78.790000,40.140000",
    "geom:latitude": 38.78740291556582,
    "geom:longitude": -100.2232339823366,
    "src:alt_label": "swim-route",
    "src:geom": "swim",
    "swim:geom": "route",
    "wof:geomhash": "667829d721d00c6e7371da489d41bf44",
    "wof:id": 1981793255,
    "wof:repo": "sfomuseum-data-flights-2025-10"
  },
  "bbox": [
    -122.38,
    35.88,
    -78.79,
    40.14
  ],
  "geometry": {"coordinates":[[-122.38,37.62],[-122.28,37.68],[-122.27,37.69],[-122.27,37.69],[-122.21,37.72],[-122.2,37.72],[-122.2,37.73],[-122.18,37.74],[-122.17,37.74],[-122.16,37.75],[-122.11,37.77],[-122.1,37.78],[-122,37.83],[-121.94,37.85],[-121.77,37.92],[-121.75,37.93],[-121.6,37.99],[-121.45,38.04],[-121.41,38.06],[-121.35,38.09],[-121.24,38.13],[-121.21,38.14],[-121.14,38.16],[-121.12,38.17],[-121.04,38.21],[-120.93,38.22],[-120.84,38.23],[-120.75,38.25],[-120.66,38.26],[-120.21,38.32],[-119.99,38.35],[-119.22,38.45],[-118.23,38.57],[-117.3,38.68],[-117.29,38.68],[-116.98,38.73],[-116.05,38.89],[-114.68,39.1],[-113.32,39.29],[-113.25,39.3],[-112.2,39.47],[-111.14,39.64],[-110.08,39.79],[-109.55,39.86],[-109.01,39.93],[-108.26,39.98],[-107.01,40.05],[-106.52,40.07],[-105.05,40.12],[-104.39,40.14],[-103.19,40.1],[-100.07,39.94],[-99,39.86],[-98.26,39.81],[-97.63,39.72],[-96.21,39.52],[-95.23,39.36],[-94.74,39.29],[-94.12,39.18],[-92.71,38.94],[-91.31,38.68],[-90.54,38.53],[-90.51,38.52],[-88.25,38.04],[-87.76,37.93],[-86.5,37.68],[-85.45,37.47],[-84.21,37.2],[-83.46,37.04],[-82.7,36.86],[-81.83,36.65],[-81.09,36.82],[-80.96,36.85],[-80.59,36.93],[-80.49,36.96],[-80.47,36.96],[-80.42,36.97],[-80.4,36.97],[-80.05,37.05],[-79.94,37.01],[-79.64,36.9],[-79.48,36.85],[-79.01,36.67],[-78.95,36.44],[-78.94,36.43],[-78.94,36.43],[-78.93,36.4],[-78.93,36.38],[-78.93,36.38],[-78.93,36.38],[-78.91,36.33],[-78.89,36.24],[-78.87,36.19],[-78.84,36.06],[-78.83,36.02],[-78.83,35.97],[-78.85,35.95],[-78.89,35.92],[-78.85,35.9],[-78.79,35.88]],"type":"LineString"}
}
