{
  "id": 1981716685,
  "type": "Feature",
  "properties": {
    "geom:area": 0,
    "geom:bbox": "-122.380000,34.780000,-80.950000,38.120000",
    "geom:latitude": 36.38049690214307,
    "geom:longitude": -101.6842803767326,
    "src:alt_label": "swim-route",
    "src:geom": "swim",
    "swim:geom": "route",
    "wof:geomhash": "187651003d87390d6f8531d088caf782",
    "wof:id": 1981716685,
    "wof:repo": "sfomuseum-data-flights-2025-10"
  },
  "bbox": [
    -122.38,
    34.78,
    -80.95,
    38.12
  ],
  "geometry": {"coordinates":[[-80.95,35.21],[-81.13,35.2],[-81.18,35.2],[-81.33,35.19],[-81.35,35.19],[-81.53,35.19],[-81.57,35.19],[-81.59,35.19],[-81.63,35.19],[-82.21,35.17],[-82.52,35.25],[-83.25,35.41],[-83.25,35.41],[-83.68,35.39],[-83.89,35.37],[-84.12,35.35],[-84.15,35.35],[-84.21,35.35],[-84.51,35.33],[-84.68,35.31],[-85.68,35.23],[-87,35.11],[-87.98,35.02],[-89.63,34.9],[-91.05,34.78],[-91.33,34.82],[-93.45,35.19],[-95,35.43],[-96.44,35.64],[-97.81,35.82],[-98.15,35.86],[-99.37,36.01],[-100.85,36.16],[-101.86,36.26],[-102.77,36.32],[-104.87,36.49],[-105.26,36.57],[-105.35,36.58],[-106.07,36.72],[-106.21,36.74],[-106.33,36.76],[-106.65,36.82],[-109.15,37.28],[-109.64,37.37],[-109.89,37.41],[-110.88,37.57],[-110.99,37.59],[-111.34,37.64],[-112.77,37.84],[-112.95,37.86],[-113.5,37.93],[-114,38.12],[-114.12,38.11],[-117.22,38.03],[-117.77,38],[-118.76,37.9],[-119.1,37.86],[-119.61,37.8],[-119.72,37.78],[-119.82,37.77],[-119.92,37.76],[-120.02,37.75],[-120.31,37.71],[-120.4,37.7],[-120.4,37.7],[-120.57,37.68],[-120.69,37.67],[-120.75,37.66],[-120.79,37.65],[-120.8,37.65],[-120.96,37.63],[-121,37.63],[-121.01,37.63],[-121.07,37.62],[-121.17,37.61],[-121.26,37.59],[-121.39,37.58],[-121.41,37.58],[-121.6,37.55],[-121.61,37.55],[-121.62,37.55],[-121.72,37.53],[-121.8,37.51],[-121.88,37.49],[-121.89,37.49],[-122.01,37.53],[-122.08,37.54],[-122.18,37.57],[-122.18,37.57],[-122.28,37.59],[-122.33,37.61],[-122.36,37.61],[-122.38,37.62]],"type":"LineString"}
}
