{
  "id": 1981763517,
  "type": "Feature",
  "properties": {
    "geom:area": 0,
    "geom:bbox": "-123.504420,37.258940,-122.098410,37.612910",
    "geom:latitude": 37.354747237398,
    "geom:longitude": -122.68495178390262,
    "src:alt_label": "swim-approach",
    "src:geom": "swim",
    "swim:elevations": [
      4694,
      4631,
      4437,
      4290,
      3962,
      3657,
      3598,
      3232,
      3208,
      3075,
      3048,
      3048,
      3048,
      3048,
      3048,
      3048,
      3017,
      2950,
      2720,
      2537,
      2439,
      2431,
      2379,
      2227,
      2186,
      1886,
      1818,
      1692,
      1494,
      1430,
      1241,
      1186,
      1050,
      1037,
      872,
      666,
      572,
      529,
      313,
      241,
      152,
      101,
      64
    ],
    "swim:geom": "approach",
    "swim:timestamps": [
      1761424108,
      1761424113,
      1761424131,
      1761424140,
      1761424181,
      1761424222,
      1761424231,
      1761424288,
      1761424291,
      1761424316,
      1761424339,
      1761424374,
      1761424386,
      1761424413,
      1761424455,
      1761424494,
      1761424524,
      1761424537,
      1761424580,
      1761424618,
      1761424646,
      1761424661,
      1761424667,
      1761424703,
      1761424721,
      1761424766,
      1761424775,
      1761424803,
      1761424849,
      1761424863,
      1761424906,
      1761424923,
      1761424977,
      1761424986,
      1761425023,
      1761425060,
      1761425091,
      1761425103,
      1761425155,
      1761425173,
      1761425197,
      1761425210,
      1761425233
    ],
    "wof:geomhash": "d6478daf88ca05e4f6f23a4e1a1fba08",
    "wof:id": 1981763517,
    "wof:repo": "sfomuseum-data-flights-2025-10"
  },
  "bbox": [
    -123.50442,
    37.25894,
    -122.09841,
    37.61291
  ],
  "geometry": {"coordinates":[[-123.50442,37.281],[-123.49109,37.28056],[-123.44292,37.279],[-123.41883,37.27803],[-123.31742,37.27454],[-123.2194,37.27124],[-123.19885,37.27051],[-123.07383,37.26569],[-123.06744,37.26546],[-123.01366,37.26351],[-122.96719,37.26176],[-122.89605,37.25894],[-122.87156,37.259],[-122.81773,37.2683],[-122.73512,37.28755],[-122.6584,37.30546],[-122.60349,37.31828],[-122.57946,37.32385],[-122.50507,37.34101],[-122.44066,37.35607],[-122.39343,37.36694],[-122.36879,37.37254],[-122.35893,37.37477],[-122.30067,37.38813],[-122.27358,37.39425],[-122.20433,37.39319],[-122.19063,37.39276],[-122.15456,37.40369],[-122.10796,37.43908],[-122.09841,37.45046],[-122.10818,37.48759],[-122.11641,37.49965],[-122.15625,37.52479],[-122.16386,37.52809],[-122.19515,37.54151],[-122.22331,37.55479],[-122.24872,37.56526],[-122.25787,37.56908],[-122.29938,37.58672],[-122.3134,37.59258],[-122.33224,37.60072],[-122.34305,37.60521],[-122.36092,37.61291]],"type":"LineString"}
}
