{
  "id": 1981722367,
  "type": "Feature",
  "properties": {
    "geom:area": 0,
    "geom:bbox": "-122.352290,37.641630,-122.166760,38.517790",
    "geom:latitude": 38.04610810177235,
    "geom:longitude": -122.19812360301479,
    "src:alt_label": "swim-takeoff",
    "src:geom": "swim",
    "swim:elevations": [
      510,
      703,
      1094,
      1504,
      1935,
      2426,
      2915,
      3138,
      3396,
      3428,
      3611,
      4210,
      4418,
      4917,
      5111,
      5239,
      5560,
      5895,
      6072,
      6393,
      6589,
      6871,
      6987,
      7175
    ],
    "swim:geom": "takeoff",
    "swim:timestamps": [
      1760992702,
      1760992733,
      1760992767,
      1760992792,
      1760992819,
      1760992851,
      1760992884,
      1760992900,
      1760992941,
      1760992944,
      1760992959,
      1760993008,
      1760993025,
      1760993067,
      1760993085,
      1760993095,
      1760993128,
      1760993157,
      1760993174,
      1760993205,
      1760993224,
      1760993248,
      1760993260,
      1760993284
    ],
    "wof:geomhash": "19f50057d7498ac07fe6476ceff64062",
    "wof:id": 1981722367,
    "wof:repo": "sfomuseum-data-flights-2025-10"
  },
  "bbox": [
    -122.35229,
    37.64163,
    -122.16676,
    38.51779
  ],
  "geometry": {"coordinates":[[-122.35229,37.64163],[-122.32228,37.65759],[-122.28233,37.68071],[-122.24986,37.6993],[-122.21616,37.7215],[-122.20311,37.76286],[-122.19863,37.80792],[-122.19535,37.82954],[-122.18595,37.89237],[-122.18548,37.8973],[-122.18484,37.92092],[-122.1825,38.00469],[-122.18179,38.03386],[-122.1795,38.10769],[-122.17843,38.14019],[-122.17786,38.15814],[-122.17587,38.21886],[-122.17421,38.27441],[-122.17328,38.30627],[-122.17144,38.36593],[-122.17034,38.40187],[-122.16891,38.44838],[-122.16828,38.47065],[-122.16676,38.51779]],"type":"LineString"}
}
