{
  "id": 1981733081,
  "type": "Feature",
  "properties": {
    "geom:area": 0,
    "geom:bbox": "-122.380000,29.980000,-95.290000,38.520000",
    "geom:latitude": 35.95777436599305,
    "geom:longitude": -108.18797030326694,
    "src:alt_label": "swim-route",
    "src:geom": "swim",
    "swim:geom": "route",
    "wof:geomhash": "b7445fbdede15988fb5c961c2a38b82b",
    "wof:id": 1981733081,
    "wof:repo": "sfomuseum-data-flights-2025-10"
  },
  "bbox": [
    -122.38,
    29.98,
    -95.29,
    38.52
  ],
  "geometry": {"coordinates":[[-122.38,37.62],[-122.28,37.68],[-122.27,37.69],[-122.27,37.69],[-122.21,37.72],[-122.2,37.72],[-122.2,37.73],[-122.18,37.74],[-122.17,37.74],[-122.16,37.75],[-122.11,37.77],[-122.1,37.78],[-122,37.83],[-121.93,37.84],[-121.73,37.88],[-121.7,37.88],[-121.65,37.89],[-121.57,37.91],[-121.41,37.94],[-121.34,37.95],[-121.29,37.96],[-121.17,37.98],[-121.14,37.98],[-121.1,37.99],[-121.07,38],[-121.04,38],[-120.85,38.03],[-120.75,38.04],[-120.66,38.06],[-120.57,38.07],[-119.18,38.27],[-118.72,38.34],[-117.34,38.51],[-117.29,38.52],[-117.28,38.52],[-113.86,38.4],[-113.01,38.36],[-112.59,38.24],[-112.28,38.16],[-111.86,38.07],[-111.6,37.99],[-110.96,37.8],[-110.75,37.73],[-110,37.5],[-109.16,37.19],[-109.04,37.15],[-107.01,36.38],[-106.48,36.17],[-106.36,36.12],[-105.61,35.84],[-105.43,35.77],[-105.15,35.66],[-105.14,35.66],[-103.49,35.04],[-103.29,34.97],[-102.25,34.56],[-102.04,34.48],[-102.01,34.47],[-101.77,34.37],[-100.34,33.78],[-100.22,33.73],[-100,33.63],[-99.77,33.53],[-98,32.73],[-97.81,32.58],[-97.52,32.34],[-97.35,32.2],[-97.14,32.03],[-96.65,31.63],[-96.51,31.52],[-96.46,31.43],[-96.39,31.31],[-96.36,31.27],[-96.34,31.24],[-96.2,31],[-96.16,30.93],[-96.12,30.87],[-96.11,30.86],[-96.06,30.79],[-96.02,30.72],[-96.01,30.71],[-95.96,30.63],[-95.93,30.58],[-95.93,30.58],[-95.87,30.49],[-95.82,30.44],[-95.74,30.36],[-95.62,30.23],[-95.58,30.19],[-95.48,30.09],[-95.43,30.09],[-95.34,30.09],[-95.29,30.09],[-95.31,30.05],[-95.34,29.98]],"type":"LineString"}
}
