{
  "id": 1981602439,
  "type": "Feature",
  "properties": {
    "geom:area": 0,
    "geom:bbox": "-122.529740,37.626140,-121.517890,38.517000",
    "geom:latitude": 38.084951672616455,
    "geom:longitude": -122.09465928916397,
    "src:alt_label": "swim-takeoff",
    "src:geom": "swim",
    "swim:elevations": [
      122,
      432,
      933,
      1075,
      1201,
      1512,
      1659,
      2252,
      2442,
      3081,
      3326,
      3405,
      3685,
      3835,
      4244,
      4679,
      4776,
      5081,
      5455,
      5740,
      5788,
      5792,
      5791,
      5791,
      5791,
      5791,
      5913,
      6403,
      6510
    ],
    "swim:geom": "takeoff",
    "swim:timestamps": [
      1759757136,
      1759757163,
      1759757213,
      1759757228,
      1759757255,
      1759757297,
      1759757310,
      1759757359,
      1759757372,
      1759757421,
      1759757450,
      1759757462,
      1759757510,
      1759757530,
      1759757562,
      1759757606,
      1759757616,
      1759757645,
      1759757677,
      1759757706,
      1759757721,
      1759757737,
      1759757812,
      1759757840,
      1759757873,
      1759757891,
      1759757917,
      1759757968,
      1759757977
    ],
    "wof:geomhash": "d45a608ced55cda53125610f343ad5e3",
    "wof:id": 1981602439,
    "wof:repo": "sfomuseum-data-flights-2025-10"
  },
  "bbox": [
    -122.52974,
    37.62614,
    -121.51789,
    38.517
  ],
  "geometry": {"coordinates":[[-122.39275,37.62614],[-122.41893,37.63715],[-122.46759,37.65844],[-122.4837,37.66533],[-122.51335,37.67905],[-122.52974,37.72415],[-122.52864,37.74086],[-122.51478,37.80417],[-122.49834,37.81577],[-122.42613,37.84465],[-122.38688,37.87131],[-122.37096,37.88271],[-122.29723,37.93328],[-122.26326,37.95683],[-122.20959,37.99372],[-122.1324,38.04693],[-122.11507,38.05882],[-122.06348,38.09435],[-122.00871,38.13637],[-121.97602,38.18542],[-121.96684,38.21279],[-121.95851,38.24319],[-121.8617,38.36217],[-121.79785,38.38008],[-121.7215,38.39982],[-121.67722,38.41112],[-121.61849,38.43114],[-121.53193,38.50254],[-121.51789,38.517]],"type":"LineString"}
}
