{
  "id": 1981737731,
  "type": "Feature",
  "properties": {
    "geom:area": 0,
    "geom:bbox": "-122.361940,37.432420,-121.262320,37.615530",
    "geom:latitude": 37.53406321487138,
    "geom:longitude": -121.82987407805254,
    "src:alt_label": "swim-approach",
    "src:geom": "swim",
    "swim:elevations": [
      4543,
      4062,
      3927,
      3610,
      3345,
      3079,
      3048,
      3048,
      3048,
      3032,
      2777,
      2539,
      2495,
      2400,
      2362,
      2214,
      2133,
      2134,
      2134,
      2135,
      1902,
      1718,
      1517,
      1311,
      1130,
      987,
      788,
      690,
      513,
      410,
      343,
      176,
      145
    ],
    "swim:geom": "approach",
    "swim:timestamps": [
      1761132222,
      1761132268,
      1761132282,
      1761132314,
      1761132341,
      1761132385,
      1761132412,
      1761132442,
      1761132454,
      1761132497,
      1761132526,
      1761132563,
      1761132570,
      1761132620,
      1761132631,
      1761132678,
      1761132701,
      1761132725,
      1761132760,
      1761132790,
      1761132832,
      1761132858,
      1761132887,
      1761132928,
      1761132958,
      1761132982,
      1761133011,
      1761133040,
      1761133074,
      1761133097,
      1761133117,
      1761133158,
      1761133204
    ],
    "wof:geomhash": "3de5c94a6ea43834bb03fe428a2c85ac",
    "wof:id": 1981737731,
    "wof:repo": "sfomuseum-data-flights-2025-10"
  },
  "bbox": [
    -122.36194,
    37.43242,
    -121.26232,
    37.61553
  ],
  "geometry": {"coordinates":[[-121.26232,37.59286],[-121.35722,37.58174],[-121.38587,37.57871],[-121.45074,37.57128],[-121.50438,37.56497],[-121.59141,37.55476],[-121.64009,37.54699],[-121.68725,37.54497],[-121.70412,37.55217],[-121.76069,37.56894],[-121.79437,37.54974],[-121.80217,37.50835],[-121.80304,37.50024],[-121.85261,37.47308],[-121.86771,37.47528],[-121.93161,37.4778],[-121.96094,37.47513],[-121.98921,37.47245],[-122.02154,37.45159],[-122.04661,37.43242],[-122.08869,37.44328],[-122.0985,37.46691],[-122.11567,37.49187],[-122.14337,37.52127],[-122.16904,37.53441],[-122.18927,37.54296],[-122.21272,37.55282],[-122.23641,37.56259],[-122.26444,37.57462],[-122.28261,37.58236],[-122.29724,37.58842],[-122.3283,37.6015],[-122.36194,37.61553]],"type":"LineString"}
}
