{
  "id": 1981576977,
  "type": "Feature",
  "properties": {
    "geom:area": 0,
    "geom:bbox": "-122.358580,37.491780,-121.242520,37.613990",
    "geom:latitude": 37.54704031413582,
    "geom:longitude": -121.80546604481677,
    "src:alt_label": "swim-approach",
    "src:geom": "swim",
    "swim:elevations": [
      4817,
      4544,
      4212,
      4050,
      3688,
      3481,
      3348,
      3132,
      3038,
      2724,
      2579,
      2459,
      2144,
      2073,
      1913,
      1828,
      1829,
      1521,
      1409,
      1119,
      1089,
      918,
      785,
      550,
      549,
      531,
      375,
      302,
      158,
      67,
      0
    ],
    "swim:geom": "approach",
    "swim:timestamps": [
      1759609040,
      1759609069,
      1759609104,
      1759609121,
      1759609161,
      1759609185,
      1759609206,
      1759609256,
      1759609269,
      1759609311,
      1759609332,
      1759609365,
      1759609408,
      1759609425,
      1759609460,
      1759609486,
      1759609514,
      1759609549,
      1759609560,
      1759609588,
      1759609596,
      1759609632,
      1759609667,
      1759609702,
      1759609736,
      1759609747,
      1759609791,
      1759609812,
      1759609851,
      1759609878,
      1759609892
    ],
    "wof:geomhash": "20822468c085ce0e5b3d9fa55d01eff8",
    "wof:id": 1981576977,
    "wof:repo": "sfomuseum-data-flights-2025-10"
  },
  "bbox": [
    -122.35858,
    37.49178,
    -121.24252,
    37.61399
  ],
  "geometry": {"coordinates":[[-121.24252,37.59546],[-121.29704,37.58837],[-121.36539,37.58072],[-121.39755,37.57722],[-121.4717,37.56863],[-121.51621,37.56346],[-121.55478,37.55911],[-121.64002,37.54714],[-121.65993,37.54225],[-121.72597,37.52648],[-121.75889,37.51863],[-121.80853,37.50673],[-121.87382,37.49182],[-121.89866,37.49178],[-121.95268,37.493],[-121.99043,37.4962],[-122.02415,37.50663],[-122.06081,37.5184],[-122.07145,37.52201],[-122.10099,37.53157],[-122.10949,37.53427],[-122.14486,37.54577],[-122.1778,37.55632],[-122.2113,37.56724],[-122.24109,37.57683],[-122.25174,37.58022],[-122.28624,37.59048],[-122.30138,37.59491],[-122.33063,37.60347],[-122.34935,37.61021],[-122.35858,37.61399]],"type":"LineString"}
}
