{
  "id": 1981710277,
  "type": "Feature",
  "properties": {
    "geom:area": 0,
    "geom:bbox": "-122.350830,37.491360,-121.298950,37.610990",
    "geom:latitude": 37.54425566293371,
    "geom:longitude": -121.82945264423094,
    "src:alt_label": "swim-approach",
    "src:geom": "swim",
    "swim:elevations": [
      4294,
      4234,
      3802,
      3528,
      3412,
      3140,
      3026,
      3023,
      2696,
      2468,
      2438,
      2438,
      2272,
      2070,
      2031,
      1947,
      1828,
      1628,
      1346,
      1183,
      1074,
      986,
      910,
      790,
      580,
      491,
      350,
      271,
      231,
      88,
      51
    ],
    "swim:geom": "approach",
    "swim:timestamps": [
      1760910777,
      1760910783,
      1760910832,
      1760910863,
      1760910875,
      1760910923,
      1760910958,
      1760910963,
      1760910988,
      1760911013,
      1760911046,
      1760911061,
      1760911096,
      1760911134,
      1760911144,
      1760911163,
      1760911196,
      1760911225,
      1760911252,
      1760911283,
      1760911308,
      1760911324,
      1760911363,
      1760911388,
      1760911431,
      1760911447,
      1760911484,
      1760911501,
      1760911516,
      1760911550,
      1760911560
    ],
    "wof:geomhash": "ed08ed3eb7fed165b7bb3cc187385f3a",
    "wof:id": 1981710277,
    "wof:repo": "sfomuseum-data-flights-2025-10"
  },
  "bbox": [
    -122.35083,
    37.49136,
    -121.29895,
    37.61099
  ],
  "geometry": {"coordinates":[[-121.29895,37.58796],[-121.31091,37.58656],[-121.40726,37.57573],[-121.46562,37.56956],[-121.48827,37.56708],[-121.57669,37.55666],[-121.63434,37.54858],[-121.6426,37.54654],[-121.68222,37.53668],[-121.72341,37.52692],[-121.77204,37.51553],[-121.79346,37.51054],[-121.84307,37.49861],[-121.898,37.49136],[-121.91166,37.49189],[-121.93858,37.49283],[-121.98386,37.49454],[-122.02047,37.50499],[-122.05519,37.51656],[-122.09359,37.52932],[-122.12325,37.53902],[-122.14152,37.54483],[-122.18235,37.55768],[-122.20676,37.5657],[-122.24768,37.57884],[-122.26267,37.58373],[-122.29346,37.5925],[-122.30756,37.59682],[-122.31932,37.60017],[-122.34395,37.60828],[-122.35083,37.61099]],"type":"LineString"}
}
