{
  "id": 1981789087,
  "type": "Feature",
  "properties": {
    "geom:area": 0,
    "geom:bbox": "-122.380000,37.490000,-77.460000,41.990000",
    "geom:latitude": 40.12644021631523,
    "geom:longitude": -99.8879130808359,
    "src:alt_label": "swim-route",
    "src:geom": "swim",
    "swim:geom": "route",
    "wof:geomhash": "fc0184e0c826af55df95cdb7a7a97466",
    "wof:id": 1981789087,
    "wof:repo": "sfomuseum-data-flights-2025-10"
  },
  "bbox": [
    -122.38,
    37.49,
    -77.46,
    41.99
  ],
  "geometry": {"coordinates":[[-77.46,38.95],[-77.54,38.93],[-77.57,38.92],[-77.57,38.92],[-77.6,38.92],[-77.63,38.91],[-77.66,38.91],[-77.66,38.91],[-77.68,38.9],[-77.7,38.9],[-77.71,38.9],[-77.75,38.89],[-77.78,38.89],[-77.8,38.89],[-77.93,38.87],[-77.97,38.89],[-78.1,38.93],[-78.17,38.95],[-78.18,38.95],[-78.22,38.96],[-78.23,38.96],[-78.29,38.97],[-78.34,38.97],[-78.38,38.97],[-78.51,38.98],[-78.61,38.99],[-78.84,39],[-78.94,39.01],[-79.11,39.02],[-79.12,39.02],[-79.17,39.02],[-79.22,39.02],[-79.27,39.03],[-79.34,39.03],[-79.43,39.04],[-79.59,39.05],[-79.6,39.05],[-79.68,39.05],[-80.3,39.09],[-80.38,39.1],[-80.42,39.11],[-80.47,39.12],[-80.64,39.13],[-81.72,39.4],[-82.78,39.66],[-82.93,39.71],[-83.58,39.85],[-85.27,40.21],[-85.29,40.22],[-85.39,40.24],[-85.44,40.25],[-85.66,40.27],[-86,40.5],[-86.15,40.54],[-86.64,40.66],[-87.19,40.79],[-88.01,41],[-88.25,41.07],[-89.14,41.29],[-89.45,41.37],[-89.56,41.41],[-89.65,41.45],[-90.3,41.71],[-90.65,41.87],[-90.7,41.88],[-90.7,41.88],[-91.02,41.98],[-91.23,41.99],[-91.26,41.98],[-93.37,41.9],[-93.67,41.88],[-94.13,41.86],[-95.03,41.8],[-96.21,41.73],[-96.78,41.69],[-98.73,41.51],[-99.03,41.49],[-101.3,41.24],[-103.59,40.95],[-104.59,40.8],[-104.73,40.78],[-105.09,40.72],[-105.25,40.7],[-105.26,40.7],[-105.51,40.66],[-105.73,40.62],[-106.83,40.44],[-107.87,40.26],[-108.21,40.2],[-108.69,40.11],[-109.09,40.04],[-109.17,40.02],[-110.56,39.74],[-110.77,39.7],[-111.39,39.57],[-111.67,39.51],[-113.32,39.14],[-113.75,39.04],[-114.17,38.94],[-115.02,38.73],[-115.87,38.51],[-117.27,38.14],[-117.77,38],[-118.76,37.9],[-119.1,37.86],[-119.39,37.82],[-119.66,37.79],[-119.73,37.78],[-119.82,37.77],[-120.15,37.73],[-120.23,37.72],[-120.4,37.7],[-120.56,37.68],[-120.63,37.67],[-120.69,37.67],[-120.75,37.66],[-120.96,37.63],[-120.96,37.63],[-120.97,37.63],[-121,37.63],[-121.09,37.62],[-121.26,37.59],[-121.39,37.58],[-121.41,37.58],[-121.6,37.55],[-121.61,37.55],[-121.62,37.55],[-121.7,37.53],[-121.8,37.51],[-121.82,37.5],[-121.88,37.49],[-122.08,37.54],[-122.12,37.55],[-122.18,37.57],[-122.28,37.59],[-122.33,37.61],[-122.36,37.61],[-122.38,37.62]],"type":"LineString"}
}
