{
  "id": 1981552461,
  "type": "Feature",
  "properties": {
    "geom:area": 0,
    "geom:bbox": "-122.361810,37.491610,-121.243210,37.615890",
    "geom:latitude": 37.543497101913296,
    "geom:longitude": -121.80971051178935,
    "src:alt_label": "swim-approach",
    "src:geom": "swim",
    "swim:elevations": [
      4850,
      4541,
      4210,
      3907,
      3812,
      3716,
      3519,
      3205,
      3156,
      3080,
      2989,
      2761,
      2623,
      2528,
      2388,
      2311,
      2171,
      2131,
      2087,
      1900,
      1829,
      1703,
      1538,
      1442,
      1276,
      1203,
      1057,
      923,
      823,
      649,
      454,
      383,
      286,
      205,
      121,
      0
    ],
    "swim:geom": "approach",
    "swim:timestamps": [
      1759355781,
      1759355812,
      1759355846,
      1759355876,
      1759355907,
      1759355936,
      1759355960,
      1759355996,
      1759356012,
      1759356032,
      1759356047,
      1759356086,
      1759356107,
      1759356122,
      1759356161,
      1759356176,
      1759356205,
      1759356211,
      1759356221,
      1759356260,
      1759356288,
      1759356310,
      1759356340,
      1759356371,
      1759356398,
      1759356413,
      1759356442,
      1759356463,
      1759356481,
      1759356515,
      1759356554,
      1759356571,
      1759356594,
      1759356612,
      1759356633,
      1759356662
    ],
    "wof:geomhash": "676cd3be6c254df1100d4e458be6725e",
    "wof:id": 1981552461,
    "wof:repo": "sfomuseum-data-flights-2025-10"
  },
  "bbox": [
    -122.36181,
    37.49161,
    -121.24321,
    37.61589
  ],
  "geometry": {"coordinates":[[-121.24321,37.5953],[-121.30205,37.58781],[-121.36584,37.58099],[-121.42204,37.57484],[-121.47607,37.56898],[-121.52211,37.56311],[-121.55726,37.5587],[-121.60724,37.55273],[-121.62794,37.54962],[-121.65435,37.5431],[-121.67362,37.53845],[-121.72515,37.52645],[-121.75177,37.52038],[-121.77057,37.51605],[-121.81734,37.5046],[-121.83507,37.50033],[-121.86961,37.49259],[-121.877,37.49192],[-121.88962,37.49161],[-121.93942,37.49451],[-121.97366,37.49644],[-122.00164,37.49804],[-122.03992,37.50034],[-122.07734,37.50258],[-122.10983,37.50935],[-122.12693,37.51671],[-122.16059,37.53079],[-122.18488,37.54111],[-122.20409,37.54927],[-122.23761,37.56331],[-122.27432,37.57877],[-122.28825,37.58461],[-122.30709,37.59257],[-122.32221,37.59898],[-122.33866,37.60575],[-122.36181,37.61589]],"type":"LineString"}
}
