{
  "id": 1981706815,
  "type": "Feature",
  "properties": {
    "geom:area": 0,
    "geom:bbox": "-122.360920,37.636720,-121.252780,37.976420",
    "geom:latitude": 37.8404126424084,
    "geom:longitude": -121.81921436591925,
    "src:alt_label": "swim-takeoff",
    "src:geom": "swim",
    "swim:elevations": [
      244,
      781,
      990,
      1250,
      1442,
      1926,
      2147,
      2626,
      2875,
      3197,
      3370,
      3597,
      3778,
      4193,
      4343,
      4696,
      4903,
      5100,
      5337,
      5549,
      5615
    ],
    "swim:geom": "takeoff",
    "swim:timestamps": [
      1760798622,
      1760798663,
      1760798681,
      1760798722,
      1760798742,
      1760798780,
      1760798797,
      1760798837,
      1760798859,
      1760798886,
      1760798910,
      1760798961,
      1760798994,
      1760799048,
      1760799069,
      1760799116,
      1760799141,
      1760799164,
      1760799194,
      1760799229,
      1760799242
    ],
    "wof:geomhash": "b7e3dc5d3305acf00ece77249d3a4924",
    "wof:id": 1981706815,
    "wof:repo": "sfomuseum-data-flights-2025-10"
  },
  "bbox": [
    -122.36092,
    37.63672,
    -121.25278,
    37.97642
  ],
  "geometry": {"coordinates":[[-122.36092,37.63672],[-122.32572,37.658],[-122.30825,37.6675],[-122.26568,37.6911],[-122.24066,37.70409],[-122.19005,37.73043],[-122.1667,37.74233],[-122.11203,37.77091],[-122.08012,37.78748],[-122.04094,37.80758],[-122.0026,37.82498],[-121.90447,37.84514],[-121.83405,37.85827],[-121.71121,37.88125],[-121.66409,37.88984],[-121.55247,37.9105],[-121.49272,37.92135],[-121.43763,37.93125],[-121.36391,37.94447],[-121.28136,37.96642],[-121.25278,37.97642]],"type":"LineString"}
}
