{
  "id": 1981644619,
  "type": "Feature",
  "properties": {
    "geom:area": 0,
    "geom:bbox": "-122.387360,37.636940,-121.270460,37.991440",
    "geom:latitude": 37.936409253117574,
    "geom:longitude": -121.9483679580802,
    "src:alt_label": "swim-takeoff",
    "src:geom": "swim",
    "swim:elevations": [
      366,
      552,
      835,
      928,
      1228,
      1732,
      2186,
      2196,
      2351,
      2712,
      2742,
      3040,
      3047,
      3273,
      3329,
      3415,
      3506,
      3728,
      3967,
      4061,
      4409,
      4703,
      4811,
      5287,
      5386,
      5737,
      5819,
      6023,
      6169
    ],
    "swim:geom": "takeoff",
    "swim:timestamps": [
      1760226229,
      1760226246,
      1760226290,
      1760226303,
      1760226331,
      1760226365,
      1760226414,
      1760226417,
      1760226445,
      1760226477,
      1760226480,
      1760226516,
      1760226549,
      1760226595,
      1760226603,
      1760226627,
      1760226651,
      1760226687,
      1760226711,
      1760226723,
      1760226765,
      1760226798,
      1760226813,
      1760226867,
      1760226882,
      1760226927,
      1760226939,
      1760226966,
      1760226994
    ],
    "wof:geomhash": "d11af65f2775c82a74f3aec842a8ee23",
    "wof:id": 1981644619,
    "wof:repo": "sfomuseum-data-flights-2025-10"
  },
  "bbox": [
    -122.38736,
    37.63694,
    -121.27046,
    37.99144
  ],
  "geometry": {"coordinates":[[-122.35889,37.63694],[-122.34685,37.6475],[-122.31198,37.67916],[-122.30886,37.69283],[-122.32386,37.72355],[-122.3458,37.76164],[-122.37306,37.81743],[-122.37478,37.82089],[-122.38736,37.85416],[-122.38531,37.8936],[-122.38517,37.89739],[-122.36718,37.93996],[-122.31375,37.95539],[-122.23421,37.97044],[-122.22093,37.97321],[-122.17496,37.98283],[-122.12479,37.98919],[-122.04315,37.98925],[-121.98719,37.98931],[-121.9589,37.98945],[-121.85808,37.99002],[-121.77685,37.99048],[-121.7394,37.99063],[-121.60131,37.99106],[-121.56464,37.99111],[-121.44687,37.99131],[-121.41554,37.99141],[-121.3447,37.99144],[-121.27046,37.99139]],"type":"LineString"}
}
