{
  "id": 1981641525,
  "type": "Feature",
  "properties": {
    "geom:area": 0,
    "geom:bbox": "-122.769470,37.331440,-122.101000,38.472750",
    "geom:latitude": 37.72290634452503,
    "geom:longitude": -122.44652532778957,
    "src:alt_label": "swim-approach",
    "src:geom": "swim",
    "swim:elevations": [
      7590,
      7382,
      7000,
      6636,
      6346,
      6270,
      5870,
      5458,
      5044,
      4895,
      4782,
      4483,
      4331,
      4057,
      3916,
      3570,
      3488,
      3353,
      3353,
      3353,
      3353,
      3341,
      3123,
      3063,
      2777,
      2581,
      2501,
      2468,
      2436,
      2438,
      2438,
      2438,
      2438,
      2376,
      2173,
      2063,
      1937,
      1829,
      1829,
      1656,
      1593,
      1547,
      1431,
      1348,
      1218,
      1219,
      1219,
      1219,
      1143,
      1073,
      851,
      747,
      605,
      485,
      334,
      303,
      140,
      40,
      236
    ],
    "swim:geom": "approach",
    "swim:timestamps": [
      1760171875,
      1760171896,
      1760171928,
      1760171967,
      1760171993,
      1760172000,
      1760172034,
      1760172071,
      1760172113,
      1760172130,
      1760172141,
      1760172175,
      1760172190,
      1760172229,
      1760172245,
      1760172298,
      1760172311,
      1760172351,
      1760172366,
      1760172409,
      1760172440,
      1760172474,
      1760172508,
      1760172522,
      1760172562,
      1760172598,
      1760172612,
      1760172619,
      1760172632,
      1760172656,
      1760172685,
      1760172713,
      1760172741,
      1760172778,
      1760172807,
      1760172825,
      1760172844,
      1760172887,
      1760172906,
      1760172947,
      1760172961,
      1760172980,
      1760173009,
      1760173027,
      1760173077,
      1760173102,
      1760173110,
      1760173138,
      1760173159,
      1760173174,
      1760173224,
      1760173245,
      1760173280,
      1760173306,
      1760173345,
      1760173354,
      1760173402,
      1760173430,
      1760173442
    ],
    "wof:geomhash": "40aad05a55f09d0b67d80b951025d4db",
    "wof:id": 1981641525,
    "wof:repo": "sfomuseum-data-flights-2025-10"
  },
  "bbox": [
    -122.76947,
    37.33144,
    -122.101,
    38.47275
  ],
  "geometry": {"coordinates":[[-122.76947,38.47275],[-122.76915,38.43372],[-122.76848,38.37474],[-122.76771,38.3028],[-122.7672,38.2555],[-122.76708,38.2435],[-122.75458,38.18303],[-122.73563,38.11761],[-122.71447,38.04429],[-122.70653,38.01671],[-122.70062,37.99645],[-122.68432,37.94007],[-122.67721,37.91611],[-122.63072,37.86024],[-122.60836,37.83923],[-122.53783,37.77252],[-122.52157,37.75705],[-122.47313,37.7112],[-122.45626,37.69545],[-122.41009,37.65199],[-122.37934,37.62289],[-122.35496,37.58584],[-122.33158,37.54861],[-122.32264,37.53402],[-122.29584,37.49017],[-122.27205,37.45149],[-122.26301,37.43665],[-122.25832,37.42913],[-122.2496,37.41485],[-122.24001,37.38846],[-122.24606,37.35568],[-122.26765,37.33155],[-122.30277,37.33144],[-122.34776,37.33956],[-122.37586,37.35553],[-122.37749,37.3739],[-122.36289,37.39005],[-122.30434,37.39802],[-122.27734,37.39936],[-122.22082,37.40216],[-122.20169,37.40289],[-122.17618,37.40372],[-122.14303,37.41035],[-122.13228,37.42275],[-122.10751,37.46102],[-122.101,37.4812],[-122.10419,37.48728],[-122.12067,37.50559],[-122.13723,37.51759],[-122.1501,37.52371],[-122.19435,37.54276],[-122.21266,37.55052],[-122.24265,37.5631],[-122.26502,37.57248],[-122.29344,37.58436],[-122.29954,37.587],[-122.33348,37.60121],[-122.35375,37.60979],[-122.36291,37.61354]],"type":"LineString"}
}
