{
  "id": 1981805749,
  "type": "Feature",
  "properties": {
    "geom:area": 0,
    "geom:bbox": "-122.360310,37.412820,-121.263720,37.614330",
    "geom:latitude": 37.52954465350815,
    "geom:longitude": -121.82395358688402,
    "src:alt_label": "swim-approach",
    "src:geom": "swim",
    "swim:elevations": [
      4484,
      4345,
      4059,
      3747,
      3438,
      3356,
      3329,
      3353,
      3353,
      3259,
      2976,
      2417,
      2399,
      2289,
      2053,
      1903,
      1800,
      1616,
      1553,
      1524,
      1470,
      1317,
      1072,
      898,
      620,
      528,
      248,
      150,
      41,
      0
    ],
    "swim:geom": "approach",
    "swim:timestamps": [
      1761823789,
      1761823805,
      1761823843,
      1761823880,
      1761823921,
      1761823935,
      1761823960,
      1761823987,
      1761824043,
      1761824102,
      1761824161,
      1761824266,
      1761824272,
      1761824287,
      1761824330,
      1761824363,
      1761824386,
      1761824423,
      1761824440,
      1761824481,
      1761824511,
      1761824529,
      1761824560,
      1761824574,
      1761824602,
      1761824612,
      1761824666,
      1761824697,
      1761824724,
      1761824734
    ],
    "wof:geomhash": "5c5e49e1c691e8e0cf07972d3958efba",
    "wof:id": 1981805749,
    "wof:repo": "sfomuseum-data-flights-2025-10"
  },
  "bbox": [
    -122.36031,
    37.41282,
    -121.26372,
    37.61433
  ],
  "geometry": {"coordinates":[[-121.26372,37.59269],[-121.29037,37.58947],[-121.35311,37.58235],[-121.41478,37.57535],[-121.48013,37.56777],[-121.50308,37.56504],[-121.54239,37.56042],[-121.58308,37.55571],[-121.6676,37.54059],[-121.75451,37.51983],[-121.83363,37.50088],[-121.90836,37.41282],[-121.91736,37.414],[-121.93408,37.42338],[-121.97906,37.45405],[-122.01898,37.47082],[-122.04655,37.48263],[-122.08666,37.49958],[-122.10173,37.50594],[-122.1389,37.52162],[-122.16642,37.53326],[-122.1845,37.5409],[-122.21567,37.55405],[-122.22962,37.55992],[-122.25696,37.57149],[-122.26591,37.57524],[-122.31156,37.59439],[-122.33337,37.60357],[-122.3523,37.61149],[-122.36031,37.61433]],"type":"LineString"}
}
