{
  "id": 1981593509,
  "type": "Feature",
  "properties": {
    "geom:area": 0,
    "geom:bbox": "-123.501750,37.627390,-122.395830,37.732430",
    "geom:latitude": 37.69857388903993,
    "geom:longitude": -122.94461882495237,
    "src:alt_label": "swim-takeoff",
    "src:geom": "swim",
    "swim:elevations": [
      152,
      424,
      750,
      809,
      1101,
      1279,
      1472,
      1864,
      2089,
      2368,
      2431,
      2907,
      3096,
      3370,
      3512,
      3777,
      4024,
      4371,
      4582,
      4909,
      5439,
      5827
    ],
    "swim:geom": "takeoff",
    "swim:timestamps": [
      1759709487,
      1759709508,
      1759709542,
      1759709550,
      1759709599,
      1759709629,
      1759709649,
      1759709687,
      1759709705,
      1759709727,
      1759709733,
      1759709778,
      1759709794,
      1759709834,
      1759709864,
      1759709903,
      1759709927,
      1759709964,
      1759709986,
      1759710025,
      1759710056,
      1759710083
    ],
    "wof:geomhash": "d63b061161a93e38ffea4c0da4732324",
    "wof:id": 1981593509,
    "wof:repo": "sfomuseum-data-flights-2025-10"
  },
  "bbox": [
    -123.50175,
    37.62739,
    -122.39583,
    37.73243
  ],
  "geometry": {"coordinates":[[-122.39583,37.62739],[-122.41698,37.63655],[-122.45361,37.65225],[-122.46202,37.65583],[-122.51825,37.67661],[-122.56443,37.67918],[-122.59596,37.68066],[-122.66276,37.68436],[-122.69409,37.68647],[-122.73142,37.68894],[-122.742,37.68958],[-122.82293,37.69393],[-122.85293,37.696],[-122.92983,37.70042],[-122.99147,37.70393],[-123.07873,37.70937],[-123.13379,37.71281],[-123.22128,37.71624],[-123.27401,37.71925],[-123.36684,37.72482],[-123.43992,37.72891],[-123.50175,37.73243]],"type":"LineString"}
}
