{
  "id": 1981737319,
  "type": "Feature",
  "properties": {
    "geom:area": 0,
    "geom:bbox": "-156.083333,19.800000,-122.215556,37.600000",
    "geom:latitude": 29.570903077677727,
    "geom:longitude": -139.78888544957192,
    "src:alt_label": "swim-path",
    "src:geom": "swim",
    "swim:altitudes": [
      "046C",
      "046C",
      "046C",
      "046C",
      "164C",
      "177C",
      "177C",
      "214C",
      "214C",
      "214C",
      "303C",
      "303C",
      "303C",
      "303C",
      "349C",
      "361C",
      "361C",
      "",
      "",
      "",
      "",
      "",
      "",
      "",
      "",
      "",
      "",
      "",
      "",
      "",
      "",
      "",
      "",
      "",
      "",
      "370",
      "370",
      "370",
      "370",
      "370C",
      "370C",
      "370C",
      "370C",
      "370C",
      "370C",
      "370C",
      "370",
      "370",
      "370",
      "370",
      "370",
      "370",
      "370",
      "370",
      "309C",
      "303",
      "303",
      "279",
      "210",
      "210",
      "166",
      "166",
      "166",
      "148",
      "148",
      "143",
      "122",
      "091",
      "077",
      "077",
      "077",
      "049",
      "016",
      "009",
      "009",
      "009",
      "003",
      "003"
    ],
    "swim:geom": "path",
    "swim:speeds": [
      260,
      260,
      260,
      260,
      330,
      350,
      350,
      430,
      430,
      430,
      460,
      460,
      460,
      460,
      450,
      470,
      470,
      470,
      470,
      480,
      480,
      480,
      480,
      480,
      470,
      470,
      460,
      460,
      460,
      460,
      460,
      460,
      460,
      460,
      460,
      470,
      470,
      470,
      470,
      487,
      482,
      482,
      482,
      479,
      479,
      479,
      475,
      480,
      480,
      475,
      475,
      475,
      475,
      474,
      470,
      491,
      491,
      471,
      424,
      424,
      401,
      401,
      401,
      388,
      388,
      392,
      377,
      279,
      268,
      268,
      268,
      245,
      180,
      140,
      140,
      140,
      139,
      139
    ],
    "swim:timestamps": [
      1761177295,
      1761177295,
      1761177295,
      1761177295,
      1761177596,
      1761177656,
      1761177656,
      1761177836,
      1761177836,
      1761177836,
      1761178196,
      1761178196,
      1761178196,
      1761178196,
      1761178437,
      1761178557,
      1761178557,
      1761178617,
      1761178617,
      1761178798,
      1761178978,
      1761178978,
      1761178978,
      1761178978,
      1761179038,
      1761179038,
      1761179278,
      1761179278,
      1761179399,
      1761179399,
      1761179459,
      1761179579,
      1761179579,
      1761179579,
      1761179579,
      1761179759,
      1761179759,
      1761179759,
      1761179759,
      1761191133,
      1761191253,
      1761191253,
      1761191253,
      1761191373,
      1761191373,
      1761191373,
      1761191674,
      1761191787,
      1761191787,
      1761191854,
      1761191914,
      1761191914,
      1761191914,
      1761191974,
      1761192147,
      1761192154,
      1761192154,
      1761192214,
      1761192394,
      1761192394,
      1761192514,
      1761192514,
      1761192514,
      1761192557,
      1761192557,
      1761192575,
      1761192635,
      1761192935,
      1761192977,
      1761192977,
      1761192977,
      1761193175,
      1761193355,
      1761193415,
      1761193415,
      1761193415,
      1761193457,
      1761193457
    ],
    "wof:geomhash": "7acc81a1db0cf74bf2f8f3b344603349",
    "wof:id": 1981737319,
    "wof:repo": "sfomuseum-data-flights-2025-10"
  },
  "bbox": [
    -156.08333333333334,
    19.8,
    -122.21555555555555,
    37.6
  ],
  "geometry": {"coordinates":[[-156.08333333333334,19.8],[-156.08333333333334,19.8],[-156.08333333333334,19.8],[-156.08333333333334,19.8],[-155.91666666666666,20.183333333333334],[-155.88333333333333,20.266666666666666],[-155.88333333333333,20.266666666666666],[-155.71666666666667,20.583333333333332],[-155.71666666666667,20.583333333333332],[-155.71666666666667,20.583333333333332],[-155.26666666666668,21.2],[-155.26666666666668,21.2],[-155.26666666666668,21.2],[-155.26666666666668,21.2],[-154.96666666666667,21.616666666666667],[-154.8,21.833333333333332],[-154.8,21.833333333333332],[-154.73333333333332,21.95],[-154.73333333333332,21.95],[-154.48333333333332,22.266666666666666],[-154.23333333333332,22.6],[-154.23333333333332,22.6],[-154.23333333333332,22.6],[-154.23333333333332,22.6],[-154.15,22.716666666666665],[-154.15,22.716666666666665],[-153.81666666666666,23.116666666666667],[-153.81666666666666,23.116666666666667],[-153.65,23.333333333333332],[-153.65,23.333333333333332],[-153.56666666666666,23.433333333333334],[-153.41666666666666,23.633333333333333],[-153.41666666666666,23.633333333333333],[-153.41666666666666,23.633333333333333],[-153.41666666666666,23.633333333333333],[-153.08333333333334,23.883333333333333],[-153.08333333333334,23.883333333333333],[-153.08333333333334,23.883333333333333],[-153.08333333333334,23.883333333333333],[-126.51833333333333,35.574444444444445],[-126.22055555555556,35.68194444444444],[-126.22055555555556,35.68194444444444],[-126.22055555555556,35.68194444444444],[-125.89194444444445,35.801111111111105],[-125.89194444444445,35.801111111111105],[-125.89194444444445,35.801111111111105],[-125.17027777777778,36.10416666666667],[-124.91666666666667,36.21666666666667],[-124.91666666666667,36.21666666666667],[-124.75694444444444,36.31666666666667],[-124.61916666666666,36.386944444444445],[-124.61916666666666,36.386944444444445],[-124.61916666666666,36.386944444444445],[-124.48222222222222,36.45666666666667],[-124.1,36.65],[-124.0675,36.66583333333333],[-124.0675,36.66583333333333],[-123.92666666666668,36.73583333333333],[-123.54055555555556,36.92722222222222],[-123.54055555555556,36.92722222222222],[-123.30055555555555,37.04527777777778],[-123.30055555555555,37.04527777777778],[-123.30055555555555,37.04527777777778],[-123.21666666666667,37.083333333333336],[-123.21666666666667,37.083333333333336],[-123.18527777777778,37.10138888888889],[-123.07277777777777,37.156388888888884],[-122.54277777777777,37.3325],[-122.46666666666667,37.35],[-122.46666666666667,37.35],[-122.46666666666667,37.35],[-122.21555555555555,37.448055555555555],[-122.26444444444445,37.57194444444445],[-122.30944444444444,37.590833333333336],[-122.30944444444444,37.590833333333336],[-122.30944444444444,37.590833333333336],[-122.35,37.6],[-122.35,37.6]],"type":"LineString"}
}
