{
  "id": 1981629245,
  "type": "Feature",
  "properties": {
    "geom:area": 0,
    "geom:bbox": "-122.351200,37.491420,-121.249940,37.611070",
    "geom:latitude": 37.5462953100065,
    "geom:longitude": -121.80531917949918,
    "src:alt_label": "swim-approach",
    "src:geom": "swim",
    "swim:elevations": [
      5071,
      4965,
      4800,
      4519,
      4301,
      3932,
      3778,
      3412,
      3293,
      3115,
      2957,
      2859,
      2621,
      2564,
      2287,
      1956,
      1865,
      1829,
      1829,
      1748,
      1506,
      1267,
      1105,
      1054,
      799,
      553,
      498,
      306,
      191,
      78,
      65
    ],
    "swim:geom": "approach",
    "swim:timestamps": [
      1760087992,
      1760088002,
      1760088018,
      1760088046,
      1760088067,
      1760088106,
      1760088121,
      1760088174,
      1760088201,
      1760088234,
      1760088266,
      1760088288,
      1760088326,
      1760088333,
      1760088369,
      1760088407,
      1760088421,
      1760088475,
      1760088489,
      1760088521,
      1760088558,
      1760088594,
      1760088625,
      1760088637,
      1760088680,
      1760088716,
      1760088731,
      1760088778,
      1760088806,
      1760088835,
      1760088840
    ],
    "wof:geomhash": "1c666feef5b36019762b9dc4fd13433b",
    "wof:id": 1981629245,
    "wof:repo": "sfomuseum-data-flights-2025-10"
  },
  "bbox": [
    -122.3512,
    37.49142,
    -121.24994,
    37.61107
  ],
  "geometry": {"coordinates":[[-121.24994,37.59443],[-121.26859,37.59195],[-121.29773,37.58818],[-121.35011,37.58247],[-121.38949,37.57813],[-121.46029,37.56986],[-121.48848,37.56659],[-121.58281,37.55566],[-121.62658,37.55014],[-121.67602,37.53818],[-121.72082,37.52769],[-121.74936,37.52099],[-121.79642,37.50974],[-121.80546,37.50753],[-121.85005,37.49685],[-121.89866,37.49142],[-121.9174,37.49202],[-121.98787,37.49526],[-122.00508,37.50033],[-122.04423,37.51307],[-122.09001,37.52787],[-122.1309,37.54107],[-122.16397,37.5518],[-122.17534,37.55548],[-122.21471,37.5682],[-122.24941,37.57942],[-122.26242,37.58357],[-122.30085,37.59461],[-122.32412,37.60151],[-122.34785,37.60966],[-122.3512,37.61107]],"type":"LineString"}
}
