{
  "id": 1981552499,
  "type": "Feature",
  "properties": {
    "geom:area": 0,
    "geom:bbox": "-122.365870,37.527020,-121.246360,37.950500",
    "geom:latitude": 37.75612105447936,
    "geom:longitude": -121.74122350189771,
    "src:alt_label": "swim-approach",
    "src:geom": "swim",
    "swim:elevations": [
      4253,
      4223,
      4207,
      3996,
      3963,
      3597,
      3528,
      3353,
      3353,
      3353,
      3353,
      3353,
      3268,
      3116,
      3045,
      3048,
      3048,
      3048,
      3048,
      3048,
      3048,
      3048,
      3048,
      2919,
      2870,
      2744,
      2743,
      2743,
      2743,
      2743,
      2585,
      2404,
      2251,
      2159,
      1937,
      1842,
      1829,
      1665,
      1586,
      1219,
      1105,
      790,
      697,
      556,
      384,
      370,
      183,
      90,
      29
    ],
    "swim:geom": "approach",
    "swim:timestamps": [
      1759327628,
      1759327654,
      1759327664,
      1759327707,
      1759327711,
      1759327767,
      1759327776,
      1759327936,
      1759327977,
      1759327984,
      1759328006,
      1759328016,
      1759328050,
      1759328088,
      1759328107,
      1759328147,
      1759328184,
      1759328195,
      1759328233,
      1759328272,
      1759328303,
      1759328321,
      1759328340,
      1759328387,
      1759328400,
      1759328443,
      1759328471,
      1759328502,
      1759328524,
      1759328562,
      1759328604,
      1759328638,
      1759328663,
      1759328681,
      1759328724,
      1759328744,
      1759328768,
      1759328815,
      1759328824,
      1759328870,
      1759328886,
      1759328937,
      1759328957,
      1759328987,
      1759329027,
      1759329032,
      1759329082,
      1759329108,
      1759329120
    ],
    "wof:geomhash": "eed396e4c8c41fa81d6b630843f84fb5",
    "wof:id": 1981552499,
    "wof:repo": "sfomuseum-data-flights-2025-10"
  },
  "bbox": [
    -122.36587,
    37.52702,
    -121.24636,
    37.9505
  ],
  "geometry": {"coordinates":[[-121.26696,37.66693],[-121.28529,37.63876],[-121.28807,37.6274],[-121.29667,37.58078],[-121.29742,37.57613],[-121.26044,37.52716],[-121.24636,37.52702],[-121.25668,37.68773],[-121.30935,37.69842],[-121.31821,37.70003],[-121.34646,37.70525],[-121.35908,37.70752],[-121.40284,37.71551],[-121.45361,37.72482],[-121.47882,37.72942],[-121.53135,37.739],[-121.58003,37.7479],[-121.59493,37.75056],[-121.64355,37.75941],[-121.69591,37.76886],[-121.73679,37.77627],[-121.7606,37.78057],[-121.78456,37.78488],[-121.83494,37.8184],[-121.84641,37.82928],[-121.88488,37.86525],[-121.91003,37.88859],[-121.93881,37.91556],[-121.95858,37.93414],[-122.00108,37.9505],[-122.04439,37.93641],[-122.0782,37.92121],[-122.10295,37.90994],[-122.12052,37.90197],[-122.16105,37.88369],[-122.17844,37.87588],[-122.20054,37.8658],[-122.229,37.83526],[-122.23323,37.82887],[-122.25554,37.7952],[-122.26398,37.7826],[-122.28939,37.74437],[-122.29901,37.72992],[-122.31358,37.70802],[-122.33109,37.68177],[-122.33268,37.67939],[-122.35135,37.65122],[-122.36124,37.63608],[-122.36587,37.62918]],"type":"LineString"}
}
