{
  "id": 1981610621,
  "type": "Feature",
  "properties": {
    "geom:area": 0,
    "geom:bbox": "-122.364780,37.631060,-121.249920,37.957400",
    "geom:latitude": 37.819237609836215,
    "geom:longitude": -121.81750341775754,
    "src:alt_label": "swim-takeoff",
    "src:geom": "swim",
    "swim:elevations": [
      183,
      544,
      840,
      1064,
      1212,
      1253,
      1662,
      1737,
      1775,
      1823,
      2059,
      2587,
      2895,
      3268,
      3553,
      3630,
      3708,
      4184,
      4443,
      4942,
      5052,
      5456,
      5802,
      6357,
      6633,
      6917,
      7344
    ],
    "swim:geom": "takeoff",
    "swim:timestamps": [
      1759829496,
      1759829516,
      1759829543,
      1759829565,
      1759829587,
      1759829600,
      1759829636,
      1759829642,
      1759829645,
      1759829648,
      1759829662,
      1759829697,
      1759829716,
      1759829745,
      1759829781,
      1759829795,
      1759829807,
      1759829839,
      1759829862,
      1759829902,
      1759829911,
      1759829942,
      1759829977,
      1759830021,
      1759830047,
      1759830073,
      1759830117
    ],
    "wof:geomhash": "4cde9d2c732fdcecaf6e8c944639f3b3",
    "wof:id": 1981610621,
    "wof:repo": "sfomuseum-data-flights-2025-10"
  },
  "bbox": [
    -122.36478,
    37.63106,
    -121.24992,
    37.9574
  ],
  "geometry": {"coordinates":[[-122.36478,37.63106],[-122.35317,37.64428],[-122.33166,37.65562],[-122.3126,37.66581],[-122.29138,37.67732],[-122.27679,37.68505],[-122.2315,37.70866],[-122.22348,37.71286],[-122.21943,37.71495],[-122.21511,37.7172],[-122.19663,37.72689],[-122.14515,37.74783],[-122.11419,37.75554],[-122.06585,37.76671],[-122.00124,37.7823],[-121.9739,37.78873],[-121.9484,37.79466],[-121.88182,37.81037],[-121.83264,37.82217],[-121.74524,37.84247],[-121.72463,37.84734],[-121.65516,37.86365],[-121.57757,37.88183],[-121.47621,37.90536],[-121.41686,37.91902],[-121.35491,37.9333],[-121.24992,37.9574]],"type":"LineString"}
}
