{
  "id": 1981783409,
  "type": "Feature",
  "properties": {
    "geom:area": 0,
    "geom:bbox": "-122.255000,37.743056,-71.012500,43.205556",
    "geom:latitude": 42.4144175073644,
    "geom:longitude": -96.80594719442739,
    "src:alt_label": "swim-path",
    "src:geom": "swim",
    "swim:altitudes": [
      "051",
      "051",
      "051",
      "051",
      "051",
      "129",
      "129",
      "129",
      "147",
      "147",
      "160",
      "160",
      "160",
      "160",
      "160",
      "174",
      "174",
      "174",
      "221",
      "221",
      "221",
      "246",
      "246",
      "246",
      "246",
      "246",
      "263",
      "263",
      "263",
      "263",
      "263",
      "263",
      "263",
      "291C",
      "291C",
      "291C",
      "291C",
      "291C",
      "291C",
      "291C",
      "291C",
      "291C",
      "291C",
      "291C",
      "291C",
      "291C",
      "291C",
      "290C",
      "290C",
      "290C",
      "290C",
      "290C",
      "290C",
      "290C",
      "290C",
      "290C",
      "290C",
      "290C",
      "290C",
      "290C",
      "290C",
      "290C",
      "293",
      "293",
      "293",
      "293",
      "301",
      "301",
      "301",
      "301",
      "301",
      "330C",
      "330C",
      "330C",
      "330C",
      "330C",
      "330C",
      "330C",
      "330C",
      "330C",
      "330C",
      "330C",
      "330C",
      "330C",
      "330C",
      "330C",
      "330C",
      "330C",
      "330C",
      "330C",
      "330C",
      "330C",
      "330C",
      "330C",
      "330C",
      "330C",
      "330C",
      "330C",
      "330C",
      "330C",
      "330C",
      "330C",
      "330C",
      "330C",
      "330C",
      "330C",
      "330C",
      "330C",
      "330C",
      "330C",
      "330C",
      "350C",
      "350C",
      "350C",
      "350C",
      "350C",
      "350C",
      "350C",
      "350C",
      "350C",
      "350C",
      "350C",
      "350C",
      "350C",
      "350C",
      "350C",
      "350C",
      "350C",
      "350C",
      "350C",
      "350C",
      "350C",
      "350C",
      "350C",
      "350C",
      "350C",
      "350C",
      "350C",
      "350C",
      "350C",
      "350C",
      "350C",
      "350C",
      "350C",
      "350C",
      "350C",
      "350C",
      "350C",
      "350C",
      "350C",
      "350C",
      "350C",
      "350C",
      "350C",
      "350C",
      "350C",
      "350C",
      "350C",
      "350C",
      "350C",
      "350C",
      "350C",
      "350C",
      "350C",
      "350C",
      "350C",
      "350C",
      "350C",
      "350C",
      "350C",
      "350C",
      "350C",
      "350C",
      "350C",
      "351C",
      "351C",
      "351C",
      "351C",
      "351C",
      "351C",
      "351C",
      "350C",
      "350C",
      "350C",
      "350C",
      "350C",
      "350C",
      "350C",
      "350C",
      "350C",
      "350C",
      "350C",
      "350C",
      "350C",
      "350C",
      "350C",
      "350C",
      "350C",
      "350C",
      "350C",
      "350C",
      "350C",
      "350C",
      "350C",
      "350C",
      "350C",
      "350C",
      "350C",
      "350C",
      "350C",
      "350C",
      "350C",
      "350C",
      "350C",
      "350C",
      "350C",
      "350C",
      "350C",
      "350C",
      "350C",
      "350C",
      "350C",
      "350C",
      "350C",
      "350C",
      "350C",
      "350C",
      "350C",
      "350C",
      "350C",
      "350C",
      "350C",
      "350C",
      "350C",
      "350C",
      "350C",
      "350C",
      "350C",
      "350C",
      "350C",
      "350C",
      "350C",
      "350C",
      "350C",
      "350C",
      "350C",
      "350C",
      "350C",
      "350C",
      "350C",
      "350C",
      "350C",
      "350C",
      "350C",
      "350C",
      "350C",
      "350C",
      "350C",
      "350C",
      "350C",
      "350C",
      "350C",
      "350C",
      "351C",
      "351C",
      "351C",
      "350C",
      "350C",
      "350C",
      "350C",
      "350C",
      "350C",
      "350C",
      "350C",
      "350C",
      "350C",
      "350C",
      "350C",
      "350C",
      "350C",
      "350C",
      "350C",
      "350C",
      "350C",
      "350C",
      "350C",
      "350C",
      "350C",
      "350C",
      "350C",
      "350C",
      "350C",
      "350C",
      "350C",
      "350C",
      "350C",
      "350C",
      "350C",
      "350C",
      "350C",
      "350C",
      "350C",
      "350C",
      "350C",
      "350C",
      "350C",
      "350C",
      "350C",
      "350C",
      "350C",
      "350C",
      "350C",
      "350C",
      "350C",
      "350C",
      "350C",
      "350C",
      "350C",
      "350C",
      "350C",
      "350C",
      "350C",
      "350C",
      "350C",
      "350C",
      "350C",
      "350C",
      "350C",
      "350C",
      "350C",
      "350C",
      "350C",
      "350C",
      "350C",
      "350C",
      "350C",
      "350C",
      "350C",
      "350C",
      "350C",
      "350C",
      "350C",
      "350C",
      "350C",
      "351C",
      "351C",
      "351C",
      "351C",
      "350C",
      "350C",
      "350C",
      "350C",
      "350C",
      "350C",
      "350C",
      "350C",
      "350C",
      "350C",
      "350C",
      "350C",
      "350C",
      "350C",
      "350C",
      "350C",
      "350C",
      "350C",
      "350C",
      "350C",
      "350C",
      "350C",
      "350C",
      "350C",
      "350C",
      "350C",
      "350C",
      "350C",
      "350C",
      "350C",
      "350C",
      "350C",
      "350C",
      "350C",
      "350C",
      "350C",
      "350C",
      "350C",
      "351C",
      "351C",
      "351C",
      "351C",
      "351C",
      "351C",
      "351C",
      "350C",
      "350C",
      "350C",
      "350C",
      "350C",
      "350C",
      "350C",
      "351C",
      "351C",
      "351C",
      "351C",
      "351C",
      "350C",
      "350C",
      "350C",
      "350C",
      "350C",
      "350C",
      "350C",
      "350C",
      "350C",
      "350C",
      "334",
      "334",
      "334",
      "334",
      "334",
      "334",
      "269",
      "269",
      "269",
      "269",
      "269",
      "269",
      "229",
      "229",
      "229",
      "229",
      "169",
      "169",
      "169",
      "169",
      "169",
      "167",
      "150",
      "150",
      "150",
      "150",
      "150",
      "082",
      "082",
      "082",
      "082",
      "071",
      "071",
      "061",
      "061",
      "061",
      "061",
      "061",
      "061",
      "061",
      "040",
      "040",
      "040",
      "040",
      "040",
      "040",
      "040",
      "038",
      "038",
      "038",
      "038",
      "038",
      "038",
      "038",
      "038",
      "030",
      "030",
      "030",
      "012",
      "012",
      "012",
      "012",
      "012",
      "012",
      "012",
      "012"
    ],
    "swim:geom": "path",
    "swim:speeds": [
      264,
      264,
      264,
      264,
      264,
      384,
      384,
      384,
      399,
      399,
      419,
      419,
      419,
      419,
      419,
      436,
      436,
      436,
      441,
      441,
      441,
      451,
      451,
      451,
      451,
      451,
      459,
      459,
      459,
      459,
      459,
      459,
      459,
      521,
      521,
      521,
      521,
      521,
      521,
      521,
      521,
      521,
      521,
      521,
      521,
      521,
      521,
      522,
      522,
      522,
      522,
      522,
      522,
      522,
      519,
      519,
      519,
      519,
      519,
      519,
      519,
      519,
      514,
      514,
      514,
      514,
      518,
      518,
      518,
      518,
      518,
      508,
      508,
      508,
      508,
      508,
      508,
      508,
      508,
      508,
      516,
      516,
      516,
      516,
      516,
      516,
      516,
      516,
      516,
      516,
      516,
      517,
      517,
      517,
      517,
      517,
      517,
      517,
      519,
      519,
      519,
      519,
      519,
      519,
      519,
      519,
      519,
      519,
      519,
      523,
      523,
      530,
      530,
      530,
      530,
      530,
      536,
      536,
      536,
      534,
      534,
      534,
      534,
      529,
      529,
      529,
      529,
      529,
      529,
      529,
      529,
      529,
      529,
      529,
      510,
      510,
      510,
      510,
      510,
      510,
      510,
      510,
      517,
      517,
      517,
      517,
      519,
      519,
      519,
      519,
      519,
      519,
      519,
      508,
      508,
      508,
      508,
      508,
      508,
      508,
      508,
      508,
      506,
      506,
      506,
      506,
      484,
      484,
      484,
      484,
      484,
      484,
      484,
      484,
      487,
      487,
      487,
      487,
      487,
      487,
      487,
      477,
      477,
      477,
      477,
      477,
      477,
      477,
      477,
      477,
      461,
      461,
      461,
      461,
      461,
      461,
      459,
      459,
      459,
      459,
      459,
      459,
      459,
      464,
      464,
      464,
      464,
      464,
      462,
      462,
      462,
      462,
      462,
      461,
      461,
      461,
      461,
      461,
      461,
      461,
      454,
      454,
      454,
      454,
      454,
      454,
      454,
      454,
      454,
      453,
      453,
      453,
      453,
      453,
      452,
      452,
      452,
      452,
      452,
      452,
      452,
      452,
      452,
      452,
      457,
      457,
      457,
      457,
      457,
      457,
      457,
      456,
      456,
      456,
      456,
      456,
      456,
      456,
      456,
      463,
      463,
      463,
      463,
      463,
      463,
      463,
      452,
      452,
      452,
      452,
      452,
      452,
      452,
      451,
      451,
      451,
      451,
      451,
      451,
      451,
      451,
      451,
      451,
      448,
      448,
      448,
      448,
      448,
      449,
      449,
      449,
      449,
      449,
      449,
      449,
      449,
      444,
      444,
      444,
      444,
      444,
      438,
      438,
      438,
      443,
      443,
      443,
      443,
      443,
      442,
      442,
      442,
      442,
      442,
      442,
      442,
      442,
      442,
      442,
      442,
      442,
      442,
      442,
      442,
      442,
      441,
      441,
      441,
      442,
      442,
      442,
      442,
      442,
      442,
      444,
      444,
      444,
      448,
      448,
      448,
      451,
      451,
      451,
      451,
      451,
      451,
      451,
      452,
      451,
      451,
      451,
      451,
      451,
      451,
      452,
      454,
      454,
      454,
      454,
      454,
      454,
      454,
      454,
      464,
      464,
      464,
      464,
      464,
      464,
      464,
      463,
      463,
      463,
      463,
      463,
      463,
      463,
      463,
      463,
      463,
      463,
      463,
      477,
      477,
      477,
      477,
      479,
      479,
      479,
      479,
      479,
      479,
      479,
      476,
      476,
      476,
      479,
      479,
      479,
      479,
      484,
      484,
      484,
      484,
      484,
      486,
      486,
      490,
      490,
      490,
      490,
      490,
      490,
      490,
      490,
      502,
      502,
      502,
      502,
      502,
      502,
      494,
      494,
      494,
      494,
      494,
      494,
      436,
      436,
      436,
      436,
      361,
      361,
      361,
      361,
      361,
      364,
      345,
      345,
      345,
      345,
      345,
      268,
      268,
      268,
      268,
      249,
      249,
      222,
      222,
      222,
      222,
      222,
      222,
      222,
      224,
      224,
      224,
      224,
      224,
      205,
      205,
      177,
      177,
      177,
      177,
      177,
      177,
      177,
      177,
      161,
      161,
      161,
      128,
      128,
      128,
      128,
      128,
      128,
      128,
      128
    ],
    "swim:timestamps": [
      1761594351,
      1761594351,
      1761594351,
      1761594351,
      1761594351,
      1761594651,
      1761594651,
      1761594651,
      1761594711,
      1761594711,
      1761594771,
      1761594771,
      1761594771,
      1761594771,
      1761594771,
      1761594831,
      1761594831,
      1761594831,
      1761595012,
      1761595012,
      1761595012,
      1761595132,
      1761595132,
      1761595132,
      1761595132,
      1761595132,
      1761595240,
      1761595240,
      1761595240,
      1761595240,
      1761595240,
      1761595240,
      1761595240,
      1761595902,
      1761595902,
      1761595902,
      1761595902,
      1761595902,
      1761595902,
      1761595902,
      1761595902,
      1761596213,
      1761596213,
      1761596213,
      1761596213,
      1761596213,
      1761596213,
      1761596393,
      1761596393,
      1761596393,
      1761596393,
      1761596393,
      1761596393,
      1761596393,
      1761597041,
      1761597041,
      1761597041,
      1761597041,
      1761597041,
      1761597041,
      1761597041,
      1761597041,
      1761597161,
      1761597161,
      1761597161,
      1761597161,
      1761597221,
      1761597221,
      1761597221,
      1761597221,
      1761597221,
      1761597702,
      1761597702,
      1761597702,
      1761597702,
      1761597702,
      1761597702,
      1761597702,
      1761597702,
      1761597702,
      1761598062,
      1761598062,
      1761598062,
      1761598062,
      1761598062,
      1761598062,
      1761598062,
      1761598243,
      1761598243,
      1761598243,
      1761598243,
      1761598483,
      1761598483,
      1761598483,
      1761598483,
      1761598483,
      1761598483,
      1761598483,
      1761598723,
      1761598723,
      1761598723,
      1761598723,
      1761598723,
      1761598723,
      1761598723,
      1761598723,
      1761598723,
      1761598723,
      1761598723,
      1761599144,
      1761599144,
      1761599445,
      1761599445,
      1761599445,
      1761599445,
      1761599445,
      1761599565,
      1761599565,
      1761599565,
      1761599805,
      1761599805,
      1761599805,
      1761599805,
      1761599925,
      1761599925,
      1761599925,
      1761599925,
      1761599925,
      1761599938,
      1761599938,
      1761599938,
      1761599938,
      1761599938,
      1761599938,
      1761600959,
      1761600959,
      1761600959,
      1761600959,
      1761600959,
      1761600959,
      1761600959,
      1761600959,
      1761601139,
      1761601139,
      1761601139,
      1761601139,
      1761601200,
      1761601200,
      1761601200,
      1761601200,
      1761601200,
      1761601200,
      1761601200,
      1761601618,
      1761601618,
      1761601618,
      1761601618,
      1761601618,
      1761601618,
      1761601618,
      1761601618,
      1761601618,
      1761601680,
      1761601680,
      1761601680,
      1761601680,
      1761602221,
      1761602221,
      1761602221,
      1761602221,
      1761602281,
      1761602281,
      1761602281,
      1761602281,
      1761602401,
      1761602401,
      1761602401,
      1761602401,
      1761602401,
      1761602401,
      1761602401,
      1761602759,
      1761602759,
      1761602759,
      1761602759,
      1761602759,
      1761602759,
      1761602759,
      1761602759,
      1761602759,
      1761603420,
      1761603420,
      1761603420,
      1761603420,
      1761603420,
      1761603420,
      1761603480,
      1761603480,
      1761603480,
      1761603480,
      1761603480,
      1761603480,
      1761603480,
      1761603823,
      1761603823,
      1761603823,
      1761603823,
      1761603823,
      1761603841,
      1761603841,
      1761603841,
      1761603841,
      1761603841,
      1761604123,
      1761604123,
      1761604123,
      1761604123,
      1761604123,
      1761604123,
      1761604123,
      1761604321,
      1761604321,
      1761604321,
      1761604321,
      1761604364,
      1761604364,
      1761604364,
      1761604364,
      1761604364,
      1761604424,
      1761604424,
      1761604424,
      1761604604,
      1761604604,
      1761604682,
      1761604682,
      1761604682,
      1761604682,
      1761604682,
      1761604742,
      1761604742,
      1761604742,
      1761604742,
      1761604742,
      1761604922,
      1761604922,
      1761604922,
      1761604922,
      1761604922,
      1761604922,
      1761604922,
      1761604964,
      1761604964,
      1761604964,
      1761604964,
      1761605042,
      1761605042,
      1761605042,
      1761605042,
      1761605343,
      1761605343,
      1761605343,
      1761605343,
      1761605385,
      1761605385,
      1761605385,
      1761605523,
      1761605523,
      1761605523,
      1761605523,
      1761605625,
      1761605625,
      1761605625,
      1761605685,
      1761605685,
      1761605685,
      1761605685,
      1761605685,
      1761605685,
      1761605703,
      1761605703,
      1761605703,
      1761605703,
      1761605943,
      1761605943,
      1761605943,
      1761605943,
      1761605943,
      1761606064,
      1761606064,
      1761606064,
      1761606064,
      1761606064,
      1761606064,
      1761606064,
      1761606064,
      1761606286,
      1761606286,
      1761606286,
      1761606286,
      1761606286,
      1761606527,
      1761606527,
      1761606527,
      1761606827,
      1761606827,
      1761606827,
      1761606827,
      1761606827,
      1761606887,
      1761606887,
      1761606887,
      1761606887,
      1761607017,
      1761607017,
      1761607017,
      1761607017,
      1761607067,
      1761607067,
      1761607077,
      1761607077,
      1761607077,
      1761607077,
      1761607077,
      1761607077,
      1761607188,
      1761607188,
      1761607188,
      1761607248,
      1761607248,
      1761607248,
      1761607248,
      1761607248,
      1761607248,
      1761607368,
      1761607368,
      1761607368,
      1761607497,
      1761607497,
      1761607497,
      1761607558,
      1761607558,
      1761607558,
      1761607558,
      1761607608,
      1761607608,
      1761607608,
      1761607618,
      1761607668,
      1761607668,
      1761607668,
      1761607668,
      1761607668,
      1761607668,
      1761607738,
      1761607858,
      1761607858,
      1761607858,
      1761607858,
      1761607858,
      1761607858,
      1761607858,
      1761607858,
      1761608856,
      1761608856,
      1761608856,
      1761608856,
      1761608856,
      1761608856,
      1761608856,
      1761609096,
      1761609096,
      1761609096,
      1761609096,
      1761609096,
      1761609096,
      1761609096,
      1761609096,
      1761609096,
      1761609096,
      1761609096,
      1761609096,
      1761609817,
      1761609817,
      1761609817,
      1761609817,
      1761609877,
      1761609877,
      1761609877,
      1761609877,
      1761609877,
      1761609877,
      1761609877,
      1761610227,
      1761610238,
      1761610238,
      1761610287,
      1761610287,
      1761610287,
      1761610287,
      1761610358,
      1761610358,
      1761610358,
      1761610358,
      1761610358,
      1761610587,
      1761610587,
      1761610828,
      1761610828,
      1761610828,
      1761610828,
      1761610828,
      1761610828,
      1761610828,
      1761610828,
      1761611308,
      1761611308,
      1761611308,
      1761611308,
      1761611308,
      1761611308,
      1761611428,
      1761611428,
      1761611428,
      1761611428,
      1761611428,
      1761611428,
      1761611548,
      1761611548,
      1761611548,
      1761611548,
      1761611776,
      1761611776,
      1761611776,
      1761611776,
      1761611776,
      1761611789,
      1761611849,
      1761611849,
      1761611849,
      1761611849,
      1761611849,
      1761612131,
      1761612131,
      1761612131,
      1761612131,
      1761612196,
      1761612196,
      1761612256,
      1761612256,
      1761612256,
      1761612256,
      1761612256,
      1761612256,
      1761612256,
      1761612689,
      1761612689,
      1761612689,
      1761612689,
      1761612689,
      1761612750,
      1761612750,
      1761612785,
      1761612785,
      1761612785,
      1761612785,
      1761612785,
      1761612785,
      1761612785,
      1761612785,
      1761612905,
      1761612905,
      1761612905,
      1761613050,
      1761613050,
      1761613050,
      1761613050,
      1761613050,
      1761613050,
      1761613050,
      1761613050
    ],
    "wof:geomhash": "2f744cc29ad8281fd259cce6277fe9aa",
    "wof:id": 1981783409,
    "wof:repo": "sfomuseum-data-flights-2025-10"
  },
  "bbox": [
    -122.255,
    37.74305555555556,
    -71.0125,
    43.205555555555556
  ],
  "geometry": {"coordinates":[[-122.255,37.74305555555556],[-122.255,37.74305555555556],[-122.255,37.74305555555556],[-122.255,37.74305555555556],[-122.255,37.74305555555556],[-121.97777777777777,38.08555555555556],[-121.97777777777777,38.08555555555556],[-121.97777777777777,38.08555555555556],[-121.88166666666666,38.16638888888889],[-121.88166666666666,38.16638888888889],[-121.77722222222222,38.254444444444445],[-121.77722222222222,38.254444444444445],[-121.77722222222222,38.254444444444445],[-121.77722222222222,38.254444444444445],[-121.77722222222222,38.254444444444445],[-121.67166666666667,38.34305555555556],[-121.67166666666667,38.34305555555556],[-121.67166666666667,38.34305555555556],[-121.34722222222221,38.56861111111112],[-121.34722222222221,38.56861111111112],[-121.34722222222221,38.56861111111112],[-121.085,38.72777777777778],[-121.085,38.72777777777778],[-121.085,38.72777777777778],[-121.085,38.72777777777778],[-121.085,38.72777777777778],[-120.84777777777778,38.87138888888889],[-120.84777777777778,38.87138888888889],[-120.84777777777778,38.87138888888889],[-120.84777777777778,38.87138888888889],[-120.84777777777778,38.87138888888889],[-120.84777777777778,38.87138888888889],[-120.84777777777778,38.87138888888889],[-119.51472222222222,39.90083333333333],[-119.51472222222222,39.90083333333333],[-119.51472222222222,39.90083333333333],[-119.51472222222222,39.90083333333333],[-119.51472222222222,39.90083333333333],[-119.51472222222222,39.90083333333333],[-119.51472222222222,39.90083333333333],[-119.51472222222222,39.90083333333333],[-118.60027777777778,40.17861111111111],[-118.60027777777778,40.17861111111111],[-118.60027777777778,40.17861111111111],[-118.60027777777778,40.17861111111111],[-118.60027777777778,40.17861111111111],[-118.60027777777778,40.17861111111111],[-118.06916666666666,40.33694444444445],[-118.06916666666666,40.33694444444445],[-118.06916666666666,40.33694444444445],[-118.06916666666666,40.33694444444445],[-118.06916666666666,40.33694444444445],[-118.06916666666666,40.33694444444445],[-118.06916666666666,40.33694444444445],[-116.18055555555556,40.93333333333333],[-116.18055555555556,40.93333333333333],[-116.18055555555556,40.93333333333333],[-116.18055555555556,40.93333333333333],[-116.18055555555556,40.93333333333333],[-116.18055555555556,40.93333333333333],[-116.18055555555556,40.93333333333333],[-116.18055555555556,40.93333333333333],[-115.82972222222222,41.03972222222222],[-115.82972222222222,41.03972222222222],[-115.82972222222222,41.03972222222222],[-115.82972222222222,41.03972222222222],[-115.6525,41.09277777777778],[-115.6525,41.09277777777778],[-115.6525,41.09277777777778],[-115.6525,41.09277777777778],[-115.6525,41.09277777777778],[-114.23388888888888,41.50527777777778],[-114.23388888888888,41.50527777777778],[-114.23388888888888,41.50527777777778],[-114.23388888888888,41.50527777777778],[-114.23388888888888,41.50527777777778],[-114.23388888888888,41.50527777777778],[-114.23388888888888,41.50527777777778],[-114.23388888888888,41.50527777777778],[-114.23388888888888,41.50527777777778],[-113.15611111111112,41.803888888888885],[-113.15611111111112,41.803888888888885],[-113.15611111111112,41.803888888888885],[-113.15611111111112,41.803888888888885],[-113.15611111111112,41.803888888888885],[-113.15611111111112,41.803888888888885],[-113.15611111111112,41.803888888888885],[-112.6125,41.94972222222222],[-112.6125,41.94972222222222],[-112.6125,41.94972222222222],[-112.6125,41.94972222222222],[-111.87722222222222,42.141666666666666],[-111.87722222222222,42.141666666666666],[-111.87722222222222,42.141666666666666],[-111.87722222222222,42.141666666666666],[-111.87722222222222,42.141666666666666],[-111.87722222222222,42.141666666666666],[-111.87722222222222,42.141666666666666],[-111.14055555555557,42.32833333333333],[-111.14055555555557,42.32833333333333],[-111.14055555555557,42.32833333333333],[-111.14055555555557,42.32833333333333],[-111.14055555555557,42.32833333333333],[-111.14055555555557,42.32833333333333],[-111.14055555555557,42.32833333333333],[-111.14055555555557,42.32833333333333],[-111.14055555555557,42.32833333333333],[-111.14055555555557,42.32833333333333],[-111.14055555555557,42.32833333333333],[-109.86166666666666,42.62722222222222],[-109.86166666666666,42.62722222222222],[-108.8786111111111,42.723333333333336],[-108.8786111111111,42.723333333333336],[-108.8786111111111,42.723333333333336],[-108.8786111111111,42.723333333333336],[-108.8786111111111,42.723333333333336],[-108.47888888888889,42.75944444444445],[-108.47888888888889,42.75944444444445],[-108.47888888888889,42.75944444444445],[-107.67916666666667,42.8275],[-107.67916666666667,42.8275],[-107.67916666666667,42.8275],[-107.67916666666667,42.8275],[-107.27888888888889,42.85916666666667],[-107.27888888888889,42.85916666666667],[-107.27888888888889,42.85916666666667],[-107.27888888888889,42.85916666666667],[-107.27888888888889,42.85916666666667],[-107.24222222222222,42.86222222222222],[-107.24222222222222,42.86222222222222],[-107.24222222222222,42.86222222222222],[-107.24222222222222,42.86222222222222],[-107.24222222222222,42.86222222222222],[-107.24222222222222,42.86222222222222],[-103.9075,43.072500000000005],[-103.9075,43.072500000000005],[-103.9075,43.072500000000005],[-103.9075,43.072500000000005],[-103.9075,43.072500000000005],[-103.9075,43.072500000000005],[-103.9075,43.072500000000005],[-103.9075,43.072500000000005],[-103.32388888888889,43.09916666666667],[-103.32388888888889,43.09916666666667],[-103.32388888888889,43.09916666666667],[-103.32388888888889,43.09916666666667],[-103.12694444444443,43.1075],[-103.12694444444443,43.1075],[-103.12694444444443,43.1075],[-103.12694444444443,43.1075],[-103.12694444444443,43.1075],[-103.12694444444443,43.1075],[-103.12694444444443,43.1075],[-101.73277777777778,43.15694444444444],[-101.73277777777778,43.15694444444444],[-101.73277777777778,43.15694444444444],[-101.73277777777778,43.15694444444444],[-101.73277777777778,43.15694444444444],[-101.73277777777778,43.15694444444444],[-101.73277777777778,43.15694444444444],[-101.73277777777778,43.15694444444444],[-101.73277777777778,43.15694444444444],[-101.57249999999999,43.16138888888889],[-101.57249999999999,43.16138888888889],[-101.57249999999999,43.16138888888889],[-101.57249999999999,43.16138888888889],[-99.84138888888889,43.19611111111111],[-99.84138888888889,43.19611111111111],[-99.84138888888889,43.19611111111111],[-99.84138888888889,43.19611111111111],[-99.65666666666667,43.198611111111106],[-99.65666666666667,43.198611111111106],[-99.65666666666667,43.198611111111106],[-99.65666666666667,43.198611111111106],[-99.285,43.202222222222225],[-99.285,43.202222222222225],[-99.285,43.202222222222225],[-99.285,43.202222222222225],[-99.285,43.202222222222225],[-99.285,43.202222222222225],[-99.285,43.202222222222225],[-98.20833333333334,43.205555555555556],[-98.20833333333334,43.205555555555556],[-98.20833333333334,43.205555555555556],[-98.20833333333334,43.205555555555556],[-98.20833333333334,43.205555555555556],[-98.20833333333334,43.205555555555556],[-98.20833333333334,43.205555555555556],[-98.20833333333334,43.205555555555556],[-98.20833333333334,43.205555555555556],[-96.18805555555556,43.184999999999995],[-96.18805555555556,43.184999999999995],[-96.18805555555556,43.184999999999995],[-96.18805555555556,43.184999999999995],[-96.18805555555556,43.184999999999995],[-96.18805555555556,43.184999999999995],[-96.01555555555555,43.18138888888889],[-96.01555555555555,43.18138888888889],[-96.01555555555555,43.18138888888889],[-96.01555555555555,43.18138888888889],[-96.01555555555555,43.18138888888889],[-96.01555555555555,43.18138888888889],[-96.01555555555555,43.18138888888889],[-95.04444444444444,43.151666666666664],[-95.04444444444444,43.151666666666664],[-95.04444444444444,43.151666666666664],[-95.04444444444444,43.151666666666664],[-95.04444444444444,43.151666666666664],[-94.96944444444445,43.155277777777776],[-94.96944444444445,43.155277777777776],[-94.96944444444445,43.155277777777776],[-94.96944444444445,43.155277777777776],[-94.96944444444445,43.155277777777776],[-94.16944444444445,43.12861111111111],[-94.16944444444445,43.12861111111111],[-94.16944444444445,43.12861111111111],[-94.16944444444445,43.12861111111111],[-94.16944444444445,43.12861111111111],[-94.16944444444445,43.12861111111111],[-94.16944444444445,43.12861111111111],[-93.58416666666666,43.105555555555554],[-93.58416666666666,43.105555555555554],[-93.58416666666666,43.105555555555554],[-93.58416666666666,43.105555555555554],[-93.48277777777778,43.10138888888889],[-93.48277777777778,43.10138888888889],[-93.48277777777778,43.10138888888889],[-93.48277777777778,43.10138888888889],[-93.48277777777778,43.10138888888889],[-93.31194444444444,43.09527777777778],[-93.31194444444444,43.09527777777778],[-93.31194444444444,43.09527777777778],[-92.79666666666667,43.1075],[-92.79666666666667,43.1075],[-92.55499999999999,43.112500000000004],[-92.55499999999999,43.112500000000004],[-92.55499999999999,43.112500000000004],[-92.55499999999999,43.112500000000004],[-92.55499999999999,43.112500000000004],[-92.38194444444444,43.115833333333335],[-92.38194444444444,43.115833333333335],[-92.38194444444444,43.115833333333335],[-92.38194444444444,43.115833333333335],[-92.38194444444444,43.115833333333335],[-91.85972222222222,43.12416666666667],[-91.85972222222222,43.12416666666667],[-91.85972222222222,43.12416666666667],[-91.85972222222222,43.12416666666667],[-91.85972222222222,43.12416666666667],[-91.85972222222222,43.12416666666667],[-91.85972222222222,43.12416666666667],[-91.75416666666666,43.12555555555556],[-91.75416666666666,43.12555555555556],[-91.75416666666666,43.12555555555556],[-91.75416666666666,43.12555555555556],[-91.51083333333334,43.12833333333333],[-91.51083333333334,43.12833333333333],[-91.51083333333334,43.12833333333333],[-91.51083333333334,43.12833333333333],[-90.63027777777778,43.134166666666665],[-90.63027777777778,43.134166666666665],[-90.63027777777778,43.134166666666665],[-90.63027777777778,43.134166666666665],[-90.52361111111111,43.13444444444444],[-90.52361111111111,43.13444444444444],[-90.52361111111111,43.13444444444444],[-90.1211111111111,43.13444444444444],[-90.1211111111111,43.13444444444444],[-90.1211111111111,43.13444444444444],[-90.1211111111111,43.13444444444444],[-89.84916666666666,43.13361111111111],[-89.84916666666666,43.13361111111111],[-89.84916666666666,43.13361111111111],[-89.64555555555556,43.1325],[-89.64555555555556,43.1325],[-89.64555555555556,43.1325],[-89.64555555555556,43.1325],[-89.64555555555556,43.1325],[-89.64555555555556,43.1325],[-89.60666666666665,43.1325],[-89.60666666666665,43.1325],[-89.60666666666665,43.1325],[-89.60666666666665,43.1325],[-88.93583333333333,43.12583333333333],[-88.93583333333333,43.12583333333333],[-88.93583333333333,43.12583333333333],[-88.93583333333333,43.12583333333333],[-88.93583333333333,43.12583333333333],[-88.59666666666666,43.12111111111111],[-88.59666666666666,43.12111111111111],[-88.59666666666666,43.12111111111111],[-88.59666666666666,43.12111111111111],[-88.59666666666666,43.12111111111111],[-88.59666666666666,43.12111111111111],[-88.59666666666666,43.12111111111111],[-88.59666666666666,43.12111111111111],[-87.96194444444444,43.12277777777778],[-87.96194444444444,43.12277777777778],[-87.96194444444444,43.12277777777778],[-87.96194444444444,43.12277777777778],[-87.96194444444444,43.12277777777778],[-87.29555555555555,43.132222222222225],[-87.29555555555555,43.132222222222225],[-87.29555555555555,43.132222222222225],[-86.45277777777778,43.138888888888886],[-86.45277777777778,43.138888888888886],[-86.45277777777778,43.138888888888886],[-86.45277777777778,43.138888888888886],[-86.45277777777778,43.138888888888886],[-86.28305555555555,43.13944444444444],[-86.28305555555555,43.13944444444444],[-86.28305555555555,43.13944444444444],[-86.28305555555555,43.13944444444444],[-85.9413888888889,43.14],[-85.9413888888889,43.14],[-85.9413888888889,43.14],[-85.9413888888889,43.14],[-85.80277777777778,43.13972222222222],[-85.80277777777778,43.13972222222222],[-85.77194444444444,43.13972222222222],[-85.77194444444444,43.13972222222222],[-85.77194444444444,43.13972222222222],[-85.77194444444444,43.13972222222222],[-85.77194444444444,43.13972222222222],[-85.77194444444444,43.13972222222222],[-85.46694444444445,43.13861111111111],[-85.46694444444445,43.13861111111111],[-85.46694444444445,43.13861111111111],[-85.29638888888888,43.13777777777778],[-85.29638888888888,43.13777777777778],[-85.29638888888888,43.13777777777778],[-85.29638888888888,43.13777777777778],[-85.29638888888888,43.13777777777778],[-85.29638888888888,43.13777777777778],[-84.96111111111111,43.13527777777778],[-84.96111111111111,43.13527777777778],[-84.96111111111111,43.13527777777778],[-84.58666666666666,43.13138888888889],[-84.58666666666666,43.13138888888889],[-84.58666666666666,43.13138888888889],[-84.41361111111112,43.12916666666667],[-84.41361111111112,43.12916666666667],[-84.41361111111112,43.12916666666667],[-84.41361111111112,43.12916666666667],[-84.27444444444444,43.12722222222222],[-84.27444444444444,43.12722222222222],[-84.27444444444444,43.12722222222222],[-84.22722222222222,43.12638888888889],[-84.06888888888888,43.12388888888889],[-84.06888888888888,43.12388888888889],[-84.06888888888888,43.12388888888889],[-84.06888888888888,43.12388888888889],[-84.06888888888888,43.12388888888889],[-84.06888888888888,43.12388888888889],[-83.88361111111112,43.120555555555555],[-83.53722222222223,43.11361111111111],[-83.53722222222223,43.11361111111111],[-83.53722222222223,43.11361111111111],[-83.53722222222223,43.11361111111111],[-83.53722222222223,43.11361111111111],[-83.53722222222223,43.11361111111111],[-83.53722222222223,43.11361111111111],[-83.53722222222223,43.11361111111111],[-80.64777777777779,43.024166666666666],[-80.64777777777779,43.024166666666666],[-80.64777777777779,43.024166666666666],[-80.64777777777779,43.024166666666666],[-80.64777777777779,43.024166666666666],[-80.64777777777779,43.024166666666666],[-80.64777777777779,43.024166666666666],[-79.94666666666667,43.00111111111111],[-79.94666666666667,43.00111111111111],[-79.94666666666667,43.00111111111111],[-79.94666666666667,43.00111111111111],[-79.94666666666667,43.00111111111111],[-79.94666666666667,43.00111111111111],[-79.94666666666667,43.00111111111111],[-79.94666666666667,43.00111111111111],[-79.94666666666667,43.00111111111111],[-79.94666666666667,43.00111111111111],[-79.94666666666667,43.00111111111111],[-79.94666666666667,43.00111111111111],[-77.82694444444444,42.91416666666667],[-77.82694444444444,42.91416666666667],[-77.82694444444444,42.91416666666667],[-77.82694444444444,42.91416666666667],[-77.64361111111111,42.909166666666664],[-77.64361111111111,42.909166666666664],[-77.64361111111111,42.909166666666664],[-77.64361111111111,42.909166666666664],[-77.64361111111111,42.909166666666664],[-77.64361111111111,42.909166666666664],[-77.64361111111111,42.909166666666664],[-76.59277777777777,42.87694444444445],[-76.5525,42.87583333333333],[-76.5525,42.87583333333333],[-76.40944444444445,42.870555555555555],[-76.40944444444445,42.870555555555555],[-76.40944444444445,42.870555555555555],[-76.40944444444445,42.870555555555555],[-76.1863888888889,42.86222222222222],[-76.1863888888889,42.86222222222222],[-76.1863888888889,42.86222222222222],[-76.1863888888889,42.86222222222222],[-76.1863888888889,42.86222222222222],[-75.49555555555555,42.83388888888889],[-75.49555555555555,42.83388888888889],[-74.76194444444444,42.80083333333333],[-74.76194444444444,42.80083333333333],[-74.76194444444444,42.80083333333333],[-74.76194444444444,42.80083333333333],[-74.76194444444444,42.80083333333333],[-74.76194444444444,42.80083333333333],[-74.76194444444444,42.80083333333333],[-74.76194444444444,42.80083333333333],[-73.26805555555555,42.723333333333336],[-73.26805555555555,42.723333333333336],[-73.26805555555555,42.723333333333336],[-73.26805555555555,42.723333333333336],[-73.26805555555555,42.723333333333336],[-73.26805555555555,42.723333333333336],[-72.86472222222221,42.69888888888889],[-72.86472222222221,42.69888888888889],[-72.86472222222221,42.69888888888889],[-72.86472222222221,42.69888888888889],[-72.86472222222221,42.69888888888889],[-72.86472222222221,42.69888888888889],[-72.52166666666666,42.670833333333334],[-72.52166666666666,42.670833333333334],[-72.52166666666666,42.670833333333334],[-72.52166666666666,42.670833333333334],[-71.96666666666667,42.6],[-71.96666666666667,42.6],[-71.96666666666667,42.6],[-71.96666666666667,42.6],[-71.96666666666667,42.6],[-71.95055555555555,42.60277777777778],[-71.82222222222222,42.586666666666666],[-71.82222222222222,42.586666666666666],[-71.82222222222222,42.586666666666666],[-71.82222222222222,42.586666666666666],[-71.82222222222222,42.586666666666666],[-71.3,42.56666666666667],[-71.3,42.56666666666667],[-71.3,42.56666666666667],[-71.3,42.56666666666667],[-71.18333333333334,42.56666666666667],[-71.18333333333334,42.56666666666667],[-71.1,42.56666666666667],[-71.1,42.56666666666667],[-71.1,42.56666666666667],[-71.1,42.56666666666667],[-71.1,42.56666666666667],[-71.1,42.56666666666667],[-71.1,42.56666666666667],[-71.0125,42.13166666666667],[-71.0125,42.13166666666667],[-71.0125,42.13166666666667],[-71.0125,42.13166666666667],[-71.0125,42.13166666666667],[-71.0611111111111,42.09388888888889],[-71.0611111111111,42.09388888888889],[-71.08333333333333,42.11666666666667],[-71.08333333333333,42.11666666666667],[-71.08333333333333,42.11666666666667],[-71.08333333333333,42.11666666666667],[-71.08333333333333,42.11666666666667],[-71.08333333333333,42.11666666666667],[-71.08333333333333,42.11666666666667],[-71.08333333333333,42.11666666666667],[-71.06666666666666,42.2],[-71.06666666666666,42.2],[-71.06666666666666,42.2],[-71.03555555555555,42.30166666666666],[-71.03555555555555,42.30166666666666],[-71.03555555555555,42.30166666666666],[-71.03555555555555,42.30166666666666],[-71.03555555555555,42.30166666666666],[-71.03555555555555,42.30166666666666],[-71.03555555555555,42.30166666666666],[-71.03555555555555,42.30166666666666]],"type":"LineString"}
}
