{
  "id": 1981664423,
  "type": "Feature",
  "properties": {
    "geom:area": 0,
    "geom:bbox": "-122.354000,37.505610,-121.274980,37.612250",
    "geom:latitude": 37.549252371504934,
    "geom:longitude": -121.82176486896354,
    "src:alt_label": "swim-approach",
    "src:geom": "swim",
    "swim:elevations": [
      4646,
      4301,
      4113,
      3907,
      3685,
      3539,
      3276,
      3017,
      2787,
      2464,
      2213,
      2134,
      2134,
      2134,
      2119,
      1757,
      1561,
      1411,
      1165,
      967,
      772,
      668,
      611,
      529,
      465,
      252,
      169,
      40
    ],
    "swim:geom": "approach",
    "swim:timestamps": [
      1760466106,
      1760466148,
      1760466172,
      1760466199,
      1760466231,
      1760466254,
      1760466295,
      1760466323,
      1760466348,
      1760466379,
      1760466407,
      1760466440,
      1760466479,
      1760466483,
      1760466514,
      1760466567,
      1760466595,
      1760466613,
      1760466658,
      1760466682,
      1760466718,
      1760466738,
      1760466747,
      1760466763,
      1760466786,
      1760466834,
      1760466853,
      1760466889
    ],
    "wof:geomhash": "0ed434744eaf492a6c6a54cd84ad71b0",
    "wof:id": 1981664423,
    "wof:repo": "sfomuseum-data-flights-2025-10"
  },
  "bbox": [
    -122.354,
    37.50561,
    -121.27498,
    37.61225
  ],
  "geometry": {"coordinates":[[-121.27498,37.59092],[-121.35916,37.58148],[-121.40364,37.57636],[-121.45174,37.57102],[-121.50599,37.56492],[-121.54389,37.56044],[-121.61101,37.55247],[-121.65784,37.54815],[-121.69803,37.54422],[-121.74889,37.53922],[-121.79361,37.53461],[-121.84571,37.52915],[-121.90753,37.52294],[-121.91386,37.52227],[-121.96281,37.51715],[-122.03856,37.50947],[-122.07538,37.50561],[-122.09861,37.50641],[-122.14988,37.5259],[-122.17694,37.53763],[-122.21669,37.55448],[-122.23686,37.56296],[-122.24469,37.56628],[-122.25889,37.5722],[-122.27717,37.57993],[-122.31328,37.59516],[-122.32745,37.60109],[-122.354,37.61225]],"type":"LineString"}
}
