{
  "id": 1981558457,
  "type": "Feature",
  "properties": {
    "geom:area": 0,
    "geom:bbox": "-122.526220,37.626000,-121.287290,38.141090",
    "geom:latitude": 37.930876297635535,
    "geom:longitude": -122.0024949623032,
    "src:alt_label": "swim-takeoff",
    "src:geom": "swim",
    "swim:elevations": [
      122,
      409,
      897,
      1057,
      1372,
      1596,
      1955,
      2527,
      2886,
      2980,
      3560,
      3569,
      3680,
      3789,
      4140,
      4737,
      4954,
      5006,
      5258,
      5449,
      5814,
      6012,
      6305,
      6540,
      6705,
      6978,
      7510,
      7604
    ],
    "swim:geom": "takeoff",
    "swim:timestamps": [
      1759313272,
      1759313294,
      1759313333,
      1759313346,
      1759313391,
      1759313413,
      1759313440,
      1759313482,
      1759313515,
      1759313523,
      1759313577,
      1759313580,
      1759313598,
      1759313613,
      1759313643,
      1759313698,
      1759313717,
      1759313723,
      1759313756,
      1759313778,
      1759313815,
      1759313839,
      1759313871,
      1759313895,
      1759313915,
      1759313951,
      1759314013,
      1759314022
    ],
    "wof:geomhash": "f58e8aaa385562e309fbde29e2b34cc2",
    "wof:id": 1981558457,
    "wof:repo": "sfomuseum-data-flights-2025-10"
  },
  "bbox": [
    -122.52622,
    37.626,
    -121.28729,
    38.14109
  ],
  "geometry": {"coordinates":[[-122.39219,37.626],[-122.41323,37.63528],[-122.44986,37.65101],[-122.46173,37.65621],[-122.50964,37.6778],[-122.52467,37.69922],[-122.52622,37.735],[-122.52308,37.79151],[-122.47915,37.82345],[-122.46552,37.82798],[-122.3671,37.85603],[-122.36115,37.85763],[-122.32449,37.86772],[-122.29155,37.87692],[-122.22755,37.89375],[-122.10206,37.92683],[-122.05935,37.93838],[-122.04473,37.9424],[-121.96843,37.96271],[-121.91576,37.9765],[-121.82479,38.00075],[-121.76481,38.01648],[-121.68448,38.03761],[-121.6222,38.0539],[-121.57046,38.06743],[-121.47582,38.09208],[-121.3108,38.13504],[-121.28729,38.14109]],"type":"LineString"}
}
