{
  "id": 1981736709,
  "type": "Feature",
  "properties": {
    "geom:area": 0,
    "geom:bbox": "-127.431667,37.542778,-122.083333,40.831389",
    "geom:latitude": 39.2599885686812,
    "geom:longitude": -124.54652666585388,
    "src:alt_label": "swim-path",
    "src:geom": "swim",
    "swim:altitudes": [
      "370C",
      "370C",
      "370C",
      "370C",
      "370C",
      "370C",
      "370",
      "370",
      "370",
      "370",
      "370",
      "370",
      "370C",
      "370C",
      "370C",
      "370C",
      "370C",
      "370C",
      "370C",
      "370C",
      "370C",
      "370C",
      "370C",
      "370C",
      "370C",
      "368",
      "354",
      "354",
      "342",
      "328",
      "328",
      "298",
      "298",
      "298",
      "163",
      "163",
      "146",
      "146",
      "128",
      "113",
      "113",
      "110C",
      "110C",
      "110C",
      "108",
      "099",
      "073",
      "051",
      "051",
      "051",
      "031",
      "031",
      "029",
      "029",
      "023",
      "003",
      "003",
      "003"
    ],
    "swim:geom": "path",
    "swim:speeds": [
      514,
      514,
      514,
      514,
      512,
      512,
      520,
      520,
      510,
      510,
      520,
      520,
      522,
      522,
      522,
      522,
      516,
      516,
      510,
      510,
      502,
      502,
      501,
      502,
      502,
      503,
      501,
      501,
      503,
      502,
      502,
      468,
      468,
      468,
      380,
      380,
      369,
      369,
      357,
      341,
      341,
      317,
      317,
      267,
      252,
      254,
      242,
      228,
      228,
      228,
      195,
      195,
      183,
      183,
      188,
      143,
      143,
      143
    ],
    "swim:timestamps": [
      1761182808,
      1761182808,
      1761182808,
      1761182808,
      1761183169,
      1761183169,
      1761183208,
      1761183208,
      1761183268,
      1761183268,
      1761183328,
      1761183448,
      1761183469,
      1761183469,
      1761183469,
      1761183469,
      1761183709,
      1761183709,
      1761183769,
      1761183769,
      1761183829,
      1761183829,
      1761183950,
      1761184010,
      1761184010,
      1761184070,
      1761184130,
      1761184130,
      1761184190,
      1761184250,
      1761184250,
      1761184370,
      1761184370,
      1761184370,
      1761184860,
      1761184860,
      1761184919,
      1761184919,
      1761184980,
      1761185045,
      1761185045,
      1761185091,
      1761185091,
      1761185151,
      1761185160,
      1761185211,
      1761185331,
      1761185400,
      1761185400,
      1761185400,
      1761185511,
      1761185511,
      1761185525,
      1761185525,
      1761185571,
      1761185705,
      1761185705,
      1761185705
    ],
    "wof:geomhash": "5b9a1dda711c088ba0092eee53db6006",
    "wof:id": 1981736709,
    "wof:repo": "sfomuseum-data-flights-2025-10"
  },
  "bbox": [
    -127.43166666666667,
    37.54277777777778,
    -122.08333333333333,
    40.831388888888895
  ],
  "geometry": {"coordinates":[[-127.43166666666667,40.831388888888895],[-127.43166666666667,40.831388888888895],[-127.43166666666667,40.831388888888895],[-127.43166666666667,40.831388888888895],[-126.48611111111111,40.379444444444445],[-126.48611111111111,40.379444444444445],[-126.36666666666666,40.31666666666667],[-126.36666666666666,40.31666666666667],[-126.2,40.25],[-126.2,40.25],[-126.08333333333333,40.18333333333333],[-125.73333333333333,40.016666666666666],[-125.69583333333334,39.99305555555556],[-125.69583333333334,39.99305555555556],[-125.69583333333334,39.99305555555556],[-125.69583333333334,39.99305555555556],[-125.06194444444444,39.67638888888889],[-125.06194444444444,39.67638888888889],[-124.90944444444445,39.59916666666667],[-124.90944444444445,39.59916666666667],[-124.76027777777777,39.52333333333333],[-124.76027777777777,39.52333333333333],[-124.43805555555556,39.35805555555556],[-124.28611111111111,39.27972222222222],[-124.28611111111111,39.27972222222222],[-124.1375,39.20277777777778],[-123.98722222222223,39.12444444444444],[-123.98722222222223,39.12444444444444],[-123.83833333333332,39.046388888888885],[-123.69888888888889,38.96027777777778],[-123.69888888888889,38.96027777777778],[-123.45166666666667,38.76694444444444],[-123.45166666666667,38.76694444444444],[-123.45166666666667,38.76694444444444],[-122.71666666666667,38.03333333333333],[-122.71666666666667,38.03333333333333],[-122.68333333333334,37.93333333333333],[-122.68333333333334,37.93333333333333],[-122.61666666666666,37.85],[-122.53333333333333,37.766666666666666],[-122.53333333333333,37.766666666666666],[-122.4925,37.728611111111114],[-122.4925,37.728611111111114],[-122.40916666666668,37.689166666666665],[-122.38333333333334,37.68333333333333],[-122.32722222222222,37.66777777777777],[-122.16388888888889,37.626111111111115],[-122.08333333333333,37.583333333333336],[-122.08333333333333,37.583333333333336],[-122.08333333333333,37.583333333333336],[-122.17222222222223,37.54277777777778],[-122.17222222222223,37.54277777777778],[-122.2,37.55],[-122.2,37.55],[-122.2325,37.561388888888885],[-122.35,37.6],[-122.35,37.6],[-122.35,37.6]],"type":"LineString"}
}
