{
  "id": 1981570025,
  "type": "Feature",
  "properties": {
    "geom:area": 0,
    "geom:bbox": "-122.754030,37.393790,-122.096020,38.395530",
    "geom:latitude": 37.79965354523532,
    "geom:longitude": -122.45404060432706,
    "src:alt_label": "swim-approach",
    "src:geom": "swim",
    "swim:elevations": [
      7620,
      7441,
      7124,
      6876,
      6612,
      6275,
      6221,
      5676,
      5534,
      5389,
      5043,
      4841,
      4686,
      4103,
      3722,
      3452,
      3355,
      3353,
      3353,
      3353,
      3118,
      3024,
      2724,
      2543,
      2327,
      2268,
      1982,
      1805,
      1751,
      1611,
      1382,
      1219,
      1219,
      1219,
      1219,
      1219,
      852,
      698,
      593,
      516,
      344,
      235,
      126,
      64
    ],
    "swim:geom": "approach",
    "swim:timestamps": [
      1759499601,
      1759499622,
      1759499657,
      1759499686,
      1759499718,
      1759499755,
      1759499760,
      1759499806,
      1759499818,
      1759499837,
      1759499875,
      1759499897,
      1759499910,
      1759499956,
      1759499988,
      1759500019,
      1759500056,
      1759500070,
      1759500139,
      1759500171,
      1759500198,
      1759500211,
      1759500256,
      1759500287,
      1759500322,
      1759500331,
      1759500373,
      1759500400,
      1759500408,
      1759500427,
      1759500455,
      1759500487,
      1759500531,
      1759500560,
      1759500582,
      1759500604,
      1759500680,
      1759500716,
      1759500739,
      1759500762,
      1759500801,
      1759500833,
      1759500863,
      1759500882
    ],
    "wof:geomhash": "5c331225433ded3c1c1bee8d57851a39",
    "wof:id": 1981570025,
    "wof:repo": "sfomuseum-data-flights-2025-10"
  },
  "bbox": [
    -122.75403,
    37.39379,
    -122.09602,
    38.39553
  ],
  "geometry": {"coordinates":[[-122.49311,38.39553],[-122.53437,38.36978],[-122.59963,38.32901],[-122.65534,38.29451],[-122.71214,38.25924],[-122.7531,38.20188],[-122.75403,38.1927],[-122.73371,38.10876],[-122.72748,38.08701],[-122.7178,38.05346],[-122.69845,37.98609],[-122.68745,37.94866],[-122.6808,37.92549],[-122.63084,37.85947],[-122.58731,37.81797],[-122.54592,37.77872],[-122.49899,37.735],[-122.48177,37.71908],[-122.40909,37.65073],[-122.37573,37.61905],[-122.35157,37.59148],[-122.34252,37.57713],[-122.31698,37.52383],[-122.29662,37.49087],[-122.2945,37.45095],[-122.2957,37.44112],[-122.25453,37.4098],[-122.22111,37.39698],[-122.21219,37.39379],[-122.18715,37.3942],[-122.15119,37.40131],[-122.11224,37.41071],[-122.09854,37.45219],[-122.09602,37.47849],[-122.10672,37.49446],[-122.12129,37.50922],[-122.19191,37.54172],[-122.22227,37.55452],[-122.24135,37.56254],[-122.2601,37.5703],[-122.29028,37.58316],[-122.31384,37.59302],[-122.3358,37.60227],[-122.34987,37.60819]],"type":"LineString"}
}
