{
  "id": 1997538701,
  "type": "Feature",
  "properties": {
    "geom:area": 0,
    "geom:bbox": "-122.386460,37.629000,-121.255590,38.163670",
    "geom:latitude": 37.987919727126915,
    "geom:longitude": -121.93968635473395,
    "src:alt_label": "swim-takeoff",
    "src:geom": "swim",
    "swim:elevations": [
      122,
      540,
      727,
      899,
      1109,
      1327,
      1533,
      1661,
      2200,
      2414,
      2798,
      3355,
      3500,
      3790,
      4028,
      4355,
      4694,
      4984,
      5153,
      5434,
      5798,
      6006,
      6268,
      6346,
      6691,
      6845,
      6966
    ],
    "swim:geom": "takeoff",
    "swim:timestamps": [
      1761868339,
      1761868367,
      1761868384,
      1761868402,
      1761868429,
      1761868465,
      1761868489,
      1761868504,
      1761868545,
      1761868565,
      1761868595,
      1761868665,
      1761868691,
      1761868738,
      1761868761,
      1761868793,
      1761868826,
      1761868858,
      1761868876,
      1761868912,
      1761868945,
      1761868978,
      1761869007,
      1761869021,
      1761869067,
      1761869091,
      1761869109
    ],
    "wof:geomhash": "c0b1e9ff63953830a768f82769d176f4",
    "wof:id": 1997538701,
    "wof:repo": "sfomuseum-data-flights-2025-10"
  },
  "bbox": [
    -122.38646,
    37.629,
    -121.25559,
    38.16367
  ],
  "geometry": {"coordinates":[[-122.36572,37.629],[-122.3471,37.64755],[-122.33395,37.65836],[-122.32081,37.66954],[-122.3058,37.68905],[-122.32136,37.72322],[-122.33697,37.74777],[-122.34626,37.7646],[-122.37015,37.81261],[-122.38186,37.83571],[-122.38646,37.87535],[-122.33593,37.95691],[-122.28412,37.9655],[-122.18185,37.98141],[-122.12753,37.99223],[-122.05496,38.00655],[-121.97729,38.02223],[-121.90005,38.03749],[-121.85612,38.04648],[-121.76802,38.06373],[-121.68564,38.08009],[-121.6019,38.0966],[-121.52649,38.11126],[-121.49047,38.11832],[-121.36938,38.14172],[-121.30459,38.1542],[-121.25559,38.16367]],"type":"LineString"}
}
