{
  "id": 1997546623,
  "type": "Feature",
  "properties": {
    "geom:area": 0,
    "geom:bbox": "-122.016667,30.214722,-97.679444,38.266944",
    "geom:latitude": 35.52568950899783,
    "geom:longitude": -109.47074507456223,
    "src:alt_label": "swim-path",
    "src:geom": "swim",
    "swim:altitudes": [
      "114",
      "114",
      "114",
      "139",
      "139",
      "139",
      "183",
      "183",
      "217",
      "268",
      "268",
      "268",
      "268",
      "268",
      "330C",
      "330C",
      "330C",
      "330C",
      "330C",
      "330C",
      "330C",
      "330C",
      "330C",
      "330C",
      "330C",
      "330C",
      "330C",
      "330C",
      "330C",
      "330C",
      "330C",
      "330C",
      "330C",
      "330C",
      "330C",
      "330C",
      "330C",
      "330C",
      "330C",
      "330C",
      "330C",
      "330C",
      "330C",
      "330C",
      "330C",
      "330C",
      "330C",
      "330C",
      "330C",
      "330C",
      "330C",
      "330C",
      "330C",
      "330C",
      "330C",
      "330C",
      "330C",
      "330C",
      "330C",
      "330C",
      "330C",
      "330C",
      "330C",
      "330C",
      "330C",
      "330C",
      "330C",
      "330C",
      "330C",
      "330C",
      "330C",
      "330C",
      "330C",
      "330C",
      "330C",
      "330C",
      "330C",
      "330C",
      "330C",
      "330C",
      "330C",
      "330C",
      "330C",
      "330C",
      "330C",
      "330C",
      "330C",
      "330C",
      "330C",
      "330C",
      "330C",
      "330C",
      "330C",
      "330C",
      "330C",
      "330C",
      "330C",
      "330C",
      "330C",
      "330C",
      "330C",
      "330C",
      "330C",
      "330C",
      "330C",
      "330C",
      "330C",
      "330C",
      "330C",
      "330C",
      "330C",
      "330C",
      "330C",
      "330C",
      "330C",
      "330C",
      "330C",
      "330C",
      "330C",
      "330C",
      "330C",
      "330C",
      "330C",
      "330C",
      "330C",
      "330C",
      "330C",
      "330C",
      "330C",
      "330C",
      "330C",
      "330C",
      "330C",
      "330C",
      "330C",
      "330C",
      "330C",
      "330C",
      "330C",
      "330C",
      "330C",
      "330C",
      "330C",
      "330C",
      "330C",
      "330C",
      "330C",
      "330C",
      "330C",
      "318",
      "306",
      "306",
      "306",
      "287",
      "279",
      "279",
      "257",
      "257",
      "257",
      "233",
      "233",
      "233",
      "135",
      "135",
      "135",
      "093",
      "093",
      "051",
      "051",
      "051",
      "050",
      "050",
      "050",
      "022",
      "006",
      "006",
      "006",
      "006",
      "006"
    ],
    "swim:geom": "path",
    "swim:speeds": [
      325,
      325,
      325,
      349,
      349,
      349,
      365,
      365,
      393,
      415,
      415,
      415,
      415,
      415,
      436,
      436,
      436,
      436,
      437,
      436,
      436,
      446,
      446,
      446,
      442,
      442,
      442,
      440,
      440,
      440,
      442,
      442,
      442,
      441,
      441,
      441,
      441,
      441,
      441,
      441,
      442,
      442,
      442,
      442,
      443,
      443,
      457,
      457,
      457,
      457,
      457,
      456,
      458,
      460,
      460,
      460,
      460,
      460,
      460,
      460,
      460,
      460,
      460,
      460,
      460,
      467,
      467,
      469,
      469,
      469,
      469,
      466,
      466,
      466,
      466,
      466,
      466,
      466,
      468,
      468,
      468,
      464,
      465,
      465,
      465,
      465,
      466,
      466,
      466,
      466,
      466,
      466,
      466,
      466,
      466,
      466,
      466,
      467,
      468,
      481,
      481,
      481,
      484,
      484,
      484,
      484,
      484,
      489,
      489,
      494,
      494,
      487,
      487,
      489,
      489,
      489,
      492,
      492,
      492,
      492,
      492,
      492,
      492,
      492,
      491,
      494,
      494,
      494,
      494,
      494,
      494,
      493,
      493,
      493,
      493,
      493,
      493,
      492,
      492,
      492,
      492,
      491,
      482,
      480,
      474,
      474,
      474,
      474,
      474,
      470,
      471,
      471,
      471,
      474,
      475,
      475,
      468,
      468,
      468,
      450,
      450,
      450,
      390,
      390,
      390,
      312,
      312,
      277,
      277,
      277,
      249,
      249,
      249,
      194,
      154,
      154,
      154,
      154,
      154
    ],
    "swim:timestamps": [
      1761942005,
      1761942005,
      1761942005,
      1761942056,
      1761942056,
      1761942056,
      1761942186,
      1761942186,
      1761942306,
      1761942486,
      1761942486,
      1761942486,
      1761942486,
      1761942486,
      1761943027,
      1761943027,
      1761943027,
      1761943027,
      1761943052,
      1761943112,
      1761943112,
      1761943472,
      1761943472,
      1761943472,
      1761943507,
      1761943507,
      1761943507,
      1761943567,
      1761943567,
      1761943567,
      1761943868,
      1761944013,
      1761944013,
      1761944168,
      1761944168,
      1761944168,
      1761944194,
      1761944194,
      1761944194,
      1761944194,
      1761944915,
      1761944915,
      1761944915,
      1761944915,
      1761945035,
      1761945035,
      1761945155,
      1761945155,
      1761945155,
      1761945155,
      1761945155,
      1761945215,
      1761945516,
      1761945541,
      1761945541,
      1761945541,
      1761945601,
      1761945601,
      1761945696,
      1761945696,
      1761945696,
      1761945816,
      1761945816,
      1761945936,
      1761945936,
      1761946057,
      1761946057,
      1761946142,
      1761946142,
      1761946142,
      1761946142,
      1761946477,
      1761946477,
      1761946477,
      1761946502,
      1761946502,
      1761946502,
      1761946502,
      1761946887,
      1761946887,
      1761946887,
      1761947223,
      1761947248,
      1761947248,
      1761947248,
      1761947368,
      1761947403,
      1761947403,
      1761947428,
      1761947428,
      1761947463,
      1761947463,
      1761947488,
      1761947488,
      1761947488,
      1761947548,
      1761947548,
      1761947644,
      1761947668,
      1761947969,
      1761947969,
      1761947969,
      1761948089,
      1761948089,
      1761948089,
      1761948089,
      1761948089,
      1761948209,
      1761948209,
      1761948329,
      1761948329,
      1761948630,
      1761948630,
      1761948690,
      1761948690,
      1761948690,
      1761948878,
      1761948878,
      1761948878,
      1761948878,
      1761948878,
      1761948878,
      1761948930,
      1761948930,
      1761949111,
      1761949291,
      1761949358,
      1761949358,
      1761949418,
      1761949418,
      1761949418,
      1761949651,
      1761949651,
      1761949651,
      1761949651,
      1761949651,
      1761949651,
      1761950370,
      1761950370,
      1761950370,
      1761950370,
      1761950490,
      1761950560,
      1761950730,
      1761950971,
      1761950971,
      1761950971,
      1761951031,
      1761951041,
      1761951211,
      1761951281,
      1761951281,
      1761951281,
      1761951401,
      1761951451,
      1761951451,
      1761951581,
      1761951581,
      1761951581,
      1761951702,
      1761951702,
      1761951702,
      1761951992,
      1761951992,
      1761951992,
      1761952173,
      1761952173,
      1761952353,
      1761952353,
      1761952353,
      1761952413,
      1761952413,
      1761952413,
      1761952593,
      1761952713,
      1761952713,
      1761952713,
      1761952713,
      1761952713
    ],
    "wof:geomhash": "af6a16fb35d5e62e01b4cbbac725d10b",
    "wof:id": 1997546623,
    "wof:repo": "sfomuseum-data-flights-2025-10"
  },
  "bbox": [
    -122.01666666666667,
    30.21472222222222,
    -97.67944444444444,
    38.26694444444444
  ],
  "geometry": {"coordinates":[[-122.01666666666667,37.81944444444445],[-122.01666666666667,37.81944444444445],[-122.01666666666667,37.81944444444445],[-121.9,37.85],[-121.9,37.85],[-121.9,37.85],[-121.63361111111112,37.89472222222222],[-121.63361111111112,37.89472222222222],[-121.36999999999999,37.94305555555555],[-120.95111111111112,38.014722222222225],[-120.95111111111112,38.014722222222225],[-120.95111111111112,38.014722222222225],[-120.95111111111112,38.014722222222225],[-120.95111111111112,38.014722222222225],[-119.59861111111111,38.21555555555556],[-119.59861111111111,38.21555555555556],[-119.59861111111111,38.21555555555556],[-119.59861111111111,38.21555555555556],[-119.55222222222221,38.221944444444446],[-119.39888888888889,38.22944444444445],[-119.39888888888889,38.22944444444445],[-118.46638888888889,38.24861111111111],[-118.46638888888889,38.24861111111111],[-118.46638888888889,38.24861111111111],[-118.34083333333332,38.25083333333333],[-118.34083333333332,38.25083333333333],[-118.34083333333332,38.25083333333333],[-118.18666666666667,38.25333333333333],[-118.18666666666667,38.25333333333333],[-118.18666666666667,38.25333333333333],[-117.42305555555556,38.2625],[-117.04166666666667,38.265277777777776],[-117.04166666666667,38.265277777777776],[-116.63361111111112,38.26694444444444],[-116.63361111111112,38.26694444444444],[-116.63361111111112,38.26694444444444],[-116.57249999999999,38.26694444444444],[-116.57249999999999,38.26694444444444],[-116.57249999999999,38.26694444444444],[-116.57249999999999,38.26694444444444],[-114.73444444444445,38.25527777777778],[-114.73444444444445,38.25527777777778],[-114.73444444444445,38.25527777777778],[-114.73444444444445,38.25527777777778],[-114.42027777777778,38.24888888888889],[-114.42027777777778,38.24888888888889],[-114.11611111111111,38.16638888888889],[-114.11611111111111,38.16638888888889],[-114.11611111111111,38.16638888888889],[-114.11611111111111,38.16638888888889],[-114.11611111111111,38.16638888888889],[-113.96666666666667,38.12083333333334],[-113.21916666666667,37.89],[-113.12722222222222,37.861111111111114],[-113.12722222222222,37.861111111111114],[-113.12722222222222,37.861111111111114],[-112.97583333333334,37.81333333333333],[-112.97583333333334,37.81333333333333],[-112.76222222222222,37.74583333333334],[-112.76222222222222,37.74583333333334],[-112.76222222222222,37.74583333333334],[-112.45805555555556,37.64861111111111],[-112.45805555555556,37.64861111111111],[-112.16166666666668,37.552499999999995],[-112.16166666666668,37.552499999999995],[-111.87083333333332,37.43722222222222],[-111.87083333333332,37.43722222222222],[-111.67333333333333,37.34055555555556],[-111.67333333333333,37.34055555555556],[-111.67333333333333,37.34055555555556],[-111.67333333333333,37.34055555555556],[-110.9,36.95722222222223],[-110.9,36.95722222222223],[-110.9,36.95722222222223],[-110.8461111111111,36.930277777777775],[-110.8461111111111,36.930277777777775],[-110.8461111111111,36.930277777777775],[-110.8461111111111,36.930277777777775],[-109.94194444444445,36.473055555555554],[-109.94194444444445,36.473055555555554],[-109.94194444444445,36.473055555555554],[-109.16944444444445,36.11027777777778],[-109.1438888888889,36.098333333333336],[-109.1438888888889,36.098333333333336],[-109.1438888888889,36.098333333333336],[-108.8561111111111,35.961666666666666],[-108.76638888888888,35.91833333333333],[-108.76638888888888,35.91833333333333],[-108.72083333333333,35.896388888888886],[-108.72083333333333,35.896388888888886],[-108.62916666666666,35.852222222222224],[-108.62916666666666,35.852222222222224],[-108.57416666666666,35.82555555555556],[-108.57416666666666,35.82555555555556],[-108.57416666666666,35.82555555555556],[-108.43861111111111,35.76],[-108.43861111111111,35.76],[-108.21888888888888,35.65333333333333],[-108.16444444444446,35.626666666666665],[-107.46694444444445,35.2825],[-107.46694444444445,35.2825],[-107.46694444444445,35.2825],[-107.18555555555555,35.141666666666666],[-107.18555555555555,35.141666666666666],[-107.18555555555555,35.141666666666666],[-107.18555555555555,35.141666666666666],[-107.18555555555555,35.141666666666666],[-106.89194444444445,34.99333333333333],[-106.89194444444445,34.99333333333333],[-106.60888888888888,34.84916666666667],[-106.60888888888888,34.84916666666667],[-105.91250000000001,34.489444444444445],[-105.91250000000001,34.489444444444445],[-105.77444444444444,34.41722222222222],[-105.77444444444444,34.41722222222222],[-105.77444444444444,34.41722222222222],[-105.31777777777778,34.20583333333334],[-105.31777777777778,34.20583333333334],[-105.31777777777778,34.20583333333334],[-105.31777777777778,34.20583333333334],[-105.31777777777778,34.20583333333334],[-105.31777777777778,34.20583333333334],[-105.19638888888889,34.151111111111106],[-105.19638888888889,34.151111111111106],[-104.74722222222222,33.947222222222216],[-104.31305555555555,33.7475],[-104.16527777777779,33.678888888888885],[-104.16527777777779,33.678888888888885],[-104.02111111111111,33.61194444444445],[-104.02111111111111,33.61194444444445],[-104.02111111111111,33.61194444444445],[-103.47611111111111,33.35583333333334],[-103.47611111111111,33.35583333333334],[-103.47611111111111,33.35583333333334],[-103.47611111111111,33.35583333333334],[-103.47611111111111,33.35583333333334],[-103.47611111111111,33.35583333333334],[-101.79527777777777,32.53972222222222],[-101.79527777777777,32.53972222222222],[-101.79527777777777,32.53972222222222],[-101.79527777777777,32.53972222222222],[-101.51805555555555,32.40222222222222],[-101.35805555555555,32.29111111111111],[-101.03833333333333,32.05],[-100.57944444444443,31.7],[-100.57944444444443,31.7],[-100.57944444444443,31.7],[-100.46416666666667,31.61138888888889],[-100.43916666666667,31.592222222222222],[-100.12166666666666,31.346666666666664],[-99.96055555555556,31.268055555555556],[-99.96055555555556,31.268055555555556],[-99.96055555555556,31.268055555555556],[-99.67888888888889,31.15611111111111],[-99.56944444444444,31.112222222222222],[-99.56944444444444,31.112222222222222],[-99.26472222222222,30.990277777777777],[-99.26472222222222,30.990277777777777],[-99.26472222222222,30.990277777777777],[-98.99916666666667,30.8825],[-98.99916666666667,30.8825],[-98.99916666666667,30.8825],[-98.38861111111112,30.741944444444446],[-98.38861111111112,30.741944444444446],[-98.38861111111112,30.741944444444446],[-98.08638888888889,30.622777777777777],[-98.08638888888889,30.622777777777777],[-97.84666666666666,30.498055555555556],[-97.84666666666666,30.498055555555556],[-97.84666666666666,30.498055555555556],[-97.78416666666666,30.452222222222222],[-97.78416666666666,30.452222222222222],[-97.78416666666666,30.452222222222222],[-97.68194444444445,30.301111111111112],[-97.67944444444444,30.21472222222222],[-97.67944444444444,30.21472222222222],[-97.67944444444444,30.21472222222222],[-97.67944444444444,30.21472222222222],[-97.67944444444444,30.21472222222222]],"type":"LineString"}
}
