{
  "id": 1981623667,
  "type": "Feature",
  "properties": {
    "geom:area": 0,
    "geom:bbox": "-122.362970,36.733850,-121.887150,37.613240",
    "geom:latitude": 37.21686271747731,
    "geom:longitude": -122.07367965740733,
    "src:alt_label": "swim-approach",
    "src:geom": "swim",
    "swim:elevations": [
      4605,
      4261,
      4029,
      3868,
      3552,
      3316,
      3274,
      3116,
      3043,
      3048,
      2962,
      2803,
      2728,
      2616,
      2226,
      1975,
      1839,
      1691,
      1550,
      1429,
      1158,
      951,
      911,
      666,
      584,
      570,
      477,
      298,
      192,
      38,
      81
    ],
    "swim:geom": "approach",
    "swim:timestamps": [
      1760005202,
      1760005246,
      1760005281,
      1760005305,
      1760005348,
      1760005376,
      1760005387,
      1760005431,
      1760005448,
      1760005486,
      1760005526,
      1760005553,
      1760005568,
      1760005591,
      1760005644,
      1760005675,
      1760005700,
      1760005718,
      1760005742,
      1760005771,
      1760005823,
      1760005857,
      1760005874,
      1760005907,
      1760005926,
      1760005930,
      1760005953,
      1760005993,
      1760006019,
      1760006061,
      1760006071
    ],
    "wof:geomhash": "edc0e5f7b336383fac621b4069692697",
    "wof:id": 1981623667,
    "wof:repo": "sfomuseum-data-flights-2025-10"
  },
  "bbox": [
    -122.36297,
    36.73385,
    -121.88715,
    37.61324
  ],
  "geometry": {"coordinates":[[-121.88715,36.73385],[-121.91254,36.80783],[-121.92738,36.86089],[-121.93759,36.89742],[-121.95593,36.95942],[-121.97185,36.99986],[-121.97807,37.01595],[-121.99962,37.07157],[-122.00748,37.0916],[-122.02506,37.13633],[-122.0436,37.18397],[-122.05556,37.21488],[-122.06219,37.23186],[-122.07275,37.25845],[-122.09562,37.3159],[-122.10872,37.3496],[-122.11875,37.37506],[-122.12502,37.39277],[-122.1332,37.4169],[-122.14344,37.44601],[-122.16831,37.49494],[-122.19035,37.52562],[-122.2019,37.54064],[-122.23451,37.55906],[-122.25286,37.56709],[-122.25649,37.56868],[-122.27642,37.57718],[-122.30636,37.58968],[-122.32549,37.59775],[-122.35592,37.61066],[-122.36297,37.61324]],"type":"LineString"}
}
