{
  "id": 1981740031,
  "type": "Feature",
  "properties": {
    "geom:area": 0,
    "geom:bbox": "-122.367440,37.626440,-121.429560,38.518770",
    "geom:latitude": 38.105264566801885,
    "geom:longitude": -121.93468751831041,
    "src:alt_label": "swim-takeoff",
    "src:geom": "swim",
    "swim:elevations": [
      152,
      639,
      926,
      1040,
      1703,
      2666,
      3154,
      3533,
      3907,
      4309,
      4399,
      4665,
      4706,
      5200,
      5582,
      5658,
      5885,
      5912,
      6329,
      6603,
      6857,
      7212,
      7635,
      7728,
      8045,
      8123
    ],
    "swim:geom": "takeoff",
    "swim:timestamps": [
      1761135198,
      1761135234,
      1761135267,
      1761135278,
      1761135325,
      1761135378,
      1761135411,
      1761135437,
      1761135464,
      1761135507,
      1761135518,
      1761135566,
      1761135571,
      1761135617,
      1761135654,
      1761135662,
      1761135687,
      1761135690,
      1761135730,
      1761135757,
      1761135781,
      1761135815,
      1761135866,
      1761135880,
      1761135921,
      1761135930
    ],
    "wof:geomhash": "bfd783c14d06a16729e18775d927ed26",
    "wof:id": 1981740031,
    "wof:repo": "sfomuseum-data-flights-2025-10"
  },
  "bbox": [
    -122.36744,
    37.62644,
    -121.42956,
    38.51877
  ],
  "geometry": {"coordinates":[[-122.36744,37.62644],[-122.34963,37.65246],[-122.33004,37.68231],[-122.3232,37.69256],[-122.28924,37.74562],[-122.2519,37.80603],[-122.24112,37.84739],[-122.22421,37.87977],[-122.19333,37.90594],[-122.14229,37.94994],[-122.12755,37.96231],[-122.05858,38.02064],[-122.05122,38.02694],[-121.97858,38.08757],[-121.91818,38.13803],[-121.90599,38.14825],[-121.86449,38.18306],[-121.85953,38.18722],[-121.79286,38.24303],[-121.74626,38.28196],[-121.70527,38.31608],[-121.64626,38.36511],[-121.55625,38.43808],[-121.52988,38.45641],[-121.44667,38.50826],[-121.42956,38.51877]],"type":"LineString"}
}
