{
  "id": 1997542697,
  "type": "Feature",
  "properties": {
    "geom:area": 0,
    "geom:bbox": "-122.478400,37.410180,-122.126520,37.715470",
    "geom:latitude": 37.5369207025017,
    "geom:longitude": -122.31261723883699,
    "src:alt_label": "swim-approach",
    "src:geom": "swim",
    "swim:elevations": [
      3663,
      3593,
      3537,
      3353,
      3353,
      3224,
      2817,
      2415,
      2162,
      1979,
      1797
    ],
    "swim:geom": "approach",
    "swim:timestamps": [
      1761930415,
      1761930440,
      1761930454,
      1761930509,
      1761930526,
      1761930546,
      1761930611,
      1761930685,
      1761930728,
      1761930759,
      1761930801
    ],
    "wof:geomhash": "4d3ff66fabb2dfd30781d49fa15e9b3f",
    "wof:id": 1997542697,
    "wof:repo": "sfomuseum-data-flights-2025-10"
  },
  "bbox": [
    -122.4784,
    37.41018,
    -122.12652,
    37.71547
  ],
  "geometry": {"coordinates":[[-122.4784,37.71547],[-122.45282,37.69163],[-122.43951,37.67908],[-122.38691,37.62945],[-122.37018,37.61358],[-122.3528,37.59333],[-122.31413,37.51923],[-122.2654,37.44035],[-122.21128,37.41897],[-122.16832,37.41018],[-122.12652,37.43224]],"type":"LineString"}
}
