{
  "id": 1981746587,
  "type": "Feature",
  "properties": {
    "geom:area": 0,
    "geom:bbox": "-122.770000,37.620000,-0.460000,64.070000",
    "geom:latitude": 57.51641762618151,
    "geom:longitude": -63.542216393756185,
    "src:alt_label": "swim-route",
    "src:geom": "swim",
    "swim:geom": "route",
    "wof:geomhash": "5359dc3e2733d4ffe1a391f029a41d8c",
    "wof:id": 1981746587,
    "wof:repo": "sfomuseum-data-flights-2025-10"
  },
  "bbox": [
    -122.77,
    37.62,
    -0.46,
    64.07
  ],
  "geometry": {"coordinates":[[-0.46,51.48],[-3.9,53.5],[-4.14,53.64],[-5.5,54.36],[-7.14,55.17],[-7.61,55.39],[-10,56.47],[-12.46,57.47],[-15.06,58.42],[-25.26,61.27],[-38.35,63.35],[-40.74,63.58],[-42.49,63.72],[-47.82,64],[-55.03,64.07],[-56.27,64.05],[-63,63.73],[-73.67,62.54],[-76.9,61.99],[-80,61.37],[-83.29,60.6],[-89.38,58.84],[-90.8,58.36],[-94.84,56.83],[-100.37,54.27],[-102.38,53.18],[-103.48,52.55],[-105.72,51.34],[-109.59,49],[-112.42,47.03],[-113.32,46.36],[-114.84,45.18],[-115.26,44.84],[-116.29,43.98],[-116.49,43.81],[-117.09,43.29],[-117.87,42.59],[-118.2,42.2],[-118.52,41.82],[-118.83,41.44],[-119.38,40.94],[-119.56,40.79],[-119.73,40.63],[-120.24,40.15],[-120.58,39.84],[-120.91,39.51],[-121.1,39.34],[-121.28,39.23],[-121.33,39.2],[-121.67,39],[-121.73,38.96],[-121.99,38.81],[-122.04,38.78],[-122.22,38.67],[-122.26,38.65],[-122.44,38.55],[-122.44,38.54],[-122.68,38.31],[-122.69,38.3],[-122.77,38.22],[-122.75,38.16],[-122.72,38.06],[-122.69,37.95],[-122.67,37.9],[-122.67,37.9],[-122.65,37.87],[-122.62,37.85],[-122.59,37.82],[-122.58,37.81],[-122.51,37.74],[-122.5,37.73],[-122.44,37.68],[-122.37,37.62],[-122.38,37.62]],"type":"LineString"}
}
