{
  "id": 1981659061,
  "type": "Feature",
  "properties": {
    "geom:area": 0,
    "geom:bbox": "-121.833570,37.486660,-121.252660,37.594130",
    "geom:latitude": 37.554515750854456,
    "geom:longitude": -121.54804451660654,
    "src:alt_label": "swim-approach",
    "src:geom": "swim",
    "swim:elevations": [
      4733,
      4695,
      4488,
      4286,
      3943,
      3708,
      3435,
      3319,
      3263,
      3226,
      3117,
      2810,
      2743,
      2597,
      2407,
      2299
    ],
    "swim:geom": "approach",
    "swim:timestamps": [
      1760369515,
      1760369520,
      1760369542,
      1760369565,
      1760369603,
      1760369630,
      1760369662,
      1760369677,
      1760369692,
      1760369713,
      1760369731,
      1760369785,
      1760369806,
      1760369827,
      1760369863,
      1760369882
    ],
    "wof:geomhash": "7b78c209c2f61ed3a66458f404c62fda",
    "wof:id": 1981659061,
    "wof:repo": "sfomuseum-data-flights-2025-10"
  },
  "bbox": [
    -121.83357,
    37.48666,
    -121.25266,
    37.59413
  ],
  "geometry": {"coordinates":[[-121.25266,37.59413],[-121.26159,37.59297],[-121.30286,37.58788],[-121.34538,37.58335],[-121.41587,37.57532],[-121.4659,37.56943],[-121.52434,37.5625],[-121.5516,37.55945],[-121.57831,37.55638],[-121.61298,37.5523],[-121.64122,37.5469],[-121.72101,37.5279],[-121.75072,37.52091],[-121.77912,37.514],[-121.82162,37.50174],[-121.83357,37.48666]],"type":"LineString"}
}
