{
  "id": 1981709497,
  "type": "Feature",
  "properties": {
    "geom:area": 0,
    "geom:bbox": "-122.358940,37.491840,-121.248670,37.614290",
    "geom:latitude": 37.54694856016761,
    "geom:longitude": -121.80866607156985,
    "src:alt_label": "swim-approach",
    "src:geom": "swim",
    "swim:elevations": [
      5183,
      5034,
      4748,
      4629,
      4407,
      4230,
      4031,
      3762,
      3616,
      3155,
      3071,
      2852,
      2527,
      2365,
      2189,
      2040,
      1937,
      1823,
      1562,
      1430,
      1237,
      1188,
      1003,
      792,
      518,
      0
    ],
    "swim:geom": "approach",
    "swim:timestamps": [
      1760920256,
      1760920275,
      1760920317,
      1760920341,
      1760920374,
      1760920395,
      1760920419,
      1760920463,
      1760920479,
      1760920523,
      1760920540,
      1760920572,
      1760920617,
      1760920641,
      1760920667,
      1760920700,
      1760920727,
      1760920764,
      1760920791,
      1760920804,
      1760920828,
      1760920837,
      1760920874,
      1760920914,
      1760920989,
      1760921147
    ],
    "wof:geomhash": "7e8fbfc99fbb7e45319d0eb5d92c0562",
    "wof:id": 1981709497,
    "wof:repo": "sfomuseum-data-flights-2025-10"
  },
  "bbox": [
    -122.35894,
    37.49184,
    -121.24867,
    37.61429
  ],
  "geometry": {"coordinates":[[-121.24867,37.59461],[-121.28226,37.59032],[-121.35513,37.58218],[-121.39535,37.57753],[-121.44853,37.57132],[-121.48178,37.56749],[-121.51948,37.56297],[-121.58552,37.55524],[-121.60923,37.55243],[-121.67268,37.5394],[-121.6965,37.53359],[-121.73997,37.5232],[-121.799,37.50912],[-121.83018,37.50161],[-121.86332,37.49366],[-121.90773,37.49184],[-121.94427,37.49282],[-121.99349,37.49692],[-122.02876,37.50802],[-122.0454,37.51342],[-122.07578,37.5231],[-122.08655,37.52675],[-122.12844,37.5405],[-122.17013,37.554],[-122.24154,37.57695],[-122.35894,37.61429]],"type":"LineString"}
}
