{
  "id": 1997547241,
  "type": "Feature",
  "properties": {
    "geom:area": 0,
    "geom:bbox": "-123.505340,37.024220,-122.393750,37.670390",
    "geom:latitude": 37.37691003988581,
    "geom:longitude": -122.95562156100775,
    "src:alt_label": "swim-takeoff",
    "src:geom": "swim",
    "swim:elevations": [
      152,
      265,
      790,
      1104,
      1231,
      1295,
      1575,
      1762,
      2312,
      2593,
      2981,
      3244,
      3258,
      3451,
      3630,
      3707,
      3904,
      3958,
      4191,
      4393,
      4631,
      4799,
      4970,
      5215,
      5350,
      5566,
      5607
    ],
    "swim:geom": "takeoff",
    "swim:timestamps": [
      1761953937,
      1761953948,
      1761953997,
      1761954046,
      1761954085,
      1761954097,
      1761954128,
      1761954140,
      1761954191,
      1761954217,
      1761954258,
      1761954297,
      1761954300,
      1761954327,
      1761954354,
      1761954369,
      1761954418,
      1761954433,
      1761954477,
      1761954507,
      1761954537,
      1761954564,
      1761954588,
      1761954626,
      1761954652,
      1761954687,
      1761954693
    ],
    "wof:geomhash": "6f09932c0321ace24f305721d96fdc56",
    "wof:id": 1997547241,
    "wof:repo": "sfomuseum-data-flights-2025-10"
  },
  "bbox": [
    -123.50534,
    37.02422,
    -122.39375,
    37.67039
  ],
  "geometry": {"coordinates":[[-122.39375,37.62658],[-122.40413,37.63086],[-122.45069,37.65125],[-122.50229,37.67039],[-122.54758,37.64872],[-122.56146,37.63874],[-122.60022,37.61258],[-122.61541,37.60261],[-122.6821,37.55978],[-122.71528,37.53849],[-122.77013,37.50308],[-122.82372,37.46827],[-122.82799,37.46549],[-122.86726,37.44],[-122.90734,37.414],[-122.93018,37.39935],[-123.00901,37.34846],[-123.03442,37.33217],[-123.111,37.28268],[-123.164,37.2482],[-123.21848,37.21259],[-123.26758,37.18045],[-123.31151,37.15165],[-123.38091,37.10615],[-123.42928,37.07439],[-123.49408,37.03158],[-123.50534,37.02422]],"type":"LineString"}
}
