{
  "id": 1981783443,
  "type": "Feature",
  "properties": {
    "geom:area": 0,
    "geom:bbox": "-122.380000,37.620000,-73.780000,42.190000",
    "geom:latitude": 39.5093581924821,
    "geom:longitude": -97.80870674899441,
    "src:alt_label": "swim-route",
    "src:geom": "swim",
    "swim:geom": "route",
    "wof:geomhash": "3a6a907638fb615350a9c618b1738c8a",
    "wof:id": 1981783443,
    "wof:repo": "sfomuseum-data-flights-2025-10"
  },
  "bbox": [
    -122.38,
    37.62,
    -73.78,
    42.19
  ],
  "geometry": {"coordinates":[[-122.38,37.62],[-122.27,37.69],[-122.26,37.69],[-122.26,37.69],[-122.21,37.72],[-122.2,37.73],[-122.2,37.73],[-122.17,37.74],[-122.17,37.74],[-122.16,37.75],[-122.11,37.77],[-122.1,37.78],[-122,37.83],[-121.93,37.84],[-121.73,37.88],[-121.7,37.88],[-121.63,37.9],[-121.53,37.91],[-121.34,37.95],[-121.33,37.95],[-121.12,37.99],[-121.1,37.99],[-120.98,38.01],[-120.95,38.02],[-120.86,38.03],[-120.55,38.08],[-120.46,38.09],[-120.44,38.09],[-119.18,38.27],[-118.92,38.31],[-117.85,38.45],[-117.29,38.52],[-117.28,38.52],[-113.86,38.4],[-113.01,38.36],[-112.31,38.38],[-111.91,38.39],[-110.7,38.42],[-110.45,38.42],[-110.28,38.43],[-109.98,38.43],[-108.61,38.45],[-108.44,38.45],[-108.24,38.45],[-107.04,38.45],[-106.87,38.44],[-105.76,38.38],[-105.09,38.34],[-104.44,38.37],[-104.24,38.38],[-104.19,38.38],[-103.78,38.4],[-103.48,38.41],[-102.65,38.45],[-102.38,38.49],[-101.74,38.61],[-101.01,38.71],[-100.87,38.73],[-100.61,38.77],[-99.98,38.88],[-99.26,38.99],[-96.23,39.41],[-94.89,39.58],[-93.9,39.68],[-91.74,39.89],[-91.72,39.89],[-91.53,39.91],[-91.3,39.93],[-91.57,39.9],[-90.6,39.98],[-89.84,40.04],[-88.15,40.14],[-86.49,40.22],[-85.7,40.25],[-85.28,40.26],[-84.04,40.29],[-83.36,40.67],[-83.31,40.7],[-82.55,41.14],[-82.05,41.34],[-80.89,41.69],[-80.39,41.83],[-79.12,42.19],[-77.85,41.87],[-77.55,41.79],[-77.49,41.77],[-77.15,41.68],[-76.74,41.57],[-76.6,41.53],[-76.52,41.51],[-76.16,41.41],[-76.06,41.38],[-75.98,41.35],[-75.81,41.31],[-75.69,41.27],[-75.64,41.26],[-75.5,41.21],[-75.43,41.19],[-75.33,41.15],[-75.29,41.14],[-75.17,41.1],[-75.11,41.08],[-75.09,41.07],[-75.05,41.06],[-74.99,41.04],[-74.93,41.02],[-74.92,41.01],[-74.89,41],[-74.87,41],[-74.86,41],[-74.84,40.99],[-74.77,40.98],[-74.73,40.98],[-74.67,40.97],[-74.66,40.97],[-74.44,40.95],[-74.4,40.94],[-74.36,40.94],[-74.3,40.93],[-74.25,40.92],[-74.2,40.92],[-74.2,40.92],[-74.16,40.91],[-74.15,40.91],[-74.12,40.91],[-74.1,40.9],[-74.06,40.88],[-74,40.85],[-74,40.85],[-73.97,40.83],[-73.97,40.83],[-73.96,40.83],[-73.93,40.81],[-73.91,40.8],[-73.88,40.79],[-73.87,40.78],[-73.85,40.75],[-73.84,40.73],[-73.83,40.71],[-73.78,40.64]],"type":"LineString"}
}
