{
  "id": 1981808571,
  "type": "Feature",
  "properties": {
    "geom:area": 0,
    "geom:bbox": "-122.368110,37.629610,-121.248050,38.136750",
    "geom:latitude": 37.921636896650845,
    "geom:longitude": -121.83282876385881,
    "src:alt_label": "swim-takeoff",
    "src:geom": "swim",
    "swim:elevations": [
      183,
      620,
      752,
      976,
      1066,
      1242,
      1535,
      2079,
      2120,
      2519,
      2801,
      3193,
      3301,
      3423,
      3451,
      3631,
      3819,
      3976,
      4146,
      4391,
      4582,
      4909,
      5103,
      5216
    ],
    "swim:geom": "takeoff",
    "swim:timestamps": [
      1761809452,
      1761809487,
      1761809501,
      1761809544,
      1761809573,
      1761809596,
      1761809617,
      1761809668,
      1761809671,
      1761809715,
      1761809744,
      1761809788,
      1761809815,
      1761809845,
      1761809854,
      1761809895,
      1761809937,
      1761809959,
      1761809978,
      1761810012,
      1761810036,
      1761810085,
      1761810115,
      1761810135
    ],
    "wof:geomhash": "6488e19827ffd3d2676fe243fb2c2eca",
    "wof:id": 1981808571,
    "wof:repo": "sfomuseum-data-flights-2025-10"
  },
  "bbox": [
    -122.36811,
    37.62961,
    -121.24805,
    38.13675
  ],
  "geometry": {"coordinates":[[-122.36811,37.62961],[-122.34469,37.64801],[-122.33282,37.65445],[-122.29418,37.67552],[-122.26187,37.69362],[-122.23123,37.71036],[-122.21242,37.73214],[-122.17811,37.79227],[-122.17604,37.79584],[-122.13421,37.84159],[-122.08545,37.85792],[-122.01328,37.88219],[-121.96457,37.8986],[-121.9073,37.91778],[-121.89043,37.92339],[-121.80375,37.95235],[-121.71164,37.98316],[-121.66114,37.99995],[-121.61772,38.01442],[-121.53891,38.04069],[-121.484,38.05886],[-121.36711,38.09753],[-121.2949,38.1213],[-121.24805,38.13675]],"type":"LineString"}
}
