{
  "id": 1981795403,
  "type": "Feature",
  "properties": {
    "geom:area": 0,
    "geom:bbox": "-157.416667,21.283333,-122.199722,37.610556",
    "geom:latitude": 29.690695087938913,
    "geom:longitude": -139.83566464936095,
    "src:alt_label": "swim-path",
    "src:geom": "swim",
    "swim:altitudes": [
      "150C",
      "150C",
      "150C",
      "232C",
      "232C",
      "232C",
      "248C",
      "248C",
      "284C",
      "299C",
      "299C",
      "299C",
      "390",
      "390",
      "390",
      "390",
      "390",
      "390",
      "390",
      "390",
      "390",
      "390",
      "390",
      "390",
      "390",
      "390",
      "390",
      "390",
      "390",
      "390",
      "390",
      "400C",
      "400C",
      "400C",
      "400C",
      "400C",
      "400",
      "400",
      "400",
      "400",
      "399",
      "399",
      "399",
      "399",
      "399",
      "276C",
      "276C",
      "276C",
      "198C",
      "198C",
      "160C",
      "160C",
      "146",
      "146",
      "146",
      "069",
      "069",
      "069",
      "069",
      "052",
      "052",
      "015",
      "015",
      "015",
      "001",
      "001",
      "001"
    ],
    "swim:geom": "path",
    "swim:speeds": [
      360,
      360,
      360,
      430,
      430,
      430,
      430,
      430,
      450,
      480,
      480,
      480,
      480,
      480,
      480,
      480,
      480,
      480,
      480,
      480,
      480,
      490,
      490,
      490,
      490,
      490,
      490,
      490,
      490,
      490,
      490,
      492,
      492,
      492,
      492,
      492,
      487,
      486,
      486,
      486,
      487,
      487,
      487,
      487,
      487,
      490,
      490,
      490,
      430,
      430,
      400,
      400,
      388,
      388,
      388,
      285,
      285,
      285,
      285,
      241,
      241,
      168,
      168,
      168,
      133,
      133,
      133
    ],
    "swim:timestamps": [
      1761777768,
      1761777768,
      1761777768,
      1761778068,
      1761778068,
      1761778068,
      1761778128,
      1761778128,
      1761778309,
      1761778429,
      1761778429,
      1761778429,
      1761778969,
      1761778969,
      1761778969,
      1761778969,
      1761779089,
      1761779089,
      1761779210,
      1761779210,
      1761779210,
      1761779450,
      1761779450,
      1761779450,
      1761779566,
      1761779566,
      1761779891,
      1761779891,
      1761779891,
      1761779891,
      1761779891,
      1761791382,
      1761791382,
      1761791382,
      1761791382,
      1761791382,
      1761791683,
      1761791743,
      1761791743,
      1761791803,
      1761791923,
      1761791923,
      1761791923,
      1761791923,
      1761791923,
      1761792299,
      1761792299,
      1761792299,
      1761792539,
      1761792539,
      1761792659,
      1761792659,
      1761792704,
      1761792704,
      1761792704,
      1761793184,
      1761793184,
      1761793184,
      1761793184,
      1761793364,
      1761793364,
      1761793602,
      1761793602,
      1761793602,
      1761793725,
      1761793725,
      1761793725
    ],
    "wof:geomhash": "0c692aa8f00475d209b6f4ace00e6112",
    "wof:id": 1981795403,
    "wof:repo": "sfomuseum-data-flights-2025-10"
  },
  "bbox": [
    -157.41666666666666,
    21.283333333333335,
    -122.19972222222222,
    37.61055555555556
  ],
  "geometry": {"coordinates":[[-157.41666666666666,21.283333333333335],[-157.41666666666666,21.283333333333335],[-157.41666666666666,21.283333333333335],[-156.9,21.533333333333335],[-156.9,21.533333333333335],[-156.9,21.533333333333335],[-156.8,21.616666666666667],[-156.8,21.616666666666667],[-156.46666666666667,21.816666666666666],[-156.23333333333332,21.966666666666665],[-156.23333333333332,21.966666666666665],[-156.23333333333332,21.966666666666665],[-155.13333333333333,22.683333333333334],[-155.13333333333333,22.683333333333334],[-155.13333333333333,22.683333333333334],[-155.13333333333333,22.683333333333334],[-154.88333333333333,22.833333333333332],[-154.88333333333333,22.833333333333332],[-154.65,23],[-154.65,23],[-154.65,23],[-154.16666666666666,23.283333333333335],[-154.16666666666666,23.283333333333335],[-154.16666666666666,23.283333333333335],[-153.93333333333334,23.416666666666668],[-153.93333333333334,23.416666666666668],[-153.26666666666668,23.833333333333332],[-153.26666666666668,23.833333333333332],[-153.26666666666668,23.833333333333332],[-153.26666666666668,23.833333333333332],[-153.26666666666668,23.833333333333332],[-126.39277777777778,35.64611111111111],[-126.39277777777778,35.64611111111111],[-126.39277777777778,35.64611111111111],[-126.39277777777778,35.64611111111111],[-126.39277777777778,35.64611111111111],[-125.6463888888889,35.94444444444444],[-125.50638888888889,36.01305555555555],[-125.50638888888889,36.01305555555555],[-125.36138888888888,36.08388888888889],[-125.0761111111111,36.222500000000004],[-125.0761111111111,36.222500000000004],[-125.0761111111111,36.222500000000004],[-125.0761111111111,36.222500000000004],[-125.0761111111111,36.222500000000004],[-124.11666666666666,36.666666666666664],[-124.11666666666666,36.666666666666664],[-124.11666666666666,36.666666666666664],[-123.6,36.916666666666664],[-123.6,36.916666666666664],[-123.35,37.016666666666666],[-123.35,37.016666666666666],[-123.26361111111112,37.07555555555556],[-123.26361111111112,37.07555555555556],[-123.26361111111112,37.07555555555556],[-122.45472222222223,37.35277777777778],[-122.45472222222223,37.35277777777778],[-122.45472222222223,37.35277777777778],[-122.45472222222223,37.35277777777778],[-122.19972222222222,37.42027777777778],[-122.19972222222222,37.42027777777778],[-122.26666666666667,37.56666666666667],[-122.26666666666667,37.56666666666667],[-122.26666666666667,37.56666666666667],[-122.35555555555555,37.61055555555556],[-122.35555555555555,37.61055555555556],[-122.35555555555555,37.61055555555556]],"type":"LineString"}
}
