{
  "id": 1981633753,
  "type": "Feature",
  "properties": {
    "geom:area": 0,
    "geom:bbox": "-122.363330,37.632170,-121.266910,38.107780",
    "geom:latitude": 37.870946748960826,
    "geom:longitude": -121.81558499214712,
    "src:alt_label": "swim-takeoff",
    "src:geom": "swim",
    "swim:elevations": [
      244,
      662,
      749,
      977,
      1248,
      1484,
      1942,
      2227,
      2752,
      2871,
      3185,
      3350,
      3479,
      3621,
      4045,
      4301,
      4646,
      4791,
      5221,
      5267,
      5495,
      5667
    ],
    "swim:geom": "takeoff",
    "swim:timestamps": [
      1760104093,
      1760104128,
      1760104141,
      1760104173,
      1760104202,
      1760104221,
      1760104248,
      1760104271,
      1760104318,
      1760104329,
      1760104353,
      1760104382,
      1760104410,
      1760104441,
      1760104495,
      1760104521,
      1760104557,
      1760104573,
      1760104616,
      1760104622,
      1760104661,
      1760104681
    ],
    "wof:geomhash": "cd7ed83391a245f75e1b84d711939029",
    "wof:id": 1981633753,
    "wof:repo": "sfomuseum-data-flights-2025-10"
  },
  "bbox": [
    -122.36333,
    37.63217,
    -121.26691,
    38.10778
  ],
  "geometry": {"coordinates":[[-122.36333,37.63217],[-122.33196,37.64771],[-122.31804,37.65311],[-122.28021,37.66838],[-122.23975,37.68532],[-122.21266,37.69751],[-122.17247,37.71606],[-122.14009,37.73063],[-122.06374,37.76327],[-122.0458,37.77124],[-122.00559,37.78883],[-121.954,37.81115],[-121.90065,37.83444],[-121.83553,37.86281],[-121.71334,37.91597],[-121.65473,37.94139],[-121.56908,37.97819],[-121.53072,37.99462],[-121.42732,38.03913],[-121.41332,38.04509],[-121.3192,38.08543],[-121.26691,38.10778]],"type":"LineString"}
}
