{
  "id": 1981788817,
  "type": "Feature",
  "properties": {
    "geom:area": 0,
    "geom:bbox": "-122.294722,33.391111,-111.966667,37.585000",
    "geom:latitude": 34.85679549535634,
    "geom:longitude": -117.51639385811103,
    "src:alt_label": "swim-path",
    "src:geom": "swim",
    "swim:altitudes": [
      "026",
      "026",
      "026",
      "121",
      "121",
      "121",
      "360C",
      "360C",
      "360C",
      "360C",
      "360C",
      "360C",
      "360C",
      "360C",
      "360C",
      "360C",
      "360C",
      "360C",
      "360C",
      "360C",
      "360C",
      "360C",
      "360C",
      "360",
      "301",
      "301",
      "280",
      "280",
      "280",
      "136",
      "102",
      "102",
      "078",
      "050",
      "020",
      "011",
      "011",
      "011"
    ],
    "swim:geom": "path",
    "swim:speeds": [
      178,
      178,
      178,
      308,
      308,
      308,
      433,
      434,
      434,
      434,
      432,
      432,
      432,
      439,
      439,
      439,
      439,
      443,
      445,
      444,
      444,
      444,
      441,
      440,
      444,
      444,
      432,
      432,
      432,
      365,
      319,
      319,
      279,
      248,
      191,
      165,
      165,
      165
    ],
    "swim:timestamps": [
      1761666959,
      1761666959,
      1761666959,
      1761667275,
      1761667275,
      1761667275,
      1761668417,
      1761668717,
      1761668717,
      1761668777,
      1761669078,
      1761669078,
      1761669078,
      1761669739,
      1761669739,
      1761669739,
      1761669739,
      1761670280,
      1761670520,
      1761670580,
      1761670641,
      1761670761,
      1761671001,
      1761671181,
      1761671422,
      1761671422,
      1761671482,
      1761671482,
      1761671482,
      1761671902,
      1761672009,
      1761672009,
      1761672129,
      1761672249,
      1761672443,
      1761672503,
      1761672503,
      1761672503
    ],
    "wof:geomhash": "cf1d2d67b44e33119c1559656fa4af49",
    "wof:id": 1981788817,
    "wof:repo": "sfomuseum-data-flights-2025-10"
  },
  "bbox": [
    -122.29472222222222,
    33.39111111111111,
    -111.96666666666667,
    37.585
  ],
  "geometry": {"coordinates":[[-111.96666666666667,33.43333333333333],[-111.96666666666667,33.43333333333333],[-111.96666666666667,33.43333333333333],[-112.13694444444445,33.39111111111111],[-112.13694444444445,33.39111111111111],[-112.13694444444445,33.39111111111111],[-114.67916666666667,33.86611111111111],[-115.37333333333332,34.031666666666666],[-115.37333333333332,34.031666666666666],[-115.51194444444444,34.064166666666665],[-116.20194444444445,34.22361111111111],[-116.20194444444445,34.22361111111111],[-116.20194444444445,34.22361111111111],[-117.76666666666667,34.56861111111112],[-117.76666666666667,34.56861111111112],[-117.76666666666667,34.56861111111112],[-117.76666666666667,34.56861111111112],[-118.93694444444445,35.090833333333336],[-119.47166666666666,35.31861111111112],[-119.60444444444444,35.37444444444444],[-119.7388888888889,35.43111111111111],[-120.0075,35.54333333333333],[-120.56611111111111,35.7675],[-120.97500000000001,35.9225],[-121.45916666666668,36.18944444444444],[-121.45916666666668,36.18944444444444],[-121.53916666666666,36.29138888888889],[-121.53916666666666,36.29138888888889],[-121.53916666666666,36.29138888888889],[-121.95416666666667,36.95444444444445],[-122.01666666666667,37.13333333333333],[-122.01666666666667,37.13333333333333],[-122.08333333333333,37.28333333333333],[-122.13333333333334,37.43333333333333],[-122.24138888888889,37.5625],[-122.29472222222222,37.585],[-122.29472222222222,37.585],[-122.29472222222222,37.585]],"type":"LineString"}
}
