{
  "id": 1981763643,
  "type": "Feature",
  "properties": {
    "geom:area": 0,
    "geom:bbox": "-122.759430,37.340300,-122.075430,38.468920",
    "geom:latitude": 37.78957901103121,
    "geom:longitude": -122.44598374643459,
    "src:alt_label": "swim-approach",
    "src:geom": "swim",
    "swim:elevations": [
      7547,
      7483,
      7235,
      7198,
      6739,
      6386,
      6246,
      5845,
      5799,
      5608,
      5480,
      5389,
      5089,
      4818,
      4763,
      4674,
      4238,
      4174,
      3682,
      3546,
      3352,
      3352,
      3353,
      3353,
      3353,
      3327,
      3245,
      3200,
      3169,
      3078,
      2787,
      2614,
      2507,
      2204,
      2096,
      1832,
      1829,
      1829,
      1829,
      1829,
      1823,
      1558,
      1445,
      1339,
      1207,
      1151,
      1007,
      943,
      807,
      692,
      551,
      504,
      328,
      269,
      114,
      0
    ],
    "swim:geom": "approach",
    "swim:timestamps": [
      1761392847,
      1761392861,
      1761392908,
      1761392913,
      1761392958,
      1761392996,
      1761393013,
      1761393056,
      1761393061,
      1761393085,
      1761393111,
      1761393123,
      1761393169,
      1761393207,
      1761393213,
      1761393224,
      1761393264,
      1761393273,
      1761393326,
      1761393350,
      1761393384,
      1761393394,
      1761393409,
      1761393441,
      1761393463,
      1761393504,
      1761393530,
      1761393547,
      1761393565,
      1761393579,
      1761393626,
      1761393652,
      1761393671,
      1761393714,
      1761393730,
      1761393774,
      1761393796,
      1761393814,
      1761393849,
      1761393887,
      1761393903,
      1761393954,
      1761393984,
      1761393998,
      1761394039,
      1761394052,
      1761394078,
      1761394094,
      1761394120,
      1761394145,
      1761394174,
      1761394184,
      1761394222,
      1761394236,
      1761394276,
      1761394300
    ],
    "wof:geomhash": "d3990f0130412512013eee766b34d27b",
    "wof:id": 1981763643,
    "wof:repo": "sfomuseum-data-flights-2025-10"
  },
  "bbox": [
    -122.75943,
    37.3403,
    -122.07543,
    38.46892
  ],
  "geometry": {"coordinates":[[-122.51622,38.46892],[-122.53599,38.44968],[-122.59797,38.38946],[-122.60431,38.38336],[-122.66128,38.32823],[-122.70896,38.28187],[-122.72919,38.2622],[-122.75943,38.1984],[-122.75758,38.18812],[-122.74647,38.14558],[-122.73243,38.1015],[-122.72582,38.08089],[-122.70343,38.00667],[-122.68574,37.94467],[-122.683,37.93508],[-122.67778,37.91848],[-122.63403,37.8624],[-122.6224,37.85132],[-122.55768,37.7906],[-122.52875,37.76331],[-122.48946,37.72606],[-122.47801,37.7154],[-122.46193,37.7004],[-122.42915,37.66939],[-122.40706,37.64858],[-122.36663,37.61032],[-122.35013,37.58186],[-122.34109,37.56332],[-122.33051,37.54405],[-122.3221,37.52953],[-122.30766,37.47843],[-122.31123,37.4502],[-122.31311,37.43021],[-122.28513,37.38852],[-122.27236,37.37383],[-122.2293,37.3403],[-122.19717,37.34419],[-122.17378,37.35644],[-122.13253,37.37966],[-122.09498,37.40505],[-122.08749,37.41947],[-122.07543,37.46757],[-122.09007,37.49017],[-122.09793,37.50092],[-122.13266,37.51882],[-122.14482,37.52399],[-122.16881,37.53422],[-122.18386,37.54056],[-122.20692,37.55037],[-122.22998,37.56007],[-122.25662,37.5712],[-122.26635,37.57532],[-122.30004,37.58947],[-122.31078,37.59405],[-122.34145,37.60684],[-122.36143,37.61462]],"type":"LineString"}
}
