{
  "id": 1981660537,
  "type": "Feature",
  "properties": {
    "geom:area": 0,
    "geom:bbox": "-122.364830,37.630190,-121.247470,38.424640",
    "geom:latitude": 38.038259285133506,
    "geom:longitude": -121.81542505920535,
    "src:alt_label": "swim-takeoff",
    "src:geom": "swim",
    "swim:elevations": [
      152,
      520,
      924,
      984,
      1172,
      1340,
      1384,
      1963,
      2335,
      2453,
      3100,
      3253,
      3408,
      3555,
      3871,
      3946,
      4186,
      4355,
      4404,
      4501,
      4732,
      5124,
      5249,
      5383,
      5680,
      5893,
      5974,
      6154,
      6253,
      6510,
      6632
    ],
    "swim:geom": "takeoff",
    "swim:timestamps": [
      1760345242,
      1760345268,
      1760345304,
      1760345310,
      1760345345,
      1760345366,
      1760345370,
      1760345422,
      1760345452,
      1760345461,
      1760345511,
      1760345537,
      1760345567,
      1760345593,
      1760345633,
      1760345641,
      1760345668,
      1760345687,
      1760345694,
      1760345701,
      1760345723,
      1760345754,
      1760345776,
      1760345806,
      1760345838,
      1760345871,
      1760345880,
      1760345904,
      1760345918,
      1760345952,
      1760345974
    ],
    "wof:geomhash": "89d023075b2374a33d58a1c31753c922",
    "wof:id": 1981660537,
    "wof:repo": "sfomuseum-data-flights-2025-10"
  },
  "bbox": [
    -122.36483,
    37.63019,
    -121.24747,
    38.42464
  ],
  "geometry": {"coordinates":[[-122.36483,37.63019],[-122.34526,37.64599],[-122.31274,37.66363],[-122.30742,37.66676],[-122.2729,37.68712],[-122.24789,37.70057],[-122.24238,37.7034],[-122.18505,37.75074],[-122.15511,37.78365],[-122.14662,37.79292],[-122.09578,37.84881],[-122.06562,37.87972],[-122.02096,37.91192],[-121.97816,37.94088],[-121.90865,37.98784],[-121.89421,37.99758],[-121.84687,38.02976],[-121.81221,38.05321],[-121.79917,38.06201],[-121.78625,38.07073],[-121.74549,38.09811],[-121.68914,38.13572],[-121.64957,38.16243],[-121.59183,38.20119],[-121.52853,38.24395],[-121.46414,38.28691],[-121.44591,38.29903],[-121.39686,38.33154],[-121.36779,38.35078],[-121.29456,38.39604],[-121.24747,38.42464]],"type":"LineString"}
}
