{
  "id": 1981784251,
  "type": "Feature",
  "properties": {
    "geom:area": 0,
    "geom:bbox": "-123.498270,37.617840,-122.400970,37.670830",
    "geom:latitude": 37.6311019943144,
    "geom:longitude": -122.9445703608816,
    "src:alt_label": "swim-takeoff",
    "src:geom": "swim",
    "swim:elevations": [
      244,
      527,
      681,
      990,
      1212,
      1459,
      1716,
      2156,
      2361,
      2511,
      2771,
      2929,
      3430,
      3539,
      3791,
      4097,
      4281,
      4540,
      4771,
      4995,
      5240,
      5440,
      5547
    ],
    "swim:geom": "takeoff",
    "swim:timestamps": [
      1761613377,
      1761613400,
      1761613415,
      1761613445,
      1761613484,
      1761613514,
      1761613541,
      1761613580,
      1761613613,
      1761613643,
      1761613676,
      1761613689,
      1761613731,
      1761613740,
      1761613764,
      1761613794,
      1761613815,
      1761613839,
      1761613866,
      1761613890,
      1761613917,
      1761613947,
      1761613962
    ],
    "wof:geomhash": "f4e822f7b8db94ea7cd8befe60b8018c",
    "wof:id": 1981784251,
    "wof:repo": "sfomuseum-data-flights-2025-10"
  },
  "bbox": [
    -123.49827,
    37.61784,
    -122.40097,
    37.67083
  ],
  "geometry": {"coordinates":[[-122.40097,37.62958],[-122.42408,37.63954],[-122.43949,37.64651],[-122.47087,37.66045],[-122.51963,37.67083],[-122.56353,37.66006],[-122.60562,37.64863],[-122.66826,37.63223],[-122.72708,37.62831],[-122.78523,37.6275],[-122.85397,37.62674],[-122.88112,37.62644],[-122.97034,37.62556],[-122.9898,37.62529],[-123.04202,37.62465],[-123.10825,37.6238],[-123.15537,37.62312],[-123.2097,37.62233],[-123.27162,37.62143],[-123.32736,37.62058],[-123.39077,37.6196],[-123.46207,37.61848],[-123.49827,37.61784]],"type":"LineString"}
}
