{
  "id": 1981689839,
  "type": "Feature",
  "properties": {
    "geom:area": 0,
    "geom:bbox": "-123.501670,37.413150,-122.395670,37.672760",
    "geom:latitude": 37.55536221472057,
    "geom:longitude": -122.9466471840483,
    "src:alt_label": "swim-takeoff",
    "src:geom": "swim",
    "swim:elevations": [
      152,
      549,
      730,
      793,
      920,
      984,
      1429,
      1629,
      2080,
      2173,
      2324,
      2401,
      2804,
      3042,
      3231,
      3264,
      3503,
      3777,
      4041,
      4354,
      4634,
      4898,
      4961,
      5157
    ],
    "swim:geom": "takeoff",
    "swim:timestamps": [
      1760658813,
      1760658842,
      1760658866,
      1760658874,
      1760658923,
      1760658938,
      1760658988,
      1760659004,
      1760659047,
      1760659058,
      1760659077,
      1760659083,
      1760659124,
      1760659148,
      1760659194,
      1760659211,
      1760659247,
      1760659279,
      1760659309,
      1760659346,
      1760659378,
      1760659404,
      1760659413,
      1760659436
    ],
    "wof:geomhash": "4713ea9d9d66cd7888d9e499217882a4",
    "wof:id": 1981689839,
    "wof:repo": "sfomuseum-data-flights-2025-10"
  },
  "bbox": [
    -123.50167,
    37.41315,
    -122.39567,
    37.67276
  ],
  "geometry": {"coordinates":[[-122.39567,37.62739],[-122.42277,37.63923],[-122.44535,37.64903],[-122.45392,37.65282],[-122.50773,37.67276],[-122.5296,37.6693],[-122.60505,37.64903],[-122.63155,37.64197],[-122.69932,37.62416],[-122.71653,37.61961],[-122.74954,37.61104],[-122.7597,37.6083],[-122.82954,37.59012],[-122.8709,37.57947],[-122.95331,37.558],[-122.98746,37.54914],[-123.06621,37.52849],[-123.13561,37.51015],[-123.2034,37.49214],[-123.28764,37.46994],[-123.36456,37.44936],[-123.42403,37.43359],[-123.44529,37.42803],[-123.50167,37.41315]],"type":"LineString"}
}
