{
  "id": 1981780297,
  "type": "Feature",
  "properties": {
    "geom:area": 0,
    "geom:bbox": "-122.365800,36.719280,-121.876580,37.614360",
    "geom:latitude": 37.205038516738874,
    "geom:longitude": -122.09420960169278,
    "src:alt_label": "swim-approach",
    "src:geom": "swim",
    "swim:elevations": [
      5486,
      5341,
      5301,
      5010,
      4793,
      4511,
      4233,
      4086,
      4021,
      3597,
      3372,
      3186,
      3018,
      2931,
      2731,
      2579,
      2441,
      2402,
      2249,
      2077,
      1933,
      1827,
      1596,
      1439,
      1287,
      1129,
      1004,
      911,
      792,
      718,
      567,
      533,
      310,
      236,
      94,
      25,
      793
    ],
    "swim:geom": "approach",
    "swim:timestamps": [
      1761564625,
      1761564650,
      1761564666,
      1761564706,
      1761564727,
      1761564758,
      1761564800,
      1761564829,
      1761564841,
      1761564887,
      1761564915,
      1761564943,
      1761564967,
      1761564977,
      1761565010,
      1761565035,
      1761565055,
      1761565093,
      1761565110,
      1761565131,
      1761565161,
      1761565177,
      1761565217,
      1761565247,
      1761565283,
      1761565303,
      1761565332,
      1761565350,
      1761565394,
      1761565433,
      1761565467,
      1761565476,
      1761565524,
      1761565549,
      1761565583,
      1761565608,
      1761565621
    ],
    "wof:geomhash": "934839cb20baa20e81fc37a1416387db",
    "wof:id": 1981780297,
    "wof:repo": "sfomuseum-data-flights-2025-10"
  },
  "bbox": [
    -122.3658,
    36.71928,
    -121.87658,
    37.61436
  ],
  "geometry": {"coordinates":[[-121.87658,36.71928],[-121.89622,36.75325],[-121.90371,36.77705],[-121.91954,36.83234],[-121.92764,36.86103],[-121.93936,36.90313],[-121.95535,36.95775],[-121.96818,36.99081],[-121.97335,37.00422],[-122.00598,37.05013],[-122.03493,37.07209],[-122.06322,37.09354],[-122.08807,37.11277],[-122.09894,37.1214],[-122.12678,37.1502],[-122.13464,37.17847],[-122.14171,37.19974],[-122.15517,37.2418],[-122.15753,37.26103],[-122.16029,37.28586],[-122.16414,37.32042],[-122.1662,37.33872],[-122.16251,37.3835],[-122.15769,37.41653],[-122.15211,37.45127],[-122.14903,37.47051],[-122.14793,37.49463],[-122.15829,37.50612],[-122.186,37.53317],[-122.21731,37.55207],[-122.24788,37.56551],[-122.25589,37.56878],[-122.29681,37.58576],[-122.3144,37.59301],[-122.33868,37.60349],[-122.35612,37.61076],[-122.3658,37.61436]],"type":"LineString"}
}
