{
  "id": 1981720313,
  "type": "Feature",
  "properties": {
    "geom:area": 0,
    "geom:bbox": "-122.353889,37.500000,-81.413333,45.351111",
    "geom:latitude": 42.47465232224284,
    "geom:longitude": -102.06040045874352,
    "src:alt_label": "swim-path",
    "src:geom": "swim",
    "swim:altitudes": [
      "277",
      "277",
      "277",
      "277",
      "277",
      "277",
      "277",
      "277",
      "277",
      "320C",
      "320C",
      "320C",
      "320C",
      "320C",
      "320C",
      "320C",
      "320C",
      "320C",
      "320C",
      "320C",
      "320C",
      "320C",
      "320C",
      "320C",
      "320C",
      "320C",
      "320C",
      "320C",
      "320C",
      "320C",
      "320C",
      "320C",
      "320C",
      "320C",
      "320C",
      "320C",
      "320C",
      "320C",
      "320C",
      "320C",
      "320C",
      "320C",
      "320C",
      "320C",
      "320C",
      "320C",
      "320C",
      "320C",
      "320C",
      "320C",
      "320C",
      "320C",
      "320C",
      "320C",
      "320C",
      "320C",
      "320C",
      "320C",
      "320C",
      "320C",
      "320C",
      "320C",
      "320C",
      "320C",
      "320C",
      "320C",
      "320C",
      "320C",
      "320C",
      "320C",
      "320C",
      "320C",
      "320C",
      "320C",
      "320C",
      "320C",
      "320C",
      "320C",
      "320C",
      "320C",
      "320C",
      "320C",
      "320C",
      "320C",
      "320C",
      "320C",
      "320C",
      "320C",
      "326",
      "326",
      "326",
      "333",
      "333",
      "333",
      "333",
      "333",
      "360C",
      "360C",
      "360C",
      "360C",
      "360C",
      "360C",
      "360C",
      "360C",
      "360C",
      "360C",
      "360C",
      "360C",
      "360C",
      "360C",
      "360C",
      "360C",
      "360C",
      "360C",
      "360C",
      "360C",
      "360C",
      "360C",
      "360C",
      "360C",
      "360C",
      "360C",
      "360C",
      "360C",
      "360C",
      "360C",
      "360C",
      "360C",
      "360C",
      "360C",
      "360C",
      "360C",
      "360C",
      "360C",
      "360C",
      "360C",
      "360C",
      "360C",
      "360C",
      "360C",
      "360C",
      "360C",
      "360C",
      "360C",
      "360C",
      "360C",
      "360C",
      "360C",
      "360C",
      "360C",
      "360C",
      "360C",
      "360C",
      "360C",
      "360C",
      "360C",
      "360C",
      "360C",
      "360C",
      "360C",
      "360C",
      "360C",
      "360C",
      "360C",
      "360C",
      "360C",
      "360C",
      "360C",
      "360C",
      "360C",
      "360C",
      "360C",
      "360C",
      "360C",
      "360C",
      "360C",
      "360C",
      "360C",
      "360C",
      "360C",
      "360C",
      "360C",
      "360C",
      "360C",
      "360C",
      "360C",
      "360C",
      "360C",
      "360C",
      "360C",
      "360C",
      "360C",
      "360C",
      "360C",
      "360C",
      "360C",
      "360C",
      "360C",
      "360C",
      "360C",
      "360C",
      "360C",
      "360C",
      "360C",
      "360C",
      "360C",
      "360C",
      "360C",
      "360C",
      "360C",
      "360C",
      "360C",
      "360C",
      "360C",
      "360C",
      "360C",
      "360C",
      "360C",
      "360C",
      "360C",
      "360C",
      "360C",
      "360C",
      "360C",
      "360C",
      "360C",
      "360C",
      "360C",
      "360C",
      "360C",
      "360C",
      "360C",
      "360C",
      "360C",
      "360C",
      "360C",
      "360C",
      "360C",
      "360C",
      "360C",
      "360C",
      "360C",
      "360C",
      "360C",
      "360C",
      "360C",
      "360C",
      "360C",
      "360C",
      "360C",
      "360C",
      "360C",
      "360C",
      "360C",
      "360C",
      "360C",
      "360C",
      "360C",
      "360C",
      "360C",
      "360C",
      "360C",
      "360C",
      "360C",
      "360C",
      "360C",
      "360C",
      "360C",
      "360C",
      "360C",
      "360C",
      "360C",
      "360C",
      "360C",
      "360C",
      "360C",
      "360C",
      "360C",
      "360C",
      "360C",
      "360C",
      "360C",
      "360C",
      "360C",
      "360C",
      "360C",
      "360C",
      "360C",
      "360C",
      "360C",
      "360C",
      "360C",
      "360C",
      "360C",
      "360C",
      "360C",
      "360C",
      "360C",
      "360C",
      "360C",
      "360C",
      "360C",
      "360C",
      "360C",
      "360C",
      "360C",
      "360C",
      "360C",
      "360C",
      "360C",
      "360C",
      "360C",
      "360C",
      "360C",
      "360C",
      "360C",
      "360C",
      "360C",
      "360C",
      "360C",
      "360C",
      "360C",
      "360C",
      "360C",
      "360C",
      "360C",
      "360C",
      "360C",
      "360C",
      "360C",
      "360C",
      "360C",
      "360C",
      "360C",
      "360C",
      "360C",
      "360C",
      "360C",
      "360C",
      "360C",
      "360C",
      "360C",
      "360C",
      "360C",
      "360C",
      "360C",
      "360C",
      "360C",
      "360C",
      "360C",
      "360C",
      "360C",
      "360C",
      "360C",
      "360C",
      "360C",
      "360C",
      "360C",
      "360C",
      "360C",
      "360C",
      "360C",
      "360C",
      "360C",
      "322",
      "281",
      "281",
      "240",
      "240",
      "240",
      "185",
      "185",
      "172",
      "172",
      "153",
      "153",
      "134",
      "126",
      "126",
      "097",
      "097",
      "097",
      "094",
      "094",
      "085",
      "085",
      "059",
      "048",
      "038",
      "038",
      "038",
      "036",
      "030",
      "030",
      "028",
      "020",
      "020",
      "019",
      "010",
      "010",
      "003",
      "003",
      "001",
      "001"
    ],
    "swim:geom": "path",
    "swim:speeds": [
      395,
      395,
      395,
      395,
      395,
      395,
      395,
      395,
      395,
      411,
      411,
      411,
      411,
      411,
      411,
      411,
      412,
      412,
      412,
      412,
      412,
      411,
      411,
      411,
      411,
      411,
      411,
      411,
      410,
      410,
      410,
      410,
      410,
      410,
      410,
      410,
      410,
      410,
      410,
      409,
      409,
      409,
      409,
      408,
      408,
      408,
      408,
      408,
      406,
      406,
      406,
      406,
      406,
      414,
      414,
      414,
      414,
      414,
      414,
      429,
      429,
      429,
      429,
      429,
      429,
      429,
      435,
      435,
      435,
      435,
      435,
      435,
      435,
      445,
      445,
      445,
      445,
      445,
      445,
      445,
      446,
      446,
      446,
      444,
      444,
      443,
      443,
      443,
      438,
      438,
      438,
      438,
      438,
      438,
      438,
      438,
      426,
      426,
      426,
      426,
      426,
      426,
      426,
      426,
      426,
      426,
      426,
      426,
      428,
      428,
      428,
      428,
      428,
      425,
      425,
      413,
      413,
      413,
      413,
      413,
      413,
      413,
      413,
      418,
      418,
      418,
      418,
      419,
      419,
      419,
      419,
      410,
      410,
      410,
      410,
      410,
      414,
      414,
      414,
      414,
      414,
      414,
      414,
      414,
      407,
      407,
      395,
      395,
      395,
      395,
      395,
      395,
      395,
      402,
      402,
      402,
      402,
      402,
      402,
      402,
      402,
      402,
      402,
      402,
      400,
      400,
      399,
      399,
      397,
      397,
      397,
      397,
      396,
      396,
      396,
      396,
      396,
      398,
      395,
      395,
      394,
      394,
      394,
      394,
      395,
      395,
      394,
      394,
      394,
      394,
      394,
      394,
      394,
      394,
      385,
      385,
      385,
      385,
      385,
      395,
      390,
      390,
      390,
      390,
      397,
      402,
      402,
      417,
      417,
      417,
      417,
      420,
      420,
      420,
      420,
      420,
      420,
      420,
      419,
      419,
      419,
      413,
      413,
      409,
      403,
      403,
      403,
      403,
      404,
      404,
      406,
      406,
      406,
      423,
      423,
      423,
      423,
      423,
      423,
      423,
      423,
      423,
      421,
      420,
      420,
      422,
      422,
      422,
      424,
      425,
      425,
      428,
      428,
      429,
      426,
      426,
      426,
      426,
      426,
      428,
      426,
      426,
      423,
      423,
      423,
      423,
      423,
      420,
      420,
      420,
      423,
      423,
      423,
      425,
      425,
      425,
      425,
      425,
      425,
      425,
      426,
      426,
      418,
      418,
      415,
      415,
      415,
      415,
      413,
      413,
      414,
      414,
      414,
      414,
      414,
      414,
      415,
      415,
      415,
      415,
      415,
      415,
      421,
      421,
      421,
      421,
      423,
      423,
      423,
      423,
      423,
      422,
      422,
      422,
      422,
      422,
      436,
      436,
      436,
      439,
      439,
      439,
      439,
      463,
      463,
      445,
      445,
      445,
      453,
      445,
      445,
      445,
      446,
      446,
      446,
      445,
      445,
      445,
      448,
      446,
      456,
      456,
      454,
      454,
      454,
      454,
      458,
      459,
      459,
      459,
      459,
      453,
      457,
      458,
      458,
      458,
      459,
      459,
      464,
      464,
      464,
      464,
      464,
      464,
      465,
      443,
      443,
      418,
      418,
      418,
      380,
      380,
      355,
      355,
      324,
      324,
      314,
      285,
      285,
      251,
      251,
      251,
      253,
      253,
      240,
      240,
      229,
      201,
      167,
      167,
      167,
      169,
      163,
      163,
      166,
      168,
      168,
      167,
      167,
      167,
      158,
      158,
      159,
      159
    ],
    "swim:timestamps": [
      1761003019,
      1761003019,
      1761003019,
      1761003019,
      1761003019,
      1761003019,
      1761003019,
      1761003019,
      1761003019,
      1761003500,
      1761003500,
      1761003500,
      1761003500,
      1761003500,
      1761003500,
      1761003500,
      1761003560,
      1761003560,
      1761003560,
      1761003560,
      1761003560,
      1761003920,
      1761003920,
      1761003920,
      1761003920,
      1761003920,
      1761003920,
      1761003920,
      1761004221,
      1761004221,
      1761004221,
      1761004221,
      1761004281,
      1761004281,
      1761004281,
      1761004281,
      1761004341,
      1761004341,
      1761004341,
      1761004521,
      1761004521,
      1761004521,
      1761004521,
      1761004581,
      1761004581,
      1761004581,
      1761004581,
      1761004581,
      1761004701,
      1761004701,
      1761004701,
      1761004701,
      1761004701,
      1761005242,
      1761005242,
      1761005242,
      1761005242,
      1761005242,
      1761005242,
      1761005422,
      1761005422,
      1761005422,
      1761005422,
      1761005422,
      1761005422,
      1761005422,
      1761005783,
      1761005783,
      1761005783,
      1761005783,
      1761005783,
      1761005783,
      1761005783,
      1761006083,
      1761006083,
      1761006083,
      1761006083,
      1761006083,
      1761006083,
      1761006083,
      1761006143,
      1761006143,
      1761006143,
      1761006324,
      1761006324,
      1761006384,
      1761006384,
      1761006384,
      1761006564,
      1761006564,
      1761006564,
      1761006624,
      1761006624,
      1761006624,
      1761006624,
      1761006624,
      1761006984,
      1761006984,
      1761006984,
      1761006984,
      1761006984,
      1761006984,
      1761007044,
      1761007044,
      1761007044,
      1761007044,
      1761007044,
      1761007044,
      1761007886,
      1761007886,
      1761007886,
      1761007886,
      1761007886,
      1761008126,
      1761008126,
      1761008186,
      1761008186,
      1761008186,
      1761008186,
      1761008186,
      1761008186,
      1761008186,
      1761008186,
      1761008547,
      1761008547,
      1761008547,
      1761008547,
      1761008607,
      1761008607,
      1761008607,
      1761008607,
      1761009087,
      1761009087,
      1761009087,
      1761009087,
      1761009087,
      1761009267,
      1761009267,
      1761009267,
      1761009388,
      1761009388,
      1761009388,
      1761009388,
      1761009388,
      1761009448,
      1761009448,
      1761009688,
      1761009688,
      1761009688,
      1761009688,
      1761009688,
      1761009688,
      1761009688,
      1761009988,
      1761009988,
      1761009988,
      1761009988,
      1761010022,
      1761010022,
      1761010169,
      1761010169,
      1761010169,
      1761010229,
      1761010229,
      1761010323,
      1761010323,
      1761010442,
      1761010442,
      1761010469,
      1761010469,
      1761010469,
      1761010469,
      1761010529,
      1761010529,
      1761010529,
      1761010563,
      1761010563,
      1761010622,
      1761010744,
      1761010744,
      1761010755,
      1761010755,
      1761010755,
      1761010755,
      1761010769,
      1761010769,
      1761010815,
      1761010815,
      1761010815,
      1761010890,
      1761010890,
      1761010890,
      1761010890,
      1761010890,
      1761011044,
      1761011044,
      1761011224,
      1761011224,
      1761011224,
      1761011404,
      1761011415,
      1761011415,
      1761011415,
      1761011415,
      1761011465,
      1761011536,
      1761011536,
      1761011645,
      1761011645,
      1761011645,
      1761011645,
      1761011765,
      1761011765,
      1761011765,
      1761011765,
      1761011825,
      1761011825,
      1761011825,
      1761011836,
      1761011836,
      1761011836,
      1761011945,
      1761011956,
      1761012076,
      1761012125,
      1761012125,
      1761012196,
      1761012196,
      1761012246,
      1761012246,
      1761012306,
      1761012306,
      1761012306,
      1761012497,
      1761012497,
      1761012606,
      1761012606,
      1761012606,
      1761012617,
      1761012617,
      1761012677,
      1761012677,
      1761012846,
      1761012906,
      1761012906,
      1761013037,
      1761013037,
      1761013037,
      1761013098,
      1761013158,
      1761013158,
      1761013278,
      1761013278,
      1761013327,
      1761013507,
      1761013507,
      1761013507,
      1761013518,
      1761013518,
      1761013687,
      1761013758,
      1761013758,
      1761013818,
      1761013818,
      1761013818,
      1761013818,
      1761013818,
      1761013988,
      1761013988,
      1761013988,
      1761014048,
      1761014048,
      1761014048,
      1761014108,
      1761014108,
      1761014168,
      1761014168,
      1761014288,
      1761014288,
      1761014288,
      1761014479,
      1761014479,
      1761014529,
      1761014529,
      1761014589,
      1761014589,
      1761014589,
      1761014589,
      1761014720,
      1761014720,
      1761014900,
      1761014900,
      1761014900,
      1761014900,
      1761014900,
      1761014960,
      1761015080,
      1761015080,
      1761015080,
      1761015080,
      1761015080,
      1761015080,
      1761015441,
      1761015441,
      1761015441,
      1761015441,
      1761015561,
      1761015681,
      1761015681,
      1761015681,
      1761015681,
      1761015801,
      1761015801,
      1761015801,
      1761015801,
      1761015801,
      1761016221,
      1761016221,
      1761016221,
      1761016282,
      1761016282,
      1761016282,
      1761016282,
      1761016473,
      1761016473,
      1761016522,
      1761016522,
      1761016522,
      1761016533,
      1761016582,
      1761016582,
      1761016713,
      1761016762,
      1761016762,
      1761016762,
      1761016773,
      1761016773,
      1761016773,
      1761016882,
      1761016893,
      1761017013,
      1761017013,
      1761017063,
      1761017063,
      1761017063,
      1761017063,
      1761017183,
      1761017374,
      1761017374,
      1761017374,
      1761017374,
      1761017603,
      1761017734,
      1761017783,
      1761017783,
      1761017783,
      1761017904,
      1761017904,
      1761018214,
      1761018214,
      1761018214,
      1761018395,
      1761018395,
      1761018395,
      1761018515,
      1761018635,
      1761018635,
      1761018755,
      1761018755,
      1761018755,
      1761018918,
      1761018918,
      1761018973,
      1761018973,
      1761019055,
      1761019055,
      1761019115,
      1761019152,
      1761019152,
      1761019272,
      1761019272,
      1761019272,
      1761019295,
      1761019295,
      1761019333,
      1761019333,
      1761019512,
      1761019572,
      1761019632,
      1761019632,
      1761019632,
      1761019656,
      1761019692,
      1761019692,
      1761019716,
      1761019758,
      1761019758,
      1761019776,
      1761019836,
      1761019836,
      1761019878,
      1761019878,
      1761019896,
      1761019896
    ],
    "wof:geomhash": "e5076a41920665674001f0eb9ea7a708",
    "wof:id": 1981720313,
    "wof:repo": "sfomuseum-data-flights-2025-10"
  },
  "bbox": [
    -122.35388888888889,
    37.5,
    -81.41333333333334,
    45.35111111111111
  ],
  "geometry": {"coordinates":[[-81.41333333333334,44.230000000000004],[-81.41333333333334,44.230000000000004],[-81.41333333333334,44.230000000000004],[-81.41333333333334,44.230000000000004],[-81.41333333333334,44.230000000000004],[-81.41333333333334,44.230000000000004],[-81.41333333333334,44.230000000000004],[-81.41333333333334,44.230000000000004],[-81.41333333333334,44.230000000000004],[-82.57833333333333,44.578611111111115],[-82.57833333333333,44.578611111111115],[-82.57833333333333,44.578611111111115],[-82.57833333333333,44.578611111111115],[-82.57833333333333,44.578611111111115],[-82.57833333333333,44.578611111111115],[-82.57833333333333,44.578611111111115],[-82.72972222222222,44.62083333333334],[-82.72972222222222,44.62083333333334],[-82.72972222222222,44.62083333333334],[-82.72972222222222,44.62083333333334],[-82.72972222222222,44.62083333333334],[-83.63777777777779,44.84527777777778],[-83.63777777777779,44.84527777777778],[-83.63777777777779,44.84527777777778],[-83.63777777777779,44.84527777777778],[-83.63777777777779,44.84527777777778],[-83.63777777777779,44.84527777777778],[-83.63777777777779,44.84527777777778],[-84.43055555555556,44.91972222222222],[-84.43055555555556,44.91972222222222],[-84.43055555555556,44.91972222222222],[-84.43055555555556,44.91972222222222],[-84.58833333333332,44.933611111111105],[-84.58833333333332,44.933611111111105],[-84.58833333333332,44.933611111111105],[-84.58833333333332,44.933611111111105],[-84.74722222222222,44.947222222222216],[-84.74722222222222,44.947222222222216],[-84.74722222222222,44.947222222222216],[-85.22444444444444,44.988055555555555],[-85.22444444444444,44.988055555555555],[-85.22444444444444,44.988055555555555],[-85.22444444444444,44.988055555555555],[-85.38166666666666,45.00083333333333],[-85.38166666666666,45.00083333333333],[-85.38166666666666,45.00083333333333],[-85.38166666666666,45.00083333333333],[-85.38166666666666,45.00083333333333],[-85.70972222222223,45.02722222222222],[-85.70972222222223,45.02722222222222],[-85.70972222222223,45.02722222222222],[-85.70972222222223,45.02722222222222],[-85.70972222222223,45.02722222222222],[-87.15527777777778,45.13138888888889],[-87.15527777777778,45.13138888888889],[-87.15527777777778,45.13138888888889],[-87.15527777777778,45.13138888888889],[-87.15527777777778,45.13138888888889],[-87.15527777777778,45.13138888888889],[-87.65916666666668,45.16305555555555],[-87.65916666666668,45.16305555555555],[-87.65916666666668,45.16305555555555],[-87.65916666666668,45.16305555555555],[-87.65916666666668,45.16305555555555],[-87.65916666666668,45.16305555555555],[-87.65916666666668,45.16305555555555],[-88.68138888888889,45.221111111111114],[-88.68138888888889,45.221111111111114],[-88.68138888888889,45.221111111111114],[-88.68138888888889,45.221111111111114],[-88.68138888888889,45.221111111111114],[-88.68138888888889,45.221111111111114],[-88.68138888888889,45.221111111111114],[-89.5611111111111,45.263333333333335],[-89.5611111111111,45.263333333333335],[-89.5611111111111,45.263333333333335],[-89.5611111111111,45.263333333333335],[-89.5611111111111,45.263333333333335],[-89.5611111111111,45.263333333333335],[-89.5611111111111,45.263333333333335],[-89.73694444444445,45.270833333333336],[-89.73694444444445,45.270833333333336],[-89.73694444444445,45.270833333333336],[-90.265,45.29194444444444],[-90.265,45.29194444444444],[-90.4388888888889,45.29888888888889],[-90.4388888888889,45.29888888888889],[-90.4388888888889,45.29888888888889],[-90.95472222222223,45.31638888888889],[-90.95472222222223,45.31638888888889],[-90.95472222222223,45.31638888888889],[-91.12944444444443,45.32166666666667],[-91.12944444444443,45.32166666666667],[-91.12944444444443,45.32166666666667],[-91.12944444444443,45.32166666666667],[-91.12944444444443,45.32166666666667],[-92.11638888888888,45.347500000000004],[-92.11638888888888,45.347500000000004],[-92.11638888888888,45.347500000000004],[-92.11638888888888,45.347500000000004],[-92.11638888888888,45.347500000000004],[-92.11638888888888,45.347500000000004],[-92.28166666666667,45.35111111111111],[-92.28166666666667,45.35111111111111],[-92.28166666666667,45.35111111111111],[-92.28166666666667,45.35111111111111],[-92.28166666666667,45.35111111111111],[-92.28166666666667,45.35111111111111],[-94.6538888888889,45.235],[-94.6538888888889,45.235],[-94.6538888888889,45.235],[-94.6538888888889,45.235],[-94.6538888888889,45.235],[-95.31333333333333,45.14055555555556],[-95.31333333333333,45.14055555555556],[-95.47,45.1175],[-95.47,45.1175],[-95.47,45.1175],[-95.47,45.1175],[-95.47,45.1175],[-95.47,45.1175],[-95.47,45.1175],[-95.47,45.1175],[-96.4175,44.973333333333336],[-96.4175,44.973333333333336],[-96.4175,44.973333333333336],[-96.4175,44.973333333333336],[-96.57916666666667,44.948055555555555],[-96.57916666666667,44.948055555555555],[-96.57916666666667,44.948055555555555],[-96.57916666666667,44.948055555555555],[-97.8261111111111,44.74277777777778],[-97.8261111111111,44.74277777777778],[-97.8261111111111,44.74277777777778],[-97.8261111111111,44.74277777777778],[-97.8261111111111,44.74277777777778],[-98.29555555555555,44.66166666666666],[-98.29555555555555,44.66166666666666],[-98.29555555555555,44.66166666666666],[-98.61277777777777,44.60583333333334],[-98.61277777777777,44.60583333333334],[-98.61277777777777,44.60583333333334],[-98.61277777777777,44.60583333333334],[-98.61277777777777,44.60583333333334],[-98.765,44.578611111111115],[-98.765,44.578611111111115],[-99.36333333333333,44.469166666666666],[-99.36333333333333,44.469166666666666],[-99.36333333333333,44.469166666666666],[-99.36333333333333,44.469166666666666],[-99.36333333333333,44.469166666666666],[-99.36333333333333,44.469166666666666],[-99.36333333333333,44.469166666666666],[-100.11888888888888,44.32638888888889],[-100.11888888888888,44.32638888888889],[-100.11888888888888,44.32638888888889],[-100.11888888888888,44.32638888888889],[-100.20611111111111,44.30888888888889],[-100.20611111111111,44.30888888888889],[-100.56861111111111,44.23833333333334],[-100.56861111111111,44.23833333333334],[-100.56861111111111,44.23833333333334],[-100.72027777777778,44.208333333333336],[-100.72027777777778,44.208333333333336],[-100.935,44.165277777777774],[-100.935,44.165277777777774],[-101.2286111111111,44.1025],[-101.2286111111111,44.1025],[-101.3125,44.08861111111111],[-101.3125,44.08861111111111],[-101.3125,44.08861111111111],[-101.3125,44.08861111111111],[-101.4563888888889,44.05888888888889],[-101.4563888888889,44.05888888888889],[-101.4563888888889,44.05888888888889],[-101.5213888888889,44.04555555555555],[-101.5213888888889,44.04555555555555],[-101.66916666666667,44.01305555555555],[-101.96027777777778,43.953611111111115],[-101.96027777777778,43.953611111111115],[-101.99055555555556,43.947222222222216],[-101.99055555555556,43.947222222222216],[-101.99055555555556,43.947222222222216],[-101.99055555555556,43.947222222222216],[-102.04277777777777,43.93611111111111],[-102.04277777777777,43.93611111111111],[-102.13527777777779,43.91638888888889],[-102.13527777777779,43.91638888888889],[-102.13527777777779,43.91638888888889],[-102.33111111111111,43.87416666666667],[-102.33111111111111,43.87416666666667],[-102.33111111111111,43.87416666666667],[-102.33111111111111,43.87416666666667],[-102.33111111111111,43.87416666666667],[-102.67861111111111,43.79888888888889],[-102.67861111111111,43.79888888888889],[-103.12638888888888,43.69944444444444],[-103.12638888888888,43.69944444444444],[-103.12638888888888,43.69944444444444],[-103.55749999999999,43.60194444444445],[-103.55583333333333,43.602222222222224],[-103.55583333333333,43.602222222222224],[-103.55583333333333,43.602222222222224],[-103.55583333333333,43.602222222222224],[-103.70305555555557,43.56861111111112],[-103.84888888888888,43.534166666666664],[-103.84888888888888,43.534166666666664],[-104.13305555555554,43.44499999999999],[-104.13305555555554,43.44499999999999],[-104.13305555555554,43.44499999999999],[-104.13305555555554,43.44499999999999],[-104.41361111111112,43.32888888888889],[-104.41361111111112,43.32888888888889],[-104.41361111111112,43.32888888888889],[-104.41361111111112,43.32888888888889],[-104.55083333333333,43.27166666666667],[-104.55083333333333,43.27166666666667],[-104.55083333333333,43.27166666666667],[-104.57694444444444,43.26],[-104.57694444444444,43.26],[-104.57694444444444,43.26],[-104.82111111111111,43.157777777777774],[-104.84638888888888,43.14722222222222],[-105.11083333333333,43.03444444444444],[-105.21527777777779,42.99],[-105.21527777777779,42.99],[-105.37166666666666,42.92305555555555],[-105.37166666666666,42.92305555555555],[-105.47722222222222,42.8775],[-105.47722222222222,42.8775],[-105.6086111111111,42.82027777777778],[-105.6086111111111,42.82027777777778],[-105.6086111111111,42.82027777777778],[-106.03416666666666,42.623333333333335],[-106.03416666666666,42.623333333333335],[-106.26138888888889,42.4975],[-106.26138888888889,42.4975],[-106.26138888888889,42.4975],[-106.28722222222223,42.48305555555556],[-106.28722222222223,42.48305555555556],[-106.41388888888889,42.41222222222222],[-106.41388888888889,42.41222222222222],[-106.755,42.22027777777778],[-106.88,42.14888888888889],[-106.88,42.14888888888889],[-107.15694444444445,41.990833333333335],[-107.15694444444445,41.990833333333335],[-107.15694444444445,41.990833333333335],[-107.2825,41.91861111111111],[-107.40694444444445,41.84666666666667],[-107.40694444444445,41.84666666666667],[-107.65972222222223,41.69972222222222],[-107.65972222222223,41.69972222222222],[-107.7611111111111,41.64055555555556],[-108.13083333333333,41.41972222222222],[-108.13083333333333,41.41972222222222],[-108.13083333333333,41.41972222222222],[-108.15555555555557,41.40416666666667],[-108.15555555555557,41.40416666666667],[-108.49777777777778,41.19222222222222],[-108.64444444444445,41.10055555555556],[-108.64444444444445,41.10055555555556],[-108.76277777777777,41.02638888888889],[-108.76277777777777,41.02638888888889],[-108.76277777777777,41.02638888888889],[-108.76277777777777,41.02638888888889],[-108.76277777777777,41.02638888888889],[-109.09583333333333,40.81583333333333],[-109.09583333333333,40.81583333333333],[-109.09583333333333,40.81583333333333],[-109.21472222222222,40.74027777777778],[-109.21472222222222,40.74027777777778],[-109.21472222222222,40.74027777777778],[-109.35055555555554,40.653055555555554],[-109.35055555555554,40.653055555555554],[-109.46888888888888,40.577222222222225],[-109.46888888888888,40.577222222222225],[-109.7038888888889,40.425555555555555],[-109.7038888888889,40.425555555555555],[-109.7038888888889,40.425555555555555],[-110.08166666666666,40.178888888888885],[-110.08166666666666,40.178888888888885],[-110.18222222222222,40.13027777777778],[-110.18222222222222,40.13027777777778],[-110.31777777777778,40.08361111111111],[-110.31777777777778,40.08361111111111],[-110.31777777777778,40.08361111111111],[-110.31777777777778,40.08361111111111],[-110.61777777777777,39.980000000000004],[-110.61777777777777,39.980000000000004],[-111.02666666666667,39.83694444444445],[-111.02666666666667,39.83694444444445],[-111.02666666666667,39.83694444444445],[-111.02666666666667,39.83694444444445],[-111.02666666666667,39.83694444444445],[-111.1613888888889,39.78944444444444],[-111.42444444444445,39.69583333333333],[-111.42444444444445,39.69583333333333],[-111.42444444444445,39.69583333333333],[-111.42444444444445,39.69583333333333],[-111.42444444444445,39.69583333333333],[-111.42444444444445,39.69583333333333],[-112.24888888888889,39.39694444444444],[-112.24888888888889,39.39694444444444],[-112.24888888888889,39.39694444444444],[-112.24888888888889,39.39694444444444],[-112.52472222222222,39.29805555555556],[-112.82472222222222,39.23027777777778],[-112.82472222222222,39.23027777777778],[-112.82472222222222,39.23027777777778],[-112.82472222222222,39.23027777777778],[-113.11138888888888,39.164722222222224],[-113.11138888888888,39.164722222222224],[-113.11138888888888,39.164722222222224],[-113.11138888888888,39.164722222222224],[-113.11138888888888,39.164722222222224],[-114.12555555555555,38.92611111111111],[-114.12555555555555,38.92611111111111],[-114.12555555555555,38.92611111111111],[-114.27583333333334,38.89],[-114.27583333333334,38.89],[-114.27583333333334,38.89],[-114.27583333333334,38.89],[-114.7575,38.77305555555555],[-114.7575,38.77305555555555],[-114.88083333333333,38.74194444444444],[-114.88083333333333,38.74194444444444],[-114.88083333333333,38.74194444444444],[-114.9088888888889,38.73444444444444],[-115.03138888888888,38.70416666666667],[-115.03138888888888,38.70416666666667],[-115.36055555555555,38.62277777777778],[-115.49527777777777,38.587500000000006],[-115.49527777777777,38.587500000000006],[-115.49527777777777,38.587500000000006],[-115.49305555555556,38.58861111111111],[-115.49305555555556,38.58861111111111],[-115.49305555555556,38.58861111111111],[-115.7975,38.51027777777778],[-115.79666666666667,38.51027777777778],[-116.10638888888889,38.430277777777775],[-116.10638888888889,38.430277777777775],[-116.25861111111111,38.390277777777776],[-116.25861111111111,38.390277777777776],[-116.25861111111111,38.390277777777776],[-116.25861111111111,38.390277777777776],[-116.56555555555555,38.30916666666666],[-117.02944444444444,38.184999999999995],[-117.02944444444444,38.184999999999995],[-117.02944444444444,38.184999999999995],[-117.02944444444444,38.184999999999995],[-117.62166666666666,38.03805555555555],[-117.97027777777778,37.9825],[-118.09583333333333,37.968611111111116],[-118.09583333333333,37.968611111111116],[-118.09583333333333,37.968611111111116],[-118.41916666666667,37.93388888888889],[-118.41916666666667,37.93388888888889],[-119.24916666666667,37.84],[-119.24916666666667,37.84],[-119.24916666666667,37.84],[-119.73166666666667,37.7825],[-119.73166666666667,37.7825],[-119.73166666666667,37.7825],[-120.05555555555556,37.74277777777778],[-120.36749999999999,37.70388888888889],[-120.36749999999999,37.70388888888889],[-120.66194444444444,37.66916666666666],[-120.66194444444444,37.66916666666666],[-120.66194444444444,37.66916666666666],[-121.05,37.61666666666667],[-121.05,37.61666666666667],[-121.16666666666667,37.6],[-121.16666666666667,37.6],[-121.30499999999999,37.587500000000006],[-121.30499999999999,37.587500000000006],[-121.41444444444446,37.57527777777778],[-121.5,37.56666666666667],[-121.5,37.56666666666667],[-121.68333333333334,37.53333333333333],[-121.68333333333334,37.53333333333333],[-121.68333333333334,37.53333333333333],[-121.69583333333334,37.53388888888889],[-121.69583333333334,37.53388888888889],[-121.75,37.516666666666666],[-121.75,37.516666666666666],[-122,37.5],[-122.06666666666666,37.516666666666666],[-122.13333333333334,37.53333333333333],[-122.13333333333334,37.53333333333333],[-122.13333333333334,37.53333333333333],[-122.14027777777778,37.54361111111111],[-122.18333333333334,37.55],[-122.18333333333334,37.55],[-122.19250000000001,37.56111111111111],[-122.23333333333333,37.583333333333336],[-122.23333333333333,37.583333333333336],[-122.24694444444445,37.578611111111115],[-122.30138888888888,37.594722222222224],[-122.30138888888888,37.594722222222224],[-122.35,37.61666666666667],[-122.35,37.61666666666667],[-122.35388888888889,37.61222222222222],[-122.35388888888889,37.61222222222222]],"type":"LineString"}
}
