{
  "id": 1981661313,
  "type": "Feature",
  "properties": {
    "geom:area": 0,
    "geom:bbox": "-122.463490,37.222870,-121.242970,37.716120",
    "geom:latitude": 37.41972510546446,
    "geom:longitude": -121.96867486861382,
    "src:alt_label": "swim-takeoff",
    "src:geom": "swim",
    "swim:elevations": [
      422,
      455,
      607,
      682,
      1036,
      1172,
      1933,
      2051,
      2293,
      2545,
      3200,
      3488,
      3628,
      4033,
      4516,
      4898,
      5272,
      5630,
      5852,
      6332,
      6598,
      6807,
      7206,
      7284,
      7455,
      7769,
      7867,
      8004,
      8286,
      8318,
      8406,
      8631,
      8965,
      9054
    ],
    "swim:geom": "takeoff",
    "swim:timestamps": [
      1760380166,
      1760380171,
      1760380196,
      1760380211,
      1760380236,
      1760380245,
      1760380283,
      1760380292,
      1760380313,
      1760380335,
      1760380373,
      1760380408,
      1760380422,
      1760380455,
      1760380488,
      1760380518,
      1760380553,
      1760380577,
      1760380599,
      1760380647,
      1760380672,
      1760380694,
      1760380737,
      1760380748,
      1760380772,
      1760380814,
      1760380826,
      1760380848,
      1760380886,
      1760380904,
      1760380931,
      1760380958,
      1760381006,
      1760381028
    ],
    "wof:geomhash": "146902b6c8079a9881a269803f1edec3",
    "wof:id": 1981661313,
    "wof:repo": "sfomuseum-data-flights-2025-10"
  },
  "bbox": [
    -122.46349,
    37.22287,
    -121.24297,
    37.71612
  ],
  "geometry": {"coordinates":[[-122.36294,37.64335],[-122.36299,37.64666],[-122.36283,37.66898],[-122.3614,37.68487],[-122.37298,37.71056],[-122.38336,37.71612],[-122.42716,37.70406],[-122.43333,37.69649],[-122.44051,37.67336],[-122.44522,37.64746],[-122.45297,37.60179],[-122.46145,37.55795],[-122.46349,37.53923],[-122.4361,37.49829],[-122.37932,37.48046],[-122.32405,37.46848],[-122.25772,37.45353],[-122.21158,37.44325],[-122.16892,37.43361],[-122.07436,37.4122],[-122.02582,37.40141],[-121.98124,37.39143],[-121.89415,37.37182],[-121.87179,37.36682],[-121.82172,37.35557],[-121.7332,37.33534],[-121.70749,37.32948],[-121.65921,37.31863],[-121.57498,37.29951],[-121.53548,37.29027],[-121.47272,37.27569],[-121.40816,37.26113],[-121.29523,37.23508],[-121.24297,37.22287]],"type":"LineString"}
}
