{
  "id": 1997542483,
  "type": "Feature",
  "properties": {
    "date:cessation_lower": "2025-11-01",
    "date:cessation_upper": "2025-11-01",
    "date:inception_lower": "2025-10-31",
    "date:inception_upper": "2025-10-31",
    "edtf:cessation": "2025-11-01T01:05:05Z",
    "edtf:inception": "2025-10-31T21:42:00Z",
    "flysfo:actual_timestamp": -1,
    "flysfo:airline": "WN",
    "flysfo:date": "2025-10-31",
    "flysfo:estimated_timestamp": 1761959580,
    "flysfo:event": "A",
    "flysfo:flight_number": "WN977",
    "flysfo:gate": "D4",
    "flysfo:journey": "AUS-SFO",
    "flysfo:scheduled_timestamp": 1761960000,
    "flysfo:timestamp": 1761960000,
    "geom:area": 0,
    "geom:bbox": "-122.370943,30.206175,-97.643029,37.617990",
    "geom:latitude": 33.9120825,
    "geom:longitude": -110.006986,
    "iata:airline": "WN",
    "icao:aircraft": "B738",
    "icao:airline": "SWA",
    "lbl:latitude": 37.616969,
    "lbl:longitude": -122.381363,
    "sfomuseum:aircraft_id": 1159289871,
    "sfomuseum:airline_id": 1159285591,
    "sfomuseum:arrival_id": 102527513,
    "sfomuseum:departure_id": 102521851,
    "sfomuseum:flight_id": "20251031-A-SWA-977",
    "sfomuseum:flight_number": [
      "SWA977",
      "WN977"
    ],
    "sfomuseum:placetype": "flight",
    "src:geom": "flysfo",
    "src:geom_alt": [
      "swim-route",
      "swim-path"
    ],
    "swim:tail_number": "N8528Q",
    "wof:belongsto": [
      1947304067,
      102527513,
      1947304595,
      102191575,
      85633793,
      102087579,
      85922583,
      554784711,
      85688637,
      1947304599,
      1947304591,
      102085387
    ],
    "wof:concordances": {
      "swim:flight_ref": "114741388",
      "swim:gufi": "KH702796nV"
    },
    "wof:country": "US",
    "wof:created": 1762013254,
    "wof:geomhash": "62f9f5a2734b9c5938b0b415e9e4a515",
    "wof:hierarchy": [
      {
        "building_id": 1947304067,
        "campus_id": 102527513,
        "concourse_id": 1947304595,
        "continent_id": 102191575,
        "country_id": 85633793,
        "county_id": 102087579,
        "custom_id": 1997542483,
        "flight_id": 1997542483,
        "locality_id": 85922583,
        "postalcode_id": 554784711,
        "region_id": 85688637,
        "venue_id": 1947304599,
        "wing_id": 1947304591
      },
      {
        "building_id": 1947304067,
        "campus_id": 102527513,
        "concourse_id": 1947304595,
        "continent_id": 102191575,
        "country_id": 85633793,
        "county_id": 102085387,
        "custom_id": 1997542483,
        "flight_id": 1997542483,
        "region_id": 85688637,
        "venue_id": 1947304599,
        "wing_id": 1947304591
      }
    ],
    "wof:id": 1997542483,
    "wof:involves": [
      1947304599,
      1159289871,
      102527513,
      102521851,
      1159285591
    ],
    "wof:lastmodified": 1762013856,
    "wof:name": "WN977 (AUS-SFO)",
    "wof:parent_id": 1947304599,
    "wof:placetype": "custom",
    "wof:placetype_alt": [
      "flight"
    ],
    "wof:repo": "sfomuseum-data-flights-2025-10",
    "wof:superseded_by": [],
    "wof:supersedes": []
  },
  "bbox": [
    -122.370943,
    30.206175,
    -97.643029,
    37.61799
  ],
  "geometry": {"coordinates":[[-97.643029,30.206175],[-122.370943,37.61799]],"type":"MultiPoint"}
}
