{
  "id": 1981620201,
  "type": "Feature",
  "properties": {
    "geom:area": 0,
    "geom:bbox": "-122.354680,37.491420,-121.251870,37.612460",
    "geom:latitude": 37.546422946380254,
    "geom:longitude": -121.80810572313919,
    "src:alt_label": "swim-approach",
    "src:geom": "swim",
    "swim:elevations": [
      4752,
      4365,
      4305,
      3921,
      3805,
      3573,
      3283,
      3194,
      3036,
      2714,
      2528,
      2407,
      2213,
      2043,
      1893,
      1758,
      1615,
      1526,
      1430,
      1216,
      1142,
      939,
      890,
      700,
      668,
      528,
      396,
      253,
      27
    ],
    "swim:geom": "approach",
    "swim:timestamps": [
      1760007042,
      1760007087,
      1760007096,
      1760007148,
      1760007164,
      1760007196,
      1760007237,
      1760007253,
      1760007276,
      1760007326,
      1760007354,
      1760007376,
      1760007407,
      1760007433,
      1760007477,
      1760007502,
      1760007534,
      1760007551,
      1760007571,
      1760007619,
      1760007639,
      1760007680,
      1760007701,
      1760007744,
      1760007756,
      1760007791,
      1760007821,
      1760007852,
      1760007904
    ],
    "wof:geomhash": "18d196535db77a2631b696f42cc5d975",
    "wof:id": 1981620201,
    "wof:repo": "sfomuseum-data-flights-2025-10"
  },
  "bbox": [
    -122.35468,
    37.49142,
    -121.25187,
    37.61246
  ],
  "geometry": {"coordinates":[[-121.25187,37.59426],[-121.33814,37.58396],[-121.35475,37.58219],[-121.45051,37.57121],[-121.47821,37.56795],[-121.53528,37.56136],[-121.60386,37.55326],[-121.63002,37.5494],[-121.66576,37.54078],[-121.74151,37.52279],[-121.78124,37.51349],[-121.81213,37.50616],[-121.8574,37.49522],[-121.89417,37.49142],[-121.95791,37.49259],[-121.99127,37.49585],[-122.02985,37.50846],[-122.04886,37.51448],[-122.06963,37.52105],[-122.11311,37.53505],[-122.13066,37.54073],[-122.16499,37.55193],[-122.18307,37.55802],[-122.21891,37.56938],[-122.22895,37.57266],[-122.2582,37.58216],[-122.28354,37.58952],[-122.31027,37.59741],[-122.35468,37.61246]],"type":"LineString"}
}
