{
  "id": 1981776633,
  "type": "Feature",
  "properties": {
    "geom:area": 0,
    "geom:bbox": "-124.883333,36.000000,-122.400000,37.666667",
    "geom:latitude": 36.89880742560202,
    "geom:longitude": -123.66924750922641,
    "src:alt_label": "swim-path",
    "src:geom": "swim",
    "swim:altitudes": [
      "007",
      "020",
      "020",
      "035C",
      "044",
      "044",
      "046",
      "050C",
      "064",
      "064",
      "071C",
      "071C",
      "071C",
      "129",
      "129",
      "170",
      "170",
      "170",
      "170",
      "199",
      "223",
      "227C",
      "258",
      "258",
      "258",
      "267",
      "267",
      "271C",
      "271C",
      "276",
      "285",
      "285",
      "292",
      "299",
      "299",
      "317C",
      "317C",
      "317C",
      "320",
      "320",
      "320",
      "320"
    ],
    "swim:geom": "path",
    "swim:speeds": [
      175,
      176,
      176,
      200,
      251,
      251,
      261,
      260,
      272,
      272,
      270,
      270,
      270,
      366,
      366,
      379,
      379,
      379,
      379,
      393,
      414,
      420,
      434,
      434,
      434,
      440,
      440,
      450,
      450,
      448,
      455,
      455,
      459,
      467,
      467,
      470,
      470,
      470,
      480,
      480,
      480,
      480
    ],
    "swim:timestamps": [
      1761546838,
      1761546867,
      1761546867,
      1761546955,
      1761546987,
      1761546987,
      1761546995,
      1761547015,
      1761547047,
      1761547047,
      1761547076,
      1761547076,
      1761547076,
      1761547287,
      1761547287,
      1761547407,
      1761547407,
      1761547407,
      1761547407,
      1761547527,
      1761547647,
      1761547676,
      1761547828,
      1761547828,
      1761547828,
      1761547888,
      1761547888,
      1761547916,
      1761547916,
      1761547948,
      1761548008,
      1761548008,
      1761548068,
      1761548128,
      1761548128,
      1761548277,
      1761548277,
      1761548277,
      1761548336,
      1761548336,
      1761548336,
      1761548336
    ],
    "wof:geomhash": "bb70a49dd3716409e49ccd9a8f189690",
    "wof:id": 1981776633,
    "wof:repo": "sfomuseum-data-flights-2025-10"
  },
  "bbox": [
    -124.88333333333334,
    36,
    -122.4,
    37.666666666666664
  ],
  "geometry": {"coordinates":[[-122.4,37.63333333333333],[-122.42083333333333,37.638333333333335],[-122.42083333333333,37.638333333333335],[-122.5,37.666666666666664],[-122.54638888888888,37.64972222222222],[-122.54638888888888,37.64972222222222],[-122.55,37.65],[-122.56666666666666,37.61666666666667],[-122.61916666666666,37.600833333333334],[-122.61916666666666,37.600833333333334],[-122.63333333333334,37.56666666666667],[-122.63333333333334,37.56666666666667],[-122.63333333333334,37.56666666666667],[-122.9538888888889,37.38444444444444],[-122.9538888888889,37.38444444444444],[-123.15916666666668,37.25111111111111],[-123.15916666666668,37.25111111111111],[-123.15916666666668,37.25111111111111],[-123.15916666666668,37.25111111111111],[-123.3711111111111,37.11277777777778],[-123.59055555555555,36.96805555555556],[-123.61666666666666,36.93333333333333],[-123.93388888888889,36.74],[-123.93388888888889,36.74],[-123.93388888888889,36.74],[-124.05277777777778,36.660555555555554],[-124.05277777777778,36.660555555555554],[-124.1,36.61666666666667],[-124.1,36.61666666666667],[-124.17166666666667,36.58083333333334],[-124.2936111111111,36.49861111111111],[-124.2936111111111,36.49861111111111],[-124.41416666666667,36.41722222222222],[-124.53722222222223,36.33361111111111],[-124.53722222222223,36.33361111111111],[-124.8,36.1],[-124.8,36.1],[-124.8,36.1],[-124.88333333333334,36],[-124.88333333333334,36],[-124.88333333333334,36],[-124.88333333333334,36]],"type":"LineString"}
}
