{
  "id": 1981619255,
  "type": "Feature",
  "properties": {
    "geom:area": 0,
    "geom:bbox": "-122.399660,37.635440,-122.001490,38.518280",
    "geom:latitude": 38.04739932384172,
    "geom:longitude": -122.17498290830675,
    "src:alt_label": "swim-takeoff",
    "src:geom": "swim",
    "swim:elevations": [
      441,
      715,
      903,
      1172,
      1550,
      1682,
      2517,
      2815,
      3304,
      3415,
      3661,
      3875,
      4224,
      4440,
      4714,
      5161,
      5396,
      5555,
      5593,
      6009,
      6327,
      6710,
      6852,
      7071
    ],
    "swim:geom": "takeoff",
    "swim:timestamps": [
      1759950266,
      1759950290,
      1759950305,
      1759950338,
      1759950382,
      1759950395,
      1759950446,
      1759950464,
      1759950508,
      1759950527,
      1759950552,
      1759950566,
      1759950595,
      1759950614,
      1759950643,
      1759950683,
      1759950705,
      1759950717,
      1759950720,
      1759950762,
      1759950791,
      1759950834,
      1759950850,
      1759950872
    ],
    "wof:geomhash": "be694af2414bc07ef67933ca5c9a193e",
    "wof:id": 1981619255,
    "wof:repo": "sfomuseum-data-flights-2025-10"
  },
  "bbox": [
    -122.39966,
    37.63544,
    -122.00149,
    38.51828
  ],
  "geometry": {"coordinates":[[-122.39966,37.63544],[-122.39031,37.6525],[-122.37682,37.65838],[-122.3456,37.66683],[-122.29357,37.6865],[-122.27614,37.69394],[-122.24537,37.75491],[-122.24006,37.77891],[-122.22576,37.84218],[-122.21892,37.87225],[-122.20938,37.91455],[-122.20372,37.93943],[-122.19151,37.98969],[-122.18306,38.02298],[-122.16892,38.07525],[-122.14774,38.15094],[-122.13465,38.19285],[-122.12577,38.21545],[-122.12343,38.2211],[-122.0904,38.30045],[-122.06723,38.35733],[-122.03268,38.44198],[-122.01996,38.47316],[-122.00149,38.51828]],"type":"LineString"}
}
