{
  "id": 1981741967,
  "type": "Feature",
  "properties": {
    "geom:area": 0,
    "geom:bbox": "-122.518889,37.651111,-116.088611,48.099722",
    "geom:latitude": 43.207768116793304,
    "geom:longitude": -119.80735678617218,
    "src:alt_label": "swim-path",
    "src:geom": "swim",
    "swim:altitudes": [
      "031",
      "031",
      "043",
      "043",
      "198",
      "198",
      "251",
      "251",
      "277",
      "277",
      "320C",
      "320C",
      "336",
      "336",
      "336",
      "340C",
      "340C",
      "340C",
      "340C",
      "340C",
      "340C",
      "340C",
      "340C",
      "340C",
      "340C",
      "340C",
      "340C",
      "340C",
      "340C",
      "340C",
      "340C",
      "340C",
      "340C",
      "340C",
      "340C",
      "340C",
      "340C",
      "340C",
      "340C",
      "340C",
      "340C",
      "340C",
      "340C",
      "340C",
      "340C",
      "340C",
      "340C",
      "340C",
      "340C",
      "340C",
      "340C",
      "340C",
      "340C",
      "340C",
      "340C",
      "340C",
      "340C",
      "340C",
      "340C",
      "340C",
      "340C",
      "340C",
      "340C",
      "340C",
      "340C",
      "340C",
      "340C",
      "340C",
      "340C",
      "340C",
      "340C",
      "340C",
      "340C",
      "340C",
      "340C",
      "340C",
      "340C",
      "340C",
      "350C",
      "350C",
      "350C",
      "350C",
      "350C",
      "350C",
      "350C",
      "350C",
      "350C",
      "350C",
      "350C",
      "350C",
      "350C",
      "350C",
      "350C",
      "350C",
      "350C",
      "350C",
      "350C",
      "350C",
      "350C",
      "350C",
      "350C"
    ],
    "swim:geom": "path",
    "swim:speeds": [
      173,
      173,
      252,
      252,
      400,
      400,
      442,
      442,
      456,
      456,
      477,
      477,
      475,
      475,
      475,
      470,
      470,
      473,
      511,
      511,
      511,
      475,
      475,
      475,
      477,
      477,
      477,
      480,
      480,
      480,
      481,
      481,
      487,
      487,
      487,
      490,
      490,
      490,
      487,
      487,
      493,
      493,
      494,
      494,
      496,
      497,
      499,
      500,
      500,
      501,
      501,
      502,
      503,
      503,
      503,
      503,
      506,
      506,
      507,
      507,
      509,
      510,
      513,
      513,
      513,
      514,
      514,
      514,
      515,
      516,
      516,
      519,
      519,
      520,
      520,
      523,
      523,
      523,
      528,
      528,
      529,
      529,
      529,
      529,
      529,
      531,
      531,
      530,
      530,
      531,
      530,
      528,
      527,
      527,
      527,
      527,
      520,
      520,
      521,
      521,
      521
    ],
    "swim:timestamps": [
      1761180872,
      1761180872,
      1761180922,
      1761180922,
      1761181413,
      1761181413,
      1761181643,
      1761181643,
      1761181774,
      1761181774,
      1761182074,
      1761182074,
      1761182194,
      1761182194,
      1761182194,
      1761182364,
      1761182364,
      1761182544,
      1761182583,
      1761182583,
      1761182583,
      1761182604,
      1761182615,
      1761182615,
      1761182643,
      1761182704,
      1761182724,
      1761182844,
      1761182844,
      1761182844,
      1761182904,
      1761182904,
      1761183145,
      1761183145,
      1761183145,
      1761183276,
      1761183276,
      1761183276,
      1761183304,
      1761183364,
      1761183396,
      1761183396,
      1761183456,
      1761183456,
      1761183516,
      1761183545,
      1761183665,
      1761183757,
      1761183757,
      1761183817,
      1761183817,
      1761183845,
      1761183877,
      1761183905,
      1761183905,
      1761183905,
      1761183997,
      1761184025,
      1761184057,
      1761184057,
      1761184146,
      1761184177,
      1761184266,
      1761184266,
      1761184294,
      1761184355,
      1761184355,
      1761184355,
      1761184386,
      1761184446,
      1761184446,
      1761184566,
      1761184566,
      1761184595,
      1761184595,
      1761184715,
      1761184715,
      1761184747,
      1761184895,
      1761184895,
      1761185015,
      1761185015,
      1761185015,
      1761185015,
      1761185047,
      1761185256,
      1761185316,
      1761185348,
      1761185348,
      1761185376,
      1761185408,
      1761185436,
      1761185528,
      1761185528,
      1761185528,
      1761185528,
      1761185917,
      1761185917,
      1761186097,
      1761186097,
      1761186097
    ],
    "wof:geomhash": "eaa24bb2dddcea9e55b05e5f44c16c84",
    "wof:id": 1981741967,
    "wof:repo": "sfomuseum-data-flights-2025-10"
  },
  "bbox": [
    -122.51888888888888,
    37.651111111111106,
    -116.0886111111111,
    48.099722222222226
  ],
  "geometry": {"coordinates":[[-122.45083333333334,37.651111111111106],[-122.45083333333334,37.651111111111106],[-122.51888888888888,37.68333333333333],[-122.51888888888888,37.68333333333333],[-122.10638888888889,38.350833333333334],[-122.10638888888889,38.350833333333334],[-121.94694444444445,38.79055555555556],[-121.94694444444445,38.79055555555556],[-121.84833333333333,39.05583333333333],[-121.84833333333333,39.05583333333333],[-121.61277777777777,39.6875],[-121.61277777777777,39.6875],[-121.51805555555555,39.93944444444444],[-121.51805555555555,39.93944444444444],[-121.51805555555555,39.93944444444444],[-121.375,40.3125],[-121.375,40.3125],[-121.22888888888889,40.690555555555555],[-121.19888888888889,40.77027777777778],[-121.19888888888889,40.77027777777778],[-121.19888888888889,40.77027777777778],[-121.17972222222222,40.81666666666667],[-121.16972222222223,40.841944444444444],[-121.16972222222223,40.841944444444444],[-121.14916666666667,40.895833333333336],[-121.09888888888888,41.02333333333333],[-121.08027777777778,41.07027777777778],[-120.97916666666667,41.32611111111112],[-120.97916666666667,41.32611111111112],[-120.97916666666667,41.32611111111112],[-120.92833333333334,41.45388888888889],[-120.92833333333334,41.45388888888889],[-120.72083333333333,41.970555555555556],[-120.72083333333333,41.970555555555556],[-120.72083333333333,41.970555555555556],[-120.60416666666666,42.25694444444444],[-120.60416666666666,42.25694444444444],[-120.60416666666666,42.25694444444444],[-120.58388888888888,42.30472222222222],[-120.5286111111111,42.43527777777778],[-120.49694444444445,42.5175],[-120.49694444444445,42.5175],[-120.43555555555555,42.647777777777776],[-120.43555555555555,42.647777777777776],[-120.37388888888889,42.77861111111111],[-120.33999999999999,42.85166666666667],[-120.21638888888889,43.11527777777778],[-120.1275,43.30333333333333],[-120.1275,43.30333333333333],[-120.06444444444445,43.43527777777778],[-120.06444444444445,43.43527777777778],[-120.02916666666667,43.509166666666665],[-120.00305555555556,43.56361111111111],[-119.96583333333334,43.64138888888889],[-119.96583333333334,43.64138888888889],[-119.96583333333334,43.64138888888889],[-119.875,43.82972222222222],[-119.83722222222222,43.9075],[-119.81055555555555,43.962500000000006],[-119.81055555555555,43.962500000000006],[-119.70694444444445,44.17444444444444],[-119.68,44.22944444444445],[-119.57472222222222,44.44305555555555],[-119.57472222222222,44.44305555555555],[-119.54694444444445,44.49888888888889],[-119.48111111111112,44.63166666666667],[-119.48111111111112,44.63166666666667],[-119.48111111111112,44.63166666666667],[-119.4413888888889,44.71138888888889],[-119.37416666666665,44.845],[-119.37416666666665,44.845],[-119.23833333333333,45.114444444444445],[-119.23833333333333,45.114444444444445],[-119.19638888888889,45.197222222222216],[-119.19638888888889,45.197222222222216],[-119.05694444444444,45.46944444444445],[-119.05694444444444,45.46944444444445],[-119.02888888888889,45.52388888888889],[-118.755,45.84777777777778],[-118.755,45.84777777777778],[-118.4786111111111,46.06944444444445],[-118.4786111111111,46.06944444444445],[-118.4786111111111,46.06944444444445],[-118.4786111111111,46.06944444444445],[-118.42333333333333,46.11333333333334],[-117.91527777777779,46.51444444444444],[-117.77333333333333,46.625],[-117.71888888888888,46.66833333333333],[-117.71888888888888,46.66833333333333],[-117.63083333333333,46.73527777777778],[-117.57666666666667,46.77777777777778],[-117.49,46.84388888888889],[-117.28,47.005],[-117.28,47.005],[-117.28,47.005],[-117.28,47.005],[-116.4625,47.74722222222222],[-116.4625,47.74722222222222],[-116.0886111111111,48.099722222222226],[-116.0886111111111,48.099722222222226],[-116.0886111111111,48.099722222222226]],"type":"LineString"}
}
