{
  "id": 1981767553,
  "type": "Feature",
  "properties": {
    "geom:area": 0,
    "geom:bbox": "-122.370278,33.282500,-112.050000,37.679722",
    "geom:latitude": 34.93399938918674,
    "geom:longitude": -117.44521226871763,
    "src:alt_label": "swim-path",
    "src:geom": "swim",
    "swim:altitudes": [
      "034",
      "034",
      "034",
      "034",
      "034",
      "034",
      "192",
      "192",
      "192",
      "216",
      "216",
      "216",
      "216",
      "273",
      "273",
      "273",
      "273",
      "312",
      "312",
      "343",
      "343",
      "343",
      "354",
      "354",
      "370C",
      "370C",
      "370C",
      "370C",
      "370C",
      "370C",
      "370",
      "370",
      "370",
      "370",
      "370",
      "370C",
      "370C",
      "370C",
      "370C",
      "370C",
      "370C",
      "370C",
      "370C",
      "370C",
      "370C",
      "370C",
      "370C",
      "370C",
      "370C",
      "370C",
      "370C",
      "370C",
      "370C",
      "370C",
      "370C",
      "370C",
      "370C",
      "370C",
      "370C",
      "370C",
      "370C",
      "370C",
      "370C",
      "370C",
      "370C",
      "370C",
      "370C",
      "370C",
      "370C",
      "353",
      "353",
      "353",
      "336",
      "336",
      "336",
      "303",
      "303",
      "253",
      "253",
      "250",
      "250",
      "250",
      "190",
      "161",
      "161",
      "161",
      "103",
      "103",
      "103",
      "060",
      "060",
      "018",
      "014",
      "014",
      "014"
    ],
    "swim:geom": "path",
    "swim:speeds": [
      157,
      157,
      157,
      157,
      157,
      157,
      377,
      377,
      377,
      392,
      392,
      392,
      392,
      456,
      456,
      456,
      456,
      491,
      491,
      529,
      529,
      529,
      530,
      530,
      526,
      526,
      526,
      526,
      526,
      521,
      513,
      513,
      510,
      510,
      510,
      513,
      511,
      503,
      502,
      502,
      502,
      502,
      503,
      503,
      503,
      503,
      499,
      499,
      499,
      499,
      499,
      480,
      480,
      480,
      478,
      478,
      480,
      481,
      481,
      481,
      480,
      480,
      480,
      480,
      480,
      480,
      480,
      480,
      480,
      460,
      461,
      461,
      444,
      444,
      444,
      423,
      423,
      404,
      404,
      446,
      448,
      448,
      425,
      407,
      407,
      407,
      291,
      291,
      291,
      248,
      248,
      164,
      163,
      163,
      163
    ],
    "swim:timestamps": [
      1761436153,
      1761436153,
      1761436153,
      1761436153,
      1761436153,
      1761436153,
      1761436508,
      1761436508,
      1761436508,
      1761436568,
      1761436568,
      1761436568,
      1761436568,
      1761436753,
      1761436753,
      1761436753,
      1761436753,
      1761436928,
      1761436928,
      1761437109,
      1761437109,
      1761437109,
      1761437169,
      1761437169,
      1761437409,
      1761437409,
      1761437409,
      1761437409,
      1761437409,
      1761437769,
      1761437868,
      1761437868,
      1761437928,
      1761437928,
      1761437928,
      1761437950,
      1761438010,
      1761438190,
      1761438250,
      1761438250,
      1761438250,
      1761438250,
      1761438310,
      1761438310,
      1761438370,
      1761438370,
      1761438611,
      1761438611,
      1761438611,
      1761438611,
      1761438611,
      1761438851,
      1761438851,
      1761438851,
      1761438971,
      1761438971,
      1761439031,
      1761439091,
      1761439091,
      1761439091,
      1761439212,
      1761439212,
      1761439272,
      1761439272,
      1761439392,
      1761439452,
      1761439452,
      1761439452,
      1761439452,
      1761439572,
      1761439578,
      1761439578,
      1761439632,
      1761439632,
      1761439632,
      1761439752,
      1761439752,
      1761439933,
      1761439933,
      1761440053,
      1761440119,
      1761440119,
      1761440299,
      1761440359,
      1761440359,
      1761440359,
      1761440600,
      1761440600,
      1761440600,
      1761440840,
      1761440840,
      1761441080,
      1761441107,
      1761441107,
      1761441107
    ],
    "wof:geomhash": "90c916fc7321afd07f1452e0e645ade3",
    "wof:id": 1981767553,
    "wof:repo": "sfomuseum-data-flights-2025-10"
  },
  "bbox": [
    -122.37027777777777,
    33.2825,
    -112.05,
    37.67972222222222
  ],
  "geometry": {"coordinates":[[-122.37027777777777,37.67972222222222],[-122.37027777777777,37.67972222222222],[-122.37027777777777,37.67972222222222],[-122.37027777777777,37.67972222222222],[-122.37027777777777,37.67972222222222],[-122.37027777777777,37.67972222222222],[-122.17611111111111,37.32777777777778],[-122.17611111111111,37.32777777777778],[-122.17611111111111,37.32777777777778],[-122.06861111111111,37.25694444444444],[-122.06861111111111,37.25694444444444],[-122.06861111111111,37.25694444444444],[-122.06861111111111,37.25694444444444],[-121.69805555555556,37.0075],[-121.69805555555556,37.0075],[-121.69805555555556,37.0075],[-121.69805555555556,37.0075],[-121.33888888888889,36.75611111111111],[-121.33888888888889,36.75611111111111],[-120.93194444444445,36.47666666666667],[-120.93194444444445,36.47666666666667],[-120.93194444444445,36.47666666666667],[-120.78888888888889,36.38138888888889],[-120.78888888888889,36.38138888888889],[-120.23138888888889,36.00555555555555],[-120.23138888888889,36.00555555555555],[-120.23138888888889,36.00555555555555],[-120.23138888888889,36.00555555555555],[-120.23138888888889,36.00555555555555],[-119.3325,35.532222222222224],[-119.06305555555555,35.42444444444444],[-119.06305555555555,35.42444444444444],[-118.9088888888889,35.36194444444445],[-118.9088888888889,35.36194444444445],[-118.9088888888889,35.36194444444445],[-118.86138888888888,35.34444444444445],[-118.70611111111111,35.282222222222224],[-118.255,35.099722222222226],[-118.10472222222222,35.03777777777778],[-118.10472222222222,35.03777777777778],[-118.10472222222222,35.03777777777778],[-118.10472222222222,35.03777777777778],[-117.95444444444445,34.976111111111116],[-117.95444444444445,34.976111111111116],[-117.80361111111111,34.91361111111111],[-117.80361111111111,34.91361111111111],[-117.18055555555556,34.65361111111111],[-117.18055555555556,34.65361111111111],[-117.18055555555556,34.65361111111111],[-117.18055555555556,34.65361111111111],[-117.18055555555556,34.65361111111111],[-116.59777777777778,34.405277777777776],[-116.59777777777778,34.405277777777776],[-116.59777777777778,34.405277777777776],[-116.31361111111111,34.283055555555556],[-116.31361111111111,34.283055555555556],[-116.17111111111112,34.22138888888889],[-116.0275,34.15861111111111],[-116.0275,34.15861111111111],[-116.0275,34.15861111111111],[-115.75111111111111,34.0375],[-115.75111111111111,34.0375],[-115.6086111111111,33.975],[-115.6086111111111,33.975],[-115.325,33.848888888888894],[-115.18361111111112,33.78611111111111],[-115.18361111111112,33.78611111111111],[-115.18361111111112,33.78611111111111],[-115.18361111111112,33.78611111111111],[-114.9075,33.66166666666666],[-114.90861111111111,33.66222222222222],[-114.90861111111111,33.66222222222222],[-114.7761111111111,33.60388888888889],[-114.7761111111111,33.60388888888889],[-114.7761111111111,33.60388888888889],[-114.49861111111112,33.54472222222222],[-114.49861111111112,33.54472222222222],[-114.11027777777777,33.468333333333334],[-114.11027777777777,33.468333333333334],[-113.82805555555555,33.41166666666666],[-113.68472222222222,33.382777777777775],[-113.68472222222222,33.382777777777775],[-113.26361111111112,33.30444444444444],[-113.13055555555555,33.2825],[-113.13055555555555,33.2825],[-113.13055555555555,33.2825],[-112.66583333333334,33.33916666666667],[-112.66583333333334,33.33916666666667],[-112.66583333333334,33.33916666666667],[-112.33694444444444,33.42861111111111],[-112.33694444444444,33.42861111111111],[-112.07249999999999,33.428888888888885],[-112.05,33.43333333333333],[-112.05,33.43333333333333],[-112.05,33.43333333333333]],"type":"LineString"}
}
