{
  "id": 1997538997,
  "type": "Feature",
  "properties": {
    "geom:area": 0,
    "geom:bbox": "-122.385370,37.641880,-121.259680,38.162950",
    "geom:latitude": 37.99282193407915,
    "geom:longitude": -121.93391188375524,
    "src:alt_label": "swim-takeoff",
    "src:geom": "swim",
    "swim:elevations": [
      312,
      507,
      1069,
      1296,
      1352,
      1730,
      2067,
      2298,
      2915,
      3183,
      3403,
      3521,
      3859,
      4101,
      4242,
      4624,
      5101,
      5482,
      5528,
      5720,
      5912,
      6131,
      6285,
      6626,
      6781,
      6845,
      6931
    ],
    "swim:geom": "takeoff",
    "swim:timestamps": [
      1761862617,
      1761862632,
      1761862674,
      1761862707,
      1761862716,
      1761862756,
      1761862783,
      1761862802,
      1761862849,
      1761862872,
      1761862917,
      1761862943,
      1761862981,
      1761863007,
      1761863021,
      1761863059,
      1761863108,
      1761863155,
      1761863162,
      1761863188,
      1761863213,
      1761863241,
      1761863261,
      1761863308,
      1761863329,
      1761863338,
      1761863350
    ],
    "wof:geomhash": "7b4412e819d859b01973cbfbedb15036",
    "wof:id": 1997538997,
    "wof:repo": "sfomuseum-data-flights-2025-10"
  },
  "bbox": [
    -122.38537,
    37.64188,
    -121.25968,
    38.16295
  ],
  "geometry": {"coordinates":[[-122.35467,37.64188],[-122.3435,37.65145],[-122.31642,37.67891],[-122.31552,37.70844],[-122.31966,37.71643],[-122.34253,37.75811],[-122.35859,37.7889],[-122.36958,37.81144],[-122.38537,37.87127],[-122.38224,37.90252],[-122.32505,37.95162],[-122.2719,37.96289],[-122.18669,37.98044],[-122.12712,37.99243],[-122.09425,37.99899],[-122.00469,38.01693],[-121.88641,38.04043],[-121.77051,38.06334],[-121.75415,38.0666],[-121.68669,38.07986],[-121.62319,38.09232],[-121.54998,38.10658],[-121.49798,38.11676],[-121.37337,38.14098],[-121.31674,38.152],[-121.29233,38.15671],[-121.25968,38.16295]],"type":"LineString"}
}
