{
  "id": 1981762901,
  "type": "Feature",
  "properties": {
    "geom:area": 0,
    "geom:bbox": "-122.369167,37.492500,-73.616667,43.319167",
    "geom:latitude": 41.1057410423052,
    "geom:longitude": -97.67782052155735,
    "src:alt_label": "swim-path",
    "src:geom": "swim",
    "swim:altitudes": [
      "008",
      "046",
      "046",
      "050",
      "072",
      "072",
      "075",
      "115",
      "115",
      "121",
      "138",
      "138",
      "142",
      "142",
      "169",
      "169",
      "170",
      "182",
      "209",
      "209",
      "209",
      "209",
      "285",
      "285",
      "291",
      "291",
      "300",
      "300",
      "312",
      "312",
      "319C",
      "320C",
      "320C",
      "320C",
      "320C",
      "320C",
      "320C",
      "320C",
      "320C",
      "320C",
      "320C",
      "320C",
      "320C",
      "320C",
      "320C",
      "320C",
      "320C",
      "320C",
      "320C",
      "320C",
      "320C",
      "320C",
      "320C",
      "320C",
      "320C",
      "320C",
      "320C",
      "320C",
      "320C",
      "320C",
      "320C",
      "320C",
      "320C",
      "320C",
      "320C",
      "320C",
      "320C",
      "320C",
      "320C",
      "320C",
      "320C",
      "320C",
      "320C",
      "320C",
      "320C",
      "320C",
      "320C",
      "320C",
      "320C",
      "320C",
      "320C",
      "320C",
      "320C",
      "320C",
      "320C",
      "320C",
      "320C",
      "320C",
      "320C",
      "320C",
      "320C",
      "320C",
      "320C",
      "320C",
      "320C",
      "320C",
      "320C",
      "320C",
      "320C",
      "320C",
      "320C",
      "320C",
      "320C",
      "320C",
      "320C",
      "320C",
      "320C",
      "320C",
      "320C",
      "320C",
      "324",
      "324",
      "324",
      "333",
      "333",
      "340C",
      "340C",
      "340C",
      "340C",
      "340C",
      "340C",
      "340C",
      "340C",
      "340C",
      "340C",
      "340C",
      "340C",
      "340C",
      "341C",
      "340C",
      "340C",
      "340C",
      "340C",
      "340C",
      "340C",
      "340C",
      "340C",
      "340C",
      "340C",
      "340C",
      "340C",
      "340C",
      "340C",
      "340C",
      "340C",
      "340C",
      "340C",
      "340C",
      "340C",
      "340C",
      "340C",
      "340C",
      "340C",
      "340C",
      "340C",
      "340C",
      "340C",
      "340C",
      "340C",
      "340C",
      "340C",
      "340C",
      "340C",
      "340C",
      "340C",
      "340C",
      "340C",
      "340C",
      "340C",
      "340C",
      "340C",
      "340C",
      "340C",
      "340C",
      "340C",
      "340C",
      "340C",
      "340C",
      "340C",
      "340C",
      "340C",
      "340C",
      "340C",
      "340C",
      "340C",
      "340C",
      "340C",
      "340C",
      "340C",
      "340C",
      "340C",
      "340C",
      "340C",
      "340C",
      "340C",
      "340C",
      "340C",
      "340C",
      "340C",
      "340C",
      "340C",
      "340C",
      "340C",
      "340C",
      "340C",
      "340C",
      "340C",
      "340C",
      "340C",
      "340C",
      "340C",
      "340C",
      "340C",
      "340C",
      "340C",
      "340C",
      "340C",
      "340C",
      "340C",
      "340C",
      "340C",
      "340C",
      "340C",
      "340C",
      "340C",
      "340C",
      "340C",
      "340C",
      "340C",
      "340C",
      "340C",
      "340C",
      "340C",
      "340C",
      "340C",
      "340C",
      "340C",
      "340C",
      "341C",
      "341C",
      "340C",
      "340C",
      "340C",
      "340C",
      "340C",
      "340C",
      "340C",
      "340C",
      "340C",
      "340C",
      "340C",
      "340C",
      "340C",
      "340C",
      "340C",
      "340C",
      "340C",
      "340C",
      "340C",
      "340C",
      "340C",
      "340C",
      "340C",
      "341C",
      "340C",
      "340C",
      "340C",
      "340C",
      "340C",
      "340C",
      "340C",
      "340C",
      "340C",
      "340C",
      "340C",
      "340C",
      "340C",
      "340C",
      "340C",
      "340C",
      "340C",
      "340C",
      "340C",
      "340C",
      "340C",
      "340C",
      "340C",
      "340C",
      "340C",
      "340C",
      "340C",
      "340C",
      "340C",
      "340C",
      "340C",
      "340C",
      "340C",
      "340C",
      "340C",
      "340C",
      "340C",
      "340C",
      "340C",
      "340C",
      "340C",
      "341C",
      "340C",
      "340C",
      "340C",
      "340C",
      "340C",
      "340",
      "340",
      "340",
      "340",
      "340",
      "340",
      "340",
      "339",
      "322",
      "297",
      "274",
      "274",
      "274",
      "263",
      "245",
      "176",
      "162",
      "153",
      "133",
      "121",
      "115",
      "115",
      "073",
      "063",
      "063",
      "063",
      "056",
      "043",
      "042",
      "034",
      "034",
      "015",
      "015",
      "008",
      "001"
    ],
    "swim:geom": "path",
    "swim:speeds": [
      171,
      262,
      262,
      265,
      266,
      266,
      273,
      303,
      303,
      365,
      366,
      366,
      356,
      356,
      361,
      361,
      363,
      369,
      391,
      391,
      391,
      391,
      407,
      407,
      406,
      406,
      394,
      394,
      390,
      390,
      387,
      385,
      385,
      384,
      384,
      390,
      390,
      393,
      393,
      394,
      394,
      395,
      395,
      395,
      395,
      396,
      397,
      397,
      397,
      397,
      397,
      398,
      398,
      399,
      399,
      399,
      400,
      405,
      405,
      405,
      405,
      409,
      409,
      410,
      410,
      410,
      410,
      414,
      414,
      414,
      414,
      415,
      415,
      414,
      414,
      417,
      417,
      417,
      417,
      418,
      418,
      419,
      419,
      419,
      419,
      420,
      420,
      421,
      421,
      421,
      420,
      420,
      421,
      421,
      421,
      421,
      421,
      421,
      420,
      417,
      416,
      416,
      416,
      413,
      413,
      413,
      413,
      413,
      408,
      408,
      412,
      412,
      412,
      414,
      414,
      413,
      413,
      412,
      412,
      412,
      424,
      424,
      424,
      424,
      428,
      430,
      430,
      430,
      431,
      431,
      431,
      432,
      432,
      432,
      439,
      439,
      442,
      449,
      450,
      450,
      451,
      452,
      457,
      457,
      457,
      457,
      462,
      462,
      462,
      462,
      463,
      462,
      462,
      461,
      461,
      461,
      463,
      465,
      466,
      466,
      466,
      466,
      467,
      467,
      467,
      463,
      463,
      462,
      455,
      455,
      459,
      462,
      460,
      460,
      458,
      458,
      458,
      458,
      459,
      459,
      459,
      459,
      459,
      459,
      456,
      454,
      454,
      454,
      454,
      454,
      453,
      453,
      451,
      452,
      450,
      452,
      451,
      451,
      451,
      452,
      452,
      453,
      455,
      455,
      455,
      454,
      453,
      453,
      451,
      451,
      451,
      444,
      448,
      448,
      448,
      448,
      448,
      448,
      448,
      443,
      439,
      434,
      434,
      434,
      437,
      437,
      437,
      429,
      426,
      426,
      423,
      423,
      423,
      419,
      418,
      418,
      418,
      418,
      418,
      418,
      410,
      408,
      408,
      408,
      408,
      406,
      405,
      405,
      403,
      403,
      399,
      400,
      399,
      399,
      393,
      392,
      392,
      394,
      394,
      396,
      398,
      389,
      389,
      391,
      387,
      384,
      384,
      384,
      384,
      385,
      386,
      392,
      392,
      391,
      391,
      388,
      386,
      388,
      388,
      384,
      378,
      378,
      382,
      383,
      384,
      384,
      384,
      384,
      384,
      385,
      385,
      388,
      386,
      386,
      381,
      378,
      377,
      377,
      377,
      376,
      376,
      375,
      371,
      370,
      370,
      372,
      371,
      370,
      377,
      377,
      377,
      376,
      391,
      380,
      378,
      378,
      374,
      374,
      379,
      379,
      371,
      364,
      364,
      364,
      361,
      345,
      336,
      331,
      332,
      323,
      312,
      315,
      315,
      257,
      236,
      236,
      239,
      235,
      215,
      219,
      200,
      200,
      170,
      170,
      144,
      146
    ],
    "swim:timestamps": [
      1761442249,
      1761442391,
      1761442391,
      1761442399,
      1761442451,
      1761442451,
      1761442459,
      1761442579,
      1761442579,
      1761442640,
      1761442692,
      1761442692,
      1761442700,
      1761442700,
      1761442812,
      1761442812,
      1761442872,
      1761442932,
      1761443052,
      1761443052,
      1761443052,
      1761443052,
      1761443472,
      1761443472,
      1761443496,
      1761443496,
      1761443533,
      1761443533,
      1761443616,
      1761443616,
      1761443653,
      1761443676,
      1761443676,
      1761443713,
      1761443713,
      1761443856,
      1761443856,
      1761443953,
      1761443953,
      1761444013,
      1761444013,
      1761444073,
      1761444253,
      1761444253,
      1761444253,
      1761444276,
      1761444373,
      1761444397,
      1761444397,
      1761444517,
      1761444554,
      1761444674,
      1761444674,
      1761444697,
      1761444697,
      1761444697,
      1761444757,
      1761445538,
      1761445538,
      1761445538,
      1761445538,
      1761445718,
      1761445718,
      1761445778,
      1761445778,
      1761445898,
      1761445898,
      1761446078,
      1761446078,
      1761446078,
      1761446078,
      1761446138,
      1761446138,
      1761446438,
      1761446438,
      1761446558,
      1761446558,
      1761446558,
      1761446618,
      1761446739,
      1761446739,
      1761446799,
      1761446799,
      1761446825,
      1761446825,
      1761446859,
      1761447099,
      1761447121,
      1761447121,
      1761447121,
      1761447159,
      1761447159,
      1761447245,
      1761447245,
      1761447245,
      1761447302,
      1761447302,
      1761447302,
      1761447339,
      1761447459,
      1761447519,
      1761447519,
      1761447519,
      1761447699,
      1761447699,
      1761447786,
      1761447786,
      1761447786,
      1761448022,
      1761448082,
      1761448202,
      1761448202,
      1761448202,
      1761448262,
      1761448262,
      1761448566,
      1761448566,
      1761448622,
      1761448622,
      1761448622,
      1761448747,
      1761448747,
      1761448747,
      1761448747,
      1761448923,
      1761449103,
      1761449103,
      1761449103,
      1761449163,
      1761449223,
      1761449283,
      1761449403,
      1761449403,
      1761449403,
      1761449583,
      1761449583,
      1761449643,
      1761449823,
      1761449883,
      1761449883,
      1761449943,
      1761450003,
      1761450248,
      1761450248,
      1761450248,
      1761450248,
      1761450543,
      1761450603,
      1761450603,
      1761450603,
      1761450848,
      1761450968,
      1761450968,
      1761451028,
      1761451028,
      1761451028,
      1761451148,
      1761451268,
      1761451328,
      1761451328,
      1761451328,
      1761451328,
      1761451448,
      1761451508,
      1761451508,
      1761451929,
      1761451929,
      1761451989,
      1761452053,
      1761452053,
      1761452109,
      1761452173,
      1761452233,
      1761452233,
      1761452289,
      1761452289,
      1761452349,
      1761452349,
      1761452413,
      1761452413,
      1761452709,
      1761452709,
      1761452709,
      1761452709,
      1761453013,
      1761453069,
      1761453069,
      1761453133,
      1761453133,
      1761453193,
      1761453253,
      1761453253,
      1761453314,
      1761453367,
      1761453374,
      1761453427,
      1761453434,
      1761453434,
      1761453434,
      1761453488,
      1761453494,
      1761453554,
      1761453674,
      1761453674,
      1761453734,
      1761453794,
      1761453970,
      1761453970,
      1761454029,
      1761454029,
      1761454029,
      1761454094,
      1761454148,
      1761454210,
      1761454327,
      1761454387,
      1761454387,
      1761454387,
      1761454387,
      1761454394,
      1761454568,
      1761454634,
      1761454634,
      1761454634,
      1761454928,
      1761454928,
      1761454934,
      1761455048,
      1761455109,
      1761455109,
      1761455288,
      1761455351,
      1761455351,
      1761455414,
      1761455474,
      1761455474,
      1761455528,
      1761455528,
      1761455650,
      1761455650,
      1761455895,
      1761455955,
      1761455955,
      1761456008,
      1761456008,
      1761456068,
      1761456075,
      1761456075,
      1761456129,
      1761456135,
      1761456491,
      1761456552,
      1761456675,
      1761456675,
      1761456912,
      1761456969,
      1761456969,
      1761457035,
      1761457035,
      1761457451,
      1761457750,
      1761457810,
      1761457810,
      1761457872,
      1761457930,
      1761457991,
      1761457991,
      1761457991,
      1761458051,
      1761458171,
      1761458231,
      1761458351,
      1761458410,
      1761458471,
      1761458471,
      1761458531,
      1761458590,
      1761458652,
      1761458652,
      1761458770,
      1761458952,
      1761458952,
      1761459199,
      1761459373,
      1761459379,
      1761459439,
      1761459439,
      1761459490,
      1761459490,
      1761459550,
      1761459550,
      1761459619,
      1761459670,
      1761459679,
      1761459853,
      1761459913,
      1761460033,
      1761460033,
      1761460039,
      1761460151,
      1761460151,
      1761460159,
      1761460318,
      1761460438,
      1761460438,
      1761460498,
      1761460618,
      1761460678,
      1761460798,
      1761460798,
      1761460978,
      1761461038,
      1761461098,
      1761461158,
      1761461218,
      1761461218,
      1761461278,
      1761461458,
      1761461552,
      1761461606,
      1761461666,
      1761461726,
      1761461726,
      1761461726,
      1761461758,
      1761461818,
      1761461998,
      1761462032,
      1761462058,
      1761462118,
      1761462158,
      1761462178,
      1761462178,
      1761462418,
      1761462464,
      1761462464,
      1761462479,
      1761462518,
      1761462578,
      1761462599,
      1761462659,
      1761462659,
      1761462779,
      1761462779,
      1761462818,
      1761462899
    ],
    "wof:geomhash": "b0518b5853e2b43bdac54918f947e3d4",
    "wof:id": 1981762901,
    "wof:repo": "sfomuseum-data-flights-2025-10"
  },
  "bbox": [
    -122.36916666666666,
    37.4925,
    -73.61666666666666,
    43.31916666666667
  ],
  "geometry": {"coordinates":[[-73.81666666666666,40.65],[-73.76666666666667,40.60305555555556],[-73.76666666666667,40.60305555555556],[-73.75,40.61666666666667],[-73.69305555555556,40.651666666666664],[-73.69305555555556,40.651666666666664],[-73.68333333333334,40.666666666666664],[-73.63333333333334,40.81666666666667],[-73.63333333333334,40.81666666666667],[-73.61666666666666,40.9],[-73.63555555555556,40.99027777777778],[-73.63555555555556,40.99027777777778],[-73.65,41],[-73.65,41],[-73.8425,41.114444444444445],[-73.8425,41.114444444444445],[-73.94972222222222,41.17638888888889],[-74.05916666666667,41.23888888888889],[-74.28888888888889,41.36888888888889],[-74.28888888888889,41.36888888888889],[-74.28888888888889,41.36888888888889],[-74.28888888888889,41.36888888888889],[-75.17277777777778,41.75694444444444],[-75.17277777777778,41.75694444444444],[-75.21916666666667,41.77638888888889],[-75.21916666666667,41.77638888888889],[-75.3,41.81055555555555],[-75.3,41.81055555555555],[-75.47194444444445,41.882777777777775],[-75.47194444444445,41.882777777777775],[-75.54944444444445,41.915],[-75.59583333333333,41.93444444444444],[-75.59583333333333,41.93444444444444],[-75.67305555555556,41.96666666666667],[-75.67305555555556,41.96666666666667],[-75.97500000000001,42.09166666666667],[-75.97500000000001,42.09166666666667],[-76.20055555555555,42.17833333333333],[-76.20055555555555,42.17833333333333],[-76.33555555555554,42.22166666666667],[-76.33555555555554,42.22166666666667],[-76.47305555555556,42.26555555555556],[-76.88083333333333,42.394444444444446],[-76.88083333333333,42.394444444444446],[-76.88083333333333,42.394444444444446],[-76.9363888888889,42.41166666666666],[-77.15666666666667,42.480555555555554],[-77.21166666666667,42.4975],[-77.21166666666667,42.4975],[-77.47472222222223,42.57833333333333],[-77.5736111111111,42.60861111111111],[-77.83027777777778,42.68555555555555],[-77.83027777777778,42.68555555555555],[-77.89222222222223,42.702222222222225],[-77.89222222222223,42.702222222222225],[-77.89222222222223,42.702222222222225],[-78.03333333333333,42.74111111111111],[-79.95,43.08083333333334],[-79.95,43.08083333333334],[-79.95,43.08083333333334],[-79.95,43.08083333333334],[-80.41388888888889,43.13361111111111],[-80.41388888888889,43.13361111111111],[-80.56666666666666,43.150277777777774],[-80.56666666666666,43.150277777777774],[-80.8736111111111,43.183611111111105],[-80.8736111111111,43.183611111111105],[-81.34083333333332,43.23277777777778],[-81.34083333333332,43.23277777777778],[-81.34083333333332,43.23277777777778],[-81.34083333333332,43.23277777777778],[-81.50722222222223,43.249722222222225],[-81.50722222222223,43.249722222222225],[-82.29027777777777,43.31916666666667],[-82.29027777777777,43.31916666666667],[-82.60416666666666,43.27638888888889],[-82.60416666666666,43.27638888888889],[-82.60416666666666,43.27638888888889],[-82.76027777777777,43.26138888888889],[-83.07722222222222,43.25666666666667],[-83.07722222222222,43.25666666666667],[-83.23666666666666,43.25388888888889],[-83.23666666666666,43.25388888888889],[-83.31416666666667,43.2525],[-83.31416666666667,43.2525],[-83.39694444444446,43.25083333333333],[-84.0436111111111,43.236666666666665],[-84.07833333333333,43.23583333333333],[-84.07833333333333,43.23583333333333],[-84.07833333333333,43.23583333333333],[-84.20527777777778,43.2325],[-84.20527777777778,43.2325],[-84.43194444444445,43.22638888888889],[-84.43194444444445,43.22638888888889],[-84.43194444444445,43.22638888888889],[-84.59083333333332,43.22166666666667],[-84.59083333333332,43.22166666666667],[-84.59083333333332,43.22166666666667],[-84.68472222222222,43.21888888888889],[-85.00111111111111,43.20888888888889],[-85.1575,43.203611111111115],[-85.1575,43.203611111111115],[-85.1575,43.203611111111115],[-85.6261111111111,43.18611111111111],[-85.6261111111111,43.18611111111111],[-85.84305555555555,43.177499999999995],[-85.84305555555555,43.177499999999995],[-85.84305555555555,43.177499999999995],[-86.45333333333333,43.16277777777778],[-86.60749999999999,43.16027777777778],[-86.92,43.153888888888886],[-86.92,43.153888888888886],[-86.92,43.153888888888886],[-87.07777777777777,43.15083333333333],[-87.07777777777777,43.15083333333333],[-87.8736111111111,43.12972222222222],[-87.8736111111111,43.12972222222222],[-88.02638888888889,43.125277777777775],[-88.02638888888889,43.125277777777775],[-88.02638888888889,43.125277777777775],[-88.34055555555555,43.11027777777778],[-88.34055555555555,43.11027777777778],[-88.34055555555555,43.11027777777778],[-88.34055555555555,43.11027777777778],[-88.82805555555555,43.0475],[-89.30972222222222,42.98388888888889],[-89.30972222222222,42.98388888888889],[-89.30972222222222,42.98388888888889],[-89.47111111111111,42.96222222222222],[-89.63138888888888,42.94027777777777],[-89.79194444444444,42.918055555555554],[-90.08416666666666,42.87694444444445],[-90.08416666666666,42.87694444444445],[-90.08416666666666,42.87694444444445],[-90.57138888888889,42.80694444444444],[-90.57138888888889,42.80694444444444],[-90.73861111111111,42.782222222222224],[-91.23777777777778,42.70722222222223],[-91.40666666666667,42.68138888888889],[-91.40666666666667,42.68138888888889],[-91.57694444444444,42.655],[-91.74916666666667,42.628055555555555],[-92.42166666666667,42.519999999999996],[-92.42166666666667,42.519999999999996],[-92.42166666666667,42.519999999999996],[-92.42166666666667,42.519999999999996],[-93.26611111111112,42.378055555555555],[-93.43444444444445,42.34916666666667],[-93.43444444444445,42.34916666666667],[-93.43444444444445,42.34916666666667],[-94.11166666666666,42.22916666666667],[-94.47277777777778,42.16361111111111],[-94.47277777777778,42.16361111111111],[-94.63944444444445,42.132777777777775],[-94.63944444444445,42.132777777777775],[-94.63944444444445,42.132777777777775],[-94.97555555555556,42.07],[-95.31055555555555,42.006388888888885],[-95.47805555555556,41.973888888888894],[-95.47805555555556,41.973888888888894],[-95.47805555555556,41.973888888888894],[-95.47805555555556,41.973888888888894],[-95.81277777777777,41.90861111111111],[-95.97972222222222,41.875277777777775],[-95.97972222222222,41.875277777777775],[-97.13944444444445,41.638333333333335],[-97.13944444444445,41.638333333333335],[-97.30083333333333,41.60444444444445],[-97.47722222222222,41.56861111111112],[-97.47722222222222,41.56861111111112],[-97.62722222222222,41.53472222222222],[-97.80722222222222,41.49583333333334],[-97.96833333333333,41.46083333333333],[-97.96833333333333,41.46083333333333],[-98.13166666666666,41.425],[-98.13166666666666,41.425],[-98.29583333333333,41.38861111111111],[-98.29583333333333,41.38861111111111],[-98.46222222222222,41.36555555555556],[-98.46222222222222,41.36555555555556],[-99.28888888888889,41.28138888888889],[-99.28888888888889,41.28138888888889],[-99.28888888888889,41.28138888888889],[-99.28888888888889,41.28138888888889],[-100.13527777777779,41.189166666666665],[-100.28277777777778,41.1725],[-100.28277777777778,41.1725],[-100.465,41.151666666666664],[-100.465,41.151666666666664],[-100.6286111111111,41.1325],[-100.78916666666666,41.11333333333334],[-100.78916666666666,41.11333333333334],[-100.95083333333334,41.094166666666666],[-101.10249999999999,41.074444444444445],[-101.11055555555555,41.07472222222223],[-101.26583333333333,41.05472222222222],[-101.27527777777777,41.05472222222222],[-101.27527777777777,41.05472222222222],[-101.27527777777777,41.05472222222222],[-101.42972222222222,41.035],[-101.43916666666667,41.03444444444444],[-101.60305555555556,41.013888888888886],[-101.93166666666667,40.97166666666667],[-101.93166666666667,40.97166666666667],[-102.095,40.95055555555556],[-102.25722222222223,40.92916666666667],[-102.74027777777778,40.862500000000004],[-102.74027777777778,40.862500000000004],[-102.90027777777779,40.84],[-102.90027777777779,40.84],[-102.90027777777779,40.84],[-103.06083333333333,40.82],[-103.22111111111111,40.79666666666667],[-103.38138888888888,40.77333333333333],[-103.70555555555556,40.72666666666667],[-103.86555555555555,40.70388888888889],[-103.86555555555555,40.70388888888889],[-103.86555555555555,40.70388888888889],[-103.86555555555555,40.70388888888889],[-103.86416666666666,40.70472222222222],[-104.33416666666666,40.63444444444444],[-104.485,40.61472222222223],[-104.485,40.61472222222223],[-104.485,40.61472222222223],[-105.26861111111111,40.51555555555556],[-105.26861111111111,40.51555555555556],[-105.26472222222222,40.51694444444444],[-105.57722222222222,40.474722222222226],[-105.73222222222222,40.455000000000005],[-105.73222222222222,40.455000000000005],[-106.18472222222222,40.39111111111111],[-106.33583333333333,40.37083333333334],[-106.33583333333333,40.37083333333334],[-106.4863888888889,40.35111111111111],[-106.62944444444443,40.33083333333334],[-106.62944444444443,40.33083333333334],[-106.77888888888889,40.30833333333333],[-106.77888888888889,40.30833333333333],[-107.07833333333333,40.26555555555556],[-107.07833333333333,40.26555555555556],[-107.66388888888889,40.17833333333333],[-107.80611111111111,40.156666666666666],[-107.80611111111111,40.156666666666666],[-107.95083333333334,40.13444444444444],[-107.95083333333334,40.13444444444444],[-108.09222222222222,40.11222222222222],[-108.09222222222222,40.11222222222222],[-108.09222222222222,40.11222222222222],[-108.23444444444445,40.09],[-108.23444444444445,40.09],[-109.07416666666666,39.95416666666667],[-109.21361111111112,39.93111111111111],[-109.52277777777778,39.87916666666667],[-109.52277777777778,39.87916666666667],[-110.04805555555555,39.788888888888884],[-110.18555555555555,39.764722222222225],[-110.18555555555555,39.764722222222225],[-110.35138888888888,39.73555555555556],[-110.35138888888888,39.73555555555556],[-111.29777777777778,39.56333333333333],[-111.98388888888888,39.433055555555555],[-112.11999999999999,39.406388888888884],[-112.11999999999999,39.406388888888884],[-112.25611111111111,39.38],[-112.39194444444445,39.35333333333333],[-112.52416666666666,39.327222222222225],[-112.52416666666666,39.327222222222225],[-112.52416666666666,39.327222222222225],[-112.6563888888889,39.30083333333333],[-112.92500000000001,39.24666666666667],[-113.06,39.21944444444445],[-113.33111111111111,39.163888888888884],[-113.46638888888889,39.13583333333333],[-113.60166666666666,39.10777777777778],[-113.60166666666666,39.10777777777778],[-113.73333333333333,39.080000000000005],[-113.86777777777777,39.05166666666666],[-114.00166666666667,39.02333333333333],[-114.00166666666667,39.02333333333333],[-114.26083333333334,38.967777777777776],[-114.6575,38.88166666666667],[-114.6575,38.88166666666667],[-115.20666666666666,38.76083333333333],[-115.57666666666667,38.67583333333333],[-115.60055555555554,38.66722222222222],[-115.73333333333333,38.64055555555556],[-115.73333333333333,38.64055555555556],[-115.83777777777777,38.615833333333335],[-115.83777777777777,38.615833333333335],[-115.97,38.58527777777778],[-115.97,38.58527777777778],[-116.12833333333333,38.54833333333333],[-116.23277777777778,38.52388888888889],[-116.26055555555556,38.51722222222222],[-116.61999999999999,38.43388888888889],[-116.74972222222222,38.41305555555555],[-117.00805555555556,38.36666666666667],[-117.00805555555556,38.36666666666667],[-117.03694444444444,38.361666666666665],[-117.26361111111112,38.32027777777778],[-117.26361111111112,38.32027777777778],[-117.30027777777778,38.31361111111111],[-117.61972222222222,38.25472222222222],[-117.8711111111111,38.2075],[-117.8711111111111,38.2075],[-118.00027777777778,38.183055555555555],[-118.26777777777778,38.132222222222225],[-118.38166666666666,38.11],[-118.63944444444445,38.05972222222222],[-118.63944444444445,38.05972222222222],[-119.02444444444444,37.98388888888889],[-119.15277777777779,37.95805555555556],[-119.28527777777778,37.93138888888889],[-119.41527777777779,37.905],[-119.54416666666667,37.87888888888889],[-119.54416666666667,37.87888888888889],[-119.66916666666667,37.85305555555556],[-120.05138888888888,37.77388888888889],[-120.26666666666667,37.733333333333334],[-120.38333333333334,37.7],[-120.5,37.68333333333333],[-120.63333333333334,37.666666666666664],[-120.63333333333334,37.666666666666664],[-120.63333333333334,37.666666666666664],[-120.68916666666667,37.66611111111111],[-120.81027777777777,37.65138888888889],[-121.16861111111112,37.60583333333334],[-121.23333333333333,37.6],[-121.28222222222222,37.59027777777778],[-121.3938888888889,37.57777777777778],[-121.46666666666667,37.56666666666667],[-121.50305555555556,37.565],[-121.50305555555556,37.565],[-121.85555555555555,37.495555555555555],[-121.93333333333334,37.5],[-121.93333333333334,37.5],[-121.93972222222223,37.4925],[-122,37.5],[-122.08333333333333,37.516666666666666],[-122.0886111111111,37.52777777777778],[-122.155,37.549166666666665],[-122.155,37.549166666666665],[-122.275,37.58694444444445],[-122.275,37.58694444444445],[-122.31666666666666,37.6],[-122.36916666666666,37.618611111111115]],"type":"LineString"}
}
