{
  "id": 1981757253,
  "type": "Feature",
  "properties": {
    "geom:area": 0,
    "geom:bbox": "-122.918333,37.633333,-122.233889,45.683333",
    "geom:latitude": 41.7183882663195,
    "geom:longitude": -122.52996161227335,
    "src:alt_label": "swim-path",
    "src:geom": "swim",
    "swim:altitudes": [
      "007",
      "007",
      "007",
      "007",
      "007",
      "007",
      "007",
      "047",
      "047",
      "194",
      "194",
      "215",
      "215",
      "215",
      "215",
      "215",
      "215",
      "340C",
      "340C",
      "340C",
      "340C",
      "340C",
      "340C",
      "340C",
      "340C",
      "340C",
      "340C",
      "340C",
      "340C",
      "340C",
      "340C",
      "340C",
      "340C",
      "340C",
      "340C",
      "340C",
      "340C",
      "340C",
      "340C",
      "340C",
      "340C",
      "340C",
      "340C",
      "340C",
      "340C",
      "340C",
      "340C",
      "206",
      "206",
      "206",
      "206",
      "206",
      "206",
      "206",
      "147",
      "147",
      "147",
      "147",
      "147",
      "101",
      "078",
      "078",
      "078",
      "065",
      "065",
      "065",
      "040",
      "040",
      "040",
      "030",
      "030",
      "030",
      "030",
      "030",
      "030",
      "030"
    ],
    "swim:geom": "path",
    "swim:speeds": [
      165,
      165,
      165,
      165,
      165,
      165,
      165,
      266,
      266,
      393,
      393,
      399,
      399,
      399,
      399,
      399,
      399,
      452,
      452,
      452,
      452,
      452,
      452,
      448,
      448,
      448,
      448,
      451,
      451,
      451,
      453,
      453,
      457,
      457,
      457,
      457,
      457,
      457,
      470,
      470,
      470,
      472,
      472,
      472,
      472,
      472,
      472,
      445,
      445,
      445,
      445,
      445,
      445,
      445,
      419,
      419,
      419,
      419,
      419,
      339,
      317,
      317,
      317,
      305,
      305,
      305,
      229,
      229,
      229,
      260,
      260,
      193,
      193,
      193,
      193,
      193
    ],
    "swim:timestamps": [
      1761318951,
      1761318951,
      1761318951,
      1761318951,
      1761318951,
      1761318951,
      1761318951,
      1761319075,
      1761319075,
      1761319436,
      1761319436,
      1761319496,
      1761319496,
      1761319496,
      1761319496,
      1761319496,
      1761319496,
      1761320157,
      1761320157,
      1761320157,
      1761320157,
      1761320157,
      1761320157,
      1761320337,
      1761320337,
      1761320337,
      1761320337,
      1761320517,
      1761320517,
      1761320517,
      1761320577,
      1761320577,
      1761320877,
      1761320877,
      1761320877,
      1761320877,
      1761320877,
      1761320877,
      1761321238,
      1761321238,
      1761321238,
      1761321298,
      1761321298,
      1761321298,
      1761321298,
      1761321298,
      1761321298,
      1761322324,
      1761322324,
      1761322324,
      1761322324,
      1761322324,
      1761322324,
      1761322324,
      1761322502,
      1761322502,
      1761322502,
      1761322502,
      1761322502,
      1761322739,
      1761322859,
      1761322859,
      1761322859,
      1761322919,
      1761322919,
      1761322919,
      1761323097,
      1761323106,
      1761323106,
      1761323226,
      1761323226,
      1761323280,
      1761323280,
      1761323280,
      1761323280,
      1761323280
    ],
    "wof:geomhash": "4c0fee1f547c260c124a21b99c2f2af2",
    "wof:id": 1981757253,
    "wof:repo": "sfomuseum-data-flights-2025-10"
  },
  "bbox": [
    -122.91833333333334,
    37.63333333333333,
    -122.23388888888888,
    45.68333333333333
  ],
  "geometry": {"coordinates":[[-122.36666666666666,37.63333333333333],[-122.36666666666666,37.63333333333333],[-122.36666666666666,37.63333333333333],[-122.36666666666666,37.63333333333333],[-122.36666666666666,37.63333333333333],[-122.36666666666666,37.63333333333333],[-122.36666666666666,37.63333333333333],[-122.24222222222222,37.70444444444445],[-122.24222222222222,37.70444444444445],[-122.24138888888889,38.264722222222225],[-122.24138888888889,38.264722222222225],[-122.23388888888888,38.37555555555556],[-122.23388888888888,38.37555555555556],[-122.23388888888888,38.37555555555556],[-122.23388888888888,38.37555555555556],[-122.23388888888888,38.37555555555556],[-122.23388888888888,38.37555555555556],[-122.37638888888888,39.72222222222222],[-122.37638888888888,39.72222222222222],[-122.37638888888888,39.72222222222222],[-122.37638888888888,39.72222222222222],[-122.37638888888888,39.72222222222222],[-122.37638888888888,39.72222222222222],[-122.41666666666667,40.098888888888894],[-122.41666666666667,40.098888888888894],[-122.41666666666667,40.098888888888894],[-122.41666666666667,40.098888888888894],[-122.45861111111111,40.47972222222222],[-122.45861111111111,40.47972222222222],[-122.45861111111111,40.47972222222222],[-122.4725,40.60527777777778],[-122.4725,40.60527777777778],[-122.54333333333334,41.240833333333335],[-122.54333333333334,41.240833333333335],[-122.54333333333334,41.240833333333335],[-122.54333333333334,41.240833333333335],[-122.54333333333334,41.240833333333335],[-122.54333333333334,41.240833333333335],[-122.60833333333333,42.02777777777778],[-122.60833333333333,42.02777777777778],[-122.60833333333333,42.02777777777778],[-122.61694444444444,42.16138888888889],[-122.61694444444444,42.16138888888889],[-122.61694444444444,42.16138888888889],[-122.61694444444444,42.16138888888889],[-122.61694444444444,42.16138888888889],[-122.61694444444444,42.16138888888889],[-122.72666666666667,44.41638888888889],[-122.72666666666667,44.41638888888889],[-122.72666666666667,44.41638888888889],[-122.72666666666667,44.41638888888889],[-122.72666666666667,44.41638888888889],[-122.72666666666667,44.41638888888889],[-122.72666666666667,44.41638888888889],[-122.69416666666667,44.76638888888889],[-122.69416666666667,44.76638888888889],[-122.69416666666667,44.76638888888889],[-122.69416666666667,44.76638888888889],[-122.69416666666667,44.76638888888889],[-122.65277777777779,45.17194444444444],[-122.63611111111112,45.356944444444444],[-122.63611111111112,45.356944444444444],[-122.63611111111112,45.356944444444444],[-122.62805555555555,45.44416666666666],[-122.62805555555555,45.44416666666666],[-122.62805555555555,45.44416666666666],[-122.83083333333333,45.56722222222223],[-122.83416666666666,45.57055555555556],[-122.83416666666666,45.57055555555556],[-122.91833333333334,45.67111111111111],[-122.91833333333334,45.67111111111111],[-122.84861111111111,45.68333333333333],[-122.84861111111111,45.68333333333333],[-122.84861111111111,45.68333333333333],[-122.84861111111111,45.68333333333333],[-122.84861111111111,45.68333333333333]],"type":"LineString"}
}
