{
  "id": 1981775895,
  "type": "Feature",
  "properties": {
    "geom:area": 0,
    "geom:bbox": "-126.786111,37.518889,-122.395000,37.680000",
    "geom:latitude": 37.613697745559406,
    "geom:longitude": -124.58988678272252,
    "src:alt_label": "swim-path",
    "src:geom": "swim",
    "swim:altitudes": [
      "008",
      "008",
      "008",
      "008",
      "008",
      "008",
      "129",
      "129",
      "129",
      "129",
      "129",
      "192",
      "192",
      "192",
      "192",
      "210",
      "210",
      "210",
      "210",
      "210",
      "210",
      "380C",
      "380C",
      "380C",
      "380C",
      "380C",
      "380C",
      "380C",
      "380C",
      "380C",
      "380C",
      "380C",
      "380C",
      "380C",
      "380C",
      "380",
      "380",
      "380",
      "380",
      "380C",
      "380C",
      "380C",
      "380C",
      "380C",
      "380C",
      "380C"
    ],
    "swim:geom": "path",
    "swim:speeds": [
      158,
      158,
      158,
      158,
      158,
      158,
      348,
      348,
      348,
      348,
      348,
      365,
      365,
      365,
      365,
      366,
      366,
      366,
      366,
      366,
      366,
      426,
      426,
      426,
      426,
      426,
      426,
      424,
      424,
      424,
      424,
      424,
      424,
      424,
      424,
      430,
      430,
      430,
      430,
      428,
      428,
      428,
      428,
      428,
      428,
      428
    ],
    "swim:timestamps": [
      1761525882,
      1761525882,
      1761525882,
      1761525882,
      1761525882,
      1761525882,
      1761526242,
      1761526242,
      1761526242,
      1761526242,
      1761526242,
      1761526423,
      1761526423,
      1761526423,
      1761526423,
      1761526483,
      1761526483,
      1761526483,
      1761526483,
      1761526483,
      1761526483,
      1761527264,
      1761527264,
      1761527264,
      1761527264,
      1761527264,
      1761527264,
      1761527444,
      1761527444,
      1761527444,
      1761527444,
      1761527444,
      1761527444,
      1761527444,
      1761527444,
      1761527745,
      1761527745,
      1761527745,
      1761527745,
      1761527864,
      1761527864,
      1761527864,
      1761527864,
      1761527864,
      1761527864,
      1761527864
    ],
    "wof:geomhash": "87287ed5ff9f706ae9bb7a24815694b7",
    "wof:id": 1981775895,
    "wof:repo": "sfomuseum-data-flights-2025-10"
  },
  "bbox": [
    -126.78611111111111,
    37.51888888888889,
    -122.39500000000001,
    37.68
  ],
  "geometry": {"coordinates":[[-122.39500000000001,37.62722222222222],[-122.39500000000001,37.62722222222222],[-122.39500000000001,37.62722222222222],[-122.39500000000001,37.62722222222222],[-122.39500000000001,37.62722222222222],[-122.39500000000001,37.62722222222222],[-122.9038888888889,37.68],[-122.9038888888889,37.68],[-122.9038888888889,37.68],[-122.9038888888889,37.68],[-122.9038888888889,37.68],[-123.28611111111111,37.669999999999995],[-123.28611111111111,37.669999999999995],[-123.28611111111111,37.669999999999995],[-123.28611111111111,37.669999999999995],[-123.41333333333334,37.66611111111111],[-123.41333333333334,37.66611111111111],[-123.41333333333334,37.66611111111111],[-123.41333333333334,37.66611111111111],[-123.41333333333334,37.66611111111111],[-123.41333333333334,37.66611111111111],[-125.29972222222221,37.59583333333334],[-125.29972222222221,37.59583333333334],[-125.29972222222221,37.59583333333334],[-125.29972222222221,37.59583333333334],[-125.29972222222221,37.59583333333334],[-125.29972222222221,37.59583333333334],[-125.74361111111111,37.57472222222223],[-125.74361111111111,37.57472222222223],[-125.74361111111111,37.57472222222223],[-125.74361111111111,37.57472222222223],[-125.74361111111111,37.57472222222223],[-125.74361111111111,37.57472222222223],[-125.74361111111111,37.57472222222223],[-125.74361111111111,37.57472222222223],[-126.48333333333333,37.53333333333333],[-126.48333333333333,37.53333333333333],[-126.48333333333333,37.53333333333333],[-126.48333333333333,37.53333333333333],[-126.78611111111111,37.51888888888889],[-126.78611111111111,37.51888888888889],[-126.78611111111111,37.51888888888889],[-126.78611111111111,37.51888888888889],[-126.78611111111111,37.51888888888889],[-126.78611111111111,37.51888888888889],[-126.78611111111111,37.51888888888889]],"type":"LineString"}
}
