{
  "id": 1981767993,
  "type": "Feature",
  "properties": {
    "geom:area": 0,
    "geom:bbox": "-122.468889,29.519167,-95.110556,38.501944",
    "geom:latitude": 34.96431243852612,
    "geom:longitude": -108.2913681081265,
    "src:alt_label": "swim-path",
    "src:geom": "swim",
    "swim:altitudes": [
      "085",
      "085",
      "085",
      "189",
      "189",
      "189",
      "238",
      "238",
      "238",
      "238",
      "265",
      "265",
      "265",
      "265",
      "265",
      "325",
      "325",
      "325",
      "325",
      "325",
      "325",
      "339",
      "339",
      "339",
      "350C",
      "350C",
      "350C",
      "350C",
      "350C",
      "350C",
      "350C",
      "350C",
      "350C",
      "350C",
      "350C",
      "350C",
      "350C",
      "350C",
      "350C",
      "350C",
      "350C",
      "350C",
      "350C",
      "350C",
      "350C",
      "350C",
      "350C",
      "350C",
      "350C",
      "350C",
      "350C",
      "350C",
      "350C",
      "350C",
      "350C",
      "350C",
      "350C",
      "350C",
      "350C",
      "350C",
      "350C",
      "350C",
      "350C",
      "350C",
      "350C",
      "350C",
      "350C",
      "350C",
      "350C",
      "350C",
      "350C",
      "350C",
      "350C",
      "350C",
      "350C",
      "350C",
      "350C",
      "350C",
      "350C",
      "350C",
      "350C",
      "350C",
      "350C",
      "350C",
      "350C",
      "350C",
      "350C",
      "350C",
      "350C",
      "350C",
      "350C",
      "350C",
      "350C",
      "350C",
      "350C",
      "350C",
      "350C",
      "350C",
      "350C",
      "350C",
      "350C",
      "350C",
      "350C",
      "350C",
      "350C",
      "350C",
      "350C",
      "350C",
      "350C",
      "350C",
      "350C",
      "350C",
      "350C",
      "350C",
      "350C",
      "350C",
      "350C",
      "350C",
      "350C",
      "350C",
      "350C",
      "350C",
      "350C",
      "350C",
      "350C",
      "350C",
      "350C",
      "350C",
      "350C",
      "350C",
      "350C",
      "350C",
      "350C",
      "350C",
      "350C",
      "350C",
      "350C",
      "350C",
      "350C",
      "350C",
      "350C",
      "350C",
      "350C",
      "350C",
      "350C",
      "350C",
      "350C",
      "350C",
      "350C",
      "350C",
      "350C",
      "350C",
      "350C",
      "350C",
      "350C",
      "350C",
      "350C",
      "350C",
      "350C",
      "350C",
      "350C",
      "350C",
      "350C",
      "350C",
      "350C",
      "350C",
      "350C",
      "350C",
      "350C",
      "350C",
      "350C",
      "350C",
      "350C",
      "350C",
      "350C",
      "350C",
      "350C",
      "350C",
      "350C",
      "350C",
      "350C",
      "350C",
      "350C",
      "350C",
      "350C",
      "350",
      "348",
      "348",
      "348",
      "321",
      "321",
      "297",
      "297",
      "254",
      "254",
      "189",
      "168",
      "148",
      "148",
      "139",
      "133",
      "133",
      "107",
      "107",
      "107",
      "080",
      "080",
      "065",
      "060",
      "060",
      "060",
      "059",
      "048",
      "032",
      "032",
      "022",
      "020",
      "020",
      "020",
      "020",
      "002",
      "002",
      "002"
    ],
    "swim:geom": "path",
    "swim:speeds": [
      309,
      309,
      309,
      429,
      429,
      429,
      467,
      467,
      467,
      467,
      490,
      490,
      490,
      490,
      490,
      540,
      540,
      540,
      540,
      540,
      540,
      530,
      530,
      530,
      522,
      522,
      522,
      520,
      515,
      515,
      513,
      513,
      513,
      523,
      523,
      514,
      517,
      517,
      517,
      509,
      509,
      516,
      516,
      516,
      509,
      509,
      507,
      504,
      503,
      503,
      503,
      503,
      502,
      502,
      502,
      502,
      500,
      500,
      500,
      498,
      498,
      498,
      498,
      499,
      499,
      499,
      490,
      490,
      487,
      484,
      487,
      487,
      485,
      485,
      488,
      488,
      488,
      487,
      487,
      486,
      484,
      484,
      483,
      483,
      479,
      479,
      479,
      479,
      481,
      481,
      481,
      481,
      481,
      480,
      478,
      478,
      478,
      477,
      477,
      478,
      478,
      475,
      475,
      469,
      469,
      475,
      475,
      479,
      479,
      482,
      482,
      482,
      482,
      482,
      483,
      483,
      483,
      483,
      484,
      484,
      485,
      486,
      486,
      486,
      486,
      486,
      485,
      487,
      487,
      498,
      498,
      506,
      506,
      507,
      509,
      509,
      509,
      511,
      513,
      513,
      513,
      512,
      512,
      513,
      513,
      513,
      513,
      513,
      513,
      513,
      513,
      512,
      512,
      512,
      513,
      513,
      513,
      507,
      507,
      507,
      503,
      503,
      501,
      501,
      501,
      501,
      497,
      497,
      497,
      495,
      495,
      494,
      494,
      494,
      494,
      489,
      488,
      484,
      484,
      484,
      480,
      474,
      474,
      474,
      474,
      500,
      500,
      500,
      500,
      499,
      499,
      504,
      504,
      479,
      479,
      427,
      405,
      394,
      394,
      382,
      383,
      383,
      360,
      360,
      360,
      305,
      305,
      304,
      273,
      273,
      273,
      270,
      258,
      247,
      247,
      229,
      225,
      225,
      192,
      192,
      154,
      154,
      154
    ],
    "swim:timestamps": [
      1761435300,
      1761435300,
      1761435300,
      1761435600,
      1761435600,
      1761435600,
      1761435780,
      1761435780,
      1761435780,
      1761435780,
      1761435901,
      1761435901,
      1761435901,
      1761435901,
      1761435901,
      1761436248,
      1761436248,
      1761436248,
      1761436248,
      1761436248,
      1761436248,
      1761436308,
      1761436308,
      1761436308,
      1761436429,
      1761436429,
      1761436429,
      1761436489,
      1761436561,
      1761436561,
      1761436669,
      1761436669,
      1761436669,
      1761436731,
      1761436731,
      1761436741,
      1761436851,
      1761436851,
      1761436851,
      1761436982,
      1761436982,
      1761437031,
      1761437031,
      1761437031,
      1761437342,
      1761437342,
      1761437392,
      1761437452,
      1761437522,
      1761437522,
      1761437522,
      1761437522,
      1761437752,
      1761437752,
      1761437752,
      1761437752,
      1761437871,
      1761437871,
      1761437871,
      1761437991,
      1761437991,
      1761437991,
      1761437991,
      1761438051,
      1761438172,
      1761438172,
      1761438533,
      1761438533,
      1761438653,
      1761438683,
      1761438713,
      1761438713,
      1761438743,
      1761438743,
      1761438893,
      1761438893,
      1761438893,
      1761438953,
      1761438953,
      1761439103,
      1761439133,
      1761439133,
      1761439193,
      1761439193,
      1761439344,
      1761439344,
      1761439344,
      1761439375,
      1761439404,
      1761439404,
      1761439435,
      1761439435,
      1761439464,
      1761439495,
      1761439672,
      1761439672,
      1761439672,
      1761439704,
      1761439764,
      1761439885,
      1761439885,
      1761440065,
      1761440125,
      1761440131,
      1761440131,
      1761440305,
      1761440305,
      1761440552,
      1761440552,
      1761440612,
      1761440786,
      1761440852,
      1761440852,
      1761440912,
      1761441092,
      1761441152,
      1761441272,
      1761441272,
      1761441393,
      1761441393,
      1761441453,
      1761441693,
      1761441693,
      1761441693,
      1761441813,
      1761441813,
      1761441929,
      1761441993,
      1761441993,
      1761442714,
      1761442714,
      1761442891,
      1761442891,
      1761442951,
      1761443131,
      1761443131,
      1761443131,
      1761443191,
      1761443251,
      1761443251,
      1761443371,
      1761443392,
      1761443392,
      1761443452,
      1761443452,
      1761443551,
      1761443612,
      1761443612,
      1761443632,
      1761443672,
      1761443672,
      1761443692,
      1761443752,
      1761443752,
      1761443813,
      1761443813,
      1761443813,
      1761444113,
      1761444113,
      1761444113,
      1761444152,
      1761444152,
      1761444212,
      1761444212,
      1761444212,
      1761444233,
      1761444332,
      1761444332,
      1761444332,
      1761444393,
      1761444573,
      1761444633,
      1761444654,
      1761444654,
      1761444654,
      1761444813,
      1761444834,
      1761444894,
      1761444894,
      1761444894,
      1761444954,
      1761445074,
      1761445074,
      1761445074,
      1761445074,
      1761445375,
      1761445495,
      1761445495,
      1761445495,
      1761445555,
      1761445555,
      1761445615,
      1761445615,
      1761445735,
      1761445735,
      1761445936,
      1761446003,
      1761446096,
      1761446096,
      1761446123,
      1761446156,
      1761446156,
      1761446276,
      1761446276,
      1761446276,
      1761446426,
      1761446426,
      1761446492,
      1761446636,
      1761446636,
      1761446636,
      1761446697,
      1761446730,
      1761446796,
      1761446796,
      1761446862,
      1761446877,
      1761446877,
      1761446937,
      1761446937,
      1761447057,
      1761447057,
      1761447057
    ],
    "wof:geomhash": "683a88c8311e0d1d98f37e2002c05c76",
    "wof:id": 1981767993,
    "wof:repo": "sfomuseum-data-flights-2025-10"
  },
  "bbox": [
    -122.46888888888888,
    29.519166666666667,
    -95.11055555555555,
    38.50194444444445
  ],
  "geometry": {"coordinates":[[-122.46888888888888,37.79611111111111],[-122.46888888888888,37.79611111111111],[-122.46888888888888,37.79611111111111],[-121.81194444444444,37.89138888888889],[-121.81194444444444,37.89138888888889],[-121.81194444444444,37.89138888888889],[-121.35388888888889,37.95638888888889],[-121.35388888888889,37.95638888888889],[-121.35388888888889,37.95638888888889],[-121.35388888888889,37.95638888888889],[-121.01944444444445,38.00361111111111],[-121.01944444444445,38.00361111111111],[-121.01944444444445,38.00361111111111],[-121.01944444444445,38.00361111111111],[-121.01944444444445,38.00361111111111],[-119.96222222222222,38.16416666666667],[-119.96222222222222,38.16416666666667],[-119.96222222222222,38.16416666666667],[-119.96222222222222,38.16416666666667],[-119.96222222222222,38.16416666666667],[-119.96222222222222,38.16416666666667],[-119.77972222222222,38.19],[-119.77972222222222,38.19],[-119.77972222222222,38.19],[-119.42055555555557,38.242222222222225],[-119.42055555555557,38.242222222222225],[-119.42055555555557,38.242222222222225],[-119.24083333333333,38.26722222222222],[-119.0225,38.29555555555555],[-119.0225,38.29555555555555],[-118.70666666666666,38.33861111111111],[-118.70666666666666,38.33861111111111],[-118.70666666666666,38.33861111111111],[-118.5261111111111,38.363055555555555],[-118.5261111111111,38.363055555555555],[-118.49138888888889,38.367777777777775],[-118.14722222222223,38.4125],[-118.14722222222223,38.4125],[-118.14722222222223,38.4125],[-117.74833333333333,38.46361111111111],[-117.74833333333333,38.46361111111111],[-117.60499999999999,38.48166666666667],[-117.60499999999999,38.48166666666667],[-117.60499999999999,38.48166666666667],[-116.68916666666667,38.50194444444445],[-116.68916666666667,38.50194444444445],[-116.54722222222222,38.496944444444445],[-116.36777777777777,38.49111111111111],[-116.15138888888889,38.483333333333334],[-116.15138888888889,38.483333333333334],[-116.15138888888889,38.483333333333334],[-116.15138888888889,38.483333333333334],[-115.48027777777779,38.45583333333334],[-115.48027777777779,38.45583333333334],[-115.48027777777779,38.45583333333334],[-115.48027777777779,38.45583333333334],[-115.13833333333334,38.44027777777777],[-115.13833333333334,38.44027777777777],[-115.13833333333334,38.44027777777777],[-114.78472222222221,38.42333333333333],[-114.78472222222221,38.42333333333333],[-114.78472222222221,38.42333333333333],[-114.78472222222221,38.42333333333333],[-114.60805555555555,38.41444444444444],[-114.25833333333334,38.382222222222225],[-114.25833333333334,38.382222222222225],[-113.25944444444444,38.14361111111111],[-113.25944444444444,38.14361111111111],[-112.93305555555555,38.06333333333333],[-112.84777777777778,38.04222222222222],[-112.76916666666666,38.022777777777776],[-112.76916666666666,38.022777777777776],[-112.685,38.001666666666665],[-112.685,38.001666666666665],[-112.27777777777777,37.899166666666666],[-112.27777777777777,37.899166666666666],[-112.27777777777777,37.899166666666666],[-112.115,37.8575],[-112.115,37.8575],[-111.70444444444445,37.76083333333333],[-111.60666666666665,37.73861111111111],[-111.60666666666665,37.73861111111111],[-111.44555555555556,37.70138888888889],[-111.44555555555556,37.70138888888889],[-111.02916666666667,37.60444444444445],[-111.02916666666667,37.60444444444445],[-111.02916666666667,37.60444444444445],[-110.96416666666667,37.58888888888889],[-110.87083333333332,37.56055555555555],[-110.87083333333332,37.56055555555555],[-110.81361111111111,37.53333333333333],[-110.81361111111111,37.53333333333333],[-110.72944444444444,37.489444444444445],[-110.67166666666667,37.45916666666667],[-110.25694444444444,37.24027777777778],[-110.25694444444444,37.24027777777778],[-110.25694444444444,37.24027777777778],[-110.18333333333334,37.20111111111111],[-110.045,37.12722222222222],[-109.76777777777778,36.97833333333333],[-109.76777777777778,36.97833333333333],[-109.36027777777777,36.757222222222225],[-109.22333333333333,36.6825],[-109.22333333333333,36.6825],[-109.22333333333333,36.6825],[-108.81527777777778,36.4575],[-108.81527777777778,36.4575],[-108.26805555555555,36.151666666666664],[-108.26805555555555,36.151666666666664],[-108.12972222222221,36.07333333333334],[-107.74027777777778,35.822500000000005],[-107.61583333333333,35.73722222222222],[-107.61583333333333,35.73722222222222],[-107.48777777777778,35.649166666666666],[-107.10749999999999,35.385555555555555],[-106.98055555555555,35.29666666666667],[-106.73361111111112,35.12305555555555],[-106.73361111111112,35.12305555555555],[-106.485,34.94694444444444],[-106.485,34.94694444444444],[-106.3586111111111,34.85722222222223],[-105.86638888888888,34.50361111111111],[-105.86638888888888,34.50361111111111],[-105.86638888888888,34.50361111111111],[-105.61611111111111,34.33416666666667],[-105.61611111111111,34.33416666666667],[-105.3475,34.19],[-105.20666666666666,34.11388888888889],[-105.20666666666666,34.11388888888889],[-103.56361111111111,33.20638888888889],[-103.56361111111111,33.20638888888889],[-103.15916666666668,32.955555555555556],[-103.15916666666668,32.955555555555556],[-103.02888888888889,32.868611111111115],[-102.63444444444445,32.605555555555554],[-102.63444444444445,32.605555555555554],[-102.63444444444445,32.605555555555554],[-102.50555555555556,32.51861111111111],[-102.3786111111111,32.433055555555555],[-102.3786111111111,32.433055555555555],[-102.11611111111111,32.255],[-102.06,32.216944444444444],[-102.06,32.216944444444444],[-101.92888888888889,32.1275],[-101.92888888888889,32.1275],[-101.71805555555555,31.98222222222222],[-101.58805555555556,31.8925],[-101.58805555555556,31.8925],[-101.535,31.85611111111111],[-101.45833333333334,31.803611111111113],[-101.45833333333334,31.803611111111113],[-101.40416666666667,31.766111111111112],[-101.27583333333334,31.67638888888889],[-101.27583333333334,31.67638888888889],[-101.14527777777778,31.585277777777776],[-101.14527777777778,31.585277777777776],[-101.14527777777778,31.585277777777776],[-100.51805555555555,31.143333333333334],[-100.51805555555555,31.143333333333334],[-100.51805555555555,31.143333333333334],[-100.4175,31.071944444444444],[-100.4175,31.071944444444444],[-100.29305555555555,30.983611111111113],[-100.29305555555555,30.983611111111113],[-100.29305555555555,30.983611111111113],[-100.26833333333333,30.96611111111111],[-100.04583333333333,30.80638888888889],[-100.04583333333333,30.80638888888889],[-100.04583333333333,30.80638888888889],[-99.92194444444445,30.716944444444444],[-99.55361111111111,30.450277777777778],[-99.43277777777779,30.362222222222222],[-99.40777777777778,30.344166666666666],[-99.40777777777778,30.344166666666666],[-99.40777777777778,30.344166666666666],[-99.09583333333333,30.114722222222223],[-99.03666666666666,30.07138888888889],[-98.91916666666667,29.984444444444446],[-98.91916666666667,29.984444444444446],[-98.91916666666667,29.984444444444446],[-98.80055555555555,29.896666666666665],[-98.57111111111111,29.72583333333333],[-98.57111111111111,29.72583333333333],[-98.57111111111111,29.72583333333333],[-98.57111111111111,29.72583333333333],[-97.83083333333333,29.620555555555555],[-97.5025,29.607222222222223],[-97.5025,29.607222222222223],[-97.5025,29.607222222222223],[-97.3436111111111,29.600555555555555],[-97.3436111111111,29.600555555555555],[-97.18333333333334,29.59361111111111],[-97.18333333333334,29.59361111111111],[-96.86749999999999,29.578888888888887],[-96.86749999999999,29.578888888888887],[-96.38166666666666,29.555555555555557],[-96.23472222222222,29.53888888888889],[-96.04333333333334,29.522499999999997],[-96.04333333333334,29.522499999999997],[-95.98722222222223,29.519444444444442],[-95.93305555555555,29.519166666666667],[-95.93305555555555,29.519166666666667],[-95.70611111111111,29.55527777777778],[-95.70611111111111,29.55527777777778],[-95.70611111111111,29.55527777777778],[-95.56416666666667,29.748611111111114],[-95.56416666666667,29.748611111111114],[-95.50888888888889,29.829722222222223],[-95.33472222222221,29.891944444444444],[-95.33472222222221,29.891944444444444],[-95.33472222222221,29.891944444444444],[-95.24888888888889,29.891666666666666],[-95.1975,29.89361111111111],[-95.11055555555555,29.915],[-95.11055555555555,29.915],[-95.11555555555555,29.97222222222222],[-95.125,29.975277777777777],[-95.125,29.975277777777777],[-95.19027777777778,29.9775],[-95.19027777777778,29.9775],[-95.29305555555555,29.9775],[-95.29305555555555,29.9775],[-95.29305555555555,29.9775]],"type":"LineString"}
}
