{
  "id": 1981571487,
  "type": "Feature",
  "properties": {
    "geom:area": 0,
    "geom:bbox": "-122.359630,37.491490,-121.250450,37.614850",
    "geom:latitude": 37.546857107043856,
    "geom:longitude": -121.80998698909822,
    "src:alt_label": "swim-approach",
    "src:geom": "swim",
    "swim:elevations": [
      4708,
      4524,
      4226,
      4003,
      3638,
      3522,
      3487,
      3466,
      3138,
      3086,
      2855,
      2591,
      2498,
      2300,
      2143,
      1936,
      1886,
      1825,
      1571,
      1423,
      1158,
      914,
      914,
      836,
      585,
      460,
      350,
      338,
      278,
      150,
      27,
      121
    ],
    "swim:geom": "approach",
    "swim:timestamps": [
      1759530879,
      1759530897,
      1759530927,
      1759530948,
      1759530988,
      1759531009,
      1759531018,
      1759531021,
      1759531073,
      1759531083,
      1759531115,
      1759531151,
      1759531175,
      1759531217,
      1759531242,
      1759531287,
      1759531295,
      1759531328,
      1759531364,
      1759531382,
      1759531427,
      1759531460,
      1759531478,
      1759531501,
      1759531554,
      1759531587,
      1759531617,
      1759531620,
      1759531638,
      1759531674,
      1759531708,
      1759531714
    ],
    "wof:geomhash": "11c895fc55a3862088ec7da1aa6a1424",
    "wof:id": 1981571487,
    "wof:repo": "sfomuseum-data-flights-2025-10"
  },
  "bbox": [
    -122.35963,
    37.49149,
    -121.25045,
    37.61485
  ],
  "geometry": {"coordinates":[[-121.25045,37.59434],[-121.28608,37.58954],[-121.34491,37.58302],[-121.38575,37.5784],[-121.46271,37.56961],[-121.50129,37.56513],[-121.51721,37.56325],[-121.52246,37.56261],[-121.61068,37.55238],[-121.62797,37.54972],[-121.68065,37.53724],[-121.73999,37.52306],[-121.77824,37.51387],[-121.84225,37.49866],[-121.88109,37.49149],[-121.95042,37.49306],[-121.96168,37.49335],[-122.00796,37.50156],[-122.05187,37.51563],[-122.07276,37.52238],[-122.12249,37.53831],[-122.15351,37.5483],[-122.17055,37.554],[-122.19288,37.56128],[-122.24297,37.57784],[-122.26954,37.58611],[-122.29085,37.5919],[-122.29304,37.59247],[-122.30641,37.5963],[-122.3328,37.60409],[-122.35557,37.61288],[-122.35963,37.61485]],"type":"LineString"}
}
