{
  "id": 1981767827,
  "type": "Feature",
  "properties": {
    "geom:area": 0,
    "geom:bbox": "-122.372778,37.633333,-83.316111,44.992222",
    "geom:latitude": 42.81005581477585,
    "geom:longitude": -103.21651902884855,
    "src:alt_label": "swim-path",
    "src:geom": "swim",
    "swim:altitudes": [
      "008",
      "015",
      "090",
      "090",
      "090",
      "133",
      "133",
      "156",
      "177",
      "270",
      "270",
      "279",
      "279",
      "290C",
      "290C",
      "290C",
      "290C",
      "290C",
      "310C",
      "310C",
      "310C",
      "310C",
      "310C",
      "310C",
      "310C",
      "310C",
      "310C",
      "310C",
      "310C",
      "310C",
      "310C",
      "310C",
      "310C",
      "310C",
      "310C",
      "310C",
      "310C",
      "310C",
      "290C",
      "290C",
      "290C",
      "290C",
      "290C",
      "290C",
      "290C",
      "290C",
      "291",
      "330C",
      "330C",
      "330C",
      "330C",
      "330C",
      "330C",
      "330C",
      "330C",
      "330C",
      "330C",
      "330C",
      "330C",
      "330C",
      "330C",
      "330C",
      "330C",
      "330C",
      "330C",
      "330C",
      "330C",
      "330C",
      "330C",
      "331",
      "339",
      "346",
      "364",
      "367",
      "370C",
      "370C",
      "370C",
      "370C",
      "370C",
      "370C",
      "370C",
      "370C",
      "370C",
      "365",
      "355",
      "352",
      "352",
      "346",
      "342",
      "330C",
      "330C",
      "330C",
      "330C",
      "330C",
      "330C",
      "330C",
      "330C",
      "330C",
      "330C",
      "330C",
      "330C",
      "330C",
      "330C",
      "330C",
      "330C",
      "330C",
      "330C",
      "330C",
      "330C",
      "330C",
      "330C",
      "330C",
      "330C",
      "330C",
      "330C",
      "330C",
      "330C",
      "330C",
      "330C",
      "330C",
      "330C",
      "330C",
      "330C",
      "330C",
      "330C",
      "330C",
      "330C",
      "330C",
      "330C",
      "330C",
      "330C",
      "330C",
      "330C",
      "330C",
      "330C",
      "330C",
      "330C",
      "330C",
      "330C",
      "330C",
      "330C",
      "330C",
      "330C",
      "330C",
      "330C",
      "330C",
      "330C",
      "330C",
      "330C",
      "330C",
      "330C",
      "330C",
      "330C",
      "330C",
      "330C",
      "330C",
      "330C",
      "330C",
      "330C",
      "330C",
      "330C",
      "330C",
      "330C",
      "326",
      "322",
      "316",
      "312C",
      "312C",
      "310C",
      "310C",
      "310C",
      "310C",
      "310C",
      "310C",
      "310C",
      "310C"
    ],
    "swim:geom": "path",
    "swim:speeds": [
      177,
      179,
      265,
      265,
      265,
      360,
      360,
      375,
      388,
      470,
      470,
      474,
      474,
      482,
      482,
      484,
      485,
      487,
      499,
      490,
      490,
      490,
      493,
      508,
      509,
      510,
      513,
      511,
      513,
      513,
      513,
      513,
      512,
      513,
      513,
      515,
      514,
      514,
      518,
      518,
      521,
      520,
      520,
      521,
      521,
      514,
      511,
      523,
      522,
      522,
      511,
      510,
      510,
      512,
      512,
      517,
      516,
      516,
      513,
      507,
      505,
      505,
      502,
      502,
      499,
      497,
      497,
      498,
      499,
      500,
      503,
      503,
      498,
      502,
      503,
      503,
      502,
      501,
      501,
      500,
      499,
      497,
      493,
      484,
      486,
      484,
      484,
      484,
      485,
      495,
      497,
      497,
      496,
      497,
      491,
      489,
      488,
      487,
      487,
      485,
      485,
      485,
      480,
      468,
      460,
      458,
      457,
      457,
      457,
      456,
      456,
      457,
      457,
      456,
      455,
      454,
      454,
      453,
      452,
      452,
      451,
      451,
      450,
      448,
      447,
      444,
      444,
      444,
      443,
      442,
      442,
      442,
      443,
      443,
      442,
      443,
      442,
      442,
      440,
      439,
      440,
      440,
      440,
      440,
      441,
      441,
      442,
      443,
      442,
      439,
      431,
      431,
      441,
      441,
      440,
      440,
      441,
      441,
      442,
      443,
      445,
      444,
      444,
      444,
      443,
      441,
      440,
      440,
      439,
      438,
      438,
      438,
      431,
      430,
      430,
      429
    ],
    "swim:timestamps": [
      1761459320,
      1761459343,
      1761459523,
      1761459523,
      1761459523,
      1761459643,
      1761459643,
      1761459703,
      1761459763,
      1761460123,
      1761460123,
      1761460183,
      1761460183,
      1761460258,
      1761460258,
      1761460318,
      1761460378,
      1761460438,
      1761460618,
      1761460678,
      1761460678,
      1761460798,
      1761460812,
      1761460932,
      1761460978,
      1761461038,
      1761461053,
      1761461098,
      1761461111,
      1761461218,
      1761461278,
      1761461352,
      1761461398,
      1761461458,
      1761461458,
      1761461531,
      1761461591,
      1761461651,
      1761461818,
      1761461818,
      1761461938,
      1761461998,
      1761461998,
      1761462071,
      1761462071,
      1761462252,
      1761462432,
      1761462672,
      1761462852,
      1761462852,
      1761463032,
      1761463092,
      1761463092,
      1761463272,
      1761463272,
      1761463692,
      1761463755,
      1761463755,
      1761463872,
      1761464112,
      1761464173,
      1761464173,
      1761464234,
      1761464234,
      1761464383,
      1761464412,
      1761464503,
      1761464563,
      1761464593,
      1761464655,
      1761464683,
      1761464713,
      1761464834,
      1761464863,
      1761464954,
      1761464983,
      1761465043,
      1761465073,
      1761465073,
      1761465103,
      1761465135,
      1761465196,
      1761465283,
      1761465374,
      1761465435,
      1761465463,
      1761465463,
      1761465493,
      1761465523,
      1761465643,
      1761465736,
      1761465736,
      1761465763,
      1761465795,
      1761465884,
      1761465944,
      1761466004,
      1761466064,
      1761466064,
      1761466244,
      1761466244,
      1761466244,
      1761466478,
      1761466598,
      1761466664,
      1761466724,
      1761466778,
      1761466778,
      1761466838,
      1761466844,
      1761466904,
      1761466964,
      1761466964,
      1761467084,
      1761467198,
      1761467258,
      1761467264,
      1761467318,
      1761467378,
      1761467378,
      1761467438,
      1761467498,
      1761467558,
      1761467678,
      1761467739,
      1761467919,
      1761467919,
      1761467979,
      1761468099,
      1761468159,
      1761468219,
      1761468219,
      1761468279,
      1761468399,
      1761468639,
      1761468759,
      1761469479,
      1761469539,
      1761470200,
      1761470500,
      1761470560,
      1761470620,
      1761470620,
      1761470860,
      1761470920,
      1761470920,
      1761470980,
      1761471040,
      1761471100,
      1761471220,
      1761471580,
      1761471640,
      1761472060,
      1761472120,
      1761472300,
      1761472300,
      1761472481,
      1761472541,
      1761472601,
      1761472682,
      1761472901,
      1761472961,
      1761473081,
      1761473141,
      1761473162,
      1761473201,
      1761473221,
      1761473221,
      1761473281,
      1761473341,
      1761473401,
      1761473401,
      1761473461,
      1761473501,
      1761473521,
      1761473561
    ],
    "wof:geomhash": "1caac5dea8034ac1cad8febb552d9f66",
    "wof:id": 1981767827,
    "wof:repo": "sfomuseum-data-flights-2025-10"
  },
  "bbox": [
    -122.37277777777777,
    37.63333333333333,
    -83.31611111111111,
    44.992222222222225
  ],
  "geometry": {"coordinates":[[-122.36666666666666,37.63333333333333],[-122.35277777777777,37.644444444444446],[-122.37277777777777,37.816944444444445],[-122.37277777777777,37.816944444444445],[-122.37277777777777,37.816944444444445],[-122.33194444444445,37.97222222222222],[-122.33194444444445,37.97222222222222],[-122.22916666666667,38.03527777777778],[-122.12166666666666,38.100833333333334],[-121.35499999999999,38.559444444444445],[-121.35499999999999,38.559444444444445],[-121.23833333333333,38.628055555555555],[-121.23833333333333,38.628055555555555],[-121.07027777777778,38.726111111111116],[-121.07027777777778,38.726111111111116],[-120.9325,38.80638888888888],[-120.79194444444444,38.8875],[-120.65138888888889,38.968333333333334],[-120.21916666666667,39.21472222222223],[-120.07972222222222,39.29388888888889],[-120.07972222222222,39.29388888888889],[-119.79333333333334,39.45444444444445],[-119.765,39.46944444444445],[-119.44277777777778,39.5925],[-119.30416666666666,39.63333333333333],[-119.13,39.68333333333333],[-119.09666666666666,39.69305555555555],[-118.9538888888889,39.73361111111111],[-118.92222222222223,39.7425],[-118.60138888888888,39.833333333333336],[-118.42750000000001,39.88194444444444],[-118.21861111111112,39.939722222222215],[-118.07833333333333,39.97833333333333],[-117.90138888888889,40.02388888888889],[-117.90138888888889,40.02388888888889],[-117.68444444444445,40.07527777777778],[-117.50777777777778,40.117222222222225],[-117.32944444444443,40.15972222222222],[-116.81861111111111,40.278055555555554],[-116.81861111111111,40.278055555555554],[-116.47361111111111,40.35638888888889],[-116.29472222222222,40.39694444444444],[-116.29472222222222,40.39694444444444],[-116.04083333333332,40.453611111111115],[-116.04083333333332,40.453611111111115],[-115.50111111111111,40.57138888888889],[-114.96388888888889,40.68611111111111],[-114.27694444444444,40.87861111111111],[-113.7375,41.03111111111111],[-113.7375,41.03111111111111],[-113.20722222222223,41.177499999999995],[-113.03194444444445,41.22527777777778],[-113.03194444444445,41.22527777777778],[-112.4975,41.369166666666665],[-112.4975,41.369166666666665],[-111.22277777777778,41.69944444444444],[-111.04055555555556,41.74527777777778],[-111.04055555555556,41.74527777777778],[-110.66194444444444,41.83916666666667],[-109.94555555555556,42.01638888888889],[-109.77027777777778,42.0675],[-109.77027777777778,42.0675],[-109.595,42.11833333333333],[-109.595,42.11833333333333],[-109.17666666666668,42.23888888888889],[-109.10694444444444,42.25888888888889],[-108.82888888888888,42.33777777777778],[-108.65277777777779,42.38722222222222],[-108.58166666666666,42.40694444444444],[-108.40555555555557,42.45416666666667],[-108.29694444444445,42.48027777777778],[-108.22527777777778,42.4975],[-107.87027777777777,42.58083333333334],[-107.76083333333334,42.60638888888889],[-107.50722222222223,42.665277777777774],[-107.39916666666667,42.69],[-107.21722222222222,42.73166666666667],[-107.14472222222223,42.74805555555556],[-107.14472222222223,42.74805555555556],[-107.05805555555555,42.76722222222222],[-106.96472222222222,42.788333333333334],[-106.76888888888888,42.831944444444446],[-106.52166666666666,42.88666666666666],[-106.24,42.94833333333333],[-106.0625,42.98638888888889],[-105.99527777777777,43.0025],[-105.99527777777777,43.0025],[-105.89305555555556,43.03777777777778],[-105.82555555555555,43.06166666666666],[-105.4863888888889,43.17972222222222],[-105.20944444444444,43.275277777777774],[-105.20944444444444,43.275277777777774],[-105.14305555555556,43.29805555555556],[-105.03805555555556,43.33388888888889],[-104.8025,43.41361111111111],[-104.635,43.47],[-104.46388888888889,43.527499999999996],[-104.29444444444444,43.58388888888889],[-104.29444444444444,43.58388888888889],[-103.78611111111111,43.75083333333333],[-103.78611111111111,43.75083333333333],[-103.78611111111111,43.75083333333333],[-103.10111111111111,43.937777777777775],[-102.75277777777778,44.00555555555555],[-102.5761111111111,44.03944444444444],[-102.40777777777778,44.07166666666667],[-102.24055555555556,44.10333333333333],[-102.24055555555556,44.10333333333333],[-102.07111111111111,44.135],[-102.0675,44.135555555555555],[-101.89666666666668,44.1675],[-101.72555555555556,44.19888888888889],[-101.72555555555556,44.19888888888889],[-101.38388888888889,44.26083333333333],[-101.04833333333333,44.32055555555556],[-100.88,44.35],[-100.87222222222222,44.35138888888889],[-100.70777777777778,44.38],[-100.54083333333332,44.40861111111111],[-100.54083333333332,44.40861111111111],[-100.37083333333332,44.4375],[-100.20111111111112,44.46638888888889],[-100.0325,44.49444444444445],[-99.69472222222223,44.535],[-99.52361111111111,44.55416666666667],[-99.01444444444445,44.61],[-99.01444444444445,44.61],[-98.84444444444443,44.628055555555555],[-98.50416666666666,44.663333333333334],[-98.33555555555554,44.68055555555555],[-98.16527777777779,44.69777777777777],[-98.16527777777779,44.69777777777777],[-97.99194444444444,44.71472222222223],[-97.64888888888889,44.74777777777778],[-96.965,44.81027777777778],[-96.61916666666666,44.84055555555556],[-94.55416666666666,44.93555555555555],[-94.38305555555554,44.94166666666666],[-92.47,44.992222222222225],[-91.615,44.961111111111116],[-91.44638888888889,44.94361111111111],[-91.27555555555556,44.925555555555555],[-91.27555555555556,44.925555555555555],[-90.58916666666666,44.85055555555556],[-90.4225,44.831944444444446],[-90.4225,44.831944444444446],[-90.25111111111111,44.81222222222222],[-90.08083333333333,44.79222222222222],[-89.91222222222223,44.7725],[-89.57194444444444,44.731388888888894],[-88.57472222222222,44.605555555555554],[-88.41027777777778,44.58388888888889],[-87.27361111111111,44.32027777777778],[-87.12277777777777,44.28111111111111],[-86.64500000000001,44.15472222222222],[-86.64500000000001,44.15472222222222],[-86.16972222222223,44.026666666666664],[-86.00888888888889,43.98277777777778],[-85.84944444444444,43.93888888888888],[-85.6286111111111,43.87777777777778],[-85.05083333333333,43.715],[-84.89333333333335,43.669999999999995],[-84.5775,43.578611111111115],[-84.41888888888889,43.532777777777774],[-84.35944444444443,43.51555555555556],[-84.26333333333334,43.487500000000004],[-84.2038888888889,43.47],[-84.2038888888889,43.47],[-84.05027777777778,43.42472222222222],[-83.91111111111111,43.38333333333333],[-83.75361111111111,43.33638888888889],[-83.75361111111111,43.33638888888889],[-83.59277777777777,43.33416666666667],[-83.47833333333334,43.34638888888889],[-83.43166666666667,43.35138888888889],[-83.31611111111111,43.36388888888889]],"type":"LineString"}
}
