{
  "id": 1981804297,
  "type": "Feature",
  "properties": {
    "geom:area": 0,
    "geom:bbox": "-122.666667,37.450000,-73.563611,45.415000",
    "geom:latitude": 43.01617380689202,
    "geom:longitude": -98.74501326988211,
    "src:alt_label": "swim-path",
    "src:geom": "swim",
    "swim:altitudes": [
      "045",
      "045",
      "112",
      "170",
      "170",
      "215",
      "231",
      "320C",
      "320C",
      "333",
      "340C",
      "340C",
      "340C",
      "340C",
      "340C",
      "340C",
      "340C",
      "340C",
      "340C",
      "340C",
      "340C",
      "340C",
      "340C",
      "340C",
      "340C",
      "340C",
      "340C",
      "340C",
      "340C",
      "340C",
      "340C",
      "340C",
      "340C",
      "340C",
      "340C",
      "340C",
      "340C",
      "340C",
      "340C",
      "340C",
      "340C",
      "340C",
      "340C",
      "340C",
      "340C",
      "340C",
      "340C",
      "340C",
      "340C",
      "340C",
      "340C",
      "340C",
      "340C",
      "340C",
      "340C",
      "340C",
      "363",
      "372",
      "372",
      "380C",
      "380C",
      "380C",
      "380C",
      "380C",
      "380C",
      "380C",
      "380C",
      "380C",
      "380C",
      "380C",
      "380C",
      "380C",
      "380C",
      "380C",
      "380C",
      "380C",
      "380C",
      "380C",
      "380C",
      "380C",
      "380C",
      "380C",
      "380C",
      "380C",
      "380C",
      "380C",
      "380C",
      "380C",
      "380C",
      "380C",
      "380C",
      "380C",
      "380C",
      "380C",
      "380C",
      "380C",
      "380C",
      "380C",
      "380C",
      "380C",
      "380C",
      "380C",
      "380C",
      "380C",
      "380C",
      "380C",
      "380C",
      "380C",
      "380C",
      "380C",
      "380C",
      "380C",
      "380C",
      "380C",
      "316",
      "218",
      "166",
      "110",
      "046",
      "040",
      "006",
      "006"
    ],
    "swim:geom": "path",
    "swim:speeds": [
      278,
      278,
      341,
      447,
      447,
      455,
      468,
      513,
      501,
      499,
      495,
      498,
      473,
      473,
      469,
      469,
      466,
      456,
      456,
      450,
      456,
      463,
      463,
      463,
      468,
      468,
      468,
      448,
      464,
      464,
      468,
      468,
      467,
      467,
      467,
      462,
      462,
      463,
      470,
      470,
      469,
      464,
      464,
      456,
      459,
      459,
      454,
      441,
      438,
      438,
      434,
      433,
      419,
      422,
      422,
      419,
      416,
      417,
      417,
      429,
      429,
      420,
      420,
      415,
      414,
      413,
      418,
      422,
      419,
      418,
      412,
      412,
      410,
      410,
      416,
      416,
      418,
      419,
      416,
      416,
      416,
      413,
      404,
      404,
      413,
      417,
      417,
      417,
      420,
      420,
      420,
      423,
      423,
      423,
      429,
      430,
      431,
      439,
      440,
      439,
      443,
      443,
      445,
      450,
      453,
      453,
      456,
      458,
      482,
      483,
      485,
      491,
      491,
      491,
      509,
      432,
      411,
      265,
      234,
      201,
      135,
      135
    ],
    "swim:timestamps": [
      1761884536,
      1761884536,
      1761884699,
      1761885060,
      1761885060,
      1761885300,
      1761885360,
      1761885804,
      1761885840,
      1761885960,
      1761886167,
      1761886345,
      1761887223,
      1761887284,
      1761887582,
      1761887582,
      1761887763,
      1761887997,
      1761887997,
      1761888237,
      1761888483,
      1761888724,
      1761888724,
      1761888724,
      1761888898,
      1761888898,
      1761888898,
      1761889498,
      1761889678,
      1761889678,
      1761889798,
      1761889978,
      1761890038,
      1761890098,
      1761890098,
      1761890518,
      1761890518,
      1761890578,
      1761890818,
      1761890878,
      1761890938,
      1761891178,
      1761891178,
      1761891419,
      1761891539,
      1761891539,
      1761891839,
      1761892139,
      1761892259,
      1761892259,
      1761892559,
      1761892619,
      1761892739,
      1761892979,
      1761893039,
      1761893159,
      1761893519,
      1761893580,
      1761893580,
      1761893760,
      1761893760,
      1761894360,
      1761894360,
      1761894540,
      1761894660,
      1761894829,
      1761894960,
      1761895189,
      1761895380,
      1761895440,
      1761895608,
      1761895620,
      1761895788,
      1761895910,
      1761896148,
      1761896148,
      1761896450,
      1761896570,
      1761896930,
      1761897050,
      1761897170,
      1761897291,
      1761897529,
      1761897529,
      1761898189,
      1761898490,
      1761898490,
      1761898490,
      1761898970,
      1761899030,
      1761899091,
      1761899390,
      1761899390,
      1761899390,
      1761899811,
      1761899990,
      1761900172,
      1761900590,
      1761900650,
      1761900679,
      1761900770,
      1761900770,
      1761900859,
      1761901279,
      1761901459,
      1761901459,
      1761901579,
      1761901639,
      1761902119,
      1761902179,
      1761902299,
      1761902659,
      1761902659,
      1761902659,
      1761902959,
      1761903276,
      1761903414,
      1761903708,
      1761903948,
      1761904040,
      1761904314,
      1761904314
    ],
    "wof:geomhash": "50ce3deb1a6760a03e65ac1cb7a06eda",
    "wof:id": 1981804297,
    "wof:repo": "sfomuseum-data-flights-2025-10"
  },
  "bbox": [
    -122.66666666666667,
    37.45,
    -73.56361111111111,
    45.415
  ],
  "geometry": {"coordinates":[[-73.71666666666667,40.583333333333336],[-73.71666666666667,40.583333333333336],[-73.56361111111111,40.74666666666667],[-74.14722222222223,41.263333333333335],[-74.14722222222223,41.263333333333335],[-74.68416666666667,41.547777777777775],[-74.83583333333333,41.613055555555555],[-76.0436111111111,42.11944444444445],[-76.14888888888889,42.160555555555554],[-76.49111111111111,42.27111111111111],[-77.075,42.45472222222222],[-77.58777777777777,42.61277777777778],[-80.12777777777777,43.02388888888889],[-80.30527777777777,43.032222222222224],[-81.19194444444445,43.07833333333333],[-81.19194444444445,43.07833333333333],[-81.72722222222222,43.145833333333336],[-82.3888888888889,43.225],[-82.3888888888889,43.225],[-83.04805555555555,43.350833333333334],[-83.71555555555555,43.52305555555555],[-84.4,43.69472222222222],[-84.4,43.69472222222222],[-84.4,43.69472222222222],[-84.91250000000001,43.819722222222225],[-84.91250000000001,43.819722222222225],[-84.91250000000001,43.819722222222225],[-86.55555555555556,44.20194444444445],[-87.07055555555556,44.31583333333333],[-87.07055555555556,44.31583333333333],[-87.41638888888889,44.39083333333333],[-87.94111111111111,44.50222222222222],[-88.10916666666667,44.53722222222222],[-88.28333333333333,44.5675],[-88.28333333333333,44.5675],[-89.52166666666666,44.730000000000004],[-89.52166666666666,44.730000000000004],[-89.69833333333334,44.75222222222222],[-90.42,44.83916666666667],[-90.615,44.86194444444445],[-90.79444444444444,44.8825],[-91.51027777777777,44.961666666666666],[-91.51027777777777,44.961666666666666],[-92.21694444444445,45.035],[-92.57222222222222,45.07027777777778],[-92.57222222222222,45.07027777777778],[-93.45555555555556,45.15222222222222],[-94.31583333333333,45.21388888888889],[-94.67888888888889,45.238055555555555],[-94.67888888888889,45.238055555555555],[-95.52972222222222,45.29],[-95.6975,45.29944444444444],[-96.03055555555555,45.31777777777778],[-96.68611111111112,45.35055555555556],[-96.85194444444444,45.35805555555556],[-97.17833333333334,45.3725],[-98.1363888888889,45.40972222222222],[-98.29916666666666,45.415],[-98.29916666666666,45.415],[-98.79944444444445,45.37916666666667],[-98.79944444444445,45.37916666666667],[-100.47888888888889,45.21527777777778],[-100.47888888888889,45.21527777777778],[-100.95861111111111,45.163888888888884],[-101.28027777777778,45.128055555555555],[-101.72666666666667,45.075],[-102.07416666666666,45.00416666666667],[-102.6738888888889,44.878055555555555],[-103.17611111111111,44.76916666666666],[-103.33083333333333,44.73527777777778],[-103.75805555555556,44.640277777777776],[-103.78944444444444,44.63305555555556],[-104.21388888888889,44.53666666666666],[-104.515,44.466944444444444],[-105.12527777777777,44.32277777777778],[-105.12527777777777,44.32277777777778],[-105.88805555555557,44.136944444444445],[-106.19333333333334,44.06083333333333],[-107.08694444444444,43.816944444444445],[-107.385,43.731388888888894],[-107.68138888888889,43.64555555555555],[-107.97444444444444,43.55972222222222],[-108.55,43.39277777777778],[-108.55,43.39277777777778],[-110.1275,42.93194444444444],[-110.85583333333332,42.70916666666667],[-110.85583333333332,42.70916666666667],[-110.85583333333332,42.70916666666667],[-112.03388888888888,42.336111111111116],[-112.17722222222223,42.28944444444444],[-112.31972222222223,42.24305555555556],[-113.03555555555555,42.00111111111111],[-113.03555555555555,42.00111111111111],[-113.03555555555555,42.00111111111111],[-114.04027777777777,41.64944444444444],[-114.46888888888888,41.495555555555555],[-114.89194444444445,41.34138888888889],[-115.89722222222223,40.96555555555556],[-116.04305555555555,40.91],[-116.10249999999999,40.888333333333335],[-116.33194444444445,40.799166666666665],[-116.33194444444445,40.799166666666665],[-116.56694444444445,40.70805555555556],[-117.61666666666666,40.38638888888889],[-118.08611111111111,40.26],[-118.08611111111111,40.26],[-118.39861111111112,40.17444444444444],[-118.55277777777778,40.132222222222225],[-119.82416666666666,39.74388888888889],[-119.98722222222223,39.69277777777778],[-120.31777777777778,39.588055555555556],[-121.26,39.242222222222225],[-121.26,39.242222222222225],[-121.26,39.242222222222225],[-121.96666666666667,38.825833333333335],[-122.63333333333334,38.31666666666667],[-122.66666666666667,38.05],[-122.41666666666667,37.65],[-122.2,37.45],[-122.11749999999999,37.462500000000006],[-122.33333333333333,37.6],[-122.33333333333333,37.6]],"type":"LineString"}
}
