{
  "id": 1981672161,
  "type": "Feature",
  "properties": {
    "geom:area": 0,
    "geom:bbox": "-122.531010,37.630440,-121.518900,38.512840",
    "geom:latitude": 38.065931375015154,
    "geom:longitude": -122.08441490951815,
    "src:alt_label": "swim-takeoff",
    "src:geom": "swim",
    "swim:elevations": [
      341,
      454,
      937,
      1066,
      1124,
      1442,
      1618,
      1937,
      2552,
      2893,
      3046,
      3196,
      3295,
      3436,
      3850,
      4345,
      4518,
      4878,
      5058,
      5570,
      5710,
      5993,
      6299,
      6587,
      6730,
      6952,
      7093,
      7427,
      7606,
      7628
    ],
    "swim:geom": "takeoff",
    "swim:timestamps": [
      1760464887,
      1760464896,
      1760464947,
      1760464976,
      1760464991,
      1760465038,
      1760465050,
      1760465078,
      1760465127,
      1760465155,
      1760465174,
      1760465206,
      1760465234,
      1760465263,
      1760465299,
      1760465338,
      1760465354,
      1760465391,
      1760465405,
      1760465454,
      1760465466,
      1760465494,
      1760465537,
      1760465576,
      1760465602,
      1760465634,
      1760465654,
      1760465698,
      1760465727,
      1760465730
    ],
    "wof:geomhash": "3190198906e3409cb712e7bca36dd5a2",
    "wof:id": 1981672161,
    "wof:repo": "sfomuseum-data-flights-2025-10"
  },
  "bbox": [
    -122.53101,
    37.63044,
    -121.5189,
    38.51284
  ],
  "geometry": {"coordinates":[[-122.40258,37.63044],[-122.40997,37.63368],[-122.45582,37.65362],[-122.48358,37.66554],[-122.50039,37.67292],[-122.53101,37.71626],[-122.52749,37.73061],[-122.52516,37.76448],[-122.49491,37.81688],[-122.45249,37.8313],[-122.42554,37.84365],[-122.38468,37.87115],[-122.34541,37.89903],[-122.30117,37.92981],[-122.24276,37.97031],[-122.17865,38.01469],[-122.15363,38.03179],[-122.09029,38.07516],[-122.06741,38.09099],[-121.98611,38.14747],[-121.96478,38.16212],[-121.91622,38.19543],[-121.84206,38.24609],[-121.77303,38.29316],[-121.72517,38.32575],[-121.66901,38.36658],[-121.63516,38.39633],[-121.56755,38.46406],[-121.52356,38.50815],[-121.5189,38.51284]],"type":"LineString"}
}
