{
  "id": 1981789645,
  "type": "Feature",
  "properties": {
    "geom:area": 0,
    "geom:bbox": "-174.650000,-27.420000,180.000000,37.620000",
    "geom:latitude": -4.514735280872724,
    "geom:longitude": -8.474364430749858,
    "src:alt_label": "swim-route",
    "src:geom": "swim",
    "swim:geom": "route",
    "wof:geomhash": "33d9758770cf620993f10411ae9b9fd4",
    "wof:id": 1981789645,
    "wof:repo": "sfomuseum-data-flights-2025-10"
  },
  "bbox": [
    -174.65,
    -27.42,
    180,
    37.62
  ],
  "geometry": {"coordinates":[[[153.08,-27.42],[153.21,-27.38],[153.3,-27.35],[153.41,-27.32],[153.53,-27.29],[153.71,-27.23],[153.86,-27.19],[154.05,-27.11],[154.27,-27.02],[154.52,-26.92],[154.68,-26.86],[154.69,-26.86],[154.76,-26.83],[154.89,-26.77],[155.2,-26.65],[155.61,-26.48],[155.73,-26.43],[155.93,-26.36],[160.38,-24.6],[163,-23.47],[164.28,-22.9],[170,-19],[180,-10]],[[-174.65,-5],[-170,0],[-167.5,2.5],[-165,5],[-160,10],[-155,15],[-151.28,18.76],[-150,20],[-147.53,22.22],[-144.99,24.41],[-144.31,24.96],[-143.63,25.5],[-139.43,28.7],[-133.9,31.64],[-132.83,32.17],[-130.33,33.51],[-128.62,34.38],[-125.98,35.63],[-125.98,35.63],[-124.76,36.18],[-124.73,36.2],[-124.42,36.4],[-124.37,36.43],[-124.05,36.63],[-123.99,36.67],[-123.73,36.83],[-123.69,36.85],[-123.57,36.93],[-123.51,36.96],[-123.48,36.98],[-123.3,37.09],[-123.13,37.19],[-122.96,37.24],[-122.86,37.26],[-122.84,37.26],[-122.84,37.26],[-122.76,37.28],[-122.71,37.29],[-122.66,37.3],[-122.63,37.31],[-122.5,37.34],[-122.44,37.36],[-122.29,37.39],[-122.28,37.39],[-122.31,37.46],[-122.34,37.54],[-122.37,37.6],[-122.37,37.61],[-122.38,37.62]]],"type":"MultiLineString"}
}
