{
  "id": 1981788379,
  "type": "Feature",
  "properties": {
    "geom:area": 0,
    "geom:bbox": "-122.355950,37.491210,-121.251060,37.612970",
    "geom:latitude": 37.54631411427271,
    "geom:longitude": -121.80839501224654,
    "src:alt_label": "swim-approach",
    "src:geom": "swim",
    "swim:elevations": [
      4880,
      4769,
      4470,
      4093,
      3786,
      3433,
      3394,
      3134,
      2691,
      2440,
      2438,
      2438,
      2340,
      2268,
      2038,
      1771,
      1746,
      1736,
      1737,
      1695,
      1581,
      1278,
      1192,
      1055,
      921,
      885,
      735,
      675,
      565,
      328,
      225,
      160,
      22
    ],
    "swim:geom": "approach",
    "swim:timestamps": [
      1761678386,
      1761678402,
      1761678432,
      1761678476,
      1761678505,
      1761678536,
      1761678540,
      1761678577,
      1761678635,
      1761678687,
      1761678695,
      1761678710,
      1761678733,
      1761678753,
      1761678787,
      1761678835,
      1761678852,
      1761678863,
      1761678874,
      1761678886,
      1761678903,
      1761678947,
      1761678962,
      1761679003,
      1761679045,
      1761679069,
      1761679102,
      1761679112,
      1761679140,
      1761679198,
      1761679228,
      1761679242,
      1761679275
    ],
    "wof:geomhash": "ffe45b0bae02710f5c80fe3eea2ccb79",
    "wof:id": 1981788379,
    "wof:repo": "sfomuseum-data-flights-2025-10"
  },
  "bbox": [
    -122.35595,
    37.49121,
    -121.25106,
    37.61297
  ],
  "geometry": {"coordinates":[[-121.25106,37.59403],[-121.28047,37.59],[-121.33462,37.58418],[-121.41088,37.57558],[-121.46132,37.56972],[-121.51556,37.56354],[-121.52201,37.56279],[-121.58519,37.55535],[-121.68092,37.53709],[-121.76345,37.51748],[-121.77569,37.51456],[-121.7972,37.50944],[-121.82861,37.502],[-121.85292,37.49616],[-121.89406,37.49121],[-121.95116,37.49281],[-121.97032,37.49337],[-121.98311,37.49391],[-121.99573,37.49699],[-122.00787,37.50112],[-122.02524,37.50702],[-122.07162,37.52188],[-122.0872,37.52696],[-122.12582,37.53935],[-122.16511,37.55218],[-122.18718,37.55931],[-122.21871,37.56952],[-122.22723,37.57227],[-122.25265,37.58048],[-122.29947,37.59404],[-122.32199,37.60089],[-122.33241,37.60415],[-122.35595,37.61297]],"type":"LineString"}
}
