{
  "id": 1981689239,
  "type": "Feature",
  "properties": {
    "geom:area": 0,
    "geom:bbox": "-122.439970,36.746640,-121.455680,37.708070",
    "geom:latitude": 37.22892238661444,
    "geom:longitude": -122.02940024809395,
    "src:alt_label": "swim-takeoff",
    "src:geom": "swim",
    "swim:elevations": [
      152,
      370,
      580,
      691,
      964,
      1084,
      1097,
      1672,
      1780,
      2351,
      2694,
      2978,
      3126,
      3390,
      3468,
      3645,
      3884,
      4371,
      4494,
      4784,
      5129,
      5338,
      5541,
      5716,
      6090,
      6314,
      6591,
      6631,
      6920,
      7184,
      7364
    ],
    "swim:geom": "takeoff",
    "swim:timestamps": [
      1760614704,
      1760614719,
      1760614735,
      1760614748,
      1760614782,
      1760614826,
      1760614830,
      1760614886,
      1760614891,
      1760614932,
      1760614961,
      1760614987,
      1760614997,
      1760615036,
      1760615052,
      1760615089,
      1760615114,
      1760615159,
      1760615173,
      1760615200,
      1760615238,
      1760615263,
      1760615290,
      1760615310,
      1760615351,
      1760615378,
      1760615419,
      1760615430,
      1760615479,
      1760615518,
      1760615543
    ],
    "wof:geomhash": "8c172d7345e47c135a56159ed9a9b88f",
    "wof:id": 1981689239,
    "wof:repo": "sfomuseum-data-flights-2025-10"
  },
  "bbox": [
    -122.43997,
    36.74664,
    -121.45568,
    37.70807
  ],
  "geometry": {"coordinates":[[-122.3705,37.62703],[-122.3665,37.63715],[-122.36468,37.64835],[-122.36351,37.65742],[-122.36143,37.68094],[-122.38919,37.7075],[-122.39397,37.70807],[-122.43974,37.65696],[-122.43997,37.64977],[-122.42794,37.59589],[-122.40783,37.5588],[-122.38893,37.52372],[-122.38149,37.50988],[-122.35077,37.45477],[-122.33028,37.43349],[-122.27186,37.38804],[-122.22912,37.35474],[-122.15446,37.29663],[-122.12922,37.27695],[-122.08228,37.24033],[-122.01599,37.18855],[-121.97184,37.15396],[-121.92367,37.11626],[-121.88839,37.08858],[-121.81374,37.02989],[-121.76488,36.9914],[-121.69018,36.93253],[-121.66955,36.91623],[-121.57865,36.84435],[-121.50343,36.78461],[-121.45568,36.74664]],"type":"LineString"}
}
