{
  "id": 1981635509,
  "type": "Feature",
  "properties": {
    "geom:area": 0,
    "geom:bbox": "-122.367060,37.627500,-121.442960,38.510190",
    "geom:latitude": 38.06024238156098,
    "geom:longitude": -121.90055847177227,
    "src:alt_label": "swim-takeoff",
    "src:geom": "swim",
    "swim:elevations": [
      152,
      559,
      765,
      1105,
      1268,
      1959,
      2495,
      2691,
      3145,
      3278,
      3344,
      3960,
      4359,
      4523,
      4764,
      5251,
      5411,
      5539,
      5949,
      6220,
      6437,
      6500,
      6625
    ],
    "swim:geom": "takeoff",
    "swim:timestamps": [
      1760098934,
      1760098974,
      1760099004,
      1760099032,
      1760099043,
      1760099089,
      1760099128,
      1760099142,
      1760099188,
      1760099212,
      1760099221,
      1760099278,
      1760099318,
      1760099353,
      1760099378,
      1760099424,
      1760099446,
      1760099462,
      1760099512,
      1760099544,
      1760099568,
      1760099577,
      1760099594
    ],
    "wof:geomhash": "7a65e2b2a75ca86830c024022713f71f",
    "wof:id": 1981635509,
    "wof:repo": "sfomuseum-data-flights-2025-10"
  },
  "bbox": [
    -122.36706,
    37.6275,
    -121.44296,
    38.51019
  ],
  "geometry": {"coordinates":[[-122.36706,37.6275],[-122.33256,37.64773],[-122.29537,37.66198],[-122.256,37.67765],[-122.24022,37.68489],[-122.1935,37.7305],[-122.15489,37.77503],[-122.14058,37.79105],[-122.09075,37.84713],[-122.06278,37.87868],[-122.05105,37.89183],[-121.97542,37.97637],[-121.91967,38.03823],[-121.86726,38.09616],[-121.82979,38.13736],[-121.75672,38.21815],[-121.72147,38.25703],[-121.69653,38.28448],[-121.61229,38.37726],[-121.55561,38.4342],[-121.50479,38.47205],[-121.48323,38.48547],[-121.44296,38.51019]],"type":"LineString"}
}
