{
  "id": 1981713923,
  "type": "Feature",
  "properties": {
    "geom:area": 0,
    "geom:bbox": "-122.385960,37.640730,-121.245780,38.425630",
    "geom:latitude": 38.091181256666985,
    "geom:longitude": -121.92059771714254,
    "src:alt_label": "swim-takeoff",
    "src:geom": "swim",
    "swim:elevations": [
      406,
      545,
      613,
      696,
      1068,
      1313,
      1448,
      1821,
      2582,
      3040,
      3182,
      3426,
      3538,
      3913,
      4195,
      4640,
      4966,
      5130,
      5247,
      5367,
      5564,
      5897,
      6176,
      6348,
      6412,
      6651,
      6780,
      7023,
      7180,
      7350,
      7551,
      7593
    ],
    "swim:geom": "takeoff",
    "swim:timestamps": [
      1760915838,
      1760915850,
      1760915865,
      1760915880,
      1760915914,
      1760915932,
      1760915944,
      1760915970,
      1760916026,
      1760916058,
      1760916069,
      1760916115,
      1760916132,
      1760916174,
      1760916203,
      1760916238,
      1760916264,
      1760916279,
      1760916291,
      1760916309,
      1760916345,
      1760916387,
      1760916415,
      1760916433,
      1760916439,
      1760916472,
      1760916490,
      1760916526,
      1760916553,
      1760916580,
      1760916627,
      1760916641
    ],
    "wof:geomhash": "e51e79eca28a3ec0643dd04f8e07772d",
    "wof:id": 1981713923,
    "wof:repo": "sfomuseum-data-flights-2025-10"
  },
  "bbox": [
    -122.38596,
    37.64073,
    -121.24578,
    38.42563
  ],
  "geometry": {"coordinates":[[-122.35561,37.64073],[-122.34648,37.64836],[-122.33419,37.65861],[-122.32141,37.67043],[-122.3158,37.70758],[-122.32602,37.72752],[-122.33333,37.74042],[-122.35006,37.77171],[-122.38282,37.8389],[-122.38596,37.88194],[-122.38555,37.89617],[-122.34846,37.95437],[-122.31853,37.967],[-122.23556,38.0004],[-122.17849,38.02359],[-122.10714,38.05217],[-122.05575,38.07257],[-122.0257,38.08445],[-122.0017,38.09399],[-121.96546,38.10848],[-121.88963,38.13877],[-121.7991,38.17472],[-121.73855,38.19874],[-121.69941,38.21423],[-121.68642,38.2194],[-121.61425,38.2479],[-121.57577,38.26305],[-121.4947,38.295],[-121.43223,38.31973],[-121.37129,38.34845],[-121.27582,38.40697],[-121.24578,38.42563]],"type":"LineString"}
}
