{
  "id": 1981724753,
  "type": "Feature",
  "properties": {
    "geom:area": 0,
    "geom:bbox": "-122.328889,33.649444,-84.212778,38.683611",
    "geom:latitude": 37.231043646750315,
    "geom:longitude": -103.12196318498422,
    "src:alt_label": "swim-path",
    "src:geom": "swim",
    "swim:altitudes": [
      "044",
      "111",
      "132",
      "208",
      "241",
      "303",
      "348C",
      "350C",
      "350C",
      "350C",
      "350C",
      "350C",
      "350C",
      "350C",
      "350C",
      "350C",
      "350C",
      "350C",
      "350C",
      "350C",
      "350C",
      "350C",
      "350C",
      "350C",
      "350C",
      "350C",
      "350C",
      "350C",
      "350C",
      "350C",
      "350C",
      "350C",
      "350C",
      "350C",
      "350C",
      "350C",
      "350C",
      "350C",
      "350C",
      "350C",
      "350C",
      "358",
      "358",
      "358",
      "370C",
      "370C",
      "370C",
      "370C",
      "370C",
      "370C",
      "370C",
      "370C",
      "370C",
      "370C",
      "370C",
      "370C",
      "370C",
      "370C",
      "370C",
      "370C",
      "370C",
      "370C",
      "370C",
      "370C",
      "370C",
      "370C",
      "370C",
      "370C",
      "370C",
      "370C",
      "370C",
      "370C",
      "370C",
      "370C",
      "370C",
      "370C",
      "370C",
      "370C",
      "370C",
      "370C",
      "370C",
      "370C",
      "370C",
      "370C",
      "370C",
      "370C",
      "370C",
      "370C",
      "370C",
      "370C",
      "370C",
      "370C",
      "370C",
      "370C",
      "370C",
      "370C",
      "370C",
      "370C",
      "370C",
      "370C",
      "370C",
      "370C",
      "370C",
      "370C",
      "370C",
      "370C",
      "370C",
      "370C",
      "370C",
      "370C",
      "370C",
      "370C",
      "370C",
      "370C",
      "370C",
      "370C",
      "370C",
      "370C",
      "370C",
      "370C",
      "370C",
      "370C",
      "370C",
      "370C",
      "370C",
      "370C",
      "370C",
      "370C",
      "370C",
      "370C",
      "370C",
      "370C",
      "370C",
      "370C",
      "370C",
      "370C",
      "350C",
      "319",
      "249",
      "203",
      "120",
      "119",
      "109",
      "103",
      "088",
      "073",
      "073",
      "037",
      "028",
      "020",
      "018"
    ],
    "swim:geom": "path",
    "swim:speeds": [
      261,
      334,
      349,
      380,
      396,
      440,
      460,
      460,
      459,
      459,
      457,
      456,
      456,
      455,
      454,
      454,
      454,
      452,
      452,
      456,
      456,
      456,
      456,
      456,
      456,
      478,
      478,
      478,
      481,
      481,
      481,
      481,
      481,
      482,
      483,
      484,
      485,
      486,
      487,
      487,
      487,
      490,
      490,
      490,
      493,
      494,
      494,
      497,
      497,
      499,
      502,
      502,
      503,
      502,
      503,
      503,
      509,
      510,
      512,
      515,
      517,
      517,
      515,
      518,
      518,
      516,
      516,
      519,
      521,
      523,
      525,
      527,
      528,
      528,
      528,
      528,
      529,
      529,
      529,
      529,
      530,
      530,
      530,
      529,
      529,
      529,
      529,
      531,
      531,
      533,
      533,
      533,
      538,
      541,
      541,
      546,
      548,
      548,
      551,
      553,
      555,
      562,
      567,
      567,
      567,
      568,
      568,
      571,
      571,
      568,
      567,
      563,
      556,
      556,
      553,
      551,
      550,
      550,
      548,
      549,
      549,
      549,
      548,
      548,
      548,
      548,
      548,
      547,
      548,
      547,
      547,
      546,
      543,
      544,
      531,
      531,
      531,
      531,
      472,
      441,
      325,
      316,
      283,
      274,
      272,
      267,
      267,
      183,
      174,
      141,
      136
    ],
    "swim:timestamps": [
      1761026297,
      1761026477,
      1761026537,
      1761026778,
      1761026898,
      1761027198,
      1761027498,
      1761027558,
      1761027678,
      1761027678,
      1761027858,
      1761027918,
      1761028279,
      1761028339,
      1761028399,
      1761028399,
      1761028459,
      1761028579,
      1761028579,
      1761028879,
      1761028879,
      1761028879,
      1761028939,
      1761028939,
      1761028939,
      1761030659,
      1761030659,
      1761030659,
      1761030779,
      1761030839,
      1761030839,
      1761030839,
      1761030839,
      1761030899,
      1761031019,
      1761031079,
      1761031139,
      1761031199,
      1761031259,
      1761031319,
      1761031439,
      1761031559,
      1761031559,
      1761031559,
      1761031740,
      1761031920,
      1761031980,
      1761032160,
      1761032160,
      1761032220,
      1761032340,
      1761032340,
      1761032400,
      1761032520,
      1761032580,
      1761032580,
      1761032820,
      1761032940,
      1761033034,
      1761033152,
      1761033180,
      1761033180,
      1761033212,
      1761033240,
      1761033240,
      1761033272,
      1761033272,
      1761033300,
      1761033360,
      1761033420,
      1761033512,
      1761033721,
      1761033752,
      1761033781,
      1761033781,
      1761033781,
      1761033812,
      1761033841,
      1761033873,
      1761033901,
      1761033933,
      1761033993,
      1761033993,
      1761034081,
      1761034113,
      1761034113,
      1761034175,
      1761034235,
      1761034235,
      1761034292,
      1761034292,
      1761034292,
      1761034533,
      1761034713,
      1761034713,
      1761034893,
      1761034953,
      1761034953,
      1761035013,
      1761035074,
      1761035193,
      1761035548,
      1761035676,
      1761035676,
      1761035848,
      1761036157,
      1761036157,
      1761036328,
      1761036388,
      1761036514,
      1761036574,
      1761036748,
      1761036928,
      1761036928,
      1761037048,
      1761037109,
      1761037169,
      1761037169,
      1761037349,
      1761037529,
      1761037589,
      1761037589,
      1761037612,
      1761037672,
      1761037709,
      1761037709,
      1761037732,
      1761037769,
      1761037793,
      1761037889,
      1761037973,
      1761038033,
      1761038069,
      1761038093,
      1761038393,
      1761038393,
      1761038693,
      1761038993,
      1761039210,
      1761039353,
      1761039834,
      1761039840,
      1761039912,
      1761039954,
      1761040014,
      1761040074,
      1761040074,
      1761040254,
      1761040314,
      1761040374,
      1761040380
    ],
    "wof:geomhash": "dc5995bbd1d4038c65b62db73e6a6919",
    "wof:id": 1981724753,
    "wof:repo": "sfomuseum-data-flights-2025-10"
  },
  "bbox": [
    -122.32888888888888,
    33.64944444444444,
    -84.21277777777777,
    38.683611111111105
  ],
  "geometry": {"coordinates":[[-122.32888888888888,37.731388888888894],[-122.31611111111111,37.94305555555555],[-122.19388888888889,37.94916666666666],[-121.68805555555556,37.969722222222224],[-121.41333333333334,37.98027777777778],[-120.64555555555556,38.06166666666666],[-119.85694444444444,38.17861111111111],[-119.69722222222222,38.20027777777778],[-119.38194444444444,38.24583333333334],[-119.38194444444444,38.24583333333334],[-118.90444444444445,38.3125],[-118.74527777777777,38.33361111111111],[-117.78611111111111,38.45861111111111],[-117.62527777777777,38.47888888888889],[-117.46583333333334,38.49861111111111],[-117.46583333333334,38.49861111111111],[-117.33888888888889,38.51416666666667],[-117.01472222222222,38.53472222222222],[-117.01472222222222,38.53472222222222],[-116.20861111111111,38.572500000000005],[-116.20861111111111,38.572500000000005],[-116.20861111111111,38.572500000000005],[-116.04666666666667,38.57972222222222],[-116.04666666666667,38.57972222222222],[-116.04666666666667,38.57972222222222],[-111.29055555555556,38.683611111111105],[-111.29055555555556,38.683611111111105],[-111.29055555555556,38.683611111111105],[-110.94972222222222,38.68333333333333],[-110.79055555555556,38.683055555555555],[-110.79055555555556,38.683055555555555],[-110.79055555555556,38.683055555555555],[-110.79055555555556,38.683055555555555],[-110.61749999999999,38.6825],[-110.27638888888889,38.68055555555555],[-110.10249999999999,38.67916666666667],[-109.93083333333334,38.677499999999995],[-109.75944444444444,38.66888888888889],[-109.58722222222222,38.66],[-109.41638888888889,38.651111111111106],[-109.07333333333332,38.63194444444444],[-108.7286111111111,38.61222222222222],[-108.7286111111111,38.61222222222222],[-108.7286111111111,38.61222222222222],[-108.20777777777778,38.58027777777778],[-107.68416666666667,38.545833333333334],[-107.51055555555556,38.53388888888889],[-106.96305555555556,38.494166666666665],[-106.96305555555556,38.494166666666665],[-106.78583333333333,38.48083333333334],[-106.43388888888889,38.45388888888889],[-106.43388888888889,38.45388888888889],[-106.25527777777778,38.43944444444444],[-105.9075,38.41083333333333],[-105.74083333333333,38.39694444444444],[-105.74083333333333,38.39694444444444],[-105.01638888888888,38.331944444444446],[-104.65916666666668,38.28861111111111],[-104.40111111111112,38.25527777777778],[-104.03972222222222,38.212500000000006],[-103.93277777777779,38.20055555555556],[-103.93277777777779,38.20055555555556],[-103.85944444444443,38.19],[-103.74944444444445,38.177499999999995],[-103.74944444444445,38.177499999999995],[-103.67916666666667,38.16694444444444],[-103.67916666666667,38.16694444444444],[-103.56972222222223,38.154444444444444],[-103.38444444444445,38.13055555555555],[-103.2038888888889,38.106944444444444],[-102.91527777777779,38.06805555555556],[-102.29138888888889,37.98222222222223],[-102.18444444444445,37.96527777777778],[-102.10805555555555,37.95277777777778],[-102.10805555555555,37.95277777777778],[-102.10805555555555,37.95277777777778],[-102.00138888888888,37.93555555555555],[-101.92777777777778,37.92388888888889],[-101.81944444444444,37.906666666666666],[-101.74305555555556,37.89416666666666],[-101.63722222222223,37.87722222222222],[-101.45527777777778,37.84777777777778],[-101.45527777777778,37.84777777777778],[-101.19888888888889,37.805277777777775],[-101.08999999999999,37.786944444444444],[-101.08999999999999,37.786944444444444],[-100.9175,37.757777777777775],[-100.73444444444445,37.72666666666667],[-100.73444444444445,37.72666666666667],[-100.55055555555555,37.69499999999999],[-100.55055555555555,37.69499999999999],[-100.55055555555555,37.69499999999999],[-99.8286111111111,37.56805555555556],[-99.28222222222222,37.468333333333334],[-99.28222222222222,37.468333333333334],[-98.72694444444444,37.36472222222223],[-98.54138888888889,37.32916666666667],[-98.54138888888889,37.32916666666667],[-98.35333333333332,37.293055555555554],[-98.16694444444445,37.25666666666667],[-97.79527777777777,37.183611111111105],[-96.66083333333334,36.95138888888889],[-96.27944444444444,36.87166666666667],[-96.27944444444444,36.87166666666667],[-95.71583333333334,36.72972222222222],[-94.77888888888889,36.455555555555556],[-94.77888888888889,36.455555555555556],[-94.22416666666666,36.28916666666667],[-94.0775,36.24444444444445],[-93.69194444444445,36.12777777777778],[-93.50805555555556,36.07138888888889],[-92.96638888888889,35.903888888888886],[-92.43111111111112,35.734722222222224],[-92.43111111111112,35.734722222222224],[-92.07666666666667,35.62111111111111],[-91.90361111111112,35.565],[-91.72611111111111,35.51583333333333],[-91.72611111111111,35.51583333333333],[-91.21416666666667,35.371944444444445],[-90.68611111111112,35.221111111111114],[-90.50972222222222,35.16972222222222],[-90.50972222222222,35.16972222222222],[-90.44888888888889,35.153055555555554],[-90.27472222222222,35.10166666666667],[-90.1588888888889,35.066944444444445],[-90.1588888888889,35.066944444444445],[-90.10083333333333,35.050555555555555],[-89.985,35.0175],[-89.92416666666666,35.00611111111111],[-89.61,34.962500000000006],[-89.37833333333333,34.93111111111111],[-89.1975,34.90361111111111],[-89.06472222222222,34.88388888888889],[-89.01805555555555,34.87694444444445],[-88.13388888888889,34.743611111111115],[-88.13388888888889,34.743611111111115],[-87.24833333333333,34.599444444444444],[-86.3875,34.4],[-85.81527777777778,34.250277777777775],[-85.485,34.16305555555555],[-84.57722222222222,33.73833333333334],[-84.56666666666666,33.733333333333334],[-84.45,33.733333333333334],[-84.38861111111112,33.73277777777778],[-84.29972222222221,33.73305555555556],[-84.21277777777777,33.73305555555556],[-84.21277777777777,33.73305555555556],[-84.24583333333334,33.64944444444444],[-84.30361111111111,33.64944444444444],[-84.35305555555556,33.64944444444444],[-84.36666666666666,33.65]],"type":"LineString"}
}
