{
  "id": 1981553993,
  "type": "Feature",
  "properties": {
    "geom:area": 0,
    "geom:bbox": "-122.359180,37.492520,-121.242890,37.614780",
    "geom:latitude": 37.54331762193384,
    "geom:longitude": -121.80824870352683,
    "src:alt_label": "swim-approach",
    "src:geom": "swim",
    "swim:elevations": [
      5077,
      4806,
      4570,
      4249,
      4021,
      3910,
      3808,
      3602,
      3363,
      3151,
      2905,
      2718,
      2562,
      2463,
      2162,
      2061,
      1999,
      1833,
      1647,
      1466,
      1292,
      1251,
      1129,
      1006,
      797,
      630,
      505,
      402,
      345,
      241,
      60,
      0
    ],
    "swim:geom": "approach",
    "swim:timestamps": [
      1759307188,
      1759307215,
      1759307239,
      1759307272,
      1759307307,
      1759307328,
      1759307351,
      1759307384,
      1759307408,
      1759307444,
      1759307485,
      1759307513,
      1759307542,
      1759307555,
      1759307606,
      1759307635,
      1759307644,
      1759307673,
      1759307722,
      1759307745,
      1759307769,
      1759307782,
      1759307818,
      1759307842,
      1759307878,
      1759307908,
      1759307935,
      1759307959,
      1759307972,
      1759308001,
      1759308049,
      1759308061
    ],
    "wof:geomhash": "648bc86fffcd02a6e204f4958e2f63eb",
    "wof:id": 1981553993,
    "wof:repo": "sfomuseum-data-flights-2025-10"
  },
  "bbox": [
    -122.35918,
    37.49252,
    -121.24289,
    37.61478
  ],
  "geometry": {"coordinates":[[-121.24289,37.59545],[-121.28905,37.58939],[-121.32978,37.58495],[-121.38417,37.57889],[-121.44269,37.57214],[-121.47698,37.56819],[-121.51255,37.56397],[-121.56258,37.55805],[-121.59781,37.55381],[-121.64802,37.54516],[-121.70425,37.53179],[-121.74406,37.52225],[-121.78392,37.51277],[-121.80189,37.50847],[-121.87236,37.49252],[-121.91467,37.4931],[-121.92749,37.49383],[-121.96908,37.49614],[-122.03272,37.49997],[-122.0613,37.50159],[-122.09063,37.5036],[-122.10594,37.50763],[-122.14744,37.52517],[-122.17382,37.53642],[-122.21052,37.55191],[-122.23924,37.56413],[-122.26447,37.57461],[-122.28412,37.58288],[-122.29404,37.58702],[-122.3151,37.59588],[-122.35069,37.61085],[-122.35918,37.61478]],"type":"LineString"}
}
