{
  "id": 1981750397,
  "type": "Feature",
  "properties": {
    "geom:area": 0,
    "geom:bbox": "-122.380000,37.620000,-87.490000,41.980000",
    "geom:latitude": 39.29355398712185,
    "geom:longitude": -104.62096810357761,
    "src:alt_label": "swim-route",
    "src:geom": "swim",
    "swim:geom": "route",
    "wof:geomhash": "418550019de190265050e9245aa6d5bf",
    "wof:id": 1981750397,
    "wof:repo": "sfomuseum-data-flights-2025-10"
  },
  "bbox": [
    -122.38,
    37.62,
    -87.49,
    41.98
  ],
  "geometry": {"coordinates":[[-122.38,37.62],[-122.28,37.68],[-122.28,37.68],[-122.27,37.69],[-122.21,37.72],[-122.21,37.72],[-122.21,37.72],[-122.18,37.74],[-122.17,37.74],[-122.16,37.75],[-122.11,37.77],[-122.09,37.78],[-122,37.83],[-121.93,37.84],[-121.73,37.88],[-121.7,37.88],[-121.62,37.9],[-121.51,37.92],[-121.34,37.95],[-121.3,37.96],[-121.1,37.99],[-121.08,37.99],[-120.94,38.02],[-120.91,38.02],[-120.82,38.03],[-120.59,38.07],[-120.51,38.08],[-120.43,38.09],[-120.35,38.11],[-119.18,38.27],[-117.29,38.52],[-117.28,38.52],[-116.14,38.49],[-114.72,38.44],[-113.86,38.4],[-113.01,38.36],[-111.87,38.42],[-110,38.5],[-109.98,38.5],[-107.76,38.71],[-106.73,38.79],[-105.4,38.9],[-104.15,38.99],[-104,39],[-103.4,39.11],[-102.8,39.21],[-101.69,39.39],[-100.58,39.52],[-98.91,39.69],[-96.97,39.87],[-96.11,39.93],[-93.9,40.07],[-92.59,40.14],[-91.78,40.42],[-91.4,40.55],[-91.23,40.61],[-90.6,40.83],[-90.21,40.96],[-90.01,41.02],[-89.97,41.03],[-89.59,41.16],[-89.5,41.19],[-89.35,41.26],[-89.28,41.29],[-89.19,41.32],[-88.78,41.48],[-88.71,41.51],[-88.62,41.55],[-88.57,41.57],[-88.4,41.69],[-88.36,41.71],[-88.15,41.89],[-88.05,41.88],[-87.99,41.88],[-87.8,41.88],[-87.51,41.88],[-87.49,41.88],[-87.55,41.9],[-87.69,41.93],[-87.79,41.95],[-87.9,41.98],[-87.91,41.98]],"type":"LineString"}
}
