{
  "id": 1981729135,
  "type": "Feature",
  "properties": {
    "date:cessation_lower": "2025-10-21",
    "date:cessation_upper": "2025-10-21",
    "date:inception_lower": "2025-10-22",
    "date:inception_upper": "2025-10-22",
    "edtf:cessation": "2025-10-21T13:50:44-07:00",
    "edtf:inception": "2025-10-22T02:50:00Z",
    "flysfo:actual_timestamp": -1,
    "flysfo:airline": "UA",
    "flysfo:base_airline": "",
    "flysfo:base_flight_number": "5179",
    "flysfo:date": "2025-10-21",
    "flysfo:estimated_timestamp": 1761105480,
    "flysfo:event": "A",
    "flysfo:flight_number": "UA505",
    "flysfo:gate": "E6",
    "flysfo:journey": "SAN-SFO",
    "flysfo:scheduled_timestamp": 1761106080,
    "flysfo:timestamp": 1761106080,
    "geom:area": 0,
    "geom:bbox": "-122.370943,32.733534,-117.185927,37.617990",
    "geom:latitude": 35.175762,
    "geom:longitude": -119.778435,
    "iata:airline": "UA",
    "iata:base_airline": "",
    "icao:aircraft": "B39M",
    "icao:airline": "UAL",
    "icao:base_airline": "ACA",
    "lbl:latitude": 37.618774,
    "lbl:longitude": -122.384852,
    "sfomuseum:aircraft_id": 1528104577,
    "sfomuseum:airline_id": 1159285413,
    "sfomuseum:arrival_id": 102527513,
    "sfomuseum:base_flight_id": "20251021-A-ACA-5179",
    "sfomuseum:departure_id": 102528997,
    "sfomuseum:flight_id": "20251021-A-UAL-505",
    "sfomuseum:flight_number": [
      "UAL505",
      "UA505"
    ],
    "sfomuseum:placetype": "flight",
    "src:geom": "flysfo",
    "src:geom_alt": [
      "swim-route",
      "swim-path",
      "swim-approach"
    ],
    "swim:tail_number": "N17408",
    "wof:belongsto": [
      1947304067,
      102527513,
      1947304511,
      102191575,
      85633793,
      102087579,
      85922583,
      554784711,
      85688637,
      1947304513,
      1947304447,
      102085387
    ],
    "wof:concordances": {
      "swim:flight_ref": "113859816",
      "swim:gufi": "KL05940400"
    },
    "wof:country": "US",
    "wof:created": 1761149318,
    "wof:geomhash": "d1d4873ced1d6ea3128e45b0b2070718",
    "wof:hierarchy": [
      {
        "building_id": 1947304067,
        "campus_id": 102527513,
        "concourse_id": 1947304511,
        "continent_id": 102191575,
        "country_id": 85633793,
        "county_id": 102087579,
        "custom_id": 1981729135,
        "flight_id": 1981729135,
        "locality_id": 85922583,
        "postalcode_id": 554784711,
        "region_id": 85688637,
        "venue_id": 1947304513,
        "wing_id": 1947304447
      },
      {
        "building_id": 1947304067,
        "campus_id": 102527513,
        "concourse_id": 1947304511,
        "continent_id": 102191575,
        "country_id": 85633793,
        "county_id": 102085387,
        "custom_id": 1981729135,
        "flight_id": 1981729135,
        "region_id": 85688637,
        "venue_id": 1947304513,
        "wing_id": 1947304447
      }
    ],
    "wof:id": 1981729135,
    "wof:involves": [
      1528104577,
      102527513,
      102528997,
      1159285413,
      1947304513,
      1159283597
    ],
    "wof:lastmodified": 1761149898,
    "wof:name": "UA505 (SAN-SFO)",
    "wof:parent_id": 1947304513,
    "wof:placetype": "custom",
    "wof:placetype_alt": [
      "flight"
    ],
    "wof:repo": "sfomuseum-data-flights-2025-10",
    "wof:superseded_by": [],
    "wof:supersedes": []
  },
  "bbox": [
    -122.370943,
    32.733534,
    -117.185927,
    37.61799
  ],
  "geometry": {"coordinates":[[-117.185927,32.733534],[-122.370943,37.61799]],"type":"MultiPoint"}
}
