{
  "id": 1981719791,
  "type": "Feature",
  "properties": {
    "geom:area": 0,
    "geom:bbox": "-122.337080,37.491530,-121.276070,37.605270",
    "geom:latitude": 37.544233972211124,
    "geom:longitude": -121.81090217093636,
    "src:alt_label": "swim-approach",
    "src:geom": "swim",
    "swim:elevations": [
      4505,
      4365,
      3835,
      3564,
      3298,
      3214,
      3075,
      2861,
      2642,
      2500,
      2351,
      2226,
      2065,
      1921,
      1776,
      1715,
      1531,
      1310,
      1172,
      1019,
      844,
      700,
      504,
      332,
      208,
      132
    ],
    "swim:geom": "approach",
    "swim:timestamps": [
      1760963990,
      1760964005,
      1760964056,
      1760964084,
      1760964113,
      1760964125,
      1760964170,
      1760964200,
      1760964231,
      1760964264,
      1760964295,
      1760964315,
      1760964350,
      1760964387,
      1760964418,
      1760964426,
      1760964460,
      1760964500,
      1760964529,
      1760964556,
      1760964588,
      1760964614,
      1760964650,
      1760964686,
      1760964714,
      1760964732
    ],
    "wof:geomhash": "1438acea07df8408e53fd0af5ca8d7d0",
    "wof:id": 1981719791,
    "wof:repo": "sfomuseum-data-flights-2025-10"
  },
  "bbox": [
    -122.33708,
    37.49153,
    -121.27607,
    37.60527
  ],
  "geometry": {"coordinates":[[-121.27607,37.59098],[-121.30685,37.58714],[-121.41152,37.5759],[-121.46762,37.56943],[-121.52379,37.56253],[-121.54647,37.55974],[-121.62575,37.5498],[-121.6738,37.5381],[-121.72406,37.52658],[-121.77562,37.51456],[-121.82122,37.50376],[-121.85009,37.49674],[-121.90177,37.49153],[-121.95343,37.4932],[-121.99419,37.49703],[-122.00437,37.50003],[-122.04447,37.51309],[-122.09077,37.52805],[-122.12387,37.53886],[-122.1556,37.54912],[-122.19217,37.56069],[-122.2222,37.57013],[-122.26141,37.58308],[-122.2965,37.59347],[-122.32113,37.60059],[-122.33708,37.60527]],"type":"LineString"}
}
