{
  "id": 1981724541,
  "type": "Feature",
  "properties": {
    "geom:area": 0,
    "geom:bbox": "-122.356290,37.635340,-121.280660,37.953080",
    "geom:latitude": 37.82276379530668,
    "geom:longitude": -121.82921530823937,
    "src:alt_label": "swim-takeoff",
    "src:geom": "swim",
    "swim:elevations": [
      503,
      840,
      883,
      1153,
      1370,
      1903,
      2355,
      2670,
      3246,
      3364,
      3448,
      3962,
      4207,
      4795,
      5069,
      5428,
      5721,
      5878,
      6300,
      6430,
      6874
    ],
    "swim:geom": "takeoff",
    "swim:timestamps": [
      1760986888,
      1760986915,
      1760986921,
      1760986964,
      1760987002,
      1760987036,
      1760987064,
      1760987082,
      1760987126,
      1760987146,
      1760987163,
      1760987210,
      1760987230,
      1760987272,
      1760987299,
      1760987336,
      1760987367,
      1760987382,
      1760987428,
      1760987445,
      1760987498
    ],
    "wof:geomhash": "e5005e7ecb3f81df64e6efeb49a4ee50",
    "wof:id": 1981724541,
    "wof:repo": "sfomuseum-data-flights-2025-10"
  },
  "bbox": [
    -122.35629,
    37.63534,
    -121.28066,
    37.95308
  ],
  "geometry": {"coordinates":[[-122.35629,37.63534],[-122.33733,37.647],[-122.33313,37.64954],[-122.29901,37.67037],[-122.25722,37.69508],[-122.21095,37.71883],[-122.17262,37.73859],[-122.14681,37.75204],[-122.0795,37.77724],[-122.0431,37.78487],[-122.0113,37.79195],[-121.91539,37.81345],[-121.8724,37.82307],[-121.7846,37.84241],[-121.72759,37.85497],[-121.64774,37.87258],[-121.58019,37.887],[-121.54521,37.89454],[-121.44394,37.91716],[-121.40303,37.92635],[-121.28066,37.95308]],"type":"LineString"}
}
