{
  "id": 1981705157,
  "type": "Feature",
  "properties": {
    "geom:area": 0,
    "geom:bbox": "-123.504960,37.631050,-122.404490,37.728770",
    "geom:latitude": 37.697772360737105,
    "geom:longitude": -122.95085444164302,
    "src:alt_label": "swim-takeoff",
    "src:geom": "swim",
    "swim:elevations": [
      318,
      730,
      1025,
      1301,
      1425,
      1893,
      2244,
      2412,
      2847,
      3340,
      3495,
      3593,
      3785,
      4022,
      4219,
      4667,
      4895,
      5133,
      5384,
      5578,
      5826
    ],
    "swim:geom": "takeoff",
    "swim:timestamps": [
      1760834331,
      1760834361,
      1760834394,
      1760834426,
      1760834444,
      1760834480,
      1760834512,
      1760834524,
      1760834563,
      1760834607,
      1760834625,
      1760834649,
      1760834688,
      1760834720,
      1760834741,
      1760834783,
      1760834807,
      1760834831,
      1760834858,
      1760834882,
      1760834912
    ],
    "wof:geomhash": "80129947100c8416a156bdc657135b15",
    "wof:id": 1981705157,
    "wof:repo": "sfomuseum-data-flights-2025-10"
  },
  "bbox": [
    -123.50496,
    37.63105,
    -122.40449,
    37.72877
  ],
  "geometry": {"coordinates":[[-122.40449,37.63105],[-122.43451,37.64424],[-122.47073,37.66026],[-122.51516,37.67527],[-122.54301,37.67758],[-122.6005,37.68054],[-122.6526,37.68377],[-122.67407,37.68506],[-122.74113,37.68858],[-122.81759,37.69291],[-122.85002,37.69465],[-122.89585,37.69722],[-122.97654,37.70155],[-123.04949,37.70545],[-123.09741,37.70804],[-123.19478,37.71311],[-123.25121,37.71606],[-123.30819,37.71891],[-123.37307,37.72219],[-123.43135,37.72517],[-123.50496,37.72877]],"type":"LineString"}
}
