{
  "id": 1981675759,
  "type": "Feature",
  "properties": {
    "geom:area": 0,
    "geom:bbox": "-122.358380,37.491550,-121.246960,37.613870",
    "geom:latitude": 37.546930467973965,
    "geom:longitude": -121.80756070962077,
    "src:alt_label": "swim-approach",
    "src:geom": "swim",
    "swim:elevations": [
      4754,
      4494,
      4288,
      3791,
      3498,
      3321,
      3171,
      3065,
      2903,
      2773,
      2685,
      2620,
      2467,
      2218,
      2071,
      2013,
      1828,
      1796,
      1624,
      1484,
      1353,
      1118,
      889,
      673,
      553,
      504,
      276,
      238,
      153,
      52,
      3
    ],
    "swim:geom": "approach",
    "swim:timestamps": [
      1760560996,
      1760561023,
      1760561045,
      1760561097,
      1760561125,
      1760561144,
      1760561180,
      1760561203,
      1760561221,
      1760561245,
      1760561262,
      1760561274,
      1760561302,
      1760561334,
      1760561361,
      1760561372,
      1760561422,
      1760561453,
      1760561473,
      1760561511,
      1760561546,
      1760561574,
      1760561601,
      1760561638,
      1760561663,
      1760561675,
      1760561724,
      1760561733,
      1760561757,
      1760561781,
      1760561790
    ],
    "wof:geomhash": "f889212558ab1235ad1fca2c6eafa97e",
    "wof:id": 1981675759,
    "wof:repo": "sfomuseum-data-flights-2025-10"
  },
  "bbox": [
    -122.35838,
    37.49155,
    -121.24696,
    37.61387
  ],
  "geometry": {"coordinates":[[-121.24696,37.59507],[-121.30367,37.58757],[-121.34672,37.58296],[-121.44921,37.57133],[-121.5052,37.56477],[-121.54096,37.56055],[-121.60673,37.553],[-121.6458,37.54584],[-121.67618,37.53859],[-121.71543,37.52924],[-121.74335,37.52257],[-121.76257,37.51795],[-121.8057,37.50754],[-121.85636,37.49538],[-121.89885,37.49155],[-121.91564,37.49209],[-121.98891,37.49575],[-122.02635,37.50722],[-122.05032,37.51484],[-122.09567,37.52939],[-122.13534,37.5426],[-122.16399,37.55182],[-122.19181,37.56092],[-122.22932,37.5727],[-122.2536,37.58064],[-122.26514,37.58428],[-122.30863,37.59691],[-122.31596,37.59913],[-122.33445,37.60468],[-122.35201,37.61133],[-122.35838,37.61387]],"type":"LineString"}
}
