{
  "id": 1981661287,
  "type": "Feature",
  "properties": {
    "geom:area": 0,
    "geom:bbox": "-122.525180,37.625390,-121.269150,37.971260",
    "geom:latitude": 37.85937799913169,
    "geom:longitude": -121.99363640615805,
    "src:alt_label": "swim-takeoff",
    "src:geom": "swim",
    "swim:elevations": [
      152,
      455,
      741,
      1096,
      1558,
      1903,
      2055,
      2806,
      3169,
      3423,
      3918,
      4284,
      4581,
      4843,
      4970,
      5304,
      5682,
      5753,
      5861,
      6254,
      6399,
      6626,
      6973,
      7105,
      7435,
      7516,
      7771
    ],
    "swim:geom": "takeoff",
    "swim:timestamps": [
      1760340857,
      1760340883,
      1760340922,
      1760340949,
      1760340985,
      1760341010,
      1760341021,
      1760341074,
      1760341104,
      1760341126,
      1760341165,
      1760341198,
      1760341225,
      1760341251,
      1760341267,
      1760341315,
      1760341341,
      1760341350,
      1760341385,
      1760341435,
      1760341453,
      1760341486,
      1760341528,
      1760341546,
      1760341586,
      1760341598,
      1760341639
    ],
    "wof:geomhash": "404efd285edee8050a7c83a48f945104",
    "wof:id": 1981661287,
    "wof:repo": "sfomuseum-data-flights-2025-10"
  },
  "bbox": [
    -122.52518,
    37.62539,
    -121.26915,
    37.97126
  ],
  "geometry": {"coordinates":[[-122.39103,37.62539],[-122.41392,37.63503],[-122.45373,37.65259],[-122.4858,37.66633],[-122.5229,37.6934],[-122.52497,37.72363],[-122.52518,37.73779],[-122.51123,37.80321],[-122.46429,37.82031],[-122.42518,37.8254],[-122.3528,37.83494],[-122.29138,37.84267],[-122.23821,37.84976],[-122.18546,37.8568],[-122.15417,37.8608],[-122.04985,37.87391],[-121.99267,37.88117],[-121.97249,37.88384],[-121.89323,37.89399],[-121.77953,37.90833],[-121.73699,37.91355],[-121.65547,37.9237],[-121.55305,37.93641],[-121.50799,37.94191],[-121.40494,37.95471],[-121.3758,37.95823],[-121.26915,37.97126]],"type":"LineString"}
}
