{
  "id": 1981808567,
  "type": "Feature",
  "properties": {
    "geom:area": 0,
    "geom:bbox": "-122.266667,37.683333,-73.450000,42.614722",
    "geom:latitude": 40.428354016791516,
    "geom:longitude": -96.30114892144289,
    "src:alt_label": "swim-path",
    "src:geom": "swim",
    "swim:altitudes": [
      "038",
      "038",
      "038",
      "038",
      "066",
      "066",
      "066",
      "159",
      "159",
      "159",
      "159",
      "159",
      "253",
      "253",
      "281",
      "281",
      "309",
      "309",
      "309",
      "350C",
      "350C",
      "350C",
      "350C",
      "350C",
      "350C",
      "350C",
      "350C",
      "350C",
      "350C",
      "350C",
      "350C",
      "350C",
      "350C",
      "350C",
      "350C",
      "350C",
      "350C",
      "350C",
      "350C",
      "350C",
      "350C",
      "350C",
      "350C",
      "350C",
      "350C",
      "350C",
      "350C",
      "350C",
      "350C",
      "350C",
      "350C",
      "350C",
      "350C",
      "350C",
      "350C",
      "350C",
      "350C",
      "350C",
      "350C",
      "350C",
      "350C",
      "350C",
      "350C",
      "350C",
      "350C",
      "350C",
      "350C",
      "350C",
      "350C",
      "350C",
      "350C",
      "350C",
      "350C",
      "350C",
      "350C",
      "350C",
      "350C",
      "350C",
      "350C",
      "350C",
      "350C",
      "350C",
      "350C",
      "350C",
      "350C",
      "350C",
      "350C",
      "350C",
      "350C",
      "350C",
      "350C",
      "350C",
      "350C",
      "350C",
      "350C",
      "350C",
      "350C",
      "350C",
      "350C",
      "350C",
      "350C",
      "350C",
      "350C",
      "350C",
      "350C",
      "350C",
      "350C",
      "350C",
      "350C",
      "350C",
      "350C",
      "350C",
      "350C",
      "350C",
      "350C",
      "350C",
      "350C",
      "350C",
      "350C",
      "350C",
      "350C",
      "350C",
      "350C",
      "350C",
      "350C",
      "350C",
      "350C",
      "350C",
      "350C",
      "350C",
      "350C",
      "350C",
      "350C",
      "350C",
      "350C",
      "350C",
      "350C",
      "350C",
      "350C",
      "350C",
      "350C",
      "350C",
      "350C",
      "350C",
      "350C",
      "350C",
      "350C",
      "350C",
      "350C",
      "350C",
      "350C",
      "350C",
      "350C",
      "350C",
      "350C",
      "350C",
      "350C",
      "350C",
      "350C",
      "350C",
      "350C",
      "350C",
      "350C",
      "350C",
      "350C",
      "350C",
      "350C",
      "350C",
      "350C",
      "350C",
      "350C",
      "350C",
      "350C",
      "350C",
      "350C",
      "350C",
      "350C",
      "350C",
      "350C",
      "350C",
      "350C",
      "350C",
      "350C",
      "350C",
      "350C",
      "350C",
      "350C",
      "350C",
      "350C",
      "350C",
      "350C",
      "350C",
      "350C",
      "350C",
      "350C",
      "350C",
      "350C",
      "350C",
      "350C",
      "350C",
      "350C",
      "350C",
      "350C",
      "350C",
      "350C",
      "350C",
      "350C",
      "350C",
      "350C",
      "350C",
      "350C",
      "350C",
      "350C",
      "350C",
      "350C",
      "350C",
      "350C",
      "350C",
      "350C",
      "350C",
      "350C",
      "350",
      "350",
      "350",
      "350",
      "350",
      "354",
      "354",
      "354",
      "363",
      "363",
      "363",
      "363",
      "370C",
      "370C",
      "370C",
      "370C",
      "370C",
      "370C",
      "370C",
      "370C",
      "370C",
      "370C",
      "370C",
      "370C",
      "370C",
      "370C",
      "370C",
      "370C",
      "370C",
      "370C",
      "370C",
      "370C",
      "370C",
      "370C",
      "370C",
      "370C",
      "370C",
      "370C",
      "370C",
      "370C",
      "370C",
      "370C",
      "370C",
      "370C",
      "370C",
      "370C",
      "370C",
      "370C",
      "370C",
      "370C",
      "370C",
      "370C",
      "370C",
      "370C",
      "370C",
      "370C",
      "370C",
      "370C",
      "370C",
      "370C",
      "370C",
      "370C",
      "370C",
      "370C",
      "370C",
      "370C",
      "370C",
      "370C",
      "370C",
      "370C",
      "370C",
      "370C",
      "370C",
      "370C",
      "370C",
      "370C",
      "370C",
      "370C",
      "370C",
      "370C",
      "370C",
      "370C",
      "370C",
      "370C",
      "370C",
      "370C",
      "370C",
      "370C",
      "370C",
      "370C",
      "370C",
      "370C",
      "370C",
      "370C",
      "370C",
      "370C",
      "370C",
      "370C",
      "370C",
      "370C",
      "370C",
      "370C",
      "370C",
      "370C",
      "370C",
      "370C",
      "370C",
      "370C",
      "370C",
      "370C",
      "370C",
      "370C",
      "370C",
      "370C",
      "370C",
      "370C",
      "370C",
      "370C",
      "370",
      "370",
      "363",
      "361",
      "361",
      "361",
      "354",
      "354",
      "352",
      "352",
      "345",
      "345",
      "339",
      "320",
      "312",
      "299",
      "299",
      "299",
      "294",
      "286",
      "285",
      "285",
      "280C",
      "280C",
      "280C",
      "280C",
      "280C",
      "280C",
      "280C",
      "280C",
      "280",
      "278",
      "278",
      "263",
      "263",
      "263",
      "263",
      "250",
      "244",
      "228",
      "201C",
      "201C",
      "201C",
      "199",
      "199",
      "199",
      "190C",
      "190C",
      "190C",
      "190",
      "190C",
      "190C",
      "181",
      "181",
      "181",
      "176",
      "176",
      "161",
      "160",
      "158",
      "138",
      "138",
      "080",
      "078",
      "040",
      "040",
      "040",
      "040",
      "040",
      "040",
      "040",
      "040",
      "040",
      "037",
      "037",
      "023",
      "023",
      "023",
      "023",
      "020",
      "020",
      "020",
      "015",
      "015",
      "015"
    ],
    "swim:geom": "path",
    "swim:speeds": [
      257,
      257,
      257,
      257,
      288,
      288,
      288,
      403,
      403,
      403,
      403,
      403,
      476,
      476,
      496,
      496,
      507,
      507,
      507,
      503,
      503,
      503,
      503,
      499,
      499,
      499,
      499,
      505,
      505,
      505,
      508,
      508,
      511,
      510,
      512,
      512,
      512,
      512,
      512,
      516,
      516,
      518,
      518,
      513,
      513,
      513,
      513,
      506,
      506,
      506,
      506,
      506,
      506,
      506,
      506,
      506,
      506,
      506,
      506,
      523,
      523,
      523,
      523,
      520,
      520,
      518,
      518,
      518,
      516,
      516,
      510,
      510,
      510,
      510,
      510,
      507,
      507,
      507,
      509,
      509,
      509,
      512,
      512,
      512,
      513,
      513,
      513,
      513,
      513,
      514,
      514,
      514,
      514,
      514,
      514,
      514,
      515,
      515,
      515,
      515,
      515,
      515,
      515,
      515,
      514,
      514,
      514,
      514,
      514,
      512,
      512,
      512,
      512,
      515,
      515,
      515,
      515,
      522,
      522,
      524,
      524,
      524,
      526,
      526,
      526,
      526,
      526,
      528,
      528,
      528,
      528,
      528,
      529,
      530,
      530,
      530,
      530,
      530,
      530,
      531,
      531,
      531,
      531,
      531,
      531,
      531,
      531,
      531,
      539,
      538,
      538,
      538,
      538,
      538,
      538,
      538,
      538,
      551,
      551,
      551,
      551,
      551,
      551,
      541,
      541,
      541,
      541,
      541,
      536,
      536,
      536,
      536,
      536,
      532,
      532,
      532,
      532,
      530,
      530,
      529,
      529,
      529,
      529,
      529,
      529,
      527,
      527,
      526,
      525,
      525,
      525,
      525,
      524,
      522,
      522,
      522,
      519,
      519,
      517,
      517,
      517,
      517,
      517,
      517,
      522,
      522,
      522,
      522,
      522,
      521,
      521,
      521,
      521,
      521,
      521,
      521,
      526,
      526,
      532,
      532,
      532,
      532,
      532,
      532,
      532,
      532,
      531,
      531,
      531,
      529,
      529,
      529,
      529,
      525,
      525,
      540,
      540,
      540,
      540,
      540,
      540,
      540,
      540,
      532,
      532,
      532,
      532,
      530,
      530,
      527,
      526,
      526,
      526,
      524,
      524,
      524,
      533,
      533,
      537,
      540,
      541,
      541,
      541,
      512,
      512,
      512,
      508,
      508,
      508,
      508,
      508,
      508,
      508,
      508,
      508,
      511,
      511,
      511,
      511,
      511,
      511,
      511,
      511,
      511,
      512,
      512,
      512,
      512,
      513,
      514,
      514,
      514,
      514,
      516,
      516,
      516,
      516,
      515,
      515,
      515,
      515,
      515,
      516,
      516,
      519,
      519,
      519,
      519,
      519,
      519,
      517,
      517,
      517,
      517,
      517,
      511,
      511,
      498,
      488,
      487,
      486,
      486,
      485,
      485,
      485,
      459,
      459,
      460,
      460,
      460,
      462,
      463,
      463,
      465,
      465,
      465,
      465,
      465,
      435,
      432,
      432,
      422,
      422,
      422,
      422,
      420,
      420,
      420,
      420,
      419,
      419,
      418,
      405,
      421,
      433,
      433,
      433,
      434,
      436,
      436,
      436,
      427,
      427,
      392,
      389,
      389,
      386,
      386,
      386,
      328,
      322,
      322,
      311,
      311,
      311,
      311,
      312,
      318,
      322,
      314,
      314,
      314,
      311,
      311,
      311,
      311,
      311,
      275,
      267,
      272,
      272,
      274,
      274,
      274,
      274,
      274,
      271,
      272,
      272,
      270,
      270,
      264,
      268,
      270,
      270,
      270,
      282,
      282,
      282,
      282,
      280,
      280,
      267,
      267,
      273,
      273,
      273,
      273,
      178,
      178,
      178,
      150,
      150,
      150
    ],
    "swim:timestamps": [
      1761863146,
      1761863146,
      1761863146,
      1761863146,
      1761863206,
      1761863206,
      1761863206,
      1761863446,
      1761863446,
      1761863446,
      1761863446,
      1761863446,
      1761863781,
      1761863781,
      1761863902,
      1761863902,
      1761864018,
      1761864018,
      1761864018,
      1761864258,
      1761864258,
      1761864258,
      1761864258,
      1761864502,
      1761864502,
      1761864502,
      1761864502,
      1761864796,
      1761864796,
      1761864796,
      1761864863,
      1761864863,
      1761865097,
      1761865103,
      1761865157,
      1761865157,
      1761865217,
      1761865217,
      1761865397,
      1761865464,
      1761865464,
      1761865517,
      1761865584,
      1761865698,
      1761865698,
      1761865698,
      1761865698,
      1761865999,
      1761865999,
      1761865999,
      1761865999,
      1761865999,
      1761866239,
      1761866239,
      1761866239,
      1761866239,
      1761866239,
      1761866239,
      1761866239,
      1761867020,
      1761867020,
      1761867020,
      1761867020,
      1761867200,
      1761867200,
      1761867261,
      1761867261,
      1761867261,
      1761867321,
      1761867321,
      1761867441,
      1761867441,
      1761867441,
      1761867441,
      1761867441,
      1761867754,
      1761867754,
      1761867754,
      1761867814,
      1761867814,
      1761867814,
      1761867982,
      1761867982,
      1761867994,
      1761868042,
      1761868042,
      1761868042,
      1761868102,
      1761868102,
      1761868162,
      1761868162,
      1761868222,
      1761868222,
      1761868222,
      1761868222,
      1761868222,
      1761868703,
      1761868703,
      1761868703,
      1761868763,
      1761868763,
      1761868763,
      1761868763,
      1761868823,
      1761869076,
      1761869076,
      1761869136,
      1761869136,
      1761869136,
      1761869436,
      1761869436,
      1761869436,
      1761869496,
      1761869677,
      1761869677,
      1761869677,
      1761869677,
      1761870277,
      1761870277,
      1761870398,
      1761870398,
      1761870398,
      1761870578,
      1761870758,
      1761870758,
      1761870758,
      1761870758,
      1761870969,
      1761870969,
      1761870969,
      1761870969,
      1761870969,
      1761871209,
      1761871216,
      1761871299,
      1761871329,
      1761871329,
      1761871329,
      1761871329,
      1761871336,
      1761871336,
      1761871359,
      1761871359,
      1761871516,
      1761871516,
      1761871516,
      1761871516,
      1761871516,
      1761872231,
      1761872237,
      1761872237,
      1761872237,
      1761872237,
      1761872297,
      1761872297,
      1761872297,
      1761872297,
      1761872898,
      1761872898,
      1761872898,
      1761872898,
      1761872898,
      1761872898,
      1761873433,
      1761873433,
      1761873433,
      1761873433,
      1761873433,
      1761873733,
      1761873733,
      1761873733,
      1761873733,
      1761873733,
      1761873913,
      1761873913,
      1761873913,
      1761873913,
      1761873970,
      1761873970,
      1761874094,
      1761874094,
      1761874094,
      1761874248,
      1761874248,
      1761874248,
      1761874331,
      1761874331,
      1761874368,
      1761874391,
      1761874391,
      1761874391,
      1761874391,
      1761874428,
      1761874451,
      1761874488,
      1761874488,
      1761874548,
      1761874548,
      1761874631,
      1761874631,
      1761874728,
      1761874728,
      1761874728,
      1761874728,
      1761875029,
      1761875029,
      1761875029,
      1761875029,
      1761875029,
      1761875089,
      1761875089,
      1761875149,
      1761875209,
      1761875209,
      1761875209,
      1761875209,
      1761875389,
      1761875389,
      1761875630,
      1761875630,
      1761875630,
      1761875690,
      1761875690,
      1761875690,
      1761875690,
      1761875690,
      1761875810,
      1761875810,
      1761875810,
      1761875930,
      1761875930,
      1761875930,
      1761875930,
      1761875990,
      1761875990,
      1761876231,
      1761876231,
      1761876231,
      1761876231,
      1761876231,
      1761876411,
      1761876411,
      1761876411,
      1761876591,
      1761876600,
      1761876600,
      1761876600,
      1761876660,
      1761876660,
      1761876720,
      1761876780,
      1761876780,
      1761876780,
      1761876940,
      1761876940,
      1761876940,
      1761877000,
      1761877000,
      1761877060,
      1761877084,
      1761877144,
      1761877144,
      1761877144,
      1761877303,
      1761877303,
      1761877303,
      1761877444,
      1761877444,
      1761877444,
      1761877444,
      1761877483,
      1761877483,
      1761877543,
      1761877543,
      1761877543,
      1761877862,
      1761877862,
      1761877904,
      1761877904,
      1761877964,
      1761877964,
      1761877964,
      1761877964,
      1761877964,
      1761878084,
      1761878084,
      1761878084,
      1761878162,
      1761878204,
      1761878264,
      1761878264,
      1761878264,
      1761878283,
      1761878384,
      1761878384,
      1761878505,
      1761878505,
      1761878625,
      1761878625,
      1761878625,
      1761878625,
      1761878625,
      1761878685,
      1761878685,
      1761878848,
      1761878848,
      1761878848,
      1761878848,
      1761878908,
      1761878908,
      1761879028,
      1761879028,
      1761879028,
      1761879042,
      1761879042,
      1761879163,
      1761879163,
      1761879343,
      1761879403,
      1761879440,
      1761879449,
      1761879449,
      1761879500,
      1761879500,
      1761879500,
      1761879680,
      1761879680,
      1761879764,
      1761879764,
      1761879764,
      1761879801,
      1761879861,
      1761879869,
      1761879930,
      1761879930,
      1761879930,
      1761879944,
      1761879944,
      1761880041,
      1761880110,
      1761880110,
      1761880170,
      1761880185,
      1761880185,
      1761880185,
      1761880230,
      1761880230,
      1761880245,
      1761880245,
      1761880290,
      1761880290,
      1761880350,
      1761880425,
      1761880461,
      1761880521,
      1761880521,
      1761880521,
      1761880545,
      1761880581,
      1761880590,
      1761880590,
      1761880641,
      1761880641,
      1761880701,
      1761880711,
      1761880711,
      1761880771,
      1761880771,
      1761880771,
      1761880882,
      1761880891,
      1761880891,
      1761880951,
      1761880951,
      1761880951,
      1761880951,
      1761881011,
      1761881062,
      1761881131,
      1761881242,
      1761881242,
      1761881242,
      1761881362,
      1761881362,
      1761881362,
      1761881432,
      1761881432,
      1761881492,
      1761881516,
      1761881542,
      1761881542,
      1761881602,
      1761881602,
      1761881602,
      1761881612,
      1761881612,
      1761881660,
      1761881722,
      1761881732,
      1761881792,
      1761881792,
      1761881955,
      1761881963,
      1761882081,
      1761882081,
      1761882081,
      1761882261,
      1761882261,
      1761882321,
      1761882321,
      1761882381,
      1761882381,
      1761882441,
      1761882441,
      1761882501,
      1761882501,
      1761882501,
      1761882501,
      1761882687,
      1761882687,
      1761882687,
      1761882807,
      1761882807,
      1761882807
    ],
    "wof:geomhash": "f848cbfcd61eb4ef65f780c24a002fd5",
    "wof:id": 1981808567,
    "wof:repo": "sfomuseum-data-flights-2025-10"
  },
  "bbox": [
    -122.26666666666667,
    37.68333333333333,
    -73.45,
    42.61472222222223
  ],
  "geometry": {"coordinates":[[-122.26666666666667,37.68333333333333],[-122.26666666666667,37.68333333333333],[-122.26666666666667,37.68333333333333],[-122.26666666666667,37.68333333333333],[-122.2,37.733333333333334],[-122.2,37.733333333333334],[-122.2,37.733333333333334],[-121.86666666666666,38.016666666666666],[-121.86666666666666,38.016666666666666],[-121.86666666666666,38.016666666666666],[-121.86666666666666,38.016666666666666],[-121.86666666666666,38.016666666666666],[-121.20861111111111,38.448055555555555],[-121.20861111111111,38.448055555555555],[-120.93944444444445,38.61388888888889],[-120.93944444444445,38.61388888888889],[-120.65916666666668,38.785555555555554],[-120.65916666666668,38.785555555555554],[-120.65916666666668,38.785555555555554],[-120.0886111111111,39.12833333333333],[-120.0886111111111,39.12833333333333],[-120.0886111111111,39.12833333333333],[-120.0886111111111,39.12833333333333],[-119.51583333333333,39.46805555555556],[-119.51583333333333,39.46805555555556],[-119.51583333333333,39.46805555555556],[-119.51583333333333,39.46805555555556],[-118.7863888888889,39.886944444444445],[-118.7863888888889,39.886944444444445],[-118.7863888888889,39.886944444444445],[-118.6211111111111,39.95666666666667],[-118.6211111111111,39.95666666666667],[-117.96555555555555,40.215],[-117.96000000000001,40.216944444444444],[-117.7936111111111,40.26722222222222],[-117.7936111111111,40.26722222222222],[-117.62138888888889,40.318333333333335],[-117.62138888888889,40.318333333333335],[-117.0975,40.472500000000004],[-116.91027777777778,40.52027777777778],[-116.91027777777778,40.52027777777778],[-116.76055555555556,40.543055555555554],[-116.53138888888888,40.57805555555556],[-116.2075,40.64111111111111],[-116.2075,40.64111111111111],[-116.2075,40.64111111111111],[-116.2075,40.64111111111111],[-115.35111111111111,40.90861111111111],[-115.35111111111111,40.90861111111111],[-115.35111111111111,40.90861111111111],[-115.35111111111111,40.90861111111111],[-115.35111111111111,40.90861111111111],[-114.65555555555557,41.12111111111111],[-114.65555555555557,41.12111111111111],[-114.65555555555557,41.12111111111111],[-114.65555555555557,41.12111111111111],[-114.65555555555557,41.12111111111111],[-114.65555555555557,41.12111111111111],[-114.65555555555557,41.12111111111111],[-112.23777777777778,41.40972222222222],[-112.23777777777778,41.40972222222222],[-112.23777777777778,41.40972222222222],[-112.23777777777778,41.40972222222222],[-111.65583333333333,41.42166666666667],[-111.65583333333333,41.42166666666667],[-111.46277777777777,41.42472222222222],[-111.46277777777777,41.42472222222222],[-111.46277777777777,41.42472222222222],[-111.27111111111111,41.427499999999995],[-111.27111111111111,41.427499999999995],[-110.89111111111112,41.43222222222222],[-110.89111111111112,41.43222222222222],[-110.89111111111112,41.43222222222222],[-110.89111111111112,41.43222222222222],[-110.89111111111112,41.43222222222222],[-109.91027777777778,41.43861111111111],[-109.91027777777778,41.43861111111111],[-109.91027777777778,41.43861111111111],[-109.7213888888889,41.43888888888888],[-109.7213888888889,41.43888888888888],[-109.7213888888889,41.43888888888888],[-109.19027777777778,41.437777777777775],[-109.19027777777778,41.437777777777775],[-109.1525,41.437777777777775],[-109.02694444444444,41.43694444444444],[-109.02694444444444,41.43694444444444],[-109.02694444444444,41.43694444444444],[-108.8325,41.43583333333333],[-108.8325,41.43583333333333],[-108.64027777777778,41.43416666666666],[-108.64027777777778,41.43416666666666],[-108.45138888888889,41.4325],[-108.45138888888889,41.4325],[-108.45138888888889,41.4325],[-108.45138888888889,41.4325],[-108.45138888888889,41.4325],[-106.93166666666667,41.406388888888884],[-106.93166666666667,41.406388888888884],[-106.93166666666667,41.406388888888884],[-106.74027777777778,41.401666666666664],[-106.74027777777778,41.401666666666664],[-106.74027777777778,41.401666666666664],[-106.74027777777778,41.401666666666664],[-106.55305555555556,41.39666666666667],[-105.74944444444445,41.37222222222222],[-105.74944444444445,41.37222222222222],[-105.55888888888889,41.36555555555556],[-105.55888888888889,41.36555555555556],[-105.55888888888889,41.36555555555556],[-104.61916666666666,41.32805555555556],[-104.61916666666666,41.32805555555556],[-104.61916666666666,41.32805555555556],[-104.43138888888889,41.319722222222225],[-103.86555555555555,41.2925],[-103.86555555555555,41.2925],[-103.86555555555555,41.2925],[-103.86555555555555,41.2925],[-101.95361111111112,41.17972222222222],[-101.95361111111112,41.17972222222222],[-101.56777777777778,41.153055555555554],[-101.56777777777778,41.153055555555554],[-101.56777777777778,41.153055555555554],[-100.98527777777778,41.11055555555556],[-100.40194444444445,41.06472222222222],[-100.40194444444445,41.06472222222222],[-100.40194444444445,41.06472222222222],[-100.40194444444445,41.06472222222222],[-99.74527777777777,41.01],[-99.74527777777777,41.01],[-99.74527777777777,41.01],[-99.74527777777777,41.01],[-99.74527777777777,41.01],[-98.94333333333334,40.934999999999995],[-98.91861111111112,40.93472222222222],[-98.6675,40.910555555555554],[-98.55416666666666,40.89888888888889],[-98.55416666666666,40.89888888888889],[-98.55416666666666,40.89888888888889],[-98.55416666666666,40.89888888888889],[-98.53527777777778,40.897777777777776],[-98.53527777777778,40.897777777777776],[-98.47638888888889,40.89222222222222],[-98.47638888888889,40.89222222222222],[-97.9725,40.84138888888889],[-97.9725,40.84138888888889],[-97.9725,40.84138888888889],[-97.9725,40.84138888888889],[-97.9725,40.84138888888889],[-95.63305555555554,40.57638888888889],[-95.63027777777778,40.575833333333335],[-95.63027777777778,40.575833333333335],[-95.63027777777778,40.575833333333335],[-95.63027777777778,40.575833333333335],[-95.4375,40.551944444444445],[-95.4375,40.551944444444445],[-95.4375,40.551944444444445],[-95.4375,40.551944444444445],[-93.48777777777778,40.28944444444444],[-93.48777777777778,40.28944444444444],[-93.48777777777778,40.28944444444444],[-93.48777777777778,40.28944444444444],[-93.48777777777778,40.28944444444444],[-93.48777777777778,40.28944444444444],[-91.75527777777778,40.026666666666664],[-91.75527777777778,40.026666666666664],[-91.75527777777778,40.026666666666664],[-91.75527777777778,40.026666666666664],[-91.75527777777778,40.026666666666664],[-90.80527777777777,39.87027777777778],[-90.80527777777777,39.87027777777778],[-90.80527777777777,39.87027777777778],[-90.80527777777777,39.87027777777778],[-90.80527777777777,39.87027777777778],[-90.2461111111111,39.77444444444444],[-90.2461111111111,39.77444444444444],[-90.2461111111111,39.77444444444444],[-90.2461111111111,39.77444444444444],[-90.06055555555555,39.742222222222225],[-90.06055555555555,39.742222222222225],[-89.67944444444444,39.67444444444444],[-89.67944444444444,39.67444444444444],[-89.67944444444444,39.67444444444444],[-89.19611111111111,39.58638888888889],[-89.19611111111111,39.58638888888889],[-89.19611111111111,39.58638888888889],[-88.955,39.54194444444444],[-88.955,39.54194444444444],[-88.83027777777778,39.51861111111111],[-88.77388888888889,39.50805555555556],[-88.77388888888889,39.50805555555556],[-88.77388888888889,39.50805555555556],[-88.77388888888889,39.50805555555556],[-88.64888888888889,39.48444444444444],[-88.55694444444444,39.466944444444444],[-88.4675,39.45],[-88.4675,39.45],[-88.28166666666667,39.41416666666667],[-88.28166666666667,39.41416666666667],[-88.04166666666667,39.367777777777775],[-88.04166666666667,39.367777777777775],[-87.75305555555556,39.31111111111111],[-87.75305555555556,39.31111111111111],[-87.75305555555556,39.31111111111111],[-87.75305555555556,39.31111111111111],[-86.83305555555555,39.124722222222225],[-86.83305555555555,39.124722222222225],[-86.83305555555555,39.124722222222225],[-86.83305555555555,39.124722222222225],[-86.83305555555555,39.124722222222225],[-86.65138888888889,39.08694444444445],[-86.65138888888889,39.08694444444445],[-86.47305555555556,39.04972222222222],[-86.29444444444444,39.011944444444445],[-86.29444444444444,39.011944444444445],[-86.29444444444444,39.011944444444445],[-86.29444444444444,39.011944444444445],[-85.75444444444445,38.895833333333336],[-85.75444444444445,38.895833333333336],[-85.03888888888889,38.737500000000004],[-85.03888888888889,38.737500000000004],[-85.03888888888889,38.737500000000004],[-84.85833333333333,38.696666666666665],[-84.85833333333333,38.696666666666665],[-84.85833333333333,38.696666666666665],[-84.85833333333333,38.696666666666665],[-84.85833333333333,38.696666666666665],[-84.48722222222223,38.61222222222222],[-84.48722222222223,38.61222222222222],[-84.48722222222223,38.61222222222222],[-84.12666666666667,38.52861111111111],[-84.12666666666667,38.52861111111111],[-84.12666666666667,38.52861111111111],[-84.12666666666667,38.52861111111111],[-83.94805555555556,38.48638888888889],[-83.94805555555556,38.48638888888889],[-83.22722222222222,38.31388888888888],[-83.22722222222222,38.31388888888888],[-83.22722222222222,38.31388888888888],[-83.22722222222222,38.31388888888888],[-83.22722222222222,38.31388888888888],[-82.68166666666667,38.168055555555554],[-82.68166666666667,38.168055555555554],[-82.68166666666667,38.168055555555554],[-82.15861111111111,38.003055555555555],[-82.15833333333335,38.003055555555555],[-82.15833333333335,38.003055555555555],[-82.15833333333335,38.003055555555555],[-81.98611111111111,37.94972222222222],[-81.98611111111111,37.94972222222222],[-81.81222222222222,37.89694444444444],[-81.64277777777778,37.84638888888889],[-81.64277777777778,37.84638888888889],[-81.64277777777778,37.84638888888889],[-81.15472222222223,37.717777777777776],[-81.15472222222223,37.717777777777776],[-81.15472222222223,37.717777777777776],[-80.96944444444445,37.730555555555554],[-80.96944444444445,37.730555555555554],[-80.78694444444444,37.764722222222225],[-80.71444444444445,37.788888888888884],[-80.58444444444444,37.865833333333335],[-80.58444444444444,37.865833333333335],[-80.58444444444444,37.865833333333335],[-80.365,38.22944444444445],[-80.365,38.22944444444445],[-80.365,38.22944444444445],[-80.26944444444445,38.55416666666667],[-80.26944444444445,38.55416666666667],[-80.26944444444445,38.55416666666667],[-80.26944444444445,38.55416666666667],[-80.24222222222222,38.64527777777778],[-80.24222222222222,38.64527777777778],[-80.20138888888889,38.782222222222224],[-80.20138888888889,38.782222222222224],[-80.20138888888889,38.782222222222224],[-79.98333333333333,39.49777777777778],[-79.98333333333333,39.49777777777778],[-79.94944444444445,39.60805555555556],[-79.94944444444445,39.60805555555556],[-79.9063888888889,39.7475],[-79.9063888888889,39.7475],[-79.9063888888889,39.7475],[-79.9063888888889,39.7475],[-79.9063888888889,39.7475],[-79.82055555555556,40.02361111111111],[-79.82055555555556,40.02361111111111],[-79.82055555555556,40.02361111111111],[-79.76944444444445,40.186388888888885],[-79.73527777777778,40.296388888888885],[-79.6913888888889,40.43416666666666],[-79.6913888888889,40.43416666666666],[-79.6913888888889,40.43416666666666],[-79.68305555555555,40.46083333333333],[-79.60305555555556,40.711666666666666],[-79.60305555555556,40.711666666666666],[-79.51472222222222,40.98888888888889],[-79.51472222222222,40.98888888888889],[-79.42444444444445,41.2675],[-79.42444444444445,41.2675],[-79.42444444444445,41.2675],[-79.42444444444445,41.2675],[-79.42444444444445,41.2675],[-79.37472222222222,41.42055555555555],[-79.37472222222222,41.42055555555555],[-79.25416666666666,41.78638888888889],[-79.25416666666666,41.78638888888889],[-79.25416666666666,41.78638888888889],[-79.25416666666666,41.78638888888889],[-79.2088888888889,41.92638888888889],[-79.2088888888889,41.92638888888889],[-79.07666666666667,42.20861111111111],[-79.07666666666667,42.20861111111111],[-79.07666666666667,42.20861111111111],[-79.0611111111111,42.22],[-79.0611111111111,42.22],[-78.74111111111111,42.39722222222222],[-78.74111111111111,42.39722222222222],[-78.25083333333333,42.61472222222223],[-78.07,42.61],[-77.96305555555556,42.60527777777778],[-77.9263888888889,42.603611111111114],[-77.9263888888889,42.603611111111114],[-77.78194444444445,42.59638888888889],[-77.78194444444445,42.59638888888889],[-77.78194444444445,42.59638888888889],[-77.23777777777778,42.56916666666667],[-77.23777777777778,42.56916666666667],[-77.03,42.55833333333333],[-77.03,42.55833333333333],[-77.03,42.55833333333333],[-76.89,42.550555555555555],[-76.71583333333334,42.54083333333333],[-76.72194444444445,42.54111111111111],[-76.54555555555555,42.530833333333334],[-76.54555555555555,42.530833333333334],[-76.54555555555555,42.530833333333334],[-76.50944444444444,42.528888888888886],[-76.50944444444444,42.528888888888886],[-76.21388888888889,42.47694444444445],[-76.07944444444443,42.41555555555556],[-76.07944444444443,42.41555555555556],[-75.94666666666667,42.35416666666667],[-75.89833333333334,42.331944444444446],[-75.89833333333334,42.331944444444446],[-75.89833333333334,42.331944444444446],[-75.81222222222222,42.29222222222222],[-75.81222222222222,42.29222222222222],[-75.76666666666667,42.27166666666667],[-75.76666666666667,42.27166666666667],[-75.67972222222222,42.231944444444444],[-75.67972222222222,42.231944444444444],[-75.54805555555555,42.170833333333334],[-75.375,42.09055555555556],[-75.29444444444444,42.062777777777775],[-75.13277777777778,42.04388888888889],[-75.13277777777778,42.04388888888889],[-75.13277777777778,42.04388888888889],[-75.0675,42.03722222222222],[-74.97083333333333,42.027499999999996],[-74.94,42.02444444444444],[-74.94,42.02444444444444],[-74.81222222222222,42.01111111111111],[-74.81222222222222,42.01111111111111],[-74.66638888888889,41.99527777777778],[-74.63861111111112,41.992222222222225],[-74.63861111111112,41.992222222222225],[-74.4888888888889,41.973888888888894],[-74.4888888888889,41.973888888888894],[-74.4888888888889,41.973888888888894],[-74.3086111111111,41.87222222222222],[-74.29638888888888,41.858333333333334],[-74.29638888888888,41.858333333333334],[-74.25666666666666,41.778888888888886],[-74.25666666666666,41.778888888888886],[-74.25666666666666,41.778888888888886],[-74.25666666666666,41.778888888888886],[-74.22333333333333,41.69472222222222],[-74.19888888888889,41.634166666666665],[-74.15361111111112,41.52222222222222],[-74.09305555555555,41.36972222222222],[-74.09305555555555,41.36972222222222],[-74.09305555555555,41.36972222222222],[-74.09944444444444,41.197222222222216],[-74.09944444444444,41.197222222222216],[-74.09944444444444,41.197222222222216],[-74.10666666666665,41.098888888888894],[-74.10666666666665,41.098888888888894],[-74.1125,41.01861111111111],[-74.11666666666666,40.983333333333334],[-74.11166666666666,40.96611111111111],[-74.11166666666666,40.96611111111111],[-74.08083333333333,40.89388888888889],[-74.08083333333333,40.89388888888889],[-74.08083333333333,40.89388888888889],[-74.07166666666666,40.87222222222222],[-74.07166666666666,40.87222222222222],[-74.05,40.81666666666667],[-74.01972222222223,40.75],[-74.0111111111111,40.72972222222222],[-73.98138888888889,40.65888888888889],[-73.98138888888889,40.65888888888889],[-73.9,40.45],[-73.89250000000001,40.45055555555556],[-73.75,40.36666666666667],[-73.75,40.36666666666667],[-73.75,40.36666666666667],[-73.55,40.5],[-73.55,40.5],[-73.5,40.56666666666667],[-73.5,40.56666666666667],[-73.46666666666667,40.63333333333333],[-73.46666666666667,40.63333333333333],[-73.45,40.71666666666667],[-73.45,40.71666666666667],[-73.46666666666667,40.78333333333333],[-73.46666666666667,40.78333333333333],[-73.46666666666667,40.78333333333333],[-73.46666666666667,40.78333333333333],[-73.63333333333334,40.8],[-73.63333333333334,40.8],[-73.63333333333334,40.8],[-73.7,40.71666666666667],[-73.7,40.71666666666667],[-73.7,40.71666666666667]],"type":"LineString"}
}
