{
  "id": 1981743933,
  "type": "Feature",
  "properties": {
    "geom:area": 0,
    "geom:bbox": "-122.359770,37.491840,-121.267750,37.615310",
    "geom:latitude": 37.546172402942226,
    "geom:longitude": -121.81876842010013,
    "src:alt_label": "swim-approach",
    "src:geom": "swim",
    "swim:elevations": [
      4460,
      4245,
      3979,
      3580,
      3449,
      3172,
      3102,
      2901,
      2757,
      2602,
      2575,
      2375,
      2298,
      2042,
      1951,
      1763,
      1714,
      1409,
      1290,
      1166,
      1075,
      916,
      699,
      633,
      369,
      235,
      53,
      258
    ],
    "swim:geom": "approach",
    "swim:timestamps": [
      1761242358,
      1761242384,
      1761242412,
      1761242457,
      1761242473,
      1761242514,
      1761242532,
      1761242575,
      1761242596,
      1761242636,
      1761242640,
      1761242682,
      1761242700,
      1761242740,
      1761242770,
      1761242812,
      1761242820,
      1761242877,
      1761242901,
      1761242923,
      1761242945,
      1761242976,
      1761243021,
      1761243037,
      1761243094,
      1761243123,
      1761243169,
      1761243182
    ],
    "wof:geomhash": "6cd51fe27ee25cc25f76a9853e5b49e4",
    "wof:id": 1981743933,
    "wof:repo": "sfomuseum-data-flights-2025-10"
  },
  "bbox": [
    -122.35977,
    37.49184,
    -121.26775,
    37.61531
  ],
  "geometry": {"coordinates":[[-121.26775,37.59212],[-121.31912,37.58621],[-121.37331,37.58001],[-121.45911,37.5702],[-121.48927,37.56665],[-121.5643,37.55783],[-121.59589,37.55411],[-121.6653,37.54107],[-121.69871,37.53323],[-121.75859,37.51883],[-121.76452,37.51742],[-121.82447,37.50297],[-121.85008,37.49692],[-121.90661,37.49184],[-121.94754,37.49275],[-122.00057,37.49858],[-122.00987,37.50169],[-122.07222,37.52195],[-122.09837,37.53053],[-122.12124,37.53787],[-122.14307,37.54502],[-122.17421,37.55503],[-122.22036,37.57008],[-122.23743,37.57548],[-122.29256,37.59225],[-122.31645,37.59917],[-122.35103,37.61092],[-122.35977,37.61531]],"type":"LineString"}
}
