{
  "id": 1981743933,
  "type": "Feature",
  "properties": {
    "geom:area": 0,
    "geom:bbox": "-122.380000,30.190000,-97.670000,37.700000",
    "geom:latitude": 34.24319001339007,
    "geom:longitude": -110.0266500082018,
    "src:alt_label": "swim-route",
    "src:geom": "swim",
    "swim:geom": "route",
    "wof:geomhash": "3f438e599503399955c38cf711adf8df",
    "wof:id": 1981743933,
    "wof:repo": "sfomuseum-data-flights-2025-10"
  },
  "bbox": [
    -122.38,
    30.19,
    -97.67,
    37.7
  ],
  "geometry": {"coordinates":[[-97.67,30.19],[-97.77,30.21],[-97.8,30.22],[-97.85,30.23],[-97.88,30.23],[-97.94,30.24],[-98.13,30.28],[-98.2,30.29],[-98.21,30.29],[-98.31,30.31],[-98.35,30.32],[-98.39,30.33],[-98.72,30.39],[-98.86,30.42],[-98.87,30.42],[-98.92,30.43],[-98.94,30.43],[-99.12,30.47],[-99.2,30.48],[-99.36,30.51],[-99.37,30.51],[-99.67,30.57],[-99.82,30.6],[-102.18,31.16],[-102.65,31.27],[-103.57,31.47],[-104.92,32.41],[-105.59,32.86],[-106.33,33.11],[-106.86,33.28],[-107.51,33.49],[-108.77,33.87],[-110.13,34.27],[-110.47,34.37],[-110.98,34.6],[-111.36,34.77],[-111.55,34.86],[-111.75,34.94],[-112.13,35.11],[-112.28,35.17],[-112.71,35.36],[-114.07,35.93],[-114.09,35.94],[-114.55,36.07],[-115.01,36.19],[-115.47,36.32],[-116.61,36.61],[-117.26,37.24],[-117.52,37.49],[-119.05,37.61],[-119.62,37.65],[-119.98,37.67],[-120.04,37.68],[-120.26,37.69],[-120.28,37.69],[-120.38,37.7],[-120.4,37.7],[-120.75,37.66],[-120.78,37.66],[-120.83,37.65],[-120.96,37.63],[-121,37.63],[-121.08,37.62],[-121.18,37.6],[-121.26,37.59],[-121.39,37.58],[-121.41,37.58],[-121.6,37.55],[-121.61,37.55],[-121.62,37.55],[-121.7,37.53],[-121.8,37.51],[-121.83,37.5],[-121.88,37.49],[-122.08,37.54],[-122.14,37.56],[-122.18,37.57],[-122.28,37.59],[-122.33,37.61],[-122.36,37.61],[-122.38,37.62]],"type":"LineString"}
}
