{
  "id": 1981621483,
  "type": "Feature",
  "properties": {
    "geom:area": 0,
    "geom:bbox": "-122.357420,36.732200,-121.885520,37.611390",
    "geom:latitude": 37.213181518960276,
    "geom:longitude": -122.07162498384217,
    "src:alt_label": "swim-approach",
    "src:geom": "swim",
    "swim:elevations": [
      5173,
      4963,
      4865,
      4641,
      4399,
      4273,
      4118,
      3899,
      3689,
      3564,
      3501,
      3228,
      3016,
      2692,
      2648,
      2420,
      2264,
      2045,
      1958,
      1888,
      1717,
      1638,
      1363,
      1223,
      1036,
      940,
      670,
      533,
      455,
      301,
      155,
      107,
      54
    ],
    "swim:geom": "approach",
    "swim:timestamps": [
      1760043147,
      1760043174,
      1760043186,
      1760043216,
      1760043249,
      1760043263,
      1760043285,
      1760043315,
      1760043346,
      1760043380,
      1760043401,
      1760043431,
      1760043455,
      1760043508,
      1760043514,
      1760043558,
      1760043578,
      1760043611,
      1760043624,
      1760043636,
      1760043674,
      1760043690,
      1760043744,
      1760043759,
      1760043793,
      1760043817,
      1760043858,
      1760043898,
      1760043912,
      1760043943,
      1760043973,
      1760043988,
      1760044013
    ],
    "wof:geomhash": "dad40bbaa42f31cbd71cca177141af79",
    "wof:id": 1981621483,
    "wof:repo": "sfomuseum-data-flights-2025-10"
  },
  "bbox": [
    -122.35742,
    36.7322,
    -121.88552,
    37.61139
  ],
  "geometry": {"coordinates":[[-121.88552,36.7322],[-121.90261,36.77146],[-121.90807,36.79132],[-121.92106,36.83748],[-121.93508,36.88786],[-121.94085,36.90929],[-121.94989,36.9421],[-121.96666,36.98734],[-121.98388,37.03214],[-122.00162,37.07832],[-122.012,37.1041],[-122.02714,37.13989],[-122.03806,37.16845],[-122.06158,37.22963],[-122.06416,37.23609],[-122.08285,37.28442],[-122.09173,37.30566],[-122.10568,37.34143],[-122.1112,37.35521],[-122.11634,37.36807],[-122.12987,37.4072],[-122.13504,37.42317],[-122.15533,37.47442],[-122.16223,37.48937],[-122.18528,37.51724],[-122.20292,37.53623],[-122.23876,37.56081],[-122.27417,37.57636],[-122.28532,37.5806],[-122.30864,37.59064],[-122.33013,37.59984],[-122.34031,37.60411],[-122.35742,37.61139]],"type":"LineString"}
}
