{
  "id": 1981762241,
  "type": "Feature",
  "properties": {
    "geom:area": 0,
    "geom:bbox": "-122.372050,36.718860,-121.876100,37.614040",
    "geom:latitude": 37.22324439727073,
    "geom:longitude": -122.14621810933603,
    "src:alt_label": "swim-approach",
    "src:geom": "swim",
    "swim:elevations": [
      5166,
      4784,
      4690,
      4567,
      4447,
      4270,
      4142,
      4010,
      3903,
      3747,
      3594,
      3498,
      3414,
      3206,
      2923,
      2629,
      2542,
      2437,
      2444,
      2438,
      2431,
      2110,
      1979,
      1829,
      1829,
      1829,
      1829,
      1829,
      1771,
      1447,
      1304,
      1219,
      1219,
      1219,
      1132,
      1071,
      1003,
      880,
      818,
      598,
      455,
      401,
      339,
      249,
      202,
      208
    ],
    "swim:geom": "approach",
    "swim:timestamps": [
      1761384513,
      1761384555,
      1761384566,
      1761384580,
      1761384592,
      1761384621,
      1761384647,
      1761384677,
      1761384700,
      1761384721,
      1761384738,
      1761384750,
      1761384764,
      1761384786,
      1761384828,
      1761384867,
      1761384879,
      1761384917,
      1761384954,
      1761384984,
      1761385000,
      1761385036,
      1761385053,
      1761385100,
      1761385129,
      1761385157,
      1761385176,
      1761385212,
      1761385239,
      1761385286,
      1761385310,
      1761385338,
      1761385352,
      1761385399,
      1761385426,
      1761385442,
      1761385468,
      1761385492,
      1761385505,
      1761385554,
      1761385588,
      1761385601,
      1761385617,
      1761385639,
      1761385651,
      1761385704
    ],
    "wof:geomhash": "2601dc6941f85e554fb5306497811ef2",
    "wof:id": 1981762241,
    "wof:repo": "sfomuseum-data-flights-2025-10"
  },
  "bbox": [
    -122.37205,
    36.71886,
    -121.8761,
    37.61404
  ],
  "geometry": {"coordinates":[[-121.8761,36.71886],[-121.90612,36.78428],[-121.9113,36.80241],[-121.91719,36.82339],[-121.92269,36.84321],[-121.93461,36.88778],[-121.94503,36.92466],[-121.9572,36.96254],[-121.96833,36.98992],[-121.9851,37.00932],[-121.99997,37.02417],[-122.00967,37.03369],[-122.02143,37.0452],[-122.04073,37.06374],[-122.08077,37.09684],[-122.12084,37.12264],[-122.13338,37.13073],[-122.17228,37.15557],[-122.20964,37.18015],[-122.23937,37.2],[-122.25545,37.21097],[-122.2912,37.23501],[-122.30812,37.24615],[-122.35391,37.27543],[-122.37205,37.30076],[-122.34763,37.32431],[-122.32103,37.3257],[-122.26986,37.33833],[-122.23493,37.35374],[-122.1776,37.38553],[-122.15525,37.40478],[-122.13749,37.43231],[-122.12974,37.44416],[-122.12083,37.48466],[-122.13542,37.50426],[-122.14442,37.51604],[-122.16381,37.52931],[-122.18532,37.53908],[-122.1973,37.54407],[-122.24042,37.56212],[-122.26992,37.57457],[-122.28011,37.57884],[-122.29305,37.58428],[-122.31015,37.59147],[-122.31978,37.59549],[-122.36385,37.61404]],"type":"LineString"}
}
