{
  "id": 1981781673,
  "type": "Feature",
  "properties": {
    "geom:area": 0,
    "geom:bbox": "-122.457778,25.594444,-80.012778,37.666667",
    "geom:latitude": 31.573906870460796,
    "geom:longitude": -101.34379065229747,
    "src:alt_label": "swim-path",
    "src:geom": "swim",
    "swim:altitudes": [
      "007",
      "007",
      "017",
      "059",
      "105",
      "105",
      "105",
      "138",
      "155",
      "172",
      "172",
      "172",
      "172",
      "186",
      "210",
      "210",
      "223",
      "234",
      "318",
      "318",
      "318",
      "318",
      "338",
      "344",
      "350C",
      "350C",
      "350C",
      "350C",
      "350C",
      "350C",
      "350C",
      "350C",
      "350C",
      "350C",
      "350C",
      "350C",
      "350C",
      "350C",
      "350C",
      "350C",
      "350C",
      "350C",
      "350C",
      "350C",
      "350C",
      "350C",
      "350C",
      "350C",
      "350C",
      "350C",
      "350C",
      "350C",
      "350C",
      "350C",
      "350C",
      "350C",
      "350C",
      "350C",
      "350C",
      "350C",
      "350C",
      "350C",
      "350C",
      "350C",
      "350C",
      "350C",
      "350C",
      "350C",
      "350C",
      "350C",
      "350C",
      "350C",
      "350C",
      "350C",
      "350C",
      "350C",
      "350C",
      "350C",
      "350C",
      "350C",
      "350C",
      "350C",
      "350C",
      "350C",
      "350C",
      "350C",
      "350C",
      "350C",
      "350C",
      "350C",
      "350C",
      "350C",
      "350C",
      "350C",
      "350C",
      "350C",
      "350C",
      "350C",
      "350C",
      "350C",
      "350C",
      "350C",
      "350C",
      "350C",
      "350C",
      "350C",
      "350C",
      "350C",
      "350C",
      "350C",
      "350C",
      "350C",
      "350C",
      "350C",
      "350C",
      "350C",
      "350C",
      "350C",
      "350C",
      "350C",
      "350C",
      "350C",
      "350C",
      "350C",
      "350C",
      "350C",
      "350C",
      "350C",
      "350C",
      "350C",
      "350C",
      "350C",
      "350C",
      "350C",
      "350C",
      "350C",
      "350C",
      "350C",
      "350C",
      "350C",
      "350C",
      "350C",
      "350C",
      "350C",
      "350C",
      "350C",
      "350C",
      "350C",
      "350C",
      "350C",
      "350C",
      "350C",
      "350C",
      "350C",
      "350C",
      "350C",
      "350C",
      "350C",
      "350C",
      "350C",
      "350C",
      "350C",
      "350C",
      "350C",
      "350C",
      "350C",
      "350C",
      "350C",
      "350C",
      "350C",
      "350C",
      "350C",
      "350C",
      "350C",
      "350C",
      "350C",
      "350C",
      "350C",
      "350C",
      "350C",
      "350C",
      "350C",
      "350C",
      "350C",
      "350C",
      "350C",
      "350C",
      "350C",
      "350C",
      "350C",
      "350C",
      "350C",
      "350C",
      "350C",
      "350",
      "350",
      "281",
      "085",
      "081",
      "030",
      "022",
      "022",
      "022"
    ],
    "swim:geom": "path",
    "swim:speeds": [
      175,
      175,
      195,
      288,
      316,
      316,
      316,
      384,
      395,
      403,
      403,
      403,
      403,
      414,
      446,
      446,
      454,
      465,
      493,
      493,
      493,
      493,
      483,
      482,
      483,
      483,
      482,
      482,
      482,
      481,
      480,
      480,
      479,
      479,
      479,
      478,
      478,
      478,
      477,
      476,
      476,
      476,
      476,
      476,
      476,
      476,
      476,
      476,
      476,
      480,
      480,
      480,
      480,
      483,
      483,
      483,
      483,
      484,
      484,
      486,
      486,
      491,
      491,
      491,
      495,
      496,
      497,
      497,
      498,
      498,
      497,
      497,
      497,
      497,
      497,
      497,
      502,
      503,
      503,
      503,
      503,
      503,
      503,
      503,
      502,
      502,
      504,
      504,
      506,
      506,
      508,
      508,
      508,
      508,
      508,
      509,
      509,
      510,
      510,
      510,
      510,
      510,
      508,
      508,
      508,
      508,
      514,
      514,
      514,
      517,
      518,
      518,
      518,
      518,
      518,
      528,
      528,
      528,
      527,
      525,
      525,
      525,
      524,
      524,
      523,
      523,
      523,
      523,
      522,
      523,
      524,
      524,
      526,
      527,
      527,
      527,
      526,
      526,
      526,
      523,
      522,
      517,
      520,
      520,
      524,
      524,
      524,
      525,
      524,
      524,
      516,
      516,
      516,
      511,
      511,
      510,
      504,
      499,
      500,
      500,
      502,
      503,
      503,
      503,
      503,
      506,
      507,
      508,
      510,
      508,
      508,
      508,
      507,
      506,
      505,
      505,
      504,
      504,
      504,
      503,
      503,
      502,
      503,
      503,
      503,
      504,
      507,
      507,
      507,
      511,
      488,
      484,
      483,
      483,
      480,
      471,
      495,
      295,
      297,
      227,
      187,
      187,
      187
    ],
    "swim:timestamps": [
      1761637669,
      1761637669,
      1761637699,
      1761637825,
      1761637945,
      1761637945,
      1761637945,
      1761638065,
      1761638125,
      1761638185,
      1761638185,
      1761638185,
      1761638185,
      1761638245,
      1761638365,
      1761638365,
      1761638425,
      1761638485,
      1761638968,
      1761638968,
      1761638968,
      1761638968,
      1761639085,
      1761639148,
      1761639208,
      1761639208,
      1761639265,
      1761639325,
      1761639325,
      1761639445,
      1761639508,
      1761639508,
      1761639625,
      1761639625,
      1761639625,
      1761639748,
      1761639748,
      1761639748,
      1761639808,
      1761639929,
      1761640049,
      1761640049,
      1761640049,
      1761640049,
      1761640109,
      1761640109,
      1761640109,
      1761640169,
      1761640169,
      1761640409,
      1761640409,
      1761640409,
      1761640409,
      1761640649,
      1761640649,
      1761640649,
      1761640649,
      1761641009,
      1761641009,
      1761641167,
      1761641167,
      1761641347,
      1761641369,
      1761641369,
      1761641549,
      1761641609,
      1761641669,
      1761641729,
      1761641887,
      1761641887,
      1761642247,
      1761642247,
      1761642428,
      1761642428,
      1761642428,
      1761642488,
      1761643028,
      1761643088,
      1761643088,
      1761643088,
      1761643088,
      1761643088,
      1761643208,
      1761643208,
      1761643388,
      1761643388,
      1761643508,
      1761643508,
      1761643628,
      1761643628,
      1761643808,
      1761643808,
      1761643868,
      1761643868,
      1761643988,
      1761644108,
      1761644108,
      1761644348,
      1761644528,
      1761644528,
      1761644528,
      1761644528,
      1761644708,
      1761644764,
      1761644764,
      1761644764,
      1761645004,
      1761645004,
      1761645004,
      1761645129,
      1761645184,
      1761645184,
      1761645309,
      1761645309,
      1761645364,
      1761645814,
      1761645814,
      1761645814,
      1761645964,
      1761646053,
      1761646053,
      1761646053,
      1761646084,
      1761646084,
      1761646144,
      1761646144,
      1761646174,
      1761646174,
      1761646264,
      1761646355,
      1761646384,
      1761646384,
      1761646504,
      1761646684,
      1761647105,
      1761647105,
      1761647195,
      1761647195,
      1761647736,
      1761648005,
      1761648096,
      1761648335,
      1761648515,
      1761648515,
      1761648635,
      1761648635,
      1761648696,
      1761648757,
      1761648817,
      1761648817,
      1761649235,
      1761649235,
      1761649476,
      1761650039,
      1761650378,
      1761650400,
      1761650558,
      1761650979,
      1761651121,
      1761651121,
      1761651301,
      1761651361,
      1761651399,
      1761651421,
      1761651421,
      1761651638,
      1761651662,
      1761651722,
      1761651809,
      1761651929,
      1761651929,
      1761651929,
      1761651938,
      1761651999,
      1761652022,
      1761652049,
      1761652082,
      1761652109,
      1761652109,
      1761652142,
      1761652169,
      1761652202,
      1761652503,
      1761652530,
      1761652530,
      1761652590,
      1761652683,
      1761652683,
      1761652683,
      1761652803,
      1761653070,
      1761653164,
      1761653224,
      1761653224,
      1761653311,
      1761653344,
      1761653864,
      1761654680,
      1761654705,
      1761655006,
      1761655246,
      1761655246,
      1761655246
    ],
    "wof:geomhash": "252a2ce13d78f89e9f7b89544d4b0790",
    "wof:id": 1981781673,
    "wof:repo": "sfomuseum-data-flights-2025-10"
  },
  "bbox": [
    -122.45777777777778,
    25.594444444444445,
    -80.01277777777777,
    37.666666666666664
  ],
  "geometry": {"coordinates":[[-122.36666666666666,37.63333333333333],[-122.36666666666666,37.63333333333333],[-122.36666666666666,37.666666666666664],[-122.44694444444445,37.60111111111111],[-122.45777777777778,37.43388888888889],[-122.45777777777778,37.43388888888889],[-122.45777777777778,37.43388888888889],[-122.30611111111111,37.283055555555556],[-122.19888888888889,37.21527777777778],[-122.08999999999999,37.146388888888886],[-122.08999999999999,37.146388888888886],[-122.08999999999999,37.146388888888886],[-122.08999999999999,37.146388888888886],[-121.97694444444444,37.07472222222223],[-121.73972222222223,36.92444444444444],[-121.73972222222223,36.92444444444444],[-121.61638888888888,36.845555555555556],[-121.48277777777778,36.75972222222222],[-120.42666666666668,36.07138888888889],[-120.42666666666668,36.07138888888889],[-120.42666666666668,36.07138888888889],[-120.42666666666668,36.07138888888889],[-120.16805555555555,35.89944444444444],[-120.03999999999999,35.81388888888888],[-119.91222222222223,35.72805555555556],[-119.91222222222223,35.72805555555556],[-119.78333333333333,35.64111111111111],[-119.65694444444445,35.55555555555555],[-119.65694444444445,35.55555555555555],[-119.40416666666667,35.384166666666665],[-119.27944444444444,35.2975],[-119.27944444444444,35.2975],[-119.03,35.12555555555556],[-119.03,35.12555555555556],[-119.03,35.12555555555556],[-118.78333333333333,34.95472222222222],[-118.78333333333333,34.95472222222222],[-118.78333333333333,34.95472222222222],[-118.66027777777778,34.86944444444445],[-118.38722222222223,34.72944444444445],[-118.07472222222222,34.67361111111111],[-118.07472222222222,34.67361111111111],[-118.07472222222222,34.67361111111111],[-118.07472222222222,34.67361111111111],[-117.92055555555557,34.64555555555555],[-117.92055555555557,34.64555555555555],[-117.92055555555557,34.64555555555555],[-117.76444444444445,34.61805555555556],[-117.76444444444445,34.61805555555556],[-117.14027777777778,34.504444444444445],[-117.14027777777778,34.504444444444445],[-117.14027777777778,34.504444444444445],[-117.14027777777778,34.504444444444445],[-116.50916666666667,34.38611111111111],[-116.50916666666667,34.38611111111111],[-116.50916666666667,34.38611111111111],[-116.50916666666667,34.38611111111111],[-115.55083333333333,34.19916666666666],[-115.55083333333333,34.19916666666666],[-115.12194444444444,34.113055555555555],[-115.12194444444444,34.113055555555555],[-114.66194444444444,34.01861111111111],[-114.59527777777777,34.00472222222222],[-114.59527777777777,34.00472222222222],[-114.10555555555555,33.95027777777778],[-113.93916666666667,33.93444444444444],[-113.77472222222222,33.91833333333333],[-113.60749999999999,33.901944444444446],[-113.18027777777779,33.85861111111111],[-113.18027777777779,33.85861111111111],[-112.19777777777779,33.75333333333333],[-112.19777777777779,33.75333333333333],[-111.7063888888889,33.6975],[-111.7063888888889,33.6975],[-111.7063888888889,33.6975],[-111.54833333333333,33.678888888888885],[-110.04888888888888,33.49444444444445],[-109.88333333333334,33.47277777777778],[-109.88333333333334,33.47277777777778],[-109.88333333333334,33.47277777777778],[-109.88333333333334,33.47277777777778],[-109.88333333333334,33.47277777777778],[-109.55222222222221,33.428888888888885],[-109.55222222222221,33.428888888888885],[-109.05666666666666,33.36138888888889],[-109.05666666666666,33.36138888888889],[-108.72555555555556,33.315555555555555],[-108.72555555555556,33.315555555555555],[-108.38972222222223,33.2675],[-108.38972222222223,33.2675],[-107.89250000000001,33.19499999999999],[-107.89250000000001,33.19499999999999],[-107.72527777777778,33.17027777777778],[-107.72527777777778,33.17027777777778],[-107.3938888888889,33.120555555555555],[-107.06055555555555,33.06916666666667],[-107.06055555555555,33.06916666666667],[-106.42611111111111,32.969166666666666],[-105.92833333333334,32.88805555555555],[-105.92833333333334,32.88805555555555],[-105.92833333333334,32.88805555555555],[-105.92833333333334,32.88805555555555],[-105.40777777777778,32.801111111111105],[-105.27361111111111,32.77861111111111],[-105.27361111111111,32.77861111111111],[-105.27361111111111,32.77861111111111],[-104.61083333333333,32.66361111111111],[-104.61083333333333,32.66361111111111],[-104.61083333333333,32.66361111111111],[-104.25277777777778,32.6],[-104.11166666666666,32.57472222222223],[-104.11166666666666,32.57472222222223],[-103.77833333333334,32.51416666666667],[-103.77833333333334,32.51416666666667],[-103.61166666666666,32.483333333333334],[-102.35666666666665,32.24444444444445],[-102.35666666666665,32.24444444444445],[-102.35666666666665,32.24444444444445],[-101.94111111111111,32.1625],[-101.68333333333334,32.11083333333333],[-101.68333333333334,32.11083333333333],[-101.68333333333334,32.11083333333333],[-101.6086111111111,32.09583333333334],[-101.6086111111111,32.09583333333334],[-101.44333333333334,32.06222222222222],[-101.44333333333334,32.06222222222222],[-101.35,32.043055555555554],[-101.35,32.043055555555554],[-101.11083333333333,31.99416666666667],[-100.85111111111111,31.94],[-100.75305555555556,31.919444444444444],[-100.75305555555556,31.919444444444444],[-100.41861111111112,31.848888888888887],[-99.92055555555557,31.741666666666667],[-98.76166666666667,31.483888888888888],[-98.76166666666667,31.483888888888888],[-98.53277777777778,31.43166666666667],[-98.53277777777778,31.43166666666667],[-97.0475,31.080833333333334],[-96.32472222222222,30.903055555555554],[-96.06805555555555,30.83861111111111],[-95.44333333333334,30.679722222222225],[-94.9625,30.555],[-94.9625,30.555],[-94.64166666666668,30.470555555555553],[-94.64166666666668,30.470555555555553],[-94.45722222222223,30.421666666666667],[-94.29583333333333,30.378333333333334],[-94.13694444444445,30.335833333333333],[-94.13694444444445,30.335833333333333],[-93.03861111111111,30.034444444444446],[-93.03861111111111,30.034444444444446],[-92.41638888888889,29.84861111111111],[-90.96055555555556,29.379722222222224],[-90.1261111111111,29.115555555555556],[-90.04638888888888,29.089444444444442],[-89.67277777777778,28.980277777777776],[-88.63333333333334,28.662499999999998],[-88.26305555555555,28.547222222222224],[-88.26305555555555,28.547222222222224],[-87.81666666666666,28.40611111111111],[-87.65416666666667,28.354722222222225],[-87.56305555555555,28.325555555555557],[-87.50333333333333,28.30611111111111],[-87.50333333333333,28.30611111111111],[-86.96722222222222,28.13277777777778],[-86.90583333333333,28.11277777777778],[-86.75722222222223,28.06388888888889],[-86.54805555555555,27.99527777777778],[-86.25055555555555,27.896944444444443],[-86.25055555555555,27.896944444444443],[-86.25055555555555,27.896944444444443],[-86.22166666666666,27.8875],[-86.07444444444444,27.83833333333333],[-86.01416666666667,27.818055555555556],[-85.9563888888889,27.79888888888889],[-85.86944444444444,27.769444444444442],[-85.80944444444444,27.749166666666667],[-85.80944444444444,27.749166666666667],[-85.72111111111111,27.71944444444444],[-85.66361111111112,27.699722222222224],[-85.57472222222222,27.669722222222223],[-84.82083333333333,27.50027777777778],[-84.7611111111111,27.489722222222223],[-84.7611111111111,27.489722222222223],[-84.60583333333332,27.461944444444445],[-84.3561111111111,27.416944444444447],[-84.3561111111111,27.416944444444447],[-84.3561111111111,27.416944444444447],[-84.04333333333334,27.360000000000003],[-83.3863888888889,27.238055555555558],[-83.15194444444445,27.19361111111111],[-83.00472222222223,27.165555555555553],[-83.00472222222223,27.165555555555553],[-82.77694444444444,27.103055555555557],[-82.7286111111111,27.075],[-81.81361111111111,26.27111111111111],[-80.37194444444444,25.744444444444447],[-80.34138888888889,25.730555555555554],[-80.01277777777777,25.594444444444445],[-80.16861111111112,25.731111111111108],[-80.16861111111112,25.731111111111108],[-80.16861111111112,25.731111111111108]],"type":"LineString"}
}
