{
  "id": 1997547217,
  "type": "Feature",
  "properties": {
    "geom:area": 0,
    "geom:bbox": "-177.680000,35.550000,180.000000,52.110000",
    "geom:latitude": 47.564328950588354,
    "geom:longitude": -3.667824329259176,
    "src:alt_label": "swim-route",
    "src:geom": "swim",
    "swim:geom": "route",
    "wof:geomhash": "8bba539e6cbc12977ee003b8045af810",
    "wof:id": 1997547217,
    "wof:repo": "sfomuseum-data-flights-2025-10"
  },
  "bbox": [
    -177.68,
    35.55,
    180,
    52.11
  ],
  "geometry": {"coordinates":[[[-122.38,37.62],[-122.5,37.67],[-122.51,37.68],[-122.59,37.73],[-122.6,37.73],[-122.63,37.75],[-122.7,37.79],[-122.71,37.8],[-122.74,37.81],[-122.76,37.82],[-122.79,37.87],[-122.91,38.01],[-123.14,38.28],[-123.14,38.29],[-123.29,38.46],[-123.41,38.6],[-123.46,38.67],[-123.57,38.79],[-123.58,38.8],[-123.63,38.86],[-123.67,38.91],[-123.75,39],[-124.01,39.1],[-124.07,39.12],[-126.5,40],[-127,40.3],[-127,40.3],[-130,42],[-134.97,45.81],[-136.6,46.92],[-136.77,47.02],[-140,49],[-150,52],[-155,52.11],[-160,52],[-161.88,51.7],[-170,50],[-172.6,49.58],[-173.84,49.35],[-175.72,48.98],[-177.58,48.58],[-177.68,48.55]],[[180,48],[178.93,47.64],[170,44],[169.17,43.72],[168.3,43.41],[166.63,42.81],[165,42.17],[160,40],[158.96,39.74],[155.9,38.9],[154.9,38.61],[150,37],[148.48,36.89],[146.3,36.4],[145.67,36.21],[145.47,36.15],[142.62,35.89],[142.52,35.88],[142.46,35.87],[142.06,35.83],[141.98,35.82],[141.67,35.78],[141.4,35.75],[141.14,35.72],[140.75,35.68],[140.72,35.67],[140.58,35.65],[140.55,35.65],[140.29,35.62],[140.23,35.61],[140.08,35.59],[139.98,35.58],[139.88,35.57],[139.78,35.55]]],"type":"MultiLineString"}
}
