{
  "id": 1981789055,
  "type": "Feature",
  "properties": {
    "geom:area": 0,
    "geom:bbox": "-122.703330,37.649580,-122.276080,38.004430",
    "geom:latitude": 37.79022261992991,
    "geom:longitude": -122.52350389034036,
    "src:alt_label": "swim-approach",
    "src:geom": "swim",
    "swim:elevations": [
      5194,
      4904,
      4272,
      3801,
      3431,
      3367,
      3353,
      3066,
      2759,
      2624,
      2398
    ],
    "swim:geom": "approach",
    "swim:timestamps": [
      1761670539,
      1761670567,
      1761670618,
      1761670663,
      1761670708,
      1761670725,
      1761670760,
      1761670823,
      1761670857,
      1761670873,
      1761670906
    ],
    "wof:geomhash": "9a495e0a13bb5760d3afdb2d0639647b",
    "wof:id": 1981789055,
    "wof:repo": "sfomuseum-data-flights-2025-10"
  },
  "bbox": [
    -122.70333,
    37.64958,
    -122.27608,
    38.00443
  ],
  "geometry": {"coordinates":[[-122.70333,38.00443],[-122.69086,37.96055],[-122.65597,37.88363],[-122.59661,37.82672],[-122.53876,37.77226],[-122.5181,37.75301],[-122.47383,37.71869],[-122.38678,37.68887],[-122.34045,37.67256],[-122.31942,37.66501],[-122.27608,37.64958]],"type":"LineString"}
}
