{
  "id": 1981755089,
  "type": "Feature",
  "properties": {
    "geom:area": 0,
    "geom:bbox": "-122.048889,34.335556,-120.184722,37.197500",
    "geom:latitude": 35.75676342932778,
    "geom:longitude": -121.13816087352343,
    "src:alt_label": "swim-path",
    "src:geom": "swim",
    "swim:altitudes": [
      "152",
      "152",
      "306",
      "306",
      "320",
      "320",
      "205",
      "198",
      "173",
      "088",
      "080"
    ],
    "swim:geom": "path",
    "swim:speeds": [
      387,
      387,
      464,
      464,
      449,
      449,
      373,
      373,
      367,
      294,
      278
    ],
    "swim:timestamps": [
      1761368830,
      1761368830,
      1761369191,
      1761369191,
      1761369670,
      1761369670,
      1761370031,
      1761370091,
      1761370151,
      1761370451,
      1761370571
    ],
    "wof:geomhash": "4ff4ba8458cace5f5e3d8dd9882fd7ec",
    "wof:id": 1981755089,
    "wof:repo": "sfomuseum-data-flights-2025-10"
  },
  "bbox": [
    -122.04888888888888,
    34.33555555555556,
    -120.18472222222222,
    37.1975
  ],
  "geometry": {"coordinates":[[-120.18472222222222,34.33555555555556],[-120.18472222222222,34.33555555555556],[-120.57027777777778,34.99583333333334],[-120.57027777777778,34.99583333333334],[-121.19972222222222,35.840833333333336],[-121.19972222222222,35.840833333333336],[-121.65,36.43111111111111],[-121.71805555555555,36.519444444444446],[-121.78611111111111,36.605000000000004],[-121.98972222222223,37.045833333333334],[-122.04888888888888,37.1975]],"type":"LineString"}
}
