{
  "id": 1981750985,
  "type": "Feature",
  "properties": {
    "geom:area": 0,
    "geom:bbox": "-170.000000,31.140000,180.000000,57.100000",
    "geom:latitude": 54.18232957020027,
    "geom:longitude": 7.779908730252771,
    "src:alt_label": "swim-route",
    "src:geom": "swim",
    "swim:geom": "route",
    "wof:geomhash": "4b0726a36a6611a08701a2c7ee8fc2b9",
    "wof:id": 1981750985,
    "wof:repo": "sfomuseum-data-flights-2025-10"
  },
  "bbox": [
    -170,
    31.14,
    180,
    57.1
  ],
  "geometry": {"coordinates":[[[-122.38,37.62],[-122.5,37.67],[-122.5,37.67],[-122.5,37.68],[-122.59,37.73],[-122.59,37.73],[-122.63,37.75],[-122.69,37.79],[-122.7,37.79],[-122.74,37.81],[-122.76,37.82],[-122.79,37.87],[-122.91,38.01],[-123.15,38.3],[-123.16,38.3],[-123.3,38.48],[-123.42,38.61],[-123.48,38.68],[-123.59,38.82],[-123.64,38.87],[-123.69,38.92],[-123.75,39],[-124.3,39.56],[-124.97,40.22],[-126.5,41.66],[-126.79,41.95],[-126.81,41.97],[-126.82,41.98],[-130,45],[-132.13,47],[-132.16,47.03],[-132.84,47.78],[-135,50],[-140,52],[-140.42,52.15],[-147.37,54.33],[-150,55],[-150.87,55.22],[-150.98,55.25],[-153.23,55.77],[-153.52,55.83],[-153.54,55.83],[-153.9,55.92],[-160,57],[-161.35,57.05],[-162.08,57.07],[-165.19,57.1],[-167.6,57.07],[-170,57]],[[180,56],[169.69,53.26],[159.37,49.7],[159.36,49.7],[156.89,48.61],[154.51,47.47],[153.37,46.88],[150.07,45.05],[146.8,43.01],[144.71,41.58],[143.9,41],[142.53,39.98],[142.12,39.66],[141.28,39.01],[139.76,37.76],[138.99,37.11],[138.8,36.94],[137.31,35.63],[137.31,35.63],[136.91,35.27],[136.19,35.12],[136.1,35.11],[134.87,34.85],[134.22,34.71],[134.13,34.68],[133.39,34.46],[132.62,34.23],[131.8,33.97],[131.38,33.84],[131.38,33.84],[131.03,33.73],[129.03,33.05],[128.68,32.93],[127.5,32.51],[127.49,32.5],[126.65,32.2],[126.65,32.19],[126.06,32.06],[125,31.83],[124.16,31.65],[124.1,31.64],[124,31.61],[124,31.61],[123.94,31.6],[123.7,31.55],[123.5,31.5],[123.36,31.47],[123.06,31.42],[122.78,31.36],[122.7,31.34],[122.51,31.3],[122.26,31.25],[122.21,31.24],[122.07,31.21],[121.98,31.19],[121.89,31.17],[121.79,31.14]]],"type":"MultiLineString"}
}
