{
  "id": 1997543297,
  "type": "Feature",
  "properties": {
    "geom:area": 0,
    "geom:bbox": "-122.770000,37.620000,-0.460000,68.000000",
    "geom:latitude": 58.985537620298416,
    "geom:longitude": -63.9204793920277,
    "src:alt_label": "swim-route",
    "src:geom": "swim",
    "swim:geom": "route",
    "wof:geomhash": "b9b3cb86f24b0039994bc759772dd04c",
    "wof:id": 1997543297,
    "wof:repo": "sfomuseum-data-flights-2025-10"
  },
  "bbox": [
    -122.77,
    37.62,
    -0.46,
    68
  ],
  "geometry": {"coordinates":[[-0.46,51.48],[-0.59,51.56],[-0.69,51.63],[-0.8,51.7],[-0.92,51.78],[-1.01,51.84],[-1.11,51.9],[-1.48,52.14],[-1.72,52.29],[-1.92,52.42],[-2,52.47],[-2.18,52.58],[-2.19,52.59],[-2.26,52.64],[-2.42,52.73],[-2.47,52.76],[-2.76,52.94],[-3.24,53.23],[-3.43,53.34],[-3.44,53.35],[-3.93,53.64],[-5.5,54.51],[-6.98,55.29],[-7.16,55.38],[-9.68,56.59],[-10,56.73],[-23.41,61.33],[-25.1,61.74],[-38.09,63.96],[-57.26,64.85],[-57.28,64.85],[-58.82,67.95],[-60,68],[-60.6,67.9],[-60.72,67.94],[-60.75,67.94],[-63.92,67.64],[-67,67.28],[-71.09,66.69],[-88.3,62.41],[-89.83,61.84],[-94.09,60.05],[-97.81,58.19],[-97.86,58.16],[-103,55],[-104.29,54.05],[-107.59,51.35],[-109,50.07],[-110.1,49],[-110.14,48.96],[-110.76,48.44],[-110.96,48.27],[-113.1,46.36],[-114,45.5],[-114.68,45.02],[-117.87,42.59],[-118.2,42.2],[-118.52,41.82],[-118.83,41.44],[-119.38,40.94],[-119.56,40.79],[-119.73,40.63],[-120.58,39.84],[-120.71,39.71],[-120.84,39.59],[-121.1,39.34],[-121.2,39.28],[-121.28,39.23],[-121.33,39.2],[-121.67,39],[-121.73,38.96],[-121.99,38.81],[-122.04,38.78],[-122.22,38.67],[-122.26,38.65],[-122.44,38.55],[-122.44,38.54],[-122.68,38.31],[-122.69,38.3],[-122.77,38.22],[-122.75,38.16],[-122.72,38.06],[-122.69,37.95],[-122.67,37.9],[-122.67,37.9],[-122.65,37.87],[-122.62,37.85],[-122.59,37.82],[-122.58,37.81],[-122.51,37.74],[-122.5,37.73],[-122.44,37.68],[-122.37,37.62],[-122.38,37.62]],"type":"LineString"}
}
