{
  "id": 1981588465,
  "type": "Feature",
  "properties": {
    "geom:area": 0,
    "geom:bbox": "-122.788560,37.434070,-122.141480,38.487810",
    "geom:latitude": 37.82960979113231,
    "geom:longitude": -122.50506107277893,
    "src:alt_label": "swim-approach",
    "src:geom": "swim",
    "swim:elevations": [
      7498,
      7293,
      6828,
      6643,
      6261,
      5940,
      5538,
      5377,
      4848,
      4778,
      4545,
      4379,
      4108,
      3961,
      3553,
      3466,
      3387,
      3353,
      3353,
      3353,
      3309,
      3143,
      3089,
      2924,
      2730,
      2499,
      2227,
      2131,
      2011,
      1924,
      1887,
      1610,
      1286,
      1125,
      1046,
      915,
      634,
      512,
      432,
      244,
      190,
      127,
      363
    ],
    "swim:geom": "approach",
    "swim:timestamps": [
      1759653534,
      1759653552,
      1759653596,
      1759653614,
      1759653650,
      1759653679,
      1759653714,
      1759653728,
      1759653776,
      1759653783,
      1759653805,
      1759653823,
      1759653861,
      1759653875,
      1759653921,
      1759653946,
      1759653967,
      1759654006,
      1759654043,
      1759654066,
      1759654086,
      1759654118,
      1759654125,
      1759654153,
      1759654180,
      1759654221,
      1759654256,
      1759654275,
      1759654294,
      1759654317,
      1759654330,
      1759654374,
      1759654402,
      1759654430,
      1759654454,
      1759654476,
      1759654525,
      1759654547,
      1759654565,
      1759654611,
      1759654626,
      1759654644,
      1759654676
    ],
    "wof:geomhash": "e7c9a833107496501816fb62ec8f56e1",
    "wof:id": 1981588465,
    "wof:repo": "sfomuseum-data-flights-2025-10"
  },
  "bbox": [
    -122.78856,
    37.43407,
    -122.14148,
    38.48781
  ],
  "geometry": {"coordinates":[[-122.78856,38.48781],[-122.78536,38.44941],[-122.77801,38.35789],[-122.77507,38.32175],[-122.76911,38.24885],[-122.75732,38.19109],[-122.73779,38.1243],[-122.73034,38.09822],[-122.70632,38.015],[-122.7028,38.00297],[-122.69168,37.96471],[-122.68329,37.93577],[-122.65014,37.87872],[-122.6315,37.86079],[-122.57083,37.80346],[-122.54017,37.77443],[-122.5154,37.75079],[-122.4707,37.70844],[-122.42824,37.66871],[-122.40377,37.64573],[-122.38393,37.62707],[-122.36079,37.59503],[-122.35572,37.58673],[-122.33746,37.55798],[-122.32036,37.52984],[-122.29422,37.48719],[-122.26644,37.45496],[-122.2421,37.44772],[-122.21583,37.44232],[-122.18528,37.43618],[-122.16995,37.43407],[-122.14148,37.46041],[-122.14973,37.48399],[-122.16546,37.50574],[-122.18154,37.52275],[-122.198,37.53614],[-122.2407,37.56089],[-122.2611,37.5706],[-122.27773,37.57784],[-122.31514,37.59344],[-122.32561,37.59772],[-122.33892,37.60345],[-122.36339,37.61322]],"type":"LineString"}
}
