{
  "id": 1981558379,
  "type": "Feature",
  "properties": {
    "geom:area": 0,
    "geom:bbox": "-122.364220,37.631580,-121.245720,38.425990",
    "geom:latitude": 38.038987402923674,
    "geom:longitude": -121.81417100991817,
    "src:alt_label": "swim-takeoff",
    "src:geom": "swim",
    "swim:elevations": [
      213,
      622,
      882,
      1500,
      1827,
      1988,
      2689,
      3179,
      3453,
      3652,
      3763,
      4065,
      4160,
      4626,
      4888,
      5109,
      5484,
      5950,
      6240,
      6634,
      6664,
      6754,
      7052,
      7168,
      7576,
      7704
    ],
    "swim:geom": "takeoff",
    "swim:timestamps": [
      1759343418,
      1759343443,
      1759343460,
      1759343516,
      1759343548,
      1759343558,
      1759343601,
      1759343630,
      1759343660,
      1759343684,
      1759343700,
      1759343725,
      1759343732,
      1759343763,
      1759343783,
      1759343804,
      1759343838,
      1759343875,
      1759343899,
      1759343937,
      1759343940,
      1759343950,
      1759343989,
      1759344003,
      1759344058,
      1759344082
    ],
    "wof:geomhash": "e7e7c438f99c7b6c34d0b59ad55060af",
    "wof:id": 1981558379,
    "wof:repo": "sfomuseum-data-flights-2025-10"
  },
  "bbox": [
    -122.36422,
    37.63158,
    -121.24572,
    38.42599
  ],
  "geometry": {"coordinates":[[-122.36422,37.63158],[-122.34575,37.64651],[-122.33096,37.65447],[-122.27604,37.68505],[-122.23556,37.70696],[-122.2217,37.71433],[-122.17488,37.76175],[-122.14442,37.79554],[-122.10995,37.83345],[-122.0797,37.86643],[-122.05521,37.88807],[-122.00813,37.92043],[-121.99479,37.92944],[-121.9361,37.96916],[-121.89765,37.99522],[-121.85684,38.02297],[-121.78694,38.07027],[-121.70944,38.12253],[-121.65997,38.15577],[-121.57808,38.21075],[-121.57154,38.21512],[-121.54901,38.23014],[-121.46232,38.28797],[-121.43189,38.30832],[-121.30377,38.39025],[-121.24572,38.42599]],"type":"LineString"}
}
