{
  "id": 1981777393,
  "type": "Feature",
  "properties": {
    "geom:area": 0,
    "geom:bbox": "-122.205000,33.424722,-112.058611,37.566389",
    "geom:latitude": 34.83937024951842,
    "geom:longitude": -117.52391316506177,
    "src:alt_label": "swim-path",
    "src:geom": "swim",
    "swim:altitudes": [
      "026",
      "026",
      "026",
      "108",
      "108",
      "108",
      "108",
      "108",
      "140",
      "140",
      "140",
      "140",
      "166",
      "166",
      "166",
      "186",
      "186",
      "186",
      "196",
      "196",
      "196",
      "199",
      "199",
      "199",
      "209",
      "209",
      "249",
      "249",
      "270",
      "270",
      "271",
      "271",
      "271",
      "271",
      "281",
      "310",
      "310",
      "310",
      "310",
      "310",
      "310",
      "310",
      "310",
      "340C",
      "340C",
      "340C",
      "340C",
      "340C",
      "340C",
      "340C",
      "340C",
      "340C",
      "340C",
      "340C",
      "340C",
      "340C",
      "340C",
      "340C",
      "340C",
      "340C",
      "340C",
      "340C",
      "340C",
      "340C",
      "340C",
      "340C",
      "340C",
      "340C",
      "340C",
      "340C",
      "340C",
      "340C",
      "340C",
      "340C",
      "340C",
      "340C",
      "340C",
      "340C",
      "340C",
      "340C",
      "340C",
      "340C",
      "340C",
      "340C",
      "340C",
      "340C",
      "340C",
      "340C",
      "340C",
      "340C",
      "340C",
      "340C",
      "340C",
      "340C",
      "340C",
      "340C",
      "340C",
      "340C",
      "340C",
      "340C",
      "340C",
      "340C",
      "340C",
      "340C",
      "340C",
      "340C",
      "340C",
      "340C",
      "340C",
      "340C",
      "340C",
      "340C",
      "340C",
      "340C",
      "340C",
      "340",
      "340",
      "340",
      "340",
      "340",
      "340",
      "340",
      "340",
      "340",
      "340",
      "331",
      "331",
      "331",
      "331",
      "331",
      "331",
      "331",
      "331",
      "239",
      "239",
      "239",
      "239",
      "217",
      "212",
      "212",
      "212",
      "212",
      "212",
      "198",
      "198",
      "198",
      "157",
      "157",
      "157",
      "157",
      "157",
      "157",
      "146",
      "146",
      "146",
      "146",
      "109",
      "109",
      "103",
      "103",
      "103",
      "103",
      "101",
      "101",
      "101",
      "101",
      "101",
      "066",
      "066",
      "066",
      "066",
      "021",
      "021",
      "021",
      "021",
      "021",
      "021",
      "021",
      "021"
    ],
    "swim:geom": "path",
    "swim:speeds": [
      172,
      172,
      172,
      284,
      284,
      284,
      284,
      284,
      397,
      397,
      397,
      397,
      377,
      377,
      377,
      373,
      373,
      373,
      378,
      378,
      378,
      380,
      380,
      380,
      388,
      388,
      415,
      415,
      421,
      421,
      424,
      424,
      424,
      424,
      433,
      448,
      448,
      448,
      448,
      448,
      448,
      448,
      448,
      427,
      427,
      427,
      436,
      436,
      436,
      436,
      436,
      436,
      436,
      436,
      437,
      437,
      437,
      437,
      437,
      437,
      437,
      437,
      437,
      437,
      437,
      437,
      437,
      437,
      439,
      439,
      439,
      439,
      439,
      439,
      438,
      438,
      438,
      438,
      438,
      438,
      432,
      432,
      432,
      442,
      442,
      442,
      442,
      442,
      442,
      442,
      442,
      442,
      441,
      441,
      441,
      438,
      438,
      438,
      438,
      438,
      438,
      435,
      435,
      435,
      435,
      433,
      433,
      433,
      433,
      433,
      433,
      432,
      432,
      432,
      432,
      434,
      434,
      434,
      434,
      434,
      435,
      435,
      435,
      435,
      435,
      433,
      433,
      433,
      433,
      433,
      433,
      433,
      433,
      399,
      399,
      399,
      399,
      386,
      373,
      373,
      373,
      373,
      373,
      375,
      375,
      375,
      346,
      346,
      346,
      346,
      346,
      346,
      339,
      339,
      339,
      339,
      316,
      316,
      299,
      299,
      299,
      299,
      279,
      279,
      279,
      279,
      279,
      244,
      244,
      244,
      244,
      183,
      183,
      183,
      183,
      183,
      183,
      183,
      183
    ],
    "swim:timestamps": [
      1761602962,
      1761602962,
      1761602962,
      1761603209,
      1761603209,
      1761603209,
      1761603209,
      1761603209,
      1761603449,
      1761603449,
      1761603449,
      1761603449,
      1761603509,
      1761603509,
      1761603509,
      1761603569,
      1761603569,
      1761603569,
      1761603623,
      1761603623,
      1761603623,
      1761603629,
      1761603629,
      1761603629,
      1761603683,
      1761603683,
      1761603870,
      1761603870,
      1761603983,
      1761603983,
      1761603990,
      1761603990,
      1761603990,
      1761603990,
      1761604050,
      1761604230,
      1761604230,
      1761604230,
      1761604230,
      1761604230,
      1761604230,
      1761604230,
      1761604230,
      1761604351,
      1761604351,
      1761604351,
      1761604471,
      1761604471,
      1761604471,
      1761604471,
      1761604471,
      1761604471,
      1761604471,
      1761604471,
      1761604831,
      1761604831,
      1761604831,
      1761604831,
      1761604831,
      1761604831,
      1761604891,
      1761604891,
      1761604891,
      1761604891,
      1761604891,
      1761604891,
      1761604891,
      1761604891,
      1761605432,
      1761605432,
      1761605432,
      1761605432,
      1761605432,
      1761605432,
      1761605552,
      1761605552,
      1761605552,
      1761605552,
      1761605552,
      1761605552,
      1761605742,
      1761605742,
      1761605742,
      1761605793,
      1761605793,
      1761605793,
      1761605793,
      1761605853,
      1761605853,
      1761605853,
      1761605853,
      1761605853,
      1761605913,
      1761605913,
      1761605913,
      1761606153,
      1761606153,
      1761606153,
      1761606153,
      1761606153,
      1761606153,
      1761606273,
      1761606273,
      1761606273,
      1761606273,
      1761606394,
      1761606394,
      1761606394,
      1761606394,
      1761606394,
      1761606394,
      1761606523,
      1761606523,
      1761606523,
      1761606523,
      1761606764,
      1761606764,
      1761606764,
      1761606764,
      1761606764,
      1761607064,
      1761607064,
      1761607064,
      1761607064,
      1761607064,
      1761607124,
      1761607124,
      1761607124,
      1761607124,
      1761607124,
      1761607124,
      1761607124,
      1761607124,
      1761607364,
      1761607364,
      1761607364,
      1761607364,
      1761607424,
      1761607440,
      1761607440,
      1761607440,
      1761607440,
      1761607440,
      1761607484,
      1761607484,
      1761607484,
      1761607621,
      1761607621,
      1761607621,
      1761607621,
      1761607621,
      1761607621,
      1761607665,
      1761607665,
      1761607665,
      1761607665,
      1761607795,
      1761607795,
      1761607845,
      1761607845,
      1761607845,
      1761607845,
      1761607855,
      1761607855,
      1761607855,
      1761607855,
      1761607855,
      1761608085,
      1761608085,
      1761608085,
      1761608085,
      1761608325,
      1761608325,
      1761608325,
      1761608325,
      1761608325,
      1761608325,
      1761608325,
      1761608325
    ],
    "wof:geomhash": "e8b1b41d092dc7ce270742bde56cc401",
    "wof:id": 1981777393,
    "wof:repo": "sfomuseum-data-flights-2025-10"
  },
  "bbox": [
    -122.205,
    33.42472222222222,
    -112.0586111111111,
    37.56638888888889
  ],
  "geometry": {"coordinates":[[-112.0586111111111,33.42833333333333],[-112.0586111111111,33.42833333333333],[-112.0586111111111,33.42833333333333],[-112.42361111111111,33.42472222222222],[-112.42361111111111,33.42472222222222],[-112.42361111111111,33.42472222222222],[-112.42361111111111,33.42472222222222],[-112.42361111111111,33.42472222222222],[-112.92444444444445,33.47666666666667],[-112.92444444444445,33.47666666666667],[-112.92444444444445,33.47666666666667],[-112.92444444444445,33.47666666666667],[-113.04777777777778,33.49944444444444],[-113.04777777777778,33.49944444444444],[-113.04777777777778,33.49944444444444],[-113.16916666666667,33.52194444444444],[-113.16916666666667,33.52194444444444],[-113.16916666666667,33.52194444444444],[-113.26555555555555,33.53944444444444],[-113.26555555555555,33.53944444444444],[-113.26555555555555,33.53944444444444],[-113.2911111111111,33.54416666666666],[-113.2911111111111,33.54416666666666],[-113.2911111111111,33.54416666666666],[-113.3913888888889,33.5625],[-113.3913888888889,33.5625],[-113.81777777777778,33.64138888888889],[-113.81777777777778,33.64138888888889],[-114.06388888888888,33.696666666666665],[-114.06388888888888,33.696666666666665],[-114.08972222222222,33.70333333333333],[-114.08972222222222,33.70333333333333],[-114.08972222222222,33.70333333333333],[-114.08972222222222,33.70333333333333],[-114.2275,33.73777777777778],[-114.65138888888889,33.843611111111116],[-114.65138888888889,33.843611111111116],[-114.65138888888889,33.843611111111116],[-114.65138888888889,33.843611111111116],[-114.65138888888889,33.843611111111116],[-114.65138888888889,33.843611111111116],[-114.65138888888889,33.843611111111116],[-114.65138888888889,33.843611111111116],[-114.93277777777779,33.91277777777778],[-114.93277777777779,33.91277777777778],[-114.93277777777779,33.91277777777778],[-115.2125,33.98083333333334],[-115.2125,33.98083333333334],[-115.2125,33.98083333333334],[-115.2125,33.98083333333334],[-115.2125,33.98083333333334],[-115.2125,33.98083333333334],[-115.2125,33.98083333333334],[-115.2125,33.98083333333334],[-116.05333333333333,34.18055555555555],[-116.05333333333333,34.18055555555555],[-116.05333333333333,34.18055555555555],[-116.05333333333333,34.18055555555555],[-116.05333333333333,34.18055555555555],[-116.05333333333333,34.18055555555555],[-116.19361111111111,34.21333333333334],[-116.19361111111111,34.21333333333334],[-116.19361111111111,34.21333333333334],[-116.19361111111111,34.21333333333334],[-116.19361111111111,34.21333333333334],[-116.19361111111111,34.21333333333334],[-116.19361111111111,34.21333333333334],[-116.19361111111111,34.21333333333334],[-117.47222222222223,34.50277777777778],[-117.47222222222223,34.50277777777778],[-117.47222222222223,34.50277777777778],[-117.47222222222223,34.50277777777778],[-117.47222222222223,34.50277777777778],[-117.47222222222223,34.50277777777778],[-117.75916666666667,34.565555555555555],[-117.75916666666667,34.565555555555555],[-117.75916666666667,34.565555555555555],[-117.75916666666667,34.565555555555555],[-117.75916666666667,34.565555555555555],[-117.75916666666667,34.565555555555555],[-118.18972222222223,34.70722222222223],[-118.18972222222223,34.70722222222223],[-118.18972222222223,34.70722222222223],[-118.30083333333333,34.76111111111111],[-118.30083333333333,34.76111111111111],[-118.30083333333333,34.76111111111111],[-118.30083333333333,34.76111111111111],[-118.43166666666667,34.82194444444445],[-118.43166666666667,34.82194444444445],[-118.43166666666667,34.82194444444445],[-118.43166666666667,34.82194444444445],[-118.43166666666667,34.82194444444445],[-118.56805555555555,34.885],[-118.56805555555555,34.885],[-118.56805555555555,34.885],[-119.09638888888888,35.12694444444445],[-119.09638888888888,35.12694444444445],[-119.09638888888888,35.12694444444445],[-119.09638888888888,35.12694444444445],[-119.09638888888888,35.12694444444445],[-119.09638888888888,35.12694444444445],[-119.35638888888889,35.24444444444445],[-119.35638888888889,35.24444444444445],[-119.35638888888889,35.24444444444445],[-119.35638888888889,35.24444444444445],[-119.6111111111111,35.35861111111111],[-119.6111111111111,35.35861111111111],[-119.6111111111111,35.35861111111111],[-119.6111111111111,35.35861111111111],[-119.6111111111111,35.35861111111111],[-119.6111111111111,35.35861111111111],[-119.86888888888888,35.47361111111111],[-119.86888888888888,35.47361111111111],[-119.86888888888888,35.47361111111111],[-119.86888888888888,35.47361111111111],[-120.41111111111111,35.70861111111111],[-120.41111111111111,35.70861111111111],[-120.41111111111111,35.70861111111111],[-120.41111111111111,35.70861111111111],[-120.41111111111111,35.70861111111111],[-121.00805555555556,36.064166666666665],[-121.00805555555556,36.064166666666665],[-121.00805555555556,36.064166666666665],[-121.00805555555556,36.064166666666665],[-121.00805555555556,36.064166666666665],[-121.12388888888889,36.136944444444445],[-121.12388888888889,36.136944444444445],[-121.12388888888889,36.136944444444445],[-121.12388888888889,36.136944444444445],[-121.12388888888889,36.136944444444445],[-121.12388888888889,36.136944444444445],[-121.12388888888889,36.136944444444445],[-121.12388888888889,36.136944444444445],[-121.5775,36.42055555555555],[-121.5775,36.42055555555555],[-121.5775,36.42055555555555],[-121.5775,36.42055555555555],[-121.68277777777779,36.486111111111114],[-121.71666666666667,36.516666666666666],[-121.71666666666667,36.516666666666666],[-121.71666666666667,36.516666666666666],[-121.71666666666667,36.516666666666666],[-121.71666666666667,36.516666666666666],[-121.75694444444444,36.56944444444445],[-121.75694444444444,36.56944444444445],[-121.75694444444444,36.56944444444445],[-121.9,36.766666666666666],[-121.9,36.766666666666666],[-121.9,36.766666666666666],[-121.9,36.766666666666666],[-121.9,36.766666666666666],[-121.9,36.766666666666666],[-121.91694444444445,36.825],[-121.91694444444445,36.825],[-121.91694444444445,36.825],[-121.91694444444445,36.825],[-121.98333333333333,37.016666666666666],[-121.98333333333333,37.016666666666666],[-122.00305555555556,37.08166666666667],[-122.00305555555556,37.08166666666667],[-122.00305555555556,37.08166666666667],[-122.00305555555556,37.08166666666667],[-122.01666666666667,37.1],[-122.01666666666667,37.1],[-122.01666666666667,37.1],[-122.01666666666667,37.1],[-122.01666666666667,37.1],[-122.11138888888888,37.3575],[-122.11138888888888,37.3575],[-122.11138888888888,37.3575],[-122.11138888888888,37.3575],[-122.205,37.56638888888889],[-122.205,37.56638888888889],[-122.205,37.56638888888889],[-122.205,37.56638888888889],[-122.205,37.56638888888889],[-122.205,37.56638888888889],[-122.205,37.56638888888889],[-122.205,37.56638888888889]],"type":"LineString"}
}
