{
  "id": 1981600625,
  "type": "Feature",
  "properties": {
    "geom:area": 0,
    "geom:bbox": "-122.367140,37.627170,-121.249190,38.422980",
    "geom:latitude": 38.03618987382658,
    "geom:longitude": -121.81785263019556,
    "src:alt_label": "swim-takeoff",
    "src:geom": "swim",
    "swim:elevations": [
      152,
      728,
      908,
      1003,
      1293,
      1809,
      2136,
      2415,
      3098,
      3251,
      3608,
      3918,
      4138,
      4624,
      5059,
      5323,
      5501,
      5785,
      6308,
      6546,
      6743,
      7044,
      7357,
      7590,
      7859,
      8026,
      8144
    ],
    "swim:geom": "takeoff",
    "swim:timestamps": [
      1759744928,
      1759744973,
      1759744999,
      1759745017,
      1759745053,
      1759745086,
      1759745111,
      1759745130,
      1759745175,
      1759745194,
      1759745239,
      1759745269,
      1759745284,
      1759745322,
      1759745366,
      1759745384,
      1759745402,
      1759745434,
      1759745487,
      1759745513,
      1759745531,
      1759745564,
      1759745602,
      1759745630,
      1759745661,
      1759745682,
      1759745705
    ],
    "wof:geomhash": "077941d47f7ba5159a7298aa5e00fd6a",
    "wof:id": 1981600625,
    "wof:repo": "sfomuseum-data-flights-2025-10"
  },
  "bbox": [
    -122.36714,
    37.62717,
    -121.24919,
    38.42298
  ],
  "geometry": {"coordinates":[[-122.36714,37.62717],[-122.3378,37.65033],[-122.31513,37.6633],[-122.29739,37.67326],[-122.25405,37.69742],[-122.21158,37.72216],[-122.18733,37.74797],[-122.16833,37.76896],[-122.12419,37.81785],[-122.10474,37.83922],[-122.05037,37.89218],[-122.00299,37.92367],[-121.97932,37.93988],[-121.91925,37.9808],[-121.84819,38.02908],[-121.81937,38.04883],[-121.78965,38.06893],[-121.73729,38.10383],[-121.64533,38.16514],[-121.60008,38.1954],[-121.56876,38.21633],[-121.51103,38.25496],[-121.44255,38.30071],[-121.39143,38.33478],[-121.33437,38.37135],[-121.29259,38.39668],[-121.24919,38.42298]],"type":"LineString"}
}
