{
  "id": 1981801535,
  "type": "Feature",
  "properties": {
    "geom:area": 0,
    "geom:bbox": "-122.364470,37.631390,-121.284170,38.402660",
    "geom:latitude": 38.026500208843494,
    "geom:longitude": -121.83295421741056,
    "src:alt_label": "swim-takeoff",
    "src:geom": "swim",
    "swim:elevations": [
      152,
      655,
      947,
      1112,
      1437,
      1496,
      1524,
      1521,
      1642,
      2006,
      2561,
      2991,
      3402,
      3474,
      4033,
      4230,
      4667,
      4996,
      5186,
      5441,
      5998,
      6600,
      6854,
      7010
    ],
    "swim:geom": "takeoff",
    "swim:timestamps": [
      1761750622,
      1761750658,
      1761750678,
      1761750703,
      1761750746,
      1761750766,
      1761750795,
      1761750855,
      1761750892,
      1761750919,
      1761750956,
      1761750987,
      1761751039,
      1761751050,
      1761751108,
      1761751125,
      1761751160,
      1761751190,
      1761751206,
      1761751230,
      1761751283,
      1761751345,
      1761751377,
      1761751397
    ],
    "wof:geomhash": "ff52e9583a656e88dc694e5747834ece",
    "wof:id": 1981801535,
    "wof:repo": "sfomuseum-data-flights-2025-10"
  },
  "bbox": [
    -122.36447,
    37.63139,
    -121.28417,
    38.40266
  ],
  "geometry": {"coordinates":[[-122.36447,37.63139],[-122.33889,37.65198],[-122.32139,37.66158],[-122.29906,37.67366],[-122.2506,37.69946],[-122.22413,37.71358],[-122.19511,37.74053],[-122.14076,37.79941],[-122.10831,37.83512],[-122.08255,37.86376],[-122.04172,37.89757],[-122.0019,37.92487],[-121.93031,37.97351],[-121.91424,37.9844],[-121.81817,38.04957],[-121.78895,38.0693],[-121.72912,38.10957],[-121.67486,38.14593],[-121.64646,38.16492],[-121.60426,38.19347],[-121.50579,38.25963],[-121.38686,38.33798],[-121.32329,38.37798],[-121.28417,38.40266]],"type":"LineString"}
}
