{
  "id": 1981775275,
  "type": "Feature",
  "properties": {
    "geom:area": 0,
    "geom:bbox": "-175.790000,35.820000,180.000000,59.070000",
    "geom:latitude": 56.162742120916604,
    "geom:longitude": 0.9431131443901961,
    "src:alt_label": "swim-route",
    "src:geom": "swim",
    "swim:geom": "route",
    "wof:geomhash": "611151afc71a841ec57c42ee7c4727be",
    "wof:id": 1981775275,
    "wof:repo": "sfomuseum-data-flights-2025-10"
  },
  "bbox": [
    -175.79,
    35.82,
    180,
    59.07
  ],
  "geometry": {"coordinates":[[[-122.38,37.62],[-122.5,37.67],[-122.5,37.67],[-122.5,37.67],[-122.58,37.72],[-122.59,37.72],[-122.62,37.74],[-122.68,37.78],[-122.69,37.79],[-122.74,37.81],[-122.76,37.82],[-122.79,37.87],[-122.91,38.01],[-123.16,38.31],[-123.16,38.31],[-123.3,38.47],[-123.41,38.61],[-123.47,38.68],[-123.62,38.85],[-123.67,38.91],[-123.75,39],[-123.75,39],[-123.77,39.22],[-123.81,39.72],[-123.85,40.22],[-123.95,41.33],[-124.02,42.22],[-124.17,43.77],[-124.42,46.33],[-124.49,47.01],[-124.63,48.3],[-124.91,48.5],[-126.84,49.79],[-127.57,50.25],[-128.26,50.68],[-128.96,51.11],[-130.4,51.95],[-134.5,54.08],[-134.58,54.11],[-134.58,54.12],[-135.89,54.61],[-137.23,55.09],[-140,56],[-144.15,56.95],[-150,58],[-150.36,58.05],[-151.7,58.23],[-160,59],[-162.6,59.07],[-167.81,59.07],[-167.82,59.07],[-170,59],[-175.79,58.52]],[[180,58],[171.97,54.93],[169.34,53.63],[168.35,53.3],[163.7,51.61],[159.36,49.72],[159.35,49.71],[159.35,49.71],[153,46.2],[152.17,45.67],[147.48,42.39],[146.86,41.92],[145,40.42],[143.79,39.85],[142.53,39.23],[140.92,38.14],[139.76,38.02],[139.11,37.95],[137.8,37.49],[135.01,36.44],[134.5,36.24],[133.83,35.91],[130.72,35.82],[130.69,35.84],[128.94,36.55],[128.6,36.68],[128.56,36.7],[128.54,36.71],[128.3,36.8],[128,36.92],[127.36,37.16],[127.17,37.23],[126.93,37.32],[126.74,37.39],[126.66,37.42],[126.64,37.43],[126.55,37.47],[126.45,37.5]]],"type":"MultiLineString"}
}
