{
  "id": 1981713967,
  "type": "Feature",
  "properties": {
    "geom:area": 0,
    "geom:bbox": "-122.366670,37.627940,-121.490260,38.480950",
    "geom:latitude": 38.04483832500134,
    "geom:longitude": -121.92151075348059,
    "src:alt_label": "swim-takeoff",
    "src:geom": "swim",
    "swim:elevations": [
      122,
      452,
      673,
      1117,
      1467,
      2060,
      2545,
      3127,
      3392,
      3633,
      4059,
      4591,
      4654,
      4835,
      5350,
      5545,
      6191,
      6522,
      7054,
      7297,
      7565,
      7873,
      8079,
      8201,
      8378
    ],
    "swim:geom": "takeoff",
    "swim:timestamps": [
      1760881764,
      1760881783,
      1760881802,
      1760881843,
      1760881870,
      1760881903,
      1760881934,
      1760881969,
      1760882004,
      1760882035,
      1760882067,
      1760882098,
      1760882103,
      1760882114,
      1760882149,
      1760882166,
      1760882211,
      1760882233,
      1760882276,
      1760882299,
      1760882323,
      1760882362,
      1760882394,
      1760882414,
      1760882437
    ],
    "wof:geomhash": "9b1f6da65fb827c7bd086811ba81b3c7",
    "wof:id": 1981713967,
    "wof:repo": "sfomuseum-data-flights-2025-10"
  },
  "bbox": [
    -122.36667,
    37.62794,
    -121.49026,
    38.48095
  ],
  "geometry": {"coordinates":[[-122.36667,37.62794],[-122.35563,37.64126],[-122.34022,37.65067],[-122.29595,37.67451],[-122.26243,37.69246],[-122.2193,37.71627],[-122.1875,37.74694],[-122.15342,37.7848],[-122.11598,37.82671],[-122.07738,37.86894],[-122.03558,37.91493],[-121.99278,37.96151],[-121.98688,37.96797],[-121.97085,37.98544],[-121.92281,38.03849],[-121.89989,38.06428],[-121.83716,38.13232],[-121.80608,38.16574],[-121.74586,38.23227],[-121.71356,38.26756],[-121.68012,38.30423],[-121.62276,38.36745],[-121.57529,38.41938],[-121.54039,38.44906],[-121.49026,38.48095]],"type":"LineString"}
}
