{
  "id": 1981619207,
  "type": "Feature",
  "properties": {
    "geom:area": 0,
    "geom:bbox": "-122.376250,37.659780,-121.266310,38.412880",
    "geom:latitude": 38.021065473003425,
    "geom:longitude": -121.8137741657598,
    "src:alt_label": "swim-takeoff",
    "src:geom": "swim",
    "swim:elevations": [
      986,
      1088,
      1320,
      1682,
      2088,
      2309,
      2689,
      3104,
      3286,
      3384,
      3447,
      3981,
      4006,
      4388,
      4477,
      4609,
      4655,
      4891,
      5297,
      5656,
      5691,
      5896,
      6048,
      6225,
      6461,
      6573
    ],
    "swim:geom": "takeoff",
    "swim:timestamps": [
      1759943990,
      1759944001,
      1759944042,
      1759944084,
      1759944117,
      1759944130,
      1759944162,
      1759944201,
      1759944236,
      1759944261,
      1759944270,
      1759944324,
      1759944333,
      1759944378,
      1759944392,
      1759944409,
      1759944421,
      1759944454,
      1759944499,
      1759944535,
      1759944541,
      1759944565,
      1759944587,
      1759944611,
      1759944649,
      1759944667
    ],
    "wof:geomhash": "e77159052d8e2a5beea3e95d5008b5b2",
    "wof:id": 1981619207,
    "wof:repo": "sfomuseum-data-flights-2025-10"
  },
  "bbox": [
    -122.37625,
    37.65978,
    -121.26631,
    38.41288
  ],
  "geometry": {"coordinates":[[-122.37625,37.65978],[-122.36586,37.6632],[-122.32091,37.67817],[-122.26464,37.69931],[-122.2163,37.71737],[-122.19768,37.72747],[-122.15907,37.75646],[-122.10996,37.79415],[-122.06291,37.82955],[-122.02522,37.8583],[-122.01189,37.86833],[-121.92407,37.93469],[-121.90871,37.94611],[-121.8317,38.00476],[-121.80786,38.0229],[-121.77707,38.04623],[-121.75501,38.06288],[-121.6946,38.10838],[-121.6074,38.17402],[-121.53749,38.22634],[-121.52637,38.23467],[-121.47896,38.27001],[-121.436,38.30208],[-121.38685,38.33785],[-121.30415,38.38932],[-121.26631,38.41288]],"type":"LineString"}
}
