{
  "id": 1997547225,
  "type": "Feature",
  "properties": {
    "geom:area": 0,
    "geom:bbox": "-177.580000,35.820000,180.000000,52.110000",
    "geom:latitude": 47.04759094178381,
    "geom:longitude": 3.0311327649013435,
    "src:alt_label": "swim-route",
    "src:geom": "swim",
    "swim:geom": "route",
    "wof:geomhash": "b02347f179f87d5346330985d39f7786",
    "wof:id": 1997547225,
    "wof:repo": "sfomuseum-data-flights-2025-10"
  },
  "bbox": [
    -177.58,
    35.82,
    180,
    52.11
  ],
  "geometry": {"coordinates":[[[-122.38,37.62],[-122.5,37.67],[-122.51,37.68],[-122.59,37.73],[-122.6,37.73],[-122.63,37.75],[-122.7,37.79],[-122.71,37.8],[-122.74,37.81],[-122.76,37.82],[-122.79,37.87],[-122.91,38.01],[-123.14,38.28],[-123.14,38.29],[-123.29,38.46],[-123.41,38.6],[-123.46,38.67],[-123.57,38.79],[-123.58,38.8],[-123.63,38.86],[-123.67,38.91],[-123.75,39],[-124.07,39.12],[-126.5,40],[-127,40.3],[-127,40.3],[-130,42],[-136.78,47.02],[-140,49],[-150,52],[-155,52.11],[-160,52],[-170,50],[-173.84,49.35],[-177.58,48.58]],[[180,48],[170,44],[165,42.17],[160,40],[153.9,38.3],[150,37],[148.48,36.89],[146.3,36.4],[145.67,36.21],[145.47,36.15],[144.44,36.19],[141.35,36.24],[138.98,36.23],[138.51,36.22],[135.05,36.11],[130.72,35.82],[130.69,35.84],[126.93,37.41],[124,37.17],[123.33,37.57],[122,37.67],[121.18,37.45],[120.55,37.66],[118.51,38.94],[118.44,38.98],[118.18,39.14],[117.96,39.27],[117.74,39.4],[117.41,39.6],[117.24,39.7],[117.02,39.83],[116.97,39.86],[116.85,39.93],[116.76,39.98],[116.67,40.03],[116.58,40.08]]],"type":"MultiLineString"}
}
