{
  "id": 1981793017,
  "type": "Feature",
  "properties": {
    "geom:area": 0,
    "geom:bbox": "-122.470000,20.680000,-105.250000,37.680000",
    "geom:latitude": 29.960090294294183,
    "geom:longitude": -113.10220511659865,
    "src:alt_label": "swim-route",
    "src:geom": "swim",
    "swim:geom": "route",
    "wof:geomhash": "ebf271ee8b5e3491143a6c73443c56d7",
    "wof:id": 1981793017,
    "wof:repo": "sfomuseum-data-flights-2025-10"
  },
  "bbox": [
    -122.47,
    20.68,
    -105.25,
    37.68
  ],
  "geometry": {"coordinates":[[-122.38,37.62],[-122.36,37.68],[-122.39,37.63],[-122.39,37.63],[-122.43,37.57],[-122.43,37.56],[-122.45,37.54],[-122.47,37.49],[-122.47,37.49],[-122.46,37.48],[-122.44,37.46],[-122.34,37.39],[-122.33,37.38],[-122.31,37.36],[-122.29,37.35],[-122.24,37.31],[-122.17,37.26],[-122.16,37.25],[-122.02,37.15],[-121.92,37.08],[-121.83,37.01],[-121.82,37],[-121.76,36.96],[-121.65,36.87],[-121.64,36.86],[-121.61,36.84],[-121.46,36.73],[-121.29,36.6],[-121.2,36.54],[-121.19,36.53],[-121.06,36.43],[-121.02,36.4],[-120.93,36.34],[-120.82,36.26],[-120.6,36.11],[-120.37,35.95],[-120.26,35.87],[-120.11,35.75],[-120.05,35.7],[-119.98,35.65],[-119.94,35.62],[-119.3,35.18],[-118.09,34.32],[-117.74,34.07],[-117.53,33.92],[-116.84,33.35],[-116.59,33.14],[-115.68,32.67],[-115.65,32.65],[-115.33,32.45],[-115,32.24],[-113.3,31.37],[-112.61,30.69],[-111.98,30.05],[-111.83,29.89],[-111.36,29.41],[-111.05,29.1],[-110.14,27.82],[-110.03,27.67],[-109.84,27.39],[-109.48,27.01],[-108.72,26.17],[-108.41,25.82],[-108.25,25.64],[-107.76,25.09],[-107.48,24.76],[-107.22,24.42],[-107.04,24.19],[-106.87,23.96],[-106.58,23.57],[-106.42,23.37],[-106.27,23.16],[-106.15,22.89],[-106.09,22.74],[-106.07,22.69],[-105.96,22.42],[-105.94,22.38],[-105.92,22.32],[-105.82,22.09],[-105.73,21.87],[-105.69,21.78],[-105.55,21.43],[-105.49,21.28],[-105.41,21.07],[-105.35,20.92],[-105.34,20.92],[-105.31,20.84],[-105.31,20.84],[-105.28,20.76],[-105.25,20.68]],"type":"LineString"}
}
