{
  "id": 1997538763,
  "type": "Feature",
  "properties": {
    "geom:area": 0,
    "geom:bbox": "-122.351944,37.645556,-70.903889,42.745556",
    "geom:latitude": 40.65052369794298,
    "geom:longitude": -96.58003820720567,
    "src:alt_label": "swim-path",
    "src:geom": "swim",
    "swim:altitudes": [
      "013",
      "013",
      "013",
      "013",
      "058",
      "065",
      "065",
      "065",
      "190",
      "210",
      "210",
      "210",
      "210",
      "229",
      "291",
      "291",
      "291",
      "321",
      "330",
      "330",
      "330",
      "330",
      "356",
      "356",
      "356",
      "370C",
      "370C",
      "370C",
      "370C",
      "370C",
      "370C",
      "370C",
      "370C",
      "370C",
      "370C",
      "370C",
      "370C",
      "370C",
      "370C",
      "370C",
      "370C",
      "370C",
      "370C",
      "370C",
      "370C",
      "370C",
      "370C",
      "370C",
      "370C",
      "370C",
      "370C",
      "370C",
      "370C",
      "370C",
      "370C",
      "370C",
      "370C",
      "370C",
      "370C",
      "370C",
      "370C",
      "370C",
      "370C",
      "370C",
      "370C",
      "370C",
      "370C",
      "370C",
      "370C",
      "370C",
      "370C",
      "370C",
      "370",
      "370",
      "370",
      "370",
      "370",
      "370",
      "388C",
      "388C",
      "388C",
      "388C",
      "388C",
      "390C",
      "390C",
      "390C",
      "390C",
      "390C",
      "390C",
      "390C",
      "390C",
      "390C",
      "390C",
      "390C",
      "390C",
      "390C",
      "390C",
      "390C",
      "390C",
      "390C",
      "390C",
      "390C",
      "390C",
      "390C",
      "390C",
      "390C",
      "390C",
      "390C",
      "390C",
      "390C",
      "390C",
      "390C",
      "390C",
      "390C",
      "390C",
      "390C",
      "390C",
      "390C",
      "390C",
      "390C",
      "390C",
      "390C",
      "390C",
      "390C",
      "390C",
      "390C",
      "390C",
      "390C",
      "390C",
      "390C",
      "390C",
      "390C",
      "390C",
      "390C",
      "390C",
      "390C",
      "390C",
      "390C",
      "390C",
      "390C",
      "390C",
      "390C",
      "390C",
      "390C",
      "390C",
      "390C",
      "390C",
      "390C",
      "390C",
      "390C",
      "390C",
      "390C",
      "390C",
      "390C",
      "390C",
      "390C",
      "390C",
      "390C",
      "390C",
      "390C",
      "390C",
      "390C",
      "390C",
      "390C",
      "390C",
      "390C",
      "390C",
      "390C",
      "390C",
      "390C",
      "390C",
      "390C",
      "390C",
      "390C",
      "390C",
      "390C",
      "390C",
      "390C",
      "390C",
      "390C",
      "390C",
      "390C",
      "390C",
      "390C",
      "390C",
      "390C",
      "390C",
      "390C",
      "390C",
      "390C",
      "390C",
      "390C",
      "390C",
      "390C",
      "390C",
      "390C",
      "390C",
      "390C",
      "390C",
      "390C",
      "390C",
      "390C",
      "390C",
      "390C",
      "390C",
      "390C",
      "390C",
      "390C",
      "390C",
      "390C",
      "390C",
      "390C",
      "390C",
      "390C",
      "390C",
      "390C",
      "390C",
      "390C",
      "390C",
      "390C",
      "390C",
      "390C",
      "390C",
      "390C",
      "390C",
      "390C",
      "390C",
      "390C",
      "390C",
      "390C",
      "390C",
      "390C",
      "390C",
      "390C",
      "390C",
      "390C",
      "390C",
      "390C",
      "390C",
      "390C",
      "390C",
      "390C",
      "390C",
      "390C",
      "390C",
      "390C",
      "390C",
      "390C",
      "390C",
      "390C",
      "390C",
      "390C",
      "390C",
      "390C",
      "390C",
      "390C",
      "390C",
      "390C",
      "390C",
      "390C",
      "390C",
      "390C",
      "390C",
      "390C",
      "390C",
      "390C",
      "390C",
      "390C",
      "390C",
      "390C",
      "390C",
      "390C",
      "390C",
      "390C",
      "390C",
      "390C",
      "390C",
      "390C",
      "390C",
      "390C",
      "390C",
      "390C",
      "390C",
      "390C",
      "390C",
      "390C",
      "390C",
      "390C",
      "390C",
      "390C",
      "390C",
      "390C",
      "390C",
      "390C",
      "390C",
      "375",
      "354",
      "354",
      "302",
      "302",
      "302",
      "229",
      "229",
      "229",
      "174",
      "174",
      "157",
      "140",
      "140",
      "104",
      "088",
      "077",
      "077",
      "065",
      "065",
      "030",
      "030",
      "030",
      "024",
      "017",
      "017",
      "017",
      "005"
    ],
    "swim:geom": "path",
    "swim:speeds": [
      180,
      180,
      180,
      180,
      273,
      279,
      279,
      279,
      439,
      454,
      454,
      454,
      454,
      469,
      521,
      521,
      521,
      514,
      520,
      520,
      520,
      520,
      513,
      513,
      513,
      511,
      511,
      511,
      511,
      510,
      510,
      511,
      510,
      510,
      510,
      511,
      509,
      508,
      508,
      508,
      508,
      509,
      509,
      508,
      508,
      508,
      508,
      508,
      508,
      509,
      509,
      508,
      508,
      508,
      509,
      509,
      510,
      509,
      509,
      509,
      510,
      510,
      510,
      510,
      511,
      511,
      513,
      513,
      513,
      513,
      513,
      513,
      512,
      513,
      513,
      513,
      513,
      513,
      513,
      513,
      513,
      513,
      513,
      510,
      510,
      510,
      510,
      511,
      511,
      511,
      511,
      511,
      511,
      512,
      512,
      512,
      512,
      510,
      507,
      507,
      507,
      504,
      504,
      501,
      501,
      501,
      498,
      498,
      498,
      498,
      493,
      493,
      493,
      484,
      484,
      482,
      482,
      481,
      481,
      481,
      481,
      482,
      482,
      482,
      484,
      484,
      484,
      494,
      494,
      502,
      502,
      503,
      503,
      503,
      503,
      487,
      487,
      488,
      488,
      488,
      503,
      503,
      503,
      503,
      495,
      485,
      485,
      482,
      482,
      482,
      482,
      482,
      497,
      497,
      497,
      499,
      506,
      506,
      506,
      506,
      506,
      506,
      506,
      506,
      506,
      507,
      507,
      504,
      504,
      497,
      497,
      504,
      504,
      503,
      502,
      502,
      502,
      502,
      502,
      502,
      502,
      504,
      505,
      510,
      510,
      507,
      510,
      510,
      511,
      511,
      511,
      508,
      508,
      509,
      510,
      510,
      510,
      507,
      507,
      507,
      505,
      503,
      503,
      503,
      503,
      503,
      503,
      505,
      505,
      508,
      506,
      506,
      506,
      505,
      505,
      505,
      505,
      505,
      505,
      500,
      500,
      497,
      497,
      497,
      496,
      497,
      498,
      498,
      498,
      498,
      500,
      500,
      500,
      500,
      498,
      498,
      498,
      497,
      497,
      497,
      499,
      499,
      505,
      505,
      506,
      509,
      509,
      510,
      501,
      501,
      500,
      500,
      501,
      503,
      504,
      503,
      503,
      501,
      500,
      500,
      500,
      499,
      499,
      502,
      502,
      502,
      501,
      501,
      500,
      500,
      500,
      500,
      499,
      499,
      499,
      499,
      499,
      498,
      498,
      500,
      500,
      501,
      501,
      501,
      501,
      503,
      502,
      502,
      502,
      502,
      502,
      501,
      501,
      501,
      501,
      497,
      492,
      492,
      461,
      461,
      461,
      425,
      425,
      425,
      376,
      376,
      357,
      359,
      359,
      328,
      323,
      313,
      313,
      296,
      296,
      207,
      179,
      179,
      162,
      129,
      129,
      129,
      113
    ],
    "swim:timestamps": [
      1761882043,
      1761882043,
      1761882043,
      1761882043,
      1761882163,
      1761882173,
      1761882173,
      1761882173,
      1761882524,
      1761882584,
      1761882584,
      1761882584,
      1761882584,
      1761882644,
      1761882884,
      1761882884,
      1761882884,
      1761882977,
      1761883158,
      1761883158,
      1761883158,
      1761883158,
      1761883278,
      1761883278,
      1761883278,
      1761883425,
      1761883485,
      1761883485,
      1761883485,
      1761883518,
      1761883518,
      1761883545,
      1761883605,
      1761883605,
      1761883605,
      1761883636,
      1761883756,
      1761883845,
      1761883877,
      1761883877,
      1761883877,
      1761883999,
      1761883999,
      1761884119,
      1761884119,
      1761884179,
      1761884205,
      1761884205,
      1761884265,
      1761884298,
      1761884298,
      1761884325,
      1761884325,
      1761884325,
      1761884385,
      1761884385,
      1761884537,
      1761884597,
      1761884597,
      1761884597,
      1761884657,
      1761884657,
      1761884657,
      1761884657,
      1761884958,
      1761884958,
      1761885138,
      1761885138,
      1761885138,
      1761885199,
      1761885199,
      1761885199,
      1761885320,
      1761885380,
      1761885380,
      1761885380,
      1761885499,
      1761885499,
      1761885620,
      1761885620,
      1761885620,
      1761885620,
      1761885620,
      1761886038,
      1761886038,
      1761886038,
      1761886038,
      1761886098,
      1761886098,
      1761886221,
      1761886221,
      1761886221,
      1761886341,
      1761886398,
      1761886398,
      1761886398,
      1761886398,
      1761886521,
      1761886639,
      1761886639,
      1761886639,
      1761886761,
      1761886761,
      1761886879,
      1761886879,
      1761886879,
      1761886999,
      1761886999,
      1761886999,
      1761886999,
      1761887121,
      1761887121,
      1761887121,
      1761887361,
      1761887361,
      1761887421,
      1761887421,
      1761887481,
      1761887481,
      1761887481,
      1761887481,
      1761887601,
      1761887601,
      1761887601,
      1761887661,
      1761887661,
      1761887661,
      1761887782,
      1761887782,
      1761887842,
      1761887842,
      1761887902,
      1761887962,
      1761887962,
      1761887962,
      1761888022,
      1761888022,
      1761888142,
      1761888142,
      1761888142,
      1761888262,
      1761888262,
      1761888262,
      1761888262,
      1761888322,
      1761888442,
      1761888442,
      1761888562,
      1761888562,
      1761888562,
      1761888622,
      1761888622,
      1761888862,
      1761888862,
      1761888862,
      1761888922,
      1761889102,
      1761889102,
      1761889102,
      1761889162,
      1761889162,
      1761889222,
      1761889222,
      1761889222,
      1761889222,
      1761889342,
      1761889342,
      1761889522,
      1761889522,
      1761889558,
      1761889558,
      1761889583,
      1761889583,
      1761889678,
      1761889703,
      1761889703,
      1761889703,
      1761889763,
      1761889763,
      1761889763,
      1761889798,
      1761889978,
      1761890038,
      1761890175,
      1761890175,
      1761890218,
      1761890475,
      1761890518,
      1761890538,
      1761890578,
      1761890597,
      1761890878,
      1761890898,
      1761891015,
      1761891178,
      1761891178,
      1761891178,
      1761891419,
      1761891479,
      1761891539,
      1761891599,
      1761891659,
      1761891665,
      1761891665,
      1761891665,
      1761891665,
      1761891725,
      1761891905,
      1761891905,
      1761892085,
      1761892139,
      1761892139,
      1761892145,
      1761892205,
      1761892205,
      1761892205,
      1761892265,
      1761892325,
      1761892439,
      1761892505,
      1761892559,
      1761892626,
      1761892626,
      1761892626,
      1761892746,
      1761892806,
      1761892866,
      1761892866,
      1761892866,
      1761892866,
      1761893286,
      1761893346,
      1761893346,
      1761893346,
      1761893526,
      1761893526,
      1761893526,
      1761893646,
      1761893646,
      1761893646,
      1761893766,
      1761893766,
      1761894066,
      1761894066,
      1761894186,
      1761894486,
      1761894546,
      1761894615,
      1761894975,
      1761894975,
      1761895026,
      1761895096,
      1761895217,
      1761895337,
      1761895396,
      1761895636,
      1761895636,
      1761895757,
      1761895876,
      1761895876,
      1761895876,
      1761895998,
      1761895998,
      1761896236,
      1761896298,
      1761896298,
      1761896536,
      1761896536,
      1761896657,
      1761896657,
      1761896718,
      1761896718,
      1761896873,
      1761896873,
      1761896993,
      1761897137,
      1761897233,
      1761897293,
      1761897293,
      1761897413,
      1761897413,
      1761897473,
      1761897498,
      1761897533,
      1761897533,
      1761897653,
      1761897676,
      1761897713,
      1761897738,
      1761897738,
      1761897798,
      1761897857,
      1761897953,
      1761897953,
      1761897953,
      1761898373,
      1761898433,
      1761898433,
      1761898553,
      1761898553,
      1761898553,
      1761898733,
      1761898733,
      1761898733,
      1761898913,
      1761898913,
      1761898973,
      1761899033,
      1761899033,
      1761899210,
      1761899274,
      1761899334,
      1761899334,
      1761899390,
      1761899390,
      1761899574,
      1761899634,
      1761899634,
      1761899694,
      1761899754,
      1761899754,
      1761899754,
      1761899874
    ],
    "wof:geomhash": "3c93022a7eac063cc37c0c09ccab1e17",
    "wof:id": 1997538763,
    "wof:repo": "sfomuseum-data-flights-2025-10"
  },
  "bbox": [
    -122.35194444444444,
    37.64555555555555,
    -70.9038888888889,
    42.745555555555555
  ],
  "geometry": {"coordinates":[[-122.35194444444444,37.64555555555555],[-122.35194444444444,37.64555555555555],[-122.35194444444444,37.64555555555555],[-122.35194444444444,37.64555555555555],[-122.22194444444445,37.71416666666667],[-122.2,37.71666666666667],[-122.2,37.71666666666667],[-122.2,37.71666666666667],[-121.55555555555556,38.00361111111111],[-121.41277777777778,38.059444444444445],[-121.41277777777778,38.059444444444445],[-121.41277777777778,38.059444444444445],[-121.41277777777778,38.059444444444445],[-121.26638888888888,38.11638888888889],[-120.59166666666667,38.26861111111111],[-120.59166666666667,38.26861111111111],[-120.59166666666667,38.26861111111111],[-120.29861111111111,38.30722222222222],[-119.75611111111111,38.379444444444445],[-119.75611111111111,38.379444444444445],[-119.75611111111111,38.379444444444445],[-119.75611111111111,38.379444444444445],[-119.4,38.42805555555555],[-119.4,38.42805555555555],[-119.4,38.42805555555555],[-118.9713888888889,38.4825],[-118.75916666666667,38.50888888888889],[-118.75916666666667,38.50888888888889],[-118.75916666666667,38.50888888888889],[-118.6913888888889,38.51611111111111],[-118.6913888888889,38.51611111111111],[-118.58277777777778,38.530277777777776],[-118.40444444444445,38.551944444444445],[-118.40444444444445,38.551944444444445],[-118.40444444444445,38.551944444444445],[-118.32083333333333,38.56166666666666],[-117.96194444444444,38.60416666666667],[-117.71027777777778,38.63305555555556],[-117.60222222222221,38.64527777777778],[-117.60222222222221,38.64527777777778],[-117.60222222222221,38.64527777777778],[-117.24472222222222,38.68833333333333],[-117.24472222222222,38.68833333333333],[-116.92333333333333,38.74277777777778],[-116.92333333333333,38.74277777777778],[-116.74416666666667,38.77305555555555],[-116.6363888888889,38.79111111111111],[-116.6363888888889,38.79111111111111],[-116.45722222222223,38.82055555555556],[-116.39083333333333,38.831388888888895],[-116.39083333333333,38.831388888888895],[-116.28,38.849444444444444],[-116.28,38.849444444444444],[-116.28,38.849444444444444],[-116.12583333333333,38.87444444444444],[-116.12583333333333,38.87444444444444],[-115.67722222222223,38.94583333333333],[-115.49805555555555,38.973888888888894],[-115.49805555555555,38.973888888888894],[-115.49805555555555,38.973888888888894],[-115.31083333333333,39.00277777777778],[-115.31083333333333,39.00277777777778],[-115.31083333333333,39.00277777777778],[-115.31083333333333,39.00277777777778],[-114.41527777777779,39.13666666666666],[-114.41527777777779,39.13666666666666],[-113.87222222222222,39.214444444444446],[-113.87222222222222,39.214444444444446],[-113.87222222222222,39.214444444444446],[-113.69027777777778,39.23972222222222],[-113.69027777777778,39.23972222222222],[-113.69027777777778,39.23972222222222],[-113.33055555555555,39.28916666666667],[-113.14694444444446,39.30777777777777],[-113.14694444444446,39.30777777777777],[-113.14694444444446,39.30777777777777],[-112.7786111111111,39.334722222222226],[-112.7786111111111,39.334722222222226],[-112.42750000000001,39.35916666666667],[-112.42750000000001,39.35916666666667],[-112.42750000000001,39.35916666666667],[-112.42750000000001,39.35916666666667],[-112.42750000000001,39.35916666666667],[-111.14416666666668,39.44],[-111.14416666666668,39.44],[-111.14416666666668,39.44],[-111.14416666666668,39.44],[-110.96166666666667,39.45027777777778],[-110.96166666666667,39.45027777777778],[-110.59555555555555,39.47027777777778],[-110.59555555555555,39.47027777777778],[-110.59555555555555,39.47027777777778],[-110.23222222222222,39.48888888888889],[-110.04666666666667,39.49777777777778],[-110.04666666666667,39.49777777777778],[-110.04666666666667,39.49777777777778],[-110.04666666666667,39.49777777777778],[-109.68416666666667,39.53194444444444],[-109.32416666666666,39.56777777777778],[-109.32416666666666,39.56777777777778],[-109.32416666666666,39.56777777777778],[-108.96722222222222,39.60194444444445],[-108.96722222222222,39.60194444444445],[-108.59055555555555,39.63638888888889],[-108.59055555555555,39.63638888888889],[-108.59055555555555,39.63638888888889],[-108.23527777777778,39.668055555555554],[-108.23527777777778,39.668055555555554],[-108.23527777777778,39.668055555555554],[-108.23527777777778,39.668055555555554],[-107.87916666666666,39.69888888888889],[-107.87916666666666,39.69888888888889],[-107.87916666666666,39.69888888888889],[-107.17916666666667,39.769999999999996],[-107.17916666666667,39.769999999999996],[-107.00583333333333,39.79111111111111],[-107.00583333333333,39.79111111111111],[-106.83388888888888,39.811388888888885],[-106.83388888888888,39.811388888888885],[-106.83388888888888,39.811388888888885],[-106.83388888888888,39.811388888888885],[-106.51972222222223,39.84805555555556],[-106.51972222222223,39.84805555555556],[-106.51972222222223,39.84805555555556],[-106.34555555555555,39.86805555555556],[-106.34555555555555,39.86805555555556],[-106.34555555555555,39.86805555555556],[-105.9925,39.9075],[-105.9925,39.9075],[-105.81583333333333,39.926944444444445],[-105.81583333333333,39.926944444444445],[-105.63166666666666,39.946666666666665],[-105.45361111111112,39.965833333333336],[-105.45361111111112,39.965833333333336],[-105.45361111111112,39.965833333333336],[-105.27555555555556,39.98416666666667],[-105.27555555555556,39.98416666666667],[-104.92583333333334,40.02027777777778],[-104.92583333333334,40.02027777777778],[-104.92583333333334,40.02027777777778],[-104.56277777777777,40.05611111111111],[-104.56277777777777,40.05611111111111],[-104.56277777777777,40.05611111111111],[-104.56277777777777,40.05611111111111],[-104.38444444444445,40.07333333333334],[-104.03416666666666,40.10638888888889],[-104.03416666666666,40.10638888888889],[-103.68444444444445,40.13861111111111],[-103.68444444444445,40.13861111111111],[-103.68444444444445,40.13861111111111],[-103.51138888888889,40.153888888888886],[-103.51138888888889,40.153888888888886],[-102.8025,40.21416666666667],[-102.8025,40.21416666666667],[-102.8025,40.21416666666667],[-102.62805555555555,40.22833333333333],[-102.08138888888888,40.270833333333336],[-102.08138888888888,40.270833333333336],[-102.08138888888888,40.270833333333336],[-101.89583333333334,40.28472222222222],[-101.89583333333334,40.28472222222222],[-101.71333333333334,40.29805555555556],[-101.71333333333334,40.29805555555556],[-101.71333333333334,40.29805555555556],[-101.71333333333334,40.29805555555556],[-101.34833333333333,40.323888888888895],[-101.34833333333333,40.323888888888895],[-100.80472222222222,40.36027777777778],[-100.80472222222222,40.36027777777778],[-100.67611111111111,40.367222222222225],[-100.67611111111111,40.367222222222225],[-100.62555555555555,40.37166666666667],[-100.62555555555555,40.37166666666667],[-100.31055555555555,40.39111111111111],[-100.22833333333334,40.395833333333336],[-100.22833333333334,40.395833333333336],[-100.22833333333334,40.395833333333336],[-100.04472222222222,40.406666666666666],[-100.04472222222222,40.406666666666666],[-100.04472222222222,40.406666666666666],[-99.94083333333333,40.4125],[-99.39361111111111,40.442499999999995],[-99.21083333333334,40.45166666666667],[-98.81138888888889,40.471111111111114],[-98.81138888888889,40.471111111111114],[-98.66055555555556,40.47833333333333],[-97.88944444444445,40.51083333333333],[-97.73388888888888,40.51694444444444],[-97.70305555555557,40.518055555555556],[-97.5475,40.52361111111111],[-97.51638888888888,40.52472222222222],[-96.61527777777778,40.55333333333333],[-96.59027777777777,40.55416666666667],[-96.21694444444445,40.56388888888888],[-95.69027777777778,40.57555555555556],[-95.69027777777778,40.57555555555556],[-95.69027777777778,40.57555555555556],[-94.95333333333333,40.58777777777778],[-94.76777777777778,40.59],[-94.58361111111111,40.594722222222224],[-94.40027777777779,40.62083333333334],[-94.22027777777778,40.650277777777774],[-94.22333333333333,40.65],[-94.22333333333333,40.65],[-94.22333333333333,40.65],[-94.22333333333333,40.65],[-94.0436111111111,40.680277777777775],[-93.50138888888888,40.770833333333336],[-93.50138888888888,40.770833333333336],[-92.95333333333333,40.859722222222224],[-92.76944444444445,40.888888888888886],[-92.76944444444445,40.888888888888886],[-92.77222222222223,40.888333333333335],[-92.58777777777777,40.91722222222222],[-92.58777777777777,40.91722222222222],[-92.58777777777777,40.91722222222222],[-92.40777777777778,40.945277777777775],[-92.22555555555556,40.973055555555554],[-91.89444444444445,41.02166666666667],[-91.67916666666667,41.055],[-91.53583333333333,41.07555555555556],[-91.30722222222222,41.10916666666667],[-91.30722222222222,41.10916666666667],[-91.30722222222222,41.10916666666667],[-90.94777777777779,41.16027777777778],[-90.76722222222222,41.18527777777778],[-90.58472222222221,41.21055555555556],[-90.58472222222221,41.21055555555556],[-90.58472222222221,41.21055555555556],[-90.58472222222221,41.21055555555556],[-89.34222222222222,41.37388888888889],[-89.16166666666668,41.396388888888886],[-89.16166666666668,41.396388888888886],[-89.16166666666668,41.396388888888886],[-88.61972222222222,41.46222222222222],[-88.61972222222222,41.46222222222222],[-88.61972222222222,41.46222222222222],[-88.25305555555556,41.50527777777778],[-88.25305555555556,41.50527777777778],[-88.25305555555556,41.50527777777778],[-87.87694444444443,41.54833333333333],[-87.87694444444443,41.54833333333333],[-86.95055555555555,41.64833333333333],[-86.95055555555555,41.64833333333333],[-86.58555555555554,41.68583333333333],[-85.64500000000001,41.77638888888889],[-85.45416666666667,41.79388888888889],[-85.22638888888889,41.814166666666665],[-84.11333333333333,41.90694444444444],[-84.11333333333333,41.90694444444444],[-83.95555555555556,41.91916666666666],[-83.74444444444444,41.93527777777778],[-83.37277777777777,41.96277777777778],[-83.00611111111111,41.98861111111111],[-82.82194444444444,42.00083333333333],[-82.06916666666666,42.04888888888889],[-82.06916666666666,42.04888888888889],[-81.685,42.07138888888889],[-81.3125,42.091944444444444],[-81.3125,42.091944444444444],[-81.3125,42.091944444444444],[-80.93833333333333,42.111666666666665],[-80.93833333333333,42.111666666666665],[-80.1888888888889,42.14694444444444],[-80.00027777777778,42.155],[-80.00027777777778,42.155],[-79.27916666666667,42.183055555555555],[-79.27916666666667,42.183055555555555],[-78.90777777777778,42.21555555555556],[-78.90777777777778,42.21555555555556],[-78.7063888888889,42.24138888888889],[-78.7063888888889,42.24138888888889],[-78.23194444444445,42.3],[-78.23194444444445,42.3],[-77.86222222222221,42.344166666666666],[-77.42444444444445,42.39472222222222],[-77.1325,42.42777777777778],[-76.9475,42.448055555555555],[-76.9475,42.448055555555555],[-76.57583333333334,42.488055555555555],[-76.57583333333334,42.488055555555555],[-76.39166666666668,42.5075],[-76.32416666666666,42.514722222222225],[-76.17611111111111,42.52972222222222],[-76.17611111111111,42.52972222222222],[-75.80305555555556,42.56722222222223],[-75.76305555555555,42.57138888888889],[-75.61722222222221,42.58555555555556],[-75.5775,42.589444444444446],[-75.5775,42.589444444444446],[-75.39250000000001,42.60722222222223],[-75.16777777777779,42.62861111111111],[-74.8711111111111,42.655833333333334],[-74.8711111111111,42.655833333333334],[-74.8711111111111,42.655833333333334],[-73.57388888888889,42.745555555555555],[-73.3875,42.743611111111115],[-73.3875,42.743611111111115],[-73.02527777777777,42.73083333333334],[-73.02527777777777,42.73083333333334],[-73.02527777777777,42.73083333333334],[-72.51305555555555,42.67027777777778],[-72.51305555555555,42.67027777777778],[-72.51305555555555,42.67027777777778],[-72.08666666666666,42.619166666666665],[-72.08666666666666,42.619166666666665],[-71.9525,42.60277777777778],[-71.81944444444444,42.58638888888889],[-71.81944444444444,42.58638888888889],[-71.45,42.53333333333333],[-71.33999999999999,42.568333333333335],[-71.23055555555555,42.597500000000004],[-71.23055555555555,42.597500000000004],[-71.13333333333334,42.63333333333333],[-71.13333333333334,42.63333333333333],[-70.9038888888889,42.57611111111112],[-70.92611111111111,42.52777777777778],[-70.92611111111111,42.52777777777778],[-70.94638888888889,42.48583333333333],[-70.96361111111112,42.45027777777778],[-70.96361111111112,42.45027777777778],[-70.96361111111112,42.45027777777778],[-70.99194444444444,42.39222222222222]],"type":"LineString"}
}
