{
  "id": 1981571575,
  "type": "Feature",
  "properties": {
    "geom:area": 0,
    "geom:bbox": "-122.792290,37.540330,-122.059980,38.477660",
    "geom:latitude": 37.90343338174424,
    "geom:longitude": -122.51619318907827,
    "src:alt_label": "swim-approach",
    "src:geom": "swim",
    "swim:elevations": [
      7135,
      6771,
      6741,
      6206,
      6125,
      5708,
      5483,
      5392,
      5111,
      4681,
      4483,
      4134,
      3941,
      3446,
      3383,
      3353,
      3353,
      3021,
      2938,
      2761,
      2385,
      2089,
      2022,
      1800,
      1551,
      1466,
      1281,
      955,
      765
    ],
    "swim:geom": "approach",
    "swim:timestamps": [
      1759504908,
      1759504947,
      1759504951,
      1759505006,
      1759505014,
      1759505065,
      1759505093,
      1759505103,
      1759505130,
      1759505171,
      1759505197,
      1759505234,
      1759505255,
      1759505308,
      1759505327,
      1759505368,
      1759505372,
      1759505427,
      1759505437,
      1759505463,
      1759505511,
      1759505548,
      1759505556,
      1759505584,
      1759505619,
      1759505666,
      1759505684,
      1759505728,
      1759505758
    ],
    "wof:geomhash": "abeae4dba45655c6877eb9864fd4a04a",
    "wof:id": 1981571575,
    "wof:repo": "sfomuseum-data-flights-2025-10"
  },
  "bbox": [
    -122.79229,
    37.54033,
    -122.05998,
    38.47766
  ],
  "geometry": {"coordinates":[[-122.79229,38.47766],[-122.78388,38.39132],[-122.78301,38.38253],[-122.77186,38.26721],[-122.77029,38.25058],[-122.74817,38.15652],[-122.73373,38.10642],[-122.72861,38.08906],[-122.71423,38.03973],[-122.6932,37.96824],[-122.68009,37.92431],[-122.64273,37.87087],[-122.61463,37.84422],[-122.54403,37.77746],[-122.52072,37.75517],[-122.46146,37.72167],[-122.45565,37.71936],[-122.377,37.69325],[-122.36208,37.6883],[-122.32524,37.67637],[-122.26227,37.65517],[-122.21303,37.63897],[-122.20281,37.63557],[-122.16652,37.624],[-122.12211,37.61054],[-122.06659,37.5876],[-122.05998,37.56939],[-122.09776,37.54033],[-122.13691,37.54346]],"type":"LineString"}
}
