{
  "id": 1981783357,
  "type": "Feature",
  "properties": {
    "geom:area": 0,
    "geom:bbox": "-122.368390,37.625190,-121.269510,38.410570",
    "geom:latitude": 38.02868521722031,
    "geom:longitude": -121.82833258634581,
    "src:alt_label": "swim-takeoff",
    "src:geom": "swim",
    "swim:elevations": [
      152,
      244,
      529,
      961,
      1533,
      1871,
      3027,
      3087,
      3589,
      3769,
      4291,
      4537,
      4691,
      5137,
      5489,
      5636,
      6396,
      6695,
      6755,
      7035,
      7353,
      7703,
      7929,
      8169
    ],
    "swim:geom": "takeoff",
    "swim:timestamps": [
      1761592048,
      1761592052,
      1761592070,
      1761592106,
      1761592153,
      1761592173,
      1761592225,
      1761592228,
      1761592278,
      1761592297,
      1761592338,
      1761592358,
      1761592370,
      1761592398,
      1761592434,
      1761592446,
      1761592520,
      1761592555,
      1761592563,
      1761592594,
      1761592635,
      1761592674,
      1761592699,
      1761592730
    ],
    "wof:geomhash": "3512658fb17a236da5fc73e58e1d32be",
    "wof:id": 1981783357,
    "wof:repo": "sfomuseum-data-flights-2025-10"
  },
  "bbox": [
    -122.36839,
    37.62519,
    -121.26951,
    38.41057
  ],
  "geometry": {"coordinates":[[-122.36839,37.62519],[-122.36636,37.62828],[-122.35542,37.6372],[-122.32796,37.65351],[-122.27855,37.68292],[-122.25364,37.69713],[-122.19179,37.74129],[-122.18904,37.74437],[-122.13872,37.80111],[-122.11647,37.82592],[-122.06337,37.88225],[-122.02708,37.90698],[-122.00607,37.92004],[-121.9549,37.95532],[-121.88926,38.0007],[-121.86602,38.01605],[-121.72293,38.11282],[-121.65267,38.16021],[-121.63642,38.17119],[-121.57124,38.21497],[-121.48376,38.2735],[-121.39748,38.33083],[-121.34135,38.36687],[-121.26951,38.41057]],"type":"LineString"}
}
