{
  "id": 1981697099,
  "type": "Feature",
  "properties": {
    "geom:area": 0,
    "geom:bbox": "-122.323620,37.658190,-121.243000,37.966070",
    "geom:latitude": 37.84797507194529,
    "geom:longitude": -121.79570059109926,
    "src:alt_label": "swim-takeoff",
    "src:geom": "swim",
    "swim:elevations": [
      808,
      1167,
      1593,
      1700,
      2170,
      2534,
      2898,
      3227,
      3347,
      3385,
      3476,
      3746,
      3882,
      4221,
      4249,
      4658,
      4995,
      5164,
      5459,
      5629,
      5703
    ],
    "swim:geom": "takeoff",
    "swim:timestamps": [
      1760721670,
      1760721718,
      1760721743,
      1760721750,
      1760721783,
      1760721812,
      1760721843,
      1760721875,
      1760721896,
      1760721904,
      1760721930,
      1760721984,
      1760722003,
      1760722048,
      1760722051,
      1760722097,
      1760722136,
      1760722156,
      1760722196,
      1760722221,
      1760722230
    ],
    "wof:geomhash": "09430d74e06a7eb855ce7187d0902b45",
    "wof:id": 1981697099,
    "wof:repo": "sfomuseum-data-flights-2025-10"
  },
  "bbox": [
    -122.32362,
    37.65819,
    -121.243,
    37.96607
  ],
  "geometry": {"coordinates":[[-122.32362,37.65819],[-122.27045,37.68872],[-122.23775,37.7052],[-122.22894,37.70975],[-122.18633,37.73262],[-122.14826,37.75294],[-122.10507,37.77449],[-122.05962,37.79781],[-122.02777,37.81462],[-122.0146,37.82134],[-121.96534,37.83474],[-121.84623,37.85581],[-121.80258,37.86398],[-121.69643,37.88365],[-121.68781,37.88522],[-121.57631,37.90562],[-121.47972,37.92329],[-121.43137,37.93206],[-121.32948,37.95046],[-121.2675,37.96165],[-121.243,37.96607]],"type":"LineString"}
}
