{
  "id": 1981635495,
  "type": "Feature",
  "properties": {
    "geom:area": 0,
    "geom:bbox": "-122.364610,37.631060,-121.265720,38.106620",
    "geom:latitude": 37.86865314603329,
    "geom:longitude": -121.81541019275619,
    "src:alt_label": "swim-takeoff",
    "src:geom": "swim",
    "swim:elevations": [
      213,
      611,
      850,
      1253,
      1648,
      2328,
      2803,
      3412,
      3493,
      3668,
      4153,
      4625,
      4845,
      5424,
      5690,
      6065,
      6358,
      6787,
      7039,
      7295
    ],
    "swim:geom": "takeoff",
    "swim:timestamps": [
      1760108961,
      1760108989,
      1760109008,
      1760109037,
      1760109066,
      1760109105,
      1760109134,
      1760109177,
      1760109186,
      1760109211,
      1760109250,
      1760109284,
      1760109301,
      1760109354,
      1760109372,
      1760109403,
      1760109425,
      1760109470,
      1760109489,
      1760109528
    ],
    "wof:geomhash": "4fcf5e4f04d94af741ff61d834c38f88",
    "wof:id": 1981635495,
    "wof:repo": "sfomuseum-data-flights-2025-10"
  },
  "bbox": [
    -122.36461,
    37.63106,
    -121.26572,
    38.10662
  ],
  "geometry": {"coordinates":[[-122.36461,37.63106],[-122.34217,37.6465],[-122.32236,37.65454],[-122.28699,37.66816],[-122.24699,37.68411],[-122.18883,37.70694],[-122.14231,37.72504],[-122.06983,37.75691],[-122.05324,37.76429],[-122.00576,37.78506],[-121.92309,37.82093],[-121.84948,37.8529],[-121.81233,37.86904],[-121.69293,37.92153],[-121.65007,37.94023],[-121.57675,37.97206],[-121.52371,37.99483],[-121.41341,38.0429],[-121.36529,38.06364],[-121.26572,38.10662]],"type":"LineString"}
}
