{
  "id": 1981728725,
  "type": "Feature",
  "properties": {
    "geom:area": 0,
    "geom:bbox": "-122.355690,37.491680,-121.246800,37.612900",
    "geom:latitude": 37.546662270489456,
    "geom:longitude": -121.80617371267478,
    "src:alt_label": "swim-approach",
    "src:geom": "swim",
    "swim:elevations": [
      5066,
      4568,
      4343,
      4015,
      3499,
      3459,
      3352,
      3223,
      3076,
      2845,
      2686,
      2615,
      2549,
      2459,
      2396,
      2139,
      2063,
      1950,
      1859,
      1830,
      1818,
      1657,
      1275,
      1104,
      912,
      724,
      547,
      397,
      211,
      110,
      0
    ],
    "swim:geom": "approach",
    "swim:timestamps": [
      1761036751,
      1761036801,
      1761036821,
      1761036847,
      1761036898,
      1761036903,
      1761036925,
      1761036948,
      1761036974,
      1761037017,
      1761037040,
      1761037049,
      1761037058,
      1761037070,
      1761037098,
      1761037136,
      1761037155,
      1761037180,
      1761037208,
      1761037224,
      1761037248,
      1761037265,
      1761037307,
      1761037331,
      1761037365,
      1761037406,
      1761037438,
      1761037468,
      1761037497,
      1761037527,
      1761037547
    ],
    "wof:geomhash": "2a76b560fcdc6581493297d82d0ed054",
    "wof:id": 1981728725,
    "wof:repo": "sfomuseum-data-flights-2025-10"
  },
  "bbox": [
    -122.35569,
    37.49168,
    -121.2468,
    37.6129
  ],
  "geometry": {"coordinates":[[-121.2468,37.59498],[-121.33611,37.58425],[-121.3708,37.58042],[-121.41537,37.57544],[-121.50757,37.56449],[-121.51644,37.56348],[-121.55535,37.55899],[-121.59521,37.55434],[-121.63715,37.54771],[-121.70126,37.53241],[-121.73406,37.52465],[-121.74731,37.52158],[-121.76128,37.51824],[-121.77957,37.51387],[-121.81946,37.50418],[-121.87576,37.49207],[-121.90486,37.49168],[-121.94217,37.49272],[-121.98233,37.49447],[-122.00364,37.4997],[-122.03402,37.50974],[-122.05476,37.51664],[-122.10942,37.53363],[-122.13878,37.54293],[-122.18122,37.55697],[-122.22694,37.57179],[-122.26088,37.58275],[-122.29186,37.59172],[-122.31683,37.59876],[-122.34108,37.60673],[-122.35569,37.6129]],"type":"LineString"}
}
