{
  "id": 1981593165,
  "type": "Feature",
  "properties": {
    "geom:area": 0,
    "geom:bbox": "-122.363750,37.632500,-121.245510,37.964690",
    "geom:latitude": 37.83692226142327,
    "geom:longitude": -121.81824677203281,
    "src:alt_label": "swim-takeoff",
    "src:geom": "swim",
    "swim:elevations": [
      183,
      778,
      886,
      1135,
      1464,
      1606,
      2261,
      2355,
      2886,
      3136,
      3463,
      3589,
      3845,
      4126,
      4394,
      4497,
      4841,
      5118,
      5371,
      5495,
      5913,
      6126
    ],
    "swim:geom": "takeoff",
    "swim:timestamps": [
      1759659676,
      1759659716,
      1759659726,
      1759659765,
      1759659802,
      1759659813,
      1759659862,
      1759659870,
      1759659914,
      1759659934,
      1759659985,
      1759660008,
      1759660040,
      1759660073,
      1759660101,
      1759660110,
      1759660154,
      1759660193,
      1759660220,
      1759660232,
      1759660278,
      1759660304
    ],
    "wof:geomhash": "6c918a7c047c6ef1a27c5f0313d62da9",
    "wof:id": 1981593165,
    "wof:repo": "sfomuseum-data-flights-2025-10"
  },
  "bbox": [
    -122.36375,
    37.6325,
    -121.24551,
    37.96469
  ],
  "geometry": {"coordinates":[[-122.36375,37.6325],[-122.33184,37.65337],[-122.32273,37.65759],[-122.28617,37.67896],[-122.24258,37.70297],[-122.2294,37.70979],[-122.16409,37.74338],[-122.1534,37.74875],[-122.09261,37.78038],[-122.06373,37.79518],[-121.97713,37.8253],[-121.93123,37.8333],[-121.86399,37.84635],[-121.79241,37.86231],[-121.7301,37.87423],[-121.70927,37.87805],[-121.60774,37.89685],[-121.51578,37.9141],[-121.4518,37.92612],[-121.42141,37.93183],[-121.30942,37.95269],[-121.24551,37.96469]],"type":"LineString"}
}
