{
  "id": 1981793125,
  "type": "Feature",
  "properties": {
    "geom:area": 0,
    "geom:bbox": "-122.386380,37.624190,-121.265720,38.412060",
    "geom:latitude": 38.07841191585071,
    "geom:longitude": -121.9382174539189,
    "src:alt_label": "swim-takeoff",
    "src:geom": "swim",
    "swim:elevations": [
      122,
      641,
      1087,
      1314,
      1475,
      1875,
      2253,
      2798,
      3078,
      3270,
      3577,
      3998,
      4173,
      4456,
      4941,
      5126,
      5547,
      5973,
      6349,
      6597,
      6712,
      7107,
      7404,
      7557,
      7781,
      7936,
      8126,
      8241,
      8434,
      8534
    ],
    "swim:geom": "takeoff",
    "swim:timestamps": [
      1761719955,
      1761719992,
      1761720028,
      1761720055,
      1761720073,
      1761720114,
      1761720137,
      1761720170,
      1761720188,
      1761720212,
      1761720250,
      1761720281,
      1761720293,
      1761720314,
      1761720355,
      1761720368,
      1761720407,
      1761720437,
      1761720478,
      1761720504,
      1761720516,
      1761720561,
      1761720597,
      1761720622,
      1761720652,
      1761720677,
      1761720711,
      1761720734,
      1761720765,
      1761720780
    ],
    "wof:geomhash": "b3f341a6e07c59e6468bc1e277f46aff",
    "wof:id": 1981793125,
    "wof:repo": "sfomuseum-data-flights-2025-10"
  },
  "bbox": [
    -122.38638,
    37.62419,
    -121.26572,
    38.41206
  ],
  "geometry": {"coordinates":[[-122.36919,37.62419],[-122.34949,37.64465],[-122.32909,37.66257],[-122.31199,37.68023],[-122.31028,37.69702],[-122.33324,37.73987],[-122.3474,37.76639],[-122.36676,37.8057],[-122.3778,37.82776],[-122.38638,37.85999],[-122.38025,37.91942],[-122.34024,37.95766],[-122.3175,37.96701],[-122.27705,37.98333],[-122.19602,38.0162],[-122.16832,38.02731],[-122.08876,38.05925],[-122.0273,38.08379],[-121.94191,38.11788],[-121.88696,38.13984],[-121.8611,38.15011],[-121.76354,38.18882],[-121.68371,38.22041],[-121.62698,38.24284],[-121.55747,38.2704],[-121.49939,38.29344],[-121.41748,38.32551],[-121.36706,38.35045],[-121.29995,38.39085],[-121.26572,38.41206]],"type":"LineString"}
}
