{
  "id": 1981748391,
  "type": "Feature",
  "properties": {
    "geom:area": 0,
    "geom:bbox": "-122.497020,36.759960,-121.249200,37.736040",
    "geom:latitude": 37.25739232886242,
    "geom:longitude": -121.97540107395865,
    "src:alt_label": "swim-takeoff",
    "src:geom": "swim",
    "swim:elevations": [
      122,
      213,
      433,
      500,
      910,
      1366,
      1724,
      1974,
      2546,
      2781,
      3052,
      3229,
      3354,
      3857,
      4015,
      4605,
      4935,
      5098,
      5509,
      5729,
      6073,
      6366,
      6488,
      6571,
      6929,
      7098,
      7423,
      7537,
      7740,
      8087,
      8241,
      8342,
      8653,
      8926
    ],
    "swim:geom": "takeoff",
    "swim:timestamps": [
      1761263698,
      1761263705,
      1761263734,
      1761263751,
      1761263787,
      1761263816,
      1761263843,
      1761263861,
      1761263895,
      1761263914,
      1761263935,
      1761263956,
      1761263979,
      1761264024,
      1761264036,
      1761264090,
      1761264117,
      1761264132,
      1761264178,
      1761264199,
      1761264235,
      1761264264,
      1761264276,
      1761264288,
      1761264328,
      1761264350,
      1761264389,
      1761264403,
      1761264428,
      1761264476,
      1761264500,
      1761264512,
      1761264568,
      1761264609
    ],
    "wof:geomhash": "1cbe733a07fca4f7a2933c649fc56a50",
    "wof:id": 1981748391,
    "wof:repo": "sfomuseum-data-flights-2025-10"
  },
  "bbox": [
    -122.49702,
    36.75996,
    -121.2492,
    37.73604
  ],
  "geometry": {"coordinates":[[-122.36986,37.62764],[-122.36647,37.63253],[-122.36201,37.65591],[-122.36192,37.67287],[-122.37711,37.70859],[-122.41255,37.72817],[-122.45208,37.73604],[-122.47812,37.72631],[-122.49702,37.68557],[-122.48842,37.6616],[-122.47685,37.63385],[-122.46524,37.60494],[-122.45182,37.57009],[-122.39702,37.50888],[-122.37713,37.49551],[-122.28593,37.43267],[-122.23973,37.40074],[-122.21354,37.38255],[-122.13115,37.32554],[-122.09318,37.29916],[-122.02695,37.25291],[-121.97163,37.21563],[-121.94799,37.20085],[-121.92412,37.18606],[-121.84396,37.13606],[-121.79872,37.10784],[-121.71975,37.05824],[-121.69031,37.03976],[-121.63692,37.006],[-121.53563,36.94277],[-121.48496,36.91004],[-121.4609,36.89505],[-121.33833,36.81714],[-121.2492,36.75996]],"type":"LineString"}
}
