{
  "id": 1981633227,
  "type": "Feature",
  "properties": {
    "geom:area": 0,
    "geom:bbox": "-123.141390,37.407560,-122.107010,38.411640",
    "geom:latitude": 37.86969553795618,
    "geom:longitude": -122.57571337340713,
    "src:alt_label": "swim-approach",
    "src:geom": "swim",
    "swim:elevations": [
      7590,
      7468,
      6934,
      6616,
      6535,
      6310,
      6248,
      6162,
      5799,
      5581,
      5407,
      5276,
      5095,
      4908,
      4591,
      4225,
      4056,
      3773,
      3649,
      3502,
      3403,
      3364,
      3353,
      3353,
      3353,
      3362,
      3352,
      3230,
      3146,
      2892,
      2561,
      2383,
      2073,
      1989,
      1631,
      1515,
      1275,
      1236,
      1002,
      942,
      846
    ],
    "swim:geom": "approach",
    "swim:timestamps": [
      1760089528,
      1760089539,
      1760089587,
      1760089615,
      1760089623,
      1760089647,
      1760089665,
      1760089692,
      1760089736,
      1760089760,
      1760089779,
      1760089796,
      1760089814,
      1760089835,
      1760089871,
      1760089910,
      1760089931,
      1760089961,
      1760089977,
      1760089996,
      1760090031,
      1760090042,
      1760090097,
      1760090128,
      1760090157,
      1760090184,
      1760090206,
      1760090242,
      1760090250,
      1760090282,
      1760090327,
      1760090356,
      1760090395,
      1760090406,
      1760090457,
      1760090476,
      1760090515,
      1760090524,
      1760090569,
      1760090580,
      1760090635
    ],
    "wof:geomhash": "0fca94bd9e83c6907e66ade4862364ba",
    "wof:id": 1981633227,
    "wof:repo": "sfomuseum-data-flights-2025-10"
  },
  "bbox": [
    -123.14139,
    37.40756,
    -122.10701,
    38.41164
  ],
  "geometry": {"coordinates":[[-123.14139,38.41164],[-123.11556,38.39894],[-123.00417,38.34324],[-122.94057,38.31128],[-122.92392,38.30297],[-122.87018,38.27608],[-122.83193,38.25699],[-122.78374,38.22367],[-122.74763,38.15747],[-122.73664,38.12087],[-122.72848,38.0919],[-122.72082,38.06472],[-122.71345,38.03865],[-122.70404,38.00565],[-122.6886,37.95246],[-122.66518,37.89418],[-122.63962,37.86743],[-122.60104,37.83095],[-122.58168,37.81301],[-122.55739,37.79039],[-122.51393,37.74955],[-122.50226,37.7386],[-122.4416,37.68102],[-122.40887,37.6502],[-122.37699,37.6202],[-122.35406,37.59159],[-122.34283,37.56726],[-122.32406,37.53281],[-122.3193,37.52486],[-122.30033,37.49448],[-122.27403,37.44966],[-122.25816,37.42095],[-122.21136,37.40756],[-122.19651,37.4093],[-122.13295,37.4272],[-122.12244,37.44367],[-122.10701,37.47731],[-122.10994,37.48472],[-122.13751,37.51621],[-122.14644,37.52203],[-122.19802,37.54382]],"type":"LineString"}
}
