{
  "id": 1981658993,
  "type": "Feature",
  "properties": {
    "geom:area": 0,
    "geom:bbox": "-122.360000,37.444970,-121.258040,37.673170",
    "geom:latitude": 37.54703041450909,
    "geom:longitude": -121.74986858439419,
    "src:alt_label": "swim-approach",
    "src:geom": "swim",
    "swim:elevations": [
      5140,
      4975,
      4838,
      4753,
      4650,
      4584,
      4497,
      4333,
      4209,
      4073,
      4051,
      3790,
      3766,
      3740,
      3635,
      3494,
      3327,
      3166,
      3045,
      2929,
      2870,
      2836,
      2773,
      2619,
      2519,
      2317,
      2256,
      2069,
      1996,
      1879,
      1829,
      1829,
      1796,
      1457,
      1218,
      1133,
      960,
      769,
      649,
      550,
      403,
      386,
      305,
      175,
      124,
      0
    ],
    "swim:geom": "approach",
    "swim:timestamps": [
      1760383076,
      1760383103,
      1760383130,
      1760383143,
      1760383164,
      1760383173,
      1760383194,
      1760383226,
      1760383257,
      1760383284,
      1760383290,
      1760383345,
      1760383348,
      1760383351,
      1760383375,
      1760383400,
      1760383427,
      1760383461,
      1760383492,
      1760383519,
      1760383528,
      1760383534,
      1760383550,
      1760383578,
      1760383600,
      1760383638,
      1760383652,
      1760383698,
      1760383713,
      1760383738,
      1760383765,
      1760383792,
      1760383804,
      1760383849,
      1760383887,
      1760383912,
      1760383941,
      1760383977,
      1760384003,
      1760384032,
      1760384065,
      1760384070,
      1760384087,
      1760384122,
      1760384136,
      1760384164
    ],
    "wof:geomhash": "830fade548914fe2383886fd117daf25",
    "wof:id": 1981658993,
    "wof:repo": "sfomuseum-data-flights-2025-10"
  },
  "bbox": [
    -122.36,
    37.44497,
    -121.25804,
    37.67317
  ],
  "geometry": {"coordinates":[[-121.25804,37.58152],[-121.27462,37.54754],[-121.28517,37.51105],[-121.29034,37.49309],[-121.30052,37.46662],[-121.3094,37.45724],[-121.34008,37.44497],[-121.39298,37.45802],[-121.42318,37.4984],[-121.44337,37.53671],[-121.44779,37.54518],[-121.4927,37.61936],[-121.49572,37.62314],[-121.4988,37.62687],[-121.52528,37.65657],[-121.56178,37.67317],[-121.60538,37.66496],[-121.646,37.63733],[-121.67756,37.61002],[-121.70317,37.58843],[-121.71144,37.58134],[-121.71695,37.57672],[-121.73119,37.56468],[-121.75647,37.54301],[-121.77612,37.52626],[-121.81587,37.50532],[-121.832,37.50144],[-121.88852,37.49156],[-121.90759,37.49273],[-121.93817,37.49455],[-121.97214,37.49641],[-122.0078,37.49845],[-122.02318,37.49938],[-122.0785,37.50239],[-122.12298,37.515],[-122.15122,37.52675],[-122.18222,37.53999],[-122.21731,37.55476],[-122.23797,37.5634],[-122.26005,37.57271],[-122.28501,37.58315],[-122.28878,37.58475],[-122.30257,37.59053],[-122.32896,37.60166],[-122.33921,37.60609],[-122.36,37.61484]],"type":"LineString"}
}
