{
  "id": 1981735799,
  "type": "Feature",
  "properties": {
    "geom:area": 0,
    "geom:bbox": "-122.345278,37.566667,-83.367222,42.558889",
    "geom:latitude": 40.91304465801185,
    "geom:longitude": -102.94759801231284,
    "src:alt_label": "swim-path",
    "src:geom": "swim",
    "swim:altitudes": [
      "012",
      "044",
      "095",
      "154",
      "195",
      "195",
      "255",
      "255",
      "289",
      "307",
      "307",
      "320C",
      "320C",
      "320C",
      "320C",
      "320C",
      "320C",
      "320C",
      "320C",
      "320C",
      "320C",
      "320C",
      "320C",
      "320C",
      "320C",
      "320C",
      "320C",
      "320C",
      "320C",
      "320C",
      "320C",
      "320C",
      "320C",
      "320C",
      "320C",
      "320C",
      "320C",
      "320C",
      "320C",
      "320C",
      "320C",
      "320C",
      "320C",
      "320C",
      "320C",
      "320C",
      "320C",
      "320C",
      "320C",
      "320C",
      "320C",
      "320C",
      "320C",
      "320C",
      "320C",
      "306",
      "306",
      "300C",
      "300C",
      "300C",
      "300C",
      "300C",
      "300C",
      "300C",
      "300C",
      "300",
      "300",
      "300",
      "314",
      "340C",
      "340C",
      "340C",
      "340C",
      "340C",
      "340C",
      "340C",
      "340C",
      "340C",
      "340C",
      "340C",
      "340C",
      "340C",
      "340C",
      "340C",
      "340C",
      "340C",
      "340C",
      "340C",
      "340C",
      "340C",
      "340C",
      "340C",
      "340C",
      "340C",
      "340C",
      "340C",
      "340C",
      "340C",
      "340C",
      "340C",
      "340C",
      "340C",
      "340C",
      "340C",
      "349",
      "358C",
      "360C",
      "360C",
      "360C",
      "360C",
      "360C",
      "360C",
      "360C",
      "360C",
      "360C",
      "360C",
      "360C",
      "360C",
      "360C",
      "360C",
      "360C",
      "360C",
      "360C",
      "360C",
      "360C",
      "360C",
      "360C",
      "360C",
      "360C",
      "360C",
      "360C",
      "360C",
      "360C",
      "360C",
      "360C",
      "360C",
      "360C",
      "360C",
      "282",
      "275",
      "253",
      "151",
      "131",
      "111",
      "018",
      "003",
      "003"
    ],
    "swim:geom": "path",
    "swim:speeds": [
      169,
      235,
      251,
      317,
      333,
      333,
      375,
      375,
      400,
      412,
      412,
      422,
      422,
      418,
      418,
      418,
      414,
      414,
      413,
      413,
      412,
      410,
      408,
      405,
      404,
      403,
      400,
      394,
      394,
      394,
      397,
      397,
      397,
      394,
      394,
      394,
      378,
      374,
      371,
      366,
      362,
      350,
      349,
      344,
      342,
      342,
      342,
      342,
      345,
      349,
      349,
      350,
      350,
      355,
      362,
      372,
      372,
      390,
      394,
      396,
      399,
      399,
      401,
      409,
      410,
      415,
      416,
      416,
      409,
      393,
      393,
      395,
      393,
      393,
      394,
      397,
      400,
      400,
      402,
      399,
      400,
      398,
      396,
      396,
      396,
      396,
      397,
      387,
      383,
      385,
      386,
      388,
      387,
      386,
      385,
      385,
      387,
      387,
      390,
      394,
      394,
      393,
      392,
      392,
      395,
      395,
      389,
      389,
      388,
      388,
      389,
      389,
      388,
      388,
      387,
      383,
      383,
      383,
      417,
      417,
      426,
      438,
      440,
      440,
      442,
      442,
      440,
      436,
      437,
      440,
      450,
      450,
      450,
      448,
      452,
      451,
      451,
      449,
      433,
      432,
      417,
      374,
      363,
      352,
      159,
      141,
      141
    ],
    "swim:timestamps": [
      1761180077,
      1761180194,
      1761180308,
      1761180488,
      1761180609,
      1761180609,
      1761180849,
      1761180849,
      1761181029,
      1761181155,
      1761181155,
      1761181275,
      1761181275,
      1761181690,
      1761181690,
      1761181690,
      1761181870,
      1761181870,
      1761182171,
      1761182291,
      1761182411,
      1761182471,
      1761182531,
      1761182651,
      1761182764,
      1761182832,
      1761182952,
      1761183124,
      1761183124,
      1761183124,
      1761183365,
      1761183552,
      1761183552,
      1761183673,
      1761183673,
      1761183673,
      1761183913,
      1761184093,
      1761184206,
      1761184266,
      1761184333,
      1761184506,
      1761184514,
      1761184634,
      1761184807,
      1761184807,
      1761184927,
      1761184927,
      1761185107,
      1761185347,
      1761185407,
      1761185467,
      1761185467,
      1761185648,
      1761185888,
      1761186008,
      1761186008,
      1761186292,
      1761186352,
      1761186489,
      1761186592,
      1761186592,
      1761186652,
      1761186772,
      1761186789,
      1761186953,
      1761187013,
      1761187029,
      1761187073,
      1761187328,
      1761187328,
      1761187373,
      1761187510,
      1761187510,
      1761187749,
      1761187929,
      1761187974,
      1761187974,
      1761188034,
      1761188109,
      1761188154,
      1761188289,
      1761188349,
      1761188349,
      1761188650,
      1761188650,
      1761188831,
      1761189176,
      1761189312,
      1761189596,
      1761189672,
      1761189716,
      1761189853,
      1761190017,
      1761190077,
      1761190093,
      1761190317,
      1761190317,
      1761190454,
      1761190618,
      1761190634,
      1761190858,
      1761191055,
      1761191055,
      1761191236,
      1761191296,
      1761191596,
      1761191759,
      1761191836,
      1761191836,
      1761192255,
      1761192255,
      1761192616,
      1761192616,
      1761192676,
      1761192977,
      1761193037,
      1761193037,
      1761193395,
      1761193395,
      1761193515,
      1761193696,
      1761193816,
      1761193875,
      1761193956,
      1761193956,
      1761194136,
      1761194237,
      1761194476,
      1761194536,
      1761194736,
      1761194736,
      1761194796,
      1761194896,
      1761195136,
      1761195217,
      1761195217,
      1761195337,
      1761195911,
      1761195937,
      1761195997,
      1761196298,
      1761196350,
      1761196409,
      1761196943,
      1761197078,
      1761197078
    ],
    "wof:geomhash": "ec0a9601450acacd7110cee533846490",
    "wof:id": 1981735799,
    "wof:repo": "sfomuseum-data-flights-2025-10"
  },
  "bbox": [
    -122.34527777777777,
    37.56666666666667,
    -83.36722222222221,
    42.55888888888889
  ],
  "geometry": {"coordinates":[[-83.36722222222221,42.20611111111111],[-83.46833333333333,42.14388888888889],[-83.63694444444445,42.19611111111111],[-83.94777777777779,42.27111111111111],[-84.19083333333333,42.314166666666665],[-84.19083333333333,42.314166666666665],[-84.715,42.405],[-84.715,42.405],[-85.15194444444445,42.45055555555556],[-85.45972222222223,42.45638888888889],[-85.45972222222223,42.45638888888889],[-85.7786111111111,42.461666666666666],[-85.7786111111111,42.461666666666666],[-86.86361111111111,42.37138888888889],[-86.86361111111111,42.37138888888889],[-86.86361111111111,42.37138888888889],[-87.3261111111111,42.35277777777778],[-87.3261111111111,42.35277777777778],[-88.1086111111111,42.39722222222222],[-88.41805555555555,42.41361111111111],[-88.72583333333334,42.42833333333333],[-88.88083333333333,42.43583333333333],[-89.03194444444445,42.44277777777778],[-89.33416666666666,42.45583333333334],[-89.59833333333333,42.46666666666667],[-89.78916666666666,42.474444444444444],[-90.0786111111111,42.48527777777778],[-90.49305555555556,42.49916666666667],[-90.49305555555556,42.49916666666667],[-90.49305555555556,42.49916666666667],[-91.08749999999999,42.51694444444444],[-91.56944444444444,42.528888888888886],[-91.56944444444444,42.528888888888886],[-91.86888888888888,42.535555555555554],[-91.86888888888888,42.535555555555554],[-91.86888888888888,42.535555555555554],[-92.44027777777778,42.54555555555555],[-92.86194444444443,42.551111111111105],[-93.11277777777777,42.553888888888885],[-93.24972222222222,42.555],[-93.41083333333334,42.55638888888888],[-93.78194444444445,42.558055555555555],[-93.80777777777777,42.55833333333333],[-94.06416666666667,42.55888888888889],[-94.42444444444445,42.558611111111105],[-94.42444444444445,42.558611111111105],[-94.67444444444445,42.55777777777777],[-94.67444444444445,42.55777777777777],[-95.06222222222222,42.55555555555555],[-95.58583333333333,42.55027777777777],[-95.71583333333334,42.54861111111111],[-95.84888888888888,42.54694444444444],[-95.84888888888888,42.54694444444444],[-96.27361111111111,42.54],[-96.81666666666666,42.52861111111111],[-97.09583333333333,42.52194444444444],[-97.09583333333333,42.52194444444444],[-97.77722222222222,42.50388888888889],[-97.93416666666667,42.4975],[-98.25472222222223,42.486666666666665],[-98.53277777777778,42.47638888888889],[-98.53277777777778,42.47638888888889],[-98.67361111111111,42.471111111111114],[-98.97805555555556,42.44138888888889],[-99.01194444444444,42.43805555555555],[-99.44250000000001,42.39361111111111],[-99.59805555555555,42.37694444444445],[-99.63055555555555,42.37361111111111],[-99.75027777777778,42.36083333333333],[-100.37555555555555,42.290277777777774],[-100.37555555555555,42.290277777777774],[-100.4775,42.2725],[-100.79055555555556,42.218333333333334],[-100.79055555555556,42.218333333333334],[-101.3786111111111,42.11138888888889],[-101.81361111111111,42.03194444444444],[-101.91194444444444,42.01611111111111],[-101.91194444444444,42.01611111111111],[-102.05611111111111,41.98916666666667],[-102.25,41.95138888888889],[-102.36472222222221,41.93111111111111],[-102.67777777777778,41.86944444444445],[-102.81805555555555,41.8425],[-102.81805555555555,41.8425],[-103.53166666666667,41.702222222222225],[-103.53166666666667,41.702222222222225],[-103.95916666666668,41.61361111111111],[-104.76444444444445,41.44583333333333],[-105.05722222222222,41.382222222222225],[-105.685,41.24444444444445],[-105.87333333333332,41.2025],[-105.96055555555556,41.1825],[-106.28444444444445,41.10777777777778],[-106.66361111111112,41.020833333333336],[-106.7975,40.989444444444445],[-106.82472222222222,40.981944444444444],[-107.3386111111111,40.86083333333333],[-107.3386111111111,40.86083333333333],[-107.64,40.78777777777778],[-108.02722222222222,40.69277777777778],[-108.05416666666666,40.68611111111111],[-108.56916666666666,40.55694444444444],[-109.00166666666667,40.44638888888888],[-109.00166666666667,40.44638888888888],[-109.4075,40.34055555555556],[-109.54333333333334,40.305],[-110.20916666666668,40.12083333333334],[-110.56722222222221,39.9975],[-110.7213888888889,39.943888888888885],[-110.7213888888889,39.943888888888885],[-111.62694444444443,39.623333333333335],[-111.62694444444443,39.623333333333335],[-112.36055555555555,39.3125],[-112.36055555555555,39.3125],[-112.47361111111111,39.25],[-113.01361111111112,38.94416666666666],[-113.12333333333332,38.8825],[-113.12333333333332,38.8825],[-113.97333333333333,38.74805555555556],[-113.97333333333333,38.74805555555556],[-114.27055555555556,38.706944444444446],[-114.75444444444445,38.638333333333335],[-115.06166666666667,38.587500000000006],[-115.21222222222222,38.56222222222222],[-115.39694444444446,38.52916666666667],[-115.39694444444446,38.52916666666667],[-115.85,38.44916666666666],[-116.09388888888888,38.408055555555556],[-116.69500000000001,38.29861111111111],[-116.84583333333333,38.27055555555555],[-117.37249999999999,38.17111111111111],[-117.37249999999999,38.17111111111111],[-117.51416666666667,38.14416666666666],[-117.78444444444445,38.09138888888889],[-118.40277777777779,37.969166666666666],[-118.61972222222222,37.92527777777777],[-118.61972222222222,37.92527777777777],[-118.89666666666668,37.880833333333335],[-120.4,37.7],[-120.44111111111111,37.69472222222222],[-120.58444444444444,37.67805555555555],[-121.24277777777777,37.59527777777778],[-121.36666666666666,37.583333333333336],[-121.5,37.56666666666667],[-122.25,37.583333333333336],[-122.34527777777777,37.60861111111111],[-122.34527777777777,37.60861111111111]],"type":"LineString"}
}
