{
  "id": 1981780275,
  "type": "Feature",
  "properties": {
    "geom:area": 0,
    "geom:bbox": "-122.300000,35.872222,-115.351111,37.641389",
    "geom:latitude": 37.176770959428445,
    "geom:longitude": -118.65013035830519,
    "src:alt_label": "swim-path",
    "src:geom": "swim",
    "swim:altitudes": [
      "109",
      "109",
      "161",
      "161",
      "235",
      "235",
      "235",
      "294",
      "294",
      "294",
      "346",
      "346",
      "353",
      "353",
      "353",
      "359C",
      "359C",
      "380C",
      "380C",
      "380",
      "380",
      "380",
      "377",
      "377",
      "358",
      "358",
      "352",
      "348",
      "340C",
      "340C",
      "340C",
      "340C",
      "340C",
      "340C",
      "340C",
      "340C",
      "340C",
      "340C",
      "340C",
      "340C",
      "340C",
      "340C",
      "340C",
      "340C",
      "221",
      "221",
      "221",
      "221",
      "186",
      "186",
      "104",
      "104",
      "104",
      "104",
      "076",
      "076",
      "067",
      "067",
      "067",
      "063",
      "057",
      "037",
      "037",
      "037",
      "037",
      "015",
      "015",
      "009",
      "009",
      "009",
      "009",
      "009",
      "009"
    ],
    "swim:geom": "path",
    "swim:speeds": [
      325,
      325,
      373,
      373,
      396,
      396,
      396,
      416,
      416,
      416,
      408,
      408,
      411,
      411,
      411,
      407,
      407,
      412,
      412,
      413,
      413,
      413,
      411,
      411,
      393,
      393,
      387,
      387,
      397,
      397,
      397,
      397,
      397,
      400,
      400,
      399,
      399,
      399,
      398,
      398,
      398,
      399,
      399,
      399,
      358,
      358,
      358,
      358,
      339,
      339,
      320,
      320,
      320,
      320,
      262,
      262,
      256,
      256,
      256,
      248,
      206,
      189,
      189,
      189,
      189,
      177,
      177,
      139,
      139,
      139,
      139,
      139,
      139
    ],
    "swim:timestamps": [
      1761603906,
      1761603906,
      1761604026,
      1761604026,
      1761604206,
      1761604206,
      1761604206,
      1761604387,
      1761604387,
      1761604387,
      1761604567,
      1761604567,
      1761604601,
      1761604601,
      1761604601,
      1761604627,
      1761604627,
      1761604927,
      1761604927,
      1761605048,
      1761605048,
      1761605108,
      1761605168,
      1761605168,
      1761605262,
      1761605262,
      1761605288,
      1761605322,
      1761605408,
      1761605408,
      1761605408,
      1761605408,
      1761605408,
      1761605562,
      1761605562,
      1761605709,
      1761605709,
      1761605742,
      1761605769,
      1761605769,
      1761605769,
      1761605889,
      1761605889,
      1761605889,
      1761606764,
      1761606764,
      1761606764,
      1761606764,
      1761606859,
      1761606859,
      1761607124,
      1761607124,
      1761607124,
      1761607124,
      1761607273,
      1761607273,
      1761607333,
      1761607333,
      1761607333,
      1761607364,
      1761607424,
      1761607518,
      1761607518,
      1761607518,
      1761607518,
      1761607665,
      1761607665,
      1761607698,
      1761607698,
      1761607698,
      1761607698,
      1761607698,
      1761607698
    ],
    "wof:geomhash": "29e159d9e8c552662880599d1f576429",
    "wof:id": 1981780275,
    "wof:repo": "sfomuseum-data-flights-2025-10"
  },
  "bbox": [
    -122.3,
    35.87222222222222,
    -115.35111111111111,
    37.64138888888889
  ],
  "geometry": {"coordinates":[[-115.35111111111111,35.98166666666667],[-115.35111111111111,35.98166666666667],[-115.5261111111111,35.87222222222222],[-115.5261111111111,35.87222222222222],[-115.92111111111112,35.897777777777776],[-115.92111111111112,35.897777777777776],[-115.92111111111112,35.897777777777776],[-116.23166666666667,36.1325],[-116.23166666666667,36.1325],[-116.23166666666667,36.1325],[-116.53194444444445,36.378055555555555],[-116.53194444444445,36.378055555555555],[-116.58555555555554,36.42305555555555],[-116.58555555555554,36.42305555555555],[-116.58555555555554,36.42305555555555],[-116.62805555555555,36.45888888888889],[-116.62805555555555,36.45888888888889],[-117.05444444444444,36.90611111111111],[-117.05444444444444,36.90611111111111],[-117.18722222222223,37.11027777777778],[-117.18722222222223,37.11027777777778],[-117.25361111111111,37.211666666666666],[-117.325,37.31111111111111],[-117.325,37.31111111111111],[-117.4525,37.43111111111111],[-117.4525,37.43111111111111],[-117.50527777777778,37.47805555555556],[-117.55555555555556,37.49638888888889],[-117.77666666666667,37.515277777777776],[-117.77666666666667,37.515277777777776],[-117.77666666666667,37.515277777777776],[-117.77666666666667,37.515277777777776],[-117.77666666666667,37.515277777777776],[-118.11472222222221,37.54222222222222],[-118.11472222222221,37.54222222222222],[-118.46555555555555,37.56944444444445],[-118.46555555555555,37.56944444444445],[-118.53138888888888,37.57416666666667],[-118.58694444444444,37.57805555555556],[-118.58694444444444,37.57805555555556],[-118.58694444444444,37.57805555555556],[-118.86666666666666,37.59861111111111],[-118.86666666666666,37.59861111111111],[-118.86666666666666,37.59861111111111],[-120.89277777777778,37.64138888888889],[-120.89277777777778,37.64138888888889],[-120.89277777777778,37.64138888888889],[-120.89277777777778,37.64138888888889],[-121.1,37.61666666666667],[-121.1,37.61666666666667],[-121.57833333333333,37.55611111111111],[-121.57833333333333,37.55611111111111],[-121.57833333333333,37.55611111111111],[-121.57833333333333,37.55611111111111],[-121.83333333333333,37.5],[-121.83333333333333,37.5],[-121.91666666666667,37.5],[-121.91666666666667,37.5],[-121.91666666666667,37.5],[-121.95,37.49305555555556],[-122.02277777777778,37.50611111111111],[-122.13333333333334,37.53333333333333],[-122.13333333333334,37.53333333333333],[-122.13333333333334,37.53333333333333],[-122.13333333333334,37.53333333333333],[-122.2725,37.58638888888889],[-122.2725,37.58638888888889],[-122.3,37.6],[-122.3,37.6],[-122.3,37.6],[-122.3,37.6],[-122.3,37.6],[-122.3,37.6]],"type":"LineString"}
}
