{
  "id": 1981676185,
  "type": "Feature",
  "properties": {
    "geom:area": 0,
    "geom:bbox": "-122.364590,37.491900,-121.304700,37.614340",
    "geom:latitude": 37.54098447236283,
    "geom:longitude": -121.84122942355658,
    "src:alt_label": "swim-approach",
    "src:geom": "swim",
    "swim:elevations": [
      4411,
      4154,
      3924,
      3643,
      3552,
      3272,
      3138,
      3019,
      2726,
      2705,
      2260,
      2114,
      1858,
      1802,
      1609,
      1456,
      1381,
      1202,
      1041,
      899,
      766,
      687,
      553,
      455,
      333,
      220,
      80,
      0
    ],
    "swim:geom": "approach",
    "swim:timestamps": [
      1760541028,
      1760541056,
      1760541080,
      1760541112,
      1760541121,
      1760541151,
      1760541189,
      1760541221,
      1760541267,
      1760541270,
      1760541345,
      1760541370,
      1760541416,
      1760541429,
      1760541465,
      1760541497,
      1760541511,
      1760541542,
      1760541574,
      1760541604,
      1760541630,
      1760541646,
      1760541673,
      1760541694,
      1760541725,
      1760541751,
      1760541792,
      1760541815
    ],
    "wof:geomhash": "c0c0736c6d8eadfa7ead64ca9ff8c60f",
    "wof:id": 1981676185,
    "wof:repo": "sfomuseum-data-flights-2025-10"
  },
  "bbox": [
    -122.36459,
    37.4919,
    -121.3047,
    37.61434
  ],
  "geometry": {"coordinates":[[-121.3047,37.58758],[-121.35958,37.58167],[-121.40609,37.57649],[-121.46841,37.56924],[-121.48665,37.56715],[-121.54122,37.56056],[-121.61129,37.55223],[-121.66223,37.54167],[-121.73309,37.52485],[-121.73771,37.52375],[-121.84791,37.49745],[-121.88416,37.4919],[-121.94982,37.49669],[-121.96789,37.49827],[-122.01522,37.50232],[-122.05756,37.50555],[-122.07616,37.50715],[-122.11689,37.51141],[-122.15379,37.52561],[-122.18556,37.53902],[-122.21105,37.54977],[-122.22575,37.556],[-122.2511,37.56668],[-122.27094,37.57504],[-122.29642,37.58568],[-122.31625,37.59397],[-122.34729,37.60703],[-122.36459,37.61434]],"type":"LineString"}
}
