{
  "id": 1981717939,
  "type": "Feature",
  "properties": {
    "geom:area": 0,
    "geom:bbox": "-122.108056,32.861944,-117.415000,37.347500",
    "geom:latitude": 34.95293448849027,
    "geom:longitude": -119.9420074526779,
    "src:alt_label": "swim-path",
    "src:geom": "swim",
    "swim:altitudes": [
      "095",
      "095",
      "095",
      "095",
      "095",
      "113",
      "143",
      "143",
      "143",
      "143",
      "194",
      "194",
      "194",
      "194",
      "248",
      "248",
      "248",
      "294",
      "294",
      "305",
      "305",
      "305",
      "340C",
      "340C",
      "340C",
      "340C",
      "340C",
      "340C",
      "340C",
      "340C",
      "340C",
      "340C",
      "340C",
      "340C",
      "340C",
      "340C",
      "340C",
      "340C",
      "340C",
      "340C",
      "340C",
      "340",
      "340",
      "340",
      "340",
      "208",
      "208",
      "208",
      "192",
      "192",
      "192",
      "177",
      "177",
      "177",
      "137",
      "137",
      "137",
      "137",
      "137",
      "137",
      "075",
      "075",
      "075",
      "075",
      "071",
      "071",
      "071",
      "071",
      "071",
      "071",
      "071"
    ],
    "swim:geom": "path",
    "swim:speeds": [
      287,
      287,
      287,
      287,
      287,
      366,
      401,
      401,
      401,
      401,
      440,
      440,
      440,
      440,
      477,
      477,
      477,
      499,
      499,
      499,
      499,
      499,
      483,
      483,
      483,
      494,
      494,
      494,
      494,
      494,
      494,
      494,
      494,
      486,
      486,
      486,
      486,
      488,
      488,
      488,
      488,
      487,
      487,
      487,
      487,
      406,
      406,
      406,
      395,
      395,
      395,
      380,
      380,
      380,
      362,
      362,
      362,
      362,
      362,
      362,
      241,
      241,
      241,
      241,
      244,
      244,
      244,
      244,
      244,
      244,
      244
    ],
    "swim:timestamps": [
      1760989010,
      1760989010,
      1760989010,
      1760989010,
      1760989010,
      1760989071,
      1760989131,
      1760989131,
      1760989131,
      1760989131,
      1760989251,
      1760989251,
      1760989251,
      1760989251,
      1760989431,
      1760989431,
      1760989431,
      1760989671,
      1760989671,
      1760989732,
      1760989732,
      1760989732,
      1760990029,
      1760990029,
      1760990029,
      1760990149,
      1760990149,
      1760990149,
      1760990149,
      1760990149,
      1760990149,
      1760990269,
      1760990269,
      1760990630,
      1760990630,
      1760990630,
      1760990630,
      1760990750,
      1760990750,
      1760990750,
      1760990750,
      1760990870,
      1760990870,
      1760990870,
      1760990870,
      1760991336,
      1760991336,
      1760991336,
      1760991411,
      1760991411,
      1760991411,
      1760991456,
      1760991456,
      1760991456,
      1760991591,
      1760991591,
      1760991591,
      1760991591,
      1760991591,
      1760991591,
      1760991876,
      1760991876,
      1760991876,
      1760991876,
      1760991891,
      1760991891,
      1760991891,
      1760991891,
      1760991891,
      1760991891,
      1760991891
    ],
    "wof:geomhash": "92ef4d87875e4274a9c62e4db72081b8",
    "wof:id": 1981717939,
    "wof:repo": "sfomuseum-data-flights-2025-10"
  },
  "bbox": [
    -122.10805555555555,
    32.86194444444445,
    -117.415,
    37.347500000000004
  ],
  "geometry": {"coordinates":[[-117.415,32.86194444444445],[-117.415,32.86194444444445],[-117.415,32.86194444444445],[-117.415,32.86194444444445],[-117.415,32.86194444444445],[-117.51305555555555,32.92472222222222],[-117.61638888888888,32.99111111111111],[-117.61638888888888,32.99111111111111],[-117.61638888888888,32.99111111111111],[-117.61638888888888,32.99111111111111],[-117.82138888888889,33.15361111111111],[-117.82138888888889,33.15361111111111],[-117.82138888888889,33.15361111111111],[-117.82138888888889,33.15361111111111],[-118.14805555555556,33.433055555555555],[-118.14805555555556,33.433055555555555],[-118.14805555555556,33.433055555555555],[-118.63055555555555,33.7825],[-118.63055555555555,33.7825],[-118.75805555555556,33.87277777777778],[-118.75805555555556,33.87277777777778],[-118.75805555555556,33.87277777777778],[-119.34333333333333,34.35666666666667],[-119.34333333333333,34.35666666666667],[-119.34333333333333,34.35666666666667],[-119.56944444444444,34.556666666666665],[-119.56944444444444,34.556666666666665],[-119.56944444444444,34.556666666666665],[-119.56944444444444,34.556666666666665],[-119.56944444444444,34.556666666666665],[-119.56944444444444,34.556666666666665],[-119.79861111111111,34.75388888888889],[-119.79861111111111,34.75388888888889],[-120.48916666666666,35.34138888888889],[-120.48916666666666,35.34138888888889],[-120.48916666666666,35.34138888888889],[-120.48916666666666,35.34138888888889],[-120.70944444444444,35.52583333333333],[-120.70944444444444,35.52583333333333],[-120.70944444444444,35.52583333333333],[-120.70944444444444,35.52583333333333],[-120.93944444444445,35.72027777777778],[-120.93944444444445,35.72027777777778],[-120.93944444444445,35.72027777777778],[-120.93944444444445,35.72027777777778],[-121.73333333333333,36.53333333333333],[-121.73333333333333,36.53333333333333],[-121.73333333333333,36.53333333333333],[-121.80888888888889,36.63472222222222],[-121.80888888888889,36.63472222222222],[-121.80888888888889,36.63472222222222],[-121.86666666666666,36.71666666666667],[-121.86666666666666,36.71666666666667],[-121.86666666666666,36.71666666666667],[-121.94388888888889,36.91916666666666],[-121.94388888888889,36.91916666666666],[-121.94388888888889,36.91916666666666],[-121.94388888888889,36.91916666666666],[-121.94388888888889,36.91916666666666],[-121.94388888888889,36.91916666666666],[-122.1,37.333333333333336],[-122.1,37.333333333333336],[-122.1,37.333333333333336],[-122.1,37.333333333333336],[-122.10805555555555,37.347500000000004],[-122.10805555555555,37.347500000000004],[-122.10805555555555,37.347500000000004],[-122.10805555555555,37.347500000000004],[-122.10805555555555,37.347500000000004],[-122.10805555555555,37.347500000000004],[-122.10805555555555,37.347500000000004]],"type":"LineString"}
}
