{
  "id": 1981613841,
  "type": "Feature",
  "properties": {
    "geom:area": 0,
    "geom:bbox": "-123.092610,37.446310,-122.115420,38.438390",
    "geom:latitude": 37.85910315824355,
    "geom:longitude": -122.55116458008607,
    "src:alt_label": "swim-approach",
    "src:geom": "swim",
    "swim:elevations": [
      7590,
      7301,
      6920,
      6776,
      6311,
      6124,
      5895,
      5737,
      5378,
      5248,
      5006,
      4677,
      4292,
      4252,
      3884,
      3767,
      3602,
      3476,
      3355,
      3353,
      3353,
      3339,
      3256,
      3116,
      2921,
      2710,
      2333,
      2133,
      1817,
      1792,
      1393,
      1215,
      1151,
      939,
      760,
      644,
      549,
      456,
      319,
      188,
      135,
      23
    ],
    "swim:geom": "approach",
    "swim:timestamps": [
      1759948037,
      1759948065,
      1759948103,
      1759948115,
      1759948161,
      1759948194,
      1759948226,
      1759948244,
      1759948286,
      1759948301,
      1759948329,
      1759948365,
      1759948407,
      1759948411,
      1759948469,
      1759948486,
      1759948513,
      1759948536,
      1759948588,
      1759948611,
      1759948623,
      1759948674,
      1759948692,
      1759948717,
      1759948749,
      1759948785,
      1759948828,
      1759948851,
      1759948885,
      1759948890,
      1759948947,
      1759948977,
      1759948997,
      1759949032,
      1759949068,
      1759949096,
      1759949120,
      1759949143,
      1759949182,
      1759949216,
      1759949238,
      1759949265
    ],
    "wof:geomhash": "fa83775839a2040c23b35e35cab3e09c",
    "wof:id": 1981613841,
    "wof:repo": "sfomuseum-data-flights-2025-10"
  },
  "bbox": [
    -123.09261,
    37.44631,
    -122.11542,
    38.43839
  ],
  "geometry": {"coordinates":[[-123.09261,38.43839],[-123.03536,38.40202],[-122.96296,38.3542],[-122.93928,38.33863],[-122.8531,38.28148],[-122.79204,38.24068],[-122.75695,38.19366],[-122.75025,38.16361],[-122.73118,38.09777],[-122.72393,38.07371],[-122.71059,38.02849],[-122.69443,37.97295],[-122.6757,37.90854],[-122.67227,37.90144],[-122.59909,37.82981],[-122.57662,37.80846],[-122.543,37.77658],[-122.51489,37.75001],[-122.4555,37.69396],[-122.43149,37.67146],[-122.41792,37.65868],[-122.3667,37.61054],[-122.35308,37.59307],[-122.33968,37.56665],[-122.32227,37.53292],[-122.2999,37.49586],[-122.24994,37.46914],[-122.21995,37.46007],[-122.17623,37.44771],[-122.17098,37.44631],[-122.11542,37.47091],[-122.12777,37.49886],[-122.14246,37.51445],[-122.17567,37.53462],[-122.21063,37.54958],[-122.23532,37.56003],[-122.25405,37.56793],[-122.27091,37.57494],[-122.2989,37.58676],[-122.32278,37.59678],[-122.33792,37.60313],[-122.35668,37.61106]],"type":"LineString"}
}
