{
  "id": 1981562797,
  "type": "Feature",
  "properties": {
    "geom:area": 0,
    "geom:bbox": "-122.354980,37.491590,-121.256080,37.612600",
    "geom:latitude": 37.54635525473395,
    "geom:longitude": -121.81029128521752,
    "src:alt_label": "swim-approach",
    "src:geom": "swim",
    "swim:elevations": [
      4886,
      4744,
      4480,
      4306,
      4129,
      3980,
      3570,
      3386,
      3234,
      3091,
      3027,
      2797,
      2544,
      2395,
      2214,
      2128,
      2060,
      1942,
      1918,
      1707,
      1610,
      1503,
      1465,
      1392,
      1236,
      1010,
      919,
      807,
      723,
      658,
      543,
      491,
      306,
      293,
      180,
      124,
      33
    ],
    "swim:geom": "approach",
    "swim:timestamps": [
      1759433381,
      1759433402,
      1759433442,
      1759433463,
      1759433481,
      1759433496,
      1759433539,
      1759433577,
      1759433599,
      1759433623,
      1759433643,
      1759433676,
      1759433717,
      1759433746,
      1759433777,
      1759433792,
      1759433811,
      1759433841,
      1759433851,
      1759433907,
      1759433925,
      1759433948,
      1759433954,
      1759433973,
      1759434009,
      1759434058,
      1759434081,
      1759434110,
      1759434126,
      1759434144,
      1759434175,
      1759434189,
      1759434237,
      1759434242,
      1759434272,
      1759434281,
      1759434303
    ],
    "wof:geomhash": "d188919b754e20c3ed8bc253a1f4f89a",
    "wof:id": 1981562797,
    "wof:repo": "sfomuseum-data-flights-2025-10"
  },
  "bbox": [
    -122.35498,
    37.49159,
    -121.25608,
    37.6126
  ],
  "geometry": {"coordinates":[[-121.25608,37.59364],[-121.29668,37.58867],[-121.36621,37.58099],[-121.40157,37.57686],[-121.43094,37.57342],[-121.45542,37.57058],[-121.5266,37.56225],[-121.58469,37.55552],[-121.61783,37.55158],[-121.65071,37.5445],[-121.68024,37.53755],[-121.72678,37.52649],[-121.78288,37.51296],[-121.82072,37.50391],[-121.8608,37.4943],[-121.87995,37.49159],[-121.90549,37.49167],[-121.94442,37.49271],[-121.95602,37.49304],[-122.01603,37.50366],[-122.033,37.5092],[-122.05458,37.51638],[-122.06019,37.51811],[-122.07795,37.52374],[-122.11106,37.53468],[-122.1562,37.54917],[-122.17659,37.55579],[-122.20082,37.56376],[-122.2144,37.56818],[-122.22919,37.5729],[-122.25393,37.58078],[-122.26507,37.58422],[-122.30272,37.59515],[-122.30587,37.59613],[-122.33056,37.60368],[-122.33793,37.60596],[-122.35498,37.6126]],"type":"LineString"}
}
