{
  "id": 1981801921,
  "type": "Feature",
  "properties": {
    "geom:area": 0,
    "geom:bbox": "-170.150000,38.000278,-122.903333,58.783333",
    "geom:latitude": 52.16062674627118,
    "geom:longitude": -145.03592333689426,
    "src:alt_label": "swim-path",
    "src:geom": "swim",
    "swim:altitudes": [
      "133",
      "133",
      "133",
      "133",
      "194",
      "194",
      "194",
      "194",
      "194",
      "262",
      "262",
      "262",
      "262",
      "276C",
      "276C",
      "316C",
      "316C",
      "316C",
      "316C",
      "320",
      "320C",
      "320C",
      "320C",
      "320C",
      "320C",
      "320C",
      "320C",
      "320C",
      "320C",
      "320",
      "320",
      "320",
      "320C",
      "320C",
      "320C",
      "320C",
      "320C",
      "320C",
      "320C",
      "320C",
      "320C",
      "320C",
      "320C",
      "320C",
      "320C",
      "320C",
      "320C",
      "340",
      "340",
      "340",
      "340",
      "340",
      "340",
      "340",
      "340",
      "340",
      "340",
      "340",
      "340",
      "340",
      "340",
      "340",
      "340",
      "340",
      "340",
      "340",
      "340",
      "340",
      "340",
      "340",
      "340",
      "340",
      "340",
      "340",
      "340",
      "340",
      "340",
      "340",
      "340",
      "340",
      "340",
      "340",
      "340",
      "340",
      "340",
      "340",
      "340",
      "340",
      "340",
      "340",
      "340",
      "340",
      "340",
      "340",
      "340",
      "340",
      "340",
      "340",
      "340",
      "340",
      "340",
      "340",
      "340",
      "340",
      "340",
      "340",
      "340",
      "340",
      "340",
      "340",
      "320",
      "320",
      "320",
      "320",
      "320",
      "320",
      "320",
      "320",
      "320",
      "320",
      "320",
      "320",
      "320",
      "320",
      "320",
      "320",
      "320",
      "320",
      "320",
      "320",
      "320",
      "320",
      "320",
      "320",
      "320",
      "320",
      "320",
      "320",
      "320",
      "320",
      "320",
      "320",
      "320",
      "320",
      "320",
      "320",
      "320",
      "320",
      "320",
      "320",
      "320",
      "320",
      "320",
      "320",
      "320",
      "320",
      "320",
      "320",
      "320",
      "320",
      "320",
      "320",
      "320",
      "320",
      "320",
      "320",
      "320",
      "320",
      "320",
      "320",
      "320",
      "320",
      "320",
      "320",
      "320"
    ],
    "swim:geom": "path",
    "swim:speeds": [
      370,
      370,
      370,
      370,
      407,
      407,
      407,
      407,
      407,
      447,
      447,
      447,
      447,
      450,
      450,
      470,
      470,
      470,
      470,
      460,
      465,
      465,
      466,
      466,
      467,
      467,
      467,
      467,
      467,
      470,
      470,
      470,
      464,
      464,
      464,
      460,
      460,
      460,
      460,
      461,
      461,
      461,
      461,
      461,
      461,
      461,
      461,
      520,
      520,
      520,
      520,
      520,
      520,
      520,
      520,
      520,
      520,
      520,
      520,
      520,
      510,
      510,
      510,
      510,
      510,
      510,
      510,
      510,
      510,
      510,
      500,
      500,
      500,
      500,
      500,
      500,
      500,
      500,
      500,
      500,
      500,
      500,
      500,
      500,
      500,
      500,
      500,
      500,
      500,
      500,
      500,
      500,
      510,
      510,
      510,
      510,
      510,
      510,
      510,
      490,
      490,
      490,
      490,
      490,
      500,
      500,
      510,
      510,
      510,
      510,
      490,
      490,
      490,
      490,
      500,
      500,
      500,
      500,
      500,
      500,
      500,
      500,
      500,
      500,
      490,
      490,
      490,
      490,
      490,
      490,
      490,
      490,
      490,
      490,
      490,
      490,
      490,
      490,
      490,
      490,
      490,
      490,
      490,
      490,
      490,
      490,
      490,
      490,
      490,
      480,
      480,
      480,
      480,
      480,
      480,
      480,
      480,
      480,
      480,
      480,
      470,
      470,
      470,
      470,
      470,
      470,
      470,
      470,
      470,
      470,
      470,
      470,
      470,
      470,
      470
    ],
    "swim:timestamps": [
      1761764830,
      1761764830,
      1761764830,
      1761764830,
      1761765069,
      1761765069,
      1761765069,
      1761765069,
      1761765069,
      1761765370,
      1761765370,
      1761765370,
      1761765370,
      1761765466,
      1761765466,
      1761765706,
      1761765706,
      1761765706,
      1761765706,
      1761765826,
      1761765911,
      1761765911,
      1761766031,
      1761766031,
      1761766091,
      1761766151,
      1761766151,
      1761766151,
      1761766151,
      1761766487,
      1761766487,
      1761766487,
      1761766571,
      1761766571,
      1761766571,
      1761766692,
      1761766692,
      1761766692,
      1761766692,
      1761767112,
      1761767112,
      1761767112,
      1761767112,
      1761767112,
      1761767112,
      1761767112,
      1761767112,
      1761775982,
      1761775982,
      1761775982,
      1761775982,
      1761776161,
      1761776161,
      1761776161,
      1761776161,
      1761776161,
      1761776161,
      1761776342,
      1761776342,
      1761776342,
      1761776522,
      1761776522,
      1761776522,
      1761776522,
      1761776582,
      1761776582,
      1761776642,
      1761776642,
      1761776702,
      1761776702,
      1761776823,
      1761776823,
      1761776823,
      1761776883,
      1761776883,
      1761776943,
      1761777003,
      1761777003,
      1761777003,
      1761777063,
      1761777063,
      1761777063,
      1761777063,
      1761777063,
      1761777145,
      1761777145,
      1761777145,
      1761777303,
      1761777423,
      1761777423,
      1761777423,
      1761777423,
      1761777543,
      1761777543,
      1761777543,
      1761777543,
      1761777723,
      1761777723,
      1761777723,
      1761777963,
      1761777963,
      1761778023,
      1761778023,
      1761778023,
      1761778143,
      1761778143,
      1761778204,
      1761778204,
      1761778204,
      1761778204,
      1761778444,
      1761778444,
      1761778444,
      1761778444,
      1761778684,
      1761778744,
      1761778744,
      1761778744,
      1761778744,
      1761778744,
      1761778864,
      1761778864,
      1761778864,
      1761778864,
      1761779104,
      1761779104,
      1761779104,
      1761779104,
      1761779104,
      1761779104,
      1761779285,
      1761779285,
      1761779285,
      1761779285,
      1761779765,
      1761779765,
      1761779765,
      1761779765,
      1761779765,
      1761779945,
      1761779945,
      1761779945,
      1761779945,
      1761779945,
      1761780066,
      1761780066,
      1761780066,
      1761780066,
      1761780066,
      1761780305,
      1761780305,
      1761780305,
      1761780426,
      1761780426,
      1761780426,
      1761780426,
      1761780486,
      1761780486,
      1761780486,
      1761780486,
      1761781122,
      1761781122,
      1761781122,
      1761781243,
      1761781243,
      1761781243,
      1761781243,
      1761781484,
      1761781484,
      1761781484,
      1761781484,
      1761781484,
      1761781484,
      1761781484,
      1761781484
    ],
    "wof:geomhash": "b9d74d50601ab60997bc4552e607bfdb",
    "wof:id": 1981801921,
    "wof:repo": "sfomuseum-data-flights-2025-10"
  },
  "bbox": [
    -170.15,
    38.000277777777775,
    -122.90333333333334,
    58.78333333333333
  ],
  "geometry": {"coordinates":[[-122.90333333333334,38.000277777777775],[-122.90333333333334,38.000277777777775],[-122.90333333333334,38.000277777777775],[-122.90333333333334,38.000277777777775],[-123.19722222222222,38.35305555555556],[-123.19722222222222,38.35305555555556],[-123.19722222222222,38.35305555555556],[-123.19722222222222,38.35305555555556],[-123.19722222222222,38.35305555555556],[-123.64027777777778,38.87222222222222],[-123.64027777777778,38.87222222222222],[-123.64027777777778,38.87222222222222],[-123.64027777777778,38.87222222222222],[-123.75,39.016666666666666],[-123.75,39.016666666666666],[-124.16666666666667,39.416666666666664],[-124.16666666666667,39.416666666666664],[-124.16666666666667,39.416666666666664],[-124.16666666666667,39.416666666666664],[-124.36666666666666,39.63333333333333],[-124.52722222222222,39.778888888888886],[-124.52722222222222,39.778888888888886],[-124.73722222222223,39.98527777777778],[-124.73722222222223,39.98527777777778],[-124.8425,40.08833333333334],[-124.94694444444445,40.19],[-124.94694444444445,40.19],[-124.94694444444445,40.19],[-124.94694444444445,40.19],[-125.51666666666667,40.75],[-125.51666666666667,40.75],[-125.51666666666667,40.75],[-125.68861111111111,40.90083333333333],[-125.68861111111111,40.90083333333333],[-125.68861111111111,40.90083333333333],[-125.90166666666667,41.10138888888889],[-125.90166666666667,41.10138888888889],[-125.90166666666667,41.10138888888889],[-125.90166666666667,41.10138888888889],[-126.64333333333335,41.802499999999995],[-126.64333333333335,41.802499999999995],[-126.64333333333335,41.802499999999995],[-126.64333333333335,41.802499999999995],[-126.64333333333335,41.802499999999995],[-126.64333333333335,41.802499999999995],[-126.64333333333335,41.802499999999995],[-126.64333333333335,41.802499999999995],[-147.03333333333333,56.5],[-147.03333333333333,56.5],[-147.03333333333333,56.5],[-147.03333333333333,56.5],[-147.65,56.766666666666666],[-147.65,56.766666666666666],[-147.65,56.766666666666666],[-147.65,56.766666666666666],[-147.65,56.766666666666666],[-147.65,56.766666666666666],[-148.26666666666668,57.016666666666666],[-148.26666666666668,57.016666666666666],[-148.26666666666668,57.016666666666666],[-148.98333333333332,57.2],[-148.98333333333332,57.2],[-148.98333333333332,57.2],[-148.98333333333332,57.2],[-149.23333333333332,57.233333333333334],[-149.23333333333332,57.233333333333334],[-149.48333333333332,57.28333333333333],[-149.48333333333332,57.28333333333333],[-149.73333333333332,57.31666666666667],[-149.73333333333332,57.31666666666667],[-150.21666666666667,57.4],[-150.21666666666667,57.4],[-150.21666666666667,57.4],[-150.46666666666667,57.45],[-150.46666666666667,57.45],[-150.71666666666667,57.483333333333334],[-150.96666666666667,57.53333333333333],[-150.96666666666667,57.53333333333333],[-150.96666666666667,57.53333333333333],[-151.21666666666667,57.583333333333336],[-151.21666666666667,57.583333333333336],[-151.21666666666667,57.583333333333336],[-151.21666666666667,57.583333333333336],[-151.21666666666667,57.583333333333336],[-151.55,57.63333333333333],[-151.55,57.63333333333333],[-151.55,57.63333333333333],[-152.2,57.75],[-152.71666666666667,57.81666666666667],[-152.71666666666667,57.81666666666667],[-152.71666666666667,57.81666666666667],[-152.71666666666667,57.81666666666667],[-153.21666666666667,57.88333333333333],[-153.21666666666667,57.88333333333333],[-153.21666666666667,57.88333333333333],[-153.21666666666667,57.88333333333333],[-154,57.96666666666667],[-154,57.96666666666667],[-154,57.96666666666667],[-155.01666666666668,58.083333333333336],[-155.01666666666668,58.083333333333336],[-155.26666666666668,58.11666666666667],[-155.26666666666668,58.11666666666667],[-155.26666666666668,58.11666666666667],[-155.76666666666668,58.166666666666664],[-155.76666666666668,58.166666666666664],[-156.05,58.2],[-156.05,58.2],[-156.05,58.2],[-156.05,58.2],[-157.1,58.3],[-157.1,58.3],[-157.1,58.3],[-157.1,58.3],[-158.13333333333333,58.38333333333333],[-158.38333333333333,58.4],[-158.38333333333333,58.4],[-158.38333333333333,58.4],[-158.38333333333333,58.4],[-158.38333333333333,58.4],[-158.91666666666666,58.45],[-158.91666666666666,58.45],[-158.91666666666666,58.45],[-158.91666666666666,58.45],[-159.95,58.516666666666666],[-159.95,58.516666666666666],[-159.95,58.516666666666666],[-159.95,58.516666666666666],[-159.95,58.516666666666666],[-159.95,58.516666666666666],[-160.73333333333332,58.56666666666667],[-160.73333333333332,58.56666666666667],[-160.73333333333332,58.56666666666667],[-160.73333333333332,58.56666666666667],[-162.81666666666666,58.68333333333333],[-162.81666666666666,58.68333333333333],[-162.81666666666666,58.68333333333333],[-162.81666666666666,58.68333333333333],[-162.81666666666666,58.68333333333333],[-163.6,58.71666666666667],[-163.6,58.71666666666667],[-163.6,58.71666666666667],[-163.6,58.71666666666667],[-163.6,58.71666666666667],[-164.11666666666667,58.733333333333334],[-164.11666666666667,58.733333333333334],[-164.11666666666667,58.733333333333334],[-164.11666666666667,58.733333333333334],[-164.11666666666667,58.733333333333334],[-165.15,58.75],[-165.15,58.75],[-165.15,58.75],[-165.66666666666666,58.766666666666666],[-165.66666666666666,58.766666666666666],[-165.66666666666666,58.766666666666666],[-165.66666666666666,58.766666666666666],[-165.93333333333334,58.766666666666666],[-165.93333333333334,58.766666666666666],[-165.93333333333334,58.766666666666666],[-165.93333333333334,58.766666666666666],[-168.63333333333333,58.78333333333333],[-168.63333333333333,58.78333333333333],[-168.63333333333333,58.78333333333333],[-169.13333333333333,58.78333333333333],[-169.13333333333333,58.78333333333333],[-169.13333333333333,58.78333333333333],[-169.13333333333333,58.78333333333333],[-170.15,58.766666666666666],[-170.15,58.766666666666666],[-170.15,58.766666666666666],[-170.15,58.766666666666666],[-170.15,58.766666666666666],[-170.15,58.766666666666666],[-170.15,58.766666666666666],[-170.15,58.766666666666666]],"type":"LineString"}
}
