{
  "id": 1981765621,
  "type": "Feature",
  "properties": {
    "geom:area": 0,
    "geom:bbox": "-122.524780,37.627440,-121.435630,38.514590",
    "geom:latitude": 38.07420476685766,
    "geom:longitude": -122.04017569502832,
    "src:alt_label": "swim-takeoff",
    "src:geom": "swim",
    "swim:elevations": [
      213,
      680,
      1030,
      1283,
      1473,
      1677,
      2176,
      2488,
      2632,
      2742,
      2743,
      2779,
      2909,
      3214,
      3508,
      3656,
      3926,
      4498,
      4636,
      5112,
      5377,
      5497,
      5791,
      5791,
      5791,
      5963,
      6448,
      6517
    ],
    "swim:geom": "takeoff",
    "swim:timestamps": [
      1761385325,
      1761385370,
      1761385407,
      1761385426,
      1761385442,
      1761385458,
      1761385496,
      1761385525,
      1761385537,
      1761385560,
      1761385588,
      1761385610,
      1761385626,
      1761385655,
      1761385704,
      1761385714,
      1761385743,
      1761385797,
      1761385808,
      1761385854,
      1761385882,
      1761385895,
      1761385942,
      1761385961,
      1761385982,
      1761386030,
      1761386093,
      1761386102
    ],
    "wof:geomhash": "18a783cd321538b6d8fc362762ff642f",
    "wof:id": 1981765621,
    "wof:repo": "sfomuseum-data-flights-2025-10"
  },
  "bbox": [
    -122.52478,
    37.62744,
    -121.43563,
    38.51459
  ],
  "geometry": {"coordinates":[[-122.39542,37.62744],[-122.44009,37.64628],[-122.48274,37.66508],[-122.50533,37.6759],[-122.51996,37.6913],[-122.52478,37.71137],[-122.49284,37.75404],[-122.45506,37.78207],[-122.43859,37.79436],[-122.4065,37.81836],[-122.36625,37.84819],[-122.33634,37.87054],[-122.31372,37.88728],[-122.27352,37.91678],[-122.19528,37.97473],[-122.17889,37.98675],[-122.13062,38.02198],[-122.03307,38.09356],[-122.01397,38.10752],[-121.92773,38.17065],[-121.87491,38.20931],[-121.84925,38.22801],[-121.75877,38.29374],[-121.72272,38.31997],[-121.68082,38.35032],[-121.58799,38.41737],[-121.45576,38.50225],[-121.43563,38.51459]],"type":"LineString"}
}
