{
  "id": 1981795369,
  "type": "Feature",
  "properties": {
    "geom:area": 0,
    "geom:bbox": "-122.840920,37.437450,-122.136250,38.475460",
    "geom:latitude": 37.828744161515615,
    "geom:longitude": -122.50791940535896,
    "src:alt_label": "swim-approach",
    "src:geom": "swim",
    "swim:elevations": [
      7531,
      7216,
      7010,
      6753,
      6540,
      6187,
      5703,
      5404,
      5196,
      4961,
      4693,
      4314,
      4061,
      3803,
      3517,
      3382,
      3353,
      3353,
      3353,
      3179,
      2475,
      2193,
      1992,
      1741,
      1545,
      1348,
      1159,
      907,
      741,
      650,
      583,
      339,
      211,
      89,
      40
    ],
    "swim:geom": "approach",
    "swim:timestamps": [
      1761776273,
      1761776304,
      1761776324,
      1761776350,
      1761776371,
      1761776408,
      1761776457,
      1761776488,
      1761776509,
      1761776533,
      1761776562,
      1761776602,
      1761776631,
      1761776658,
      1761776693,
      1761776723,
      1761776747,
      1761776787,
      1761776807,
      1761776840,
      1761776934,
      1761776967,
      1761776994,
      1761777020,
      1761777044,
      1761777075,
      1761777102,
      1761777137,
      1761777161,
      1761777191,
      1761777210,
      1761777264,
      1761777295,
      1761777323,
      1761777344
    ],
    "wof:geomhash": "61efcb710103583ac174e0c1b470c9a2",
    "wof:id": 1981795369,
    "wof:repo": "sfomuseum-data-flights-2025-10"
  },
  "bbox": [
    -122.84092,
    37.43745,
    -122.13625,
    38.47546
  ],
  "geometry": {"coordinates":[[-122.84092,38.47546],[-122.82407,38.41737],[-122.81352,38.38134],[-122.79964,38.33425],[-122.78845,38.29637],[-122.76905,38.22977],[-122.74407,38.14406],[-122.72869,38.09102],[-122.71871,38.05617],[-122.70721,38.01663],[-122.69325,37.96879],[-122.67091,37.90436],[-122.63837,37.86692],[-122.60313,37.83337],[-122.55949,37.79197],[-122.52248,37.75711],[-122.49497,37.73115],[-122.4499,37.68869],[-122.42729,37.66745],[-122.38975,37.63221],[-122.31556,37.52174],[-122.29205,37.48275],[-122.2631,37.45732],[-122.22404,37.44305],[-122.18639,37.43745],[-122.14697,37.45834],[-122.13625,37.48859],[-122.16126,37.52482],[-122.18773,37.54367],[-122.22604,37.55832],[-122.24568,37.56681],[-122.29531,37.58754],[-122.31928,37.59779],[-122.34124,37.60685],[-122.3567,37.61328]],"type":"LineString"}
}
