{
  "id": 1981570389,
  "type": "Feature",
  "properties": {
    "geom:area": 0,
    "geom:bbox": "-123.496610,37.142100,-122.155020,37.610570",
    "geom:latitude": 37.32126472625837,
    "geom:longitude": -122.7260885475218,
    "src:alt_label": "swim-approach",
    "src:geom": "swim",
    "swim:elevations": [
      5555,
      5130,
      5096,
      4892,
      4694,
      4420,
      4259,
      3987,
      3754,
      3359,
      3229,
      3115,
      3049,
      3048,
      3048,
      3048,
      3048,
      3048,
      2971,
      2790,
      2776,
      2630,
      2467,
      2438,
      2438,
      2196,
      2148,
      1704,
      1424,
      1129,
      1093,
      1036,
      945,
      885,
      761,
      625,
      445,
      333,
      213,
      151,
      63
    ],
    "swim:geom": "approach",
    "swim:timestamps": [
      1759537237,
      1759537287,
      1759537290,
      1759537311,
      1759537336,
      1759537366,
      1759537384,
      1759537414,
      1759537441,
      1759537490,
      1759537524,
      1759537557,
      1759537575,
      1759537611,
      1759537641,
      1759537678,
      1759537708,
      1759537720,
      1759537741,
      1759537768,
      1759537771,
      1759537795,
      1759537823,
      1759537850,
      1759537874,
      1759537918,
      1759537922,
      1759537978,
      1759538003,
      1759538033,
      1759538036,
      1759538060,
      1759538096,
      1759538120,
      1759538150,
      1759538174,
      1759538214,
      1759538237,
      1759538270,
      1759538288,
      1759538312
    ],
    "wof:geomhash": "097149fef942cf0b8d819f00993f8f99",
    "wof:id": 1981570389,
    "wof:repo": "sfomuseum-data-flights-2025-10"
  },
  "bbox": [
    -123.49661,
    37.1421,
    -122.15502,
    37.61057
  ],
  "geometry": {"coordinates":[[-123.49661,37.1421],[-123.39181,37.16161],[-123.38555,37.16272],[-123.34186,37.17078],[-123.29115,37.18012],[-123.23001,37.19117],[-123.19361,37.19783],[-123.13268,37.20893],[-123.07929,37.21877],[-122.98348,37.23604],[-122.92019,37.24639],[-122.8634,37.2575],[-122.83358,37.26427],[-122.7753,37.27815],[-122.72705,37.28954],[-122.66892,37.30309],[-122.62041,37.31435],[-122.60103,37.31887],[-122.56735,37.32665],[-122.52407,37.33664],[-122.51928,37.33772],[-122.48081,37.34663],[-122.43782,37.35656],[-122.39567,37.36622],[-122.35887,37.37475],[-122.29332,37.38971],[-122.28691,37.39116],[-122.20895,37.42207],[-122.18593,37.44271],[-122.16794,37.47316],[-122.16617,37.4761],[-122.15502,37.49926],[-122.17318,37.52897],[-122.19252,37.54319],[-122.21965,37.55556],[-122.24151,37.56484],[-122.27734,37.58001],[-122.29729,37.58838],[-122.32119,37.59845],[-122.33353,37.6036],[-122.35015,37.61057]],"type":"LineString"}
}
