{
  "id": 1981580073,
  "type": "Feature",
  "properties": {
    "geom:area": 0,
    "geom:bbox": "-122.359530,36.744580,-121.892190,37.612390",
    "geom:latitude": 37.22096962262344,
    "geom:longitude": -122.07490036949443,
    "src:alt_label": "swim-approach",
    "src:geom": "swim",
    "swim:elevations": [
      5518,
      5388,
      5061,
      4624,
      4566,
      4344,
      4294,
      3977,
      3750,
      3586,
      3359,
      3190,
      3165,
      3079,
      2924,
      2795,
      2637,
      2283,
      2012,
      1873,
      1829,
      1829,
      1673,
      1470,
      1338,
      1322,
      1253,
      1218,
      1097,
      1010,
      774,
      659,
      632,
      526,
      518,
      303,
      173,
      21,
      0
    ],
    "swim:geom": "approach",
    "swim:timestamps": [
      1759607336,
      1759607351,
      1759607389,
      1759607427,
      1759607433,
      1759607457,
      1759607461,
      1759607496,
      1759607533,
      1759607570,
      1759607597,
      1759607618,
      1759607626,
      1759607656,
      1759607694,
      1759607716,
      1759607738,
      1759607773,
      1759607799,
      1759607815,
      1759607840,
      1759607870,
      1759607900,
      1759607937,
      1759607966,
      1759607972,
      1759607987,
      1759608020,
      1759608053,
      1759608070,
      1759608116,
      1759608142,
      1759608151,
      1759608171,
      1759608181,
      1759608228,
      1759608262,
      1759608298,
      1759608301
    ],
    "wof:geomhash": "2aefc73184a84496a572b911540f18b0",
    "wof:id": 1981580073,
    "wof:repo": "sfomuseum-data-flights-2025-10"
  },
  "bbox": [
    -122.35953,
    36.74458,
    -121.89219,
    37.61239
  ],
  "geometry": {"coordinates":[[-121.89219,36.74458],[-121.90087,36.76629],[-121.91587,36.81982],[-121.93111,36.87358],[-121.93346,36.88197],[-121.94309,36.91603],[-121.94438,36.92086],[-121.95946,36.96826],[-121.97744,37.0147],[-121.99373,37.05624],[-122.00514,37.08563],[-122.01415,37.10841],[-122.01763,37.117],[-122.02989,37.14851],[-122.04532,37.18806],[-122.05412,37.2105],[-122.0633,37.23378],[-122.07752,37.27042],[-122.08826,37.29822],[-122.09504,37.31483],[-122.10499,37.33936],[-122.1154,37.36567],[-122.12417,37.3905],[-122.13511,37.42271],[-122.14363,37.44686],[-122.14536,37.45178],[-122.1506,37.4636],[-122.1631,37.48828],[-122.17968,37.51025],[-122.18801,37.52192],[-122.21454,37.55037],[-122.2363,37.56006],[-122.2433,37.56302],[-122.26006,37.57033],[-122.26807,37.57381],[-122.30398,37.58866],[-122.33059,37.59986],[-122.35742,37.61136],[-122.35953,37.61239]],"type":"LineString"}
}
