{
  "id": 1981685091,
  "type": "Feature",
  "properties": {
    "geom:area": 0,
    "geom:bbox": "-123.474030,37.046360,-122.078940,37.612810",
    "geom:latitude": 37.28961944226047,
    "geom:longitude": -122.68430701774285,
    "src:alt_label": "swim-approach",
    "src:geom": "swim",
    "swim:elevations": [
      5570,
      5429,
      5139,
      4829,
      4407,
      4166,
      3758,
      3678,
      3511,
      3412,
      3164,
      3145,
      3048,
      3048,
      3048,
      3048,
      3048,
      3048,
      3048,
      3048,
      3048,
      3048,
      3048,
      3048,
      3048,
      3048,
      3048,
      3048,
      3048,
      3048,
      3048,
      3048,
      3048,
      3048,
      3048,
      3048,
      3048,
      3048,
      3048,
      2983,
      2892,
      2801,
      2787,
      2731,
      2531,
      2372,
      2059,
      1957,
      1829,
      1829,
      1829,
      1829,
      1829,
      1829,
      1829,
      1829,
      1829,
      1829,
      1765,
      1699,
      1591,
      1455,
      1144,
      942,
      689,
      519,
      483,
      367,
      120,
      112,
      9
    ],
    "swim:geom": "approach",
    "swim:timestamps": [
      1760611130,
      1760611143,
      1760611172,
      1760611201,
      1760611241,
      1760611263,
      1760611316,
      1760611328,
      1760611355,
      1760611381,
      1760611437,
      1760611441,
      1760611497,
      1760611505,
      1760611551,
      1760611586,
      1760611618,
      1760611628,
      1760611676,
      1760611701,
      1760611736,
      1760611740,
      1760611798,
      1760611802,
      1760611841,
      1760611861,
      1760611892,
      1760611921,
      1760611969,
      1760611998,
      1760612037,
      1760612048,
      1760612098,
      1760612110,
      1760612157,
      1760612170,
      1760612217,
      1760612237,
      1760612253,
      1760612289,
      1760612329,
      1760612362,
      1760612371,
      1760612403,
      1760612445,
      1760612468,
      1760612516,
      1760612530,
      1760612574,
      1760612587,
      1760612624,
      1760612655,
      1760612694,
      1760612718,
      1760612750,
      1760612773,
      1760612794,
      1760612821,
      1760612874,
      1760612890,
      1760612918,
      1760612949,
      1760612989,
      1760613009,
      1760613049,
      1760613083,
      1760613093,
      1760613120,
      1760613178,
      1760613183,
      1760613213
    ],
    "wof:geomhash": "f5d807ee4bcac4bf3a3b72528ff8f79e",
    "wof:id": 1981685091,
    "wof:repo": "sfomuseum-data-flights-2025-10"
  },
  "bbox": [
    -123.47403,
    37.04636,
    -122.07894,
    37.61281
  ],
  "geometry": {"coordinates":[[-123.47403,37.53918],[-123.44481,37.52583],[-123.38351,37.49772],[-123.32267,37.46983],[-123.24071,37.43226],[-123.19585,37.41152],[-123.09165,37.36349],[-123.07095,37.3539],[-123.02253,37.33147],[-122.97955,37.31167],[-122.89622,37.27285],[-122.89073,37.27033],[-122.81587,37.27796],[-122.80948,37.28604],[-122.81983,37.33395],[-122.86787,37.34533],[-122.9172,37.3354],[-122.93175,37.33248],[-123.00479,37.31531],[-123.04243,37.30616],[-123.09657,37.29329],[-123.1025,37.2913],[-123.12067,37.22541],[-123.11625,37.22172],[-123.06034,37.21355],[-123.03177,37.2199],[-122.98713,37.2294],[-122.94683,37.23849],[-122.87498,37.2395],[-122.83462,37.22171],[-122.77955,37.1977],[-122.76381,37.19091],[-122.69403,37.16064],[-122.67617,37.15292],[-122.61096,37.12451],[-122.59279,37.11648],[-122.52561,37.08696],[-122.49589,37.07709],[-122.47135,37.07011],[-122.4174,37.05514],[-122.35655,37.04636],[-122.30698,37.04683],[-122.29343,37.04692],[-122.24358,37.04736],[-122.18138,37.04836],[-122.14939,37.05153],[-122.11893,37.09443],[-122.11871,37.11003],[-122.11887,37.15726],[-122.11891,37.17059],[-122.11901,37.21033],[-122.11886,37.24373],[-122.11878,37.28522],[-122.11877,37.31067],[-122.11868,37.34425],[-122.1189,37.36849],[-122.1221,37.39105],[-122.1102,37.4174],[-122.08005,37.46772],[-122.07894,37.48358],[-122.10102,37.50176],[-122.13388,37.51447],[-122.17252,37.53056],[-122.19108,37.53968],[-122.22749,37.55673],[-122.25966,37.56989],[-122.26978,37.57402],[-122.2931,37.58446],[-122.33591,37.60233],[-122.33964,37.60388],[-122.36228,37.61281]],"type":"LineString"}
}
