{
  "id": 1997543195,
  "type": "Feature",
  "properties": {
    "geom:area": 0,
    "geom:bbox": "-121.903611,37.476944,-80.281944,42.018333",
    "geom:latitude": 40.576645659289404,
    "geom:longitude": -101.25970655960188,
    "src:alt_label": "swim-path",
    "src:geom": "swim",
    "swim:altitudes": [
      "022",
      "022",
      "042",
      "052",
      "052",
      "052",
      "064",
      "064",
      "064",
      "064",
      "136",
      "136",
      "266",
      "266",
      "266",
      "266",
      "266",
      "345",
      "353",
      "360C",
      "360C",
      "360C",
      "360C",
      "360C",
      "360C",
      "360C",
      "360C",
      "360C",
      "360C",
      "360C",
      "360C",
      "360C",
      "360C",
      "360C",
      "360C",
      "360C",
      "360C",
      "360C",
      "360C",
      "360C",
      "360C",
      "360C",
      "360C",
      "360C",
      "360C",
      "360C",
      "360C",
      "360C",
      "360C",
      "360C",
      "360C",
      "360C",
      "360C",
      "360C",
      "360C",
      "360C",
      "360C",
      "360C",
      "360C",
      "360C",
      "360C",
      "360C",
      "360C",
      "360C",
      "360C",
      "360C",
      "360C",
      "360C",
      "360C",
      "360C",
      "360C",
      "360C",
      "360C",
      "360C",
      "360C",
      "360C",
      "360C",
      "360C",
      "360C",
      "360C",
      "360C",
      "360C",
      "360C",
      "360C",
      "360C",
      "360C",
      "360C",
      "360C",
      "360C",
      "360C",
      "360C",
      "360C",
      "360C",
      "360C",
      "360C",
      "360C",
      "360C",
      "360C",
      "360C",
      "360C",
      "360C",
      "360C",
      "360C",
      "360C",
      "360C",
      "360C",
      "360C",
      "360C",
      "360C",
      "360C",
      "360C",
      "360C",
      "360C",
      "360C",
      "360C",
      "360C",
      "360C",
      "360C",
      "360C",
      "360C",
      "360C",
      "360C",
      "360C",
      "360C",
      "360C",
      "360C",
      "360C",
      "360C",
      "360C",
      "360C",
      "360C",
      "360C",
      "360C",
      "360C",
      "360C",
      "360C",
      "360C",
      "360C",
      "360C",
      "360C",
      "360C",
      "360C",
      "360C",
      "360C",
      "360C",
      "360C",
      "360C",
      "360C",
      "360C",
      "360C",
      "360C",
      "360C",
      "360C",
      "360C",
      "360C",
      "360C",
      "360C",
      "360C",
      "360C",
      "360C",
      "360C",
      "360C",
      "360C",
      "360C",
      "360C",
      "360C",
      "360C",
      "360C",
      "360C",
      "360C",
      "360C",
      "360C",
      "360C",
      "360C",
      "360C",
      "360C",
      "360C",
      "360C",
      "360C",
      "360C",
      "360C",
      "360C",
      "377",
      "377",
      "377",
      "377",
      "380C",
      "380C",
      "380C",
      "380C",
      "380C",
      "380C",
      "380C",
      "380C",
      "380C",
      "380C",
      "380C",
      "380C",
      "380C",
      "380C",
      "380C",
      "380C",
      "380C",
      "380C",
      "380C",
      "380C",
      "380C",
      "380C",
      "380C",
      "380C",
      "380C",
      "380C",
      "380C",
      "380C",
      "380C",
      "380C",
      "380C",
      "380C",
      "380C",
      "380C",
      "380C",
      "380C",
      "380C",
      "380C",
      "380C",
      "380C",
      "380C",
      "380C",
      "380C",
      "380C",
      "380C",
      "380C",
      "380C",
      "380C",
      "380C",
      "380C",
      "380C",
      "380C",
      "380C",
      "380C",
      "380C",
      "380C",
      "380C",
      "380C",
      "380C",
      "380C",
      "380C",
      "380C",
      "380C",
      "380C",
      "380C",
      "380C",
      "380C",
      "380",
      "380",
      "380",
      "380",
      "380",
      "281",
      "281",
      "170",
      "170",
      "170",
      "149",
      "149",
      "149",
      "116",
      "116",
      "116",
      "116",
      "111",
      "104",
      "104",
      "070",
      "070",
      "070"
    ],
    "swim:geom": "path",
    "swim:speeds": [
      165,
      165,
      190,
      224,
      224,
      224,
      234,
      234,
      234,
      234,
      308,
      308,
      397,
      397,
      397,
      397,
      397,
      432,
      432,
      434,
      434,
      434,
      441,
      441,
      441,
      441,
      441,
      443,
      443,
      442,
      441,
      441,
      441,
      437,
      431,
      431,
      423,
      421,
      418,
      416,
      417,
      416,
      416,
      419,
      420,
      420,
      420,
      421,
      420,
      420,
      418,
      402,
      405,
      405,
      402,
      402,
      401,
      401,
      405,
      405,
      404,
      404,
      403,
      403,
      401,
      399,
      399,
      401,
      400,
      400,
      400,
      391,
      391,
      389,
      385,
      384,
      384,
      384,
      384,
      384,
      384,
      384,
      384,
      384,
      384,
      384,
      385,
      385,
      385,
      385,
      385,
      383,
      383,
      383,
      383,
      383,
      390,
      393,
      396,
      396,
      396,
      396,
      396,
      395,
      395,
      395,
      395,
      395,
      395,
      395,
      395,
      395,
      395,
      395,
      395,
      392,
      392,
      384,
      391,
      391,
      392,
      390,
      390,
      390,
      392,
      388,
      388,
      386,
      387,
      383,
      383,
      381,
      381,
      380,
      380,
      380,
      380,
      380,
      377,
      376,
      376,
      376,
      378,
      378,
      376,
      376,
      369,
      369,
      369,
      373,
      371,
      371,
      371,
      371,
      372,
      372,
      372,
      372,
      374,
      374,
      374,
      374,
      374,
      374,
      374,
      375,
      375,
      385,
      385,
      385,
      386,
      386,
      386,
      386,
      386,
      386,
      386,
      386,
      385,
      385,
      383,
      383,
      404,
      404,
      404,
      404,
      409,
      409,
      411,
      411,
      414,
      416,
      415,
      416,
      416,
      416,
      417,
      428,
      429,
      429,
      429,
      438,
      438,
      439,
      440,
      440,
      440,
      440,
      436,
      436,
      436,
      436,
      436,
      441,
      441,
      441,
      441,
      441,
      442,
      442,
      442,
      442,
      443,
      443,
      443,
      460,
      460,
      460,
      460,
      460,
      460,
      460,
      463,
      463,
      463,
      464,
      464,
      476,
      476,
      476,
      467,
      464,
      464,
      464,
      464,
      469,
      460,
      460,
      432,
      432,
      429,
      429,
      429,
      439,
      439,
      439,
      439,
      439,
      452,
      452,
      404,
      404,
      404,
      370,
      370,
      370,
      335,
      335,
      335,
      335,
      336,
      308,
      308,
      247,
      247,
      247
    ],
    "swim:timestamps": [
      1761907886,
      1761907886,
      1761907943,
      1761907970,
      1761907970,
      1761907970,
      1761908003,
      1761908003,
      1761908003,
      1761908003,
      1761908184,
      1761908184,
      1761908604,
      1761908604,
      1761908604,
      1761908604,
      1761908604,
      1761909025,
      1761909085,
      1761909205,
      1761909205,
      1761909205,
      1761909397,
      1761909397,
      1761909445,
      1761909445,
      1761909445,
      1761909517,
      1761909517,
      1761909577,
      1761909626,
      1761909626,
      1761909626,
      1761909686,
      1761909817,
      1761909817,
      1761909937,
      1761909986,
      1761910058,
      1761910167,
      1761910358,
      1761910598,
      1761910658,
      1761910838,
      1761910899,
      1761910899,
      1761910899,
      1761910959,
      1761911439,
      1761911439,
      1761911559,
      1761911901,
      1761911920,
      1761911920,
      1761911980,
      1761911980,
      1761912081,
      1761912081,
      1761912261,
      1761912261,
      1761912280,
      1761912280,
      1761912441,
      1761912441,
      1761912460,
      1761912581,
      1761912581,
      1761912742,
      1761912802,
      1761912821,
      1761912821,
      1761913001,
      1761913001,
      1761913042,
      1761913162,
      1761913222,
      1761913241,
      1761913241,
      1761913241,
      1761913302,
      1761913402,
      1761913402,
      1761913422,
      1761913482,
      1761913482,
      1761913482,
      1761913542,
      1761913542,
      1761913643,
      1761913662,
      1761913662,
      1761913823,
      1761913883,
      1761913883,
      1761914003,
      1761914003,
      1761914303,
      1761914363,
      1761914423,
      1761914423,
      1761914544,
      1761914604,
      1761914604,
      1761914664,
      1761914664,
      1761914664,
      1761914844,
      1761914844,
      1761914844,
      1761914844,
      1761914844,
      1761915382,
      1761915382,
      1761915382,
      1761915382,
      1761915563,
      1761915563,
      1761915608,
      1761915683,
      1761915683,
      1761915848,
      1761915923,
      1761915923,
      1761915923,
      1761915969,
      1761915983,
      1761915983,
      1761916043,
      1761916089,
      1761916103,
      1761916103,
      1761916163,
      1761916163,
      1761916210,
      1761916210,
      1761916210,
      1761916210,
      1761916330,
      1761916403,
      1761916523,
      1761916523,
      1761916523,
      1761916631,
      1761916631,
      1761916643,
      1761916643,
      1761916989,
      1761916989,
      1761916989,
      1761917244,
      1761917352,
      1761917352,
      1761917352,
      1761917352,
      1761917409,
      1761917409,
      1761917409,
      1761917409,
      1761917665,
      1761917665,
      1761917665,
      1761917725,
      1761917725,
      1761917725,
      1761917725,
      1761917785,
      1761917785,
      1761918313,
      1761918313,
      1761918313,
      1761918385,
      1761918385,
      1761918385,
      1761918445,
      1761918493,
      1761918493,
      1761918493,
      1761918493,
      1761918686,
      1761918686,
      1761918746,
      1761918746,
      1761919034,
      1761919034,
      1761919034,
      1761919034,
      1761919094,
      1761919094,
      1761919154,
      1761919154,
      1761919347,
      1761919587,
      1761919873,
      1761920008,
      1761920008,
      1761920008,
      1761920053,
      1761920293,
      1761920308,
      1761920308,
      1761920308,
      1761920534,
      1761920534,
      1761920608,
      1761920654,
      1761920654,
      1761920668,
      1761920668,
      1761921496,
      1761921496,
      1761921496,
      1761921496,
      1761921496,
      1761921856,
      1761921856,
      1761921856,
      1761921856,
      1761921856,
      1761922037,
      1761922037,
      1761922037,
      1761922037,
      1761922097,
      1761922097,
      1761922097,
      1761922408,
      1761922408,
      1761922408,
      1761922468,
      1761922468,
      1761922468,
      1761922468,
      1761922637,
      1761922637,
      1761922637,
      1761922698,
      1761922698,
      1761922708,
      1761922708,
      1761922708,
      1761922768,
      1761922878,
      1761922878,
      1761922878,
      1761922878,
      1761923549,
      1761923609,
      1761923609,
      1761924090,
      1761924090,
      1761924210,
      1761924210,
      1761924210,
      1761924330,
      1761924330,
      1761924330,
      1761924330,
      1761924330,
      1761924570,
      1761924570,
      1761924871,
      1761924871,
      1761924871,
      1761924931,
      1761924931,
      1761924931,
      1761925032,
      1761925032,
      1761925032,
      1761925032,
      1761925051,
      1761925092,
      1761925092,
      1761925291,
      1761925291,
      1761925291
    ],
    "wof:geomhash": "cf33d07e3340eb2a8f67931935f6b52c",
    "wof:id": 1997543195,
    "wof:repo": "sfomuseum-data-flights-2025-10"
  },
  "bbox": [
    -121.90361111111112,
    37.47694444444445,
    -80.28194444444445,
    42.01833333333333
  ],
  "geometry": {"coordinates":[[-80.28194444444445,40.5025],[-80.28194444444445,40.5025],[-80.34222222222222,40.503055555555555],[-80.3775,40.51111111111111],[-80.3775,40.51111111111111],[-80.3775,40.51111111111111],[-80.4175,40.52027777777778],[-80.4175,40.52027777777778],[-80.4175,40.52027777777778],[-80.4175,40.52027777777778],[-80.69666666666667,40.58166666666667],[-80.69666666666667,40.58166666666667],[-81.57055555555556,40.785555555555554],[-81.57055555555556,40.785555555555554],[-81.57055555555556,40.785555555555554],[-81.57055555555556,40.785555555555554],[-81.57055555555556,40.785555555555554],[-82.63861111111112,40.948055555555555],[-82.7961111111111,40.964444444444446],[-83.1125,40.996944444444445],[-83.1125,40.996944444444445],[-83.1125,40.996944444444445],[-83.61333333333333,41.04472222222222],[-83.61333333333333,41.04472222222222],[-83.75166666666667,41.0575],[-83.75166666666667,41.0575],[-83.75166666666667,41.0575],[-83.93555555555555,41.07472222222223],[-83.93555555555555,41.07472222222223],[-84.09861111111111,41.089444444444446],[-84.22305555555556,41.10055555555556],[-84.22305555555556,41.10055555555556],[-84.22305555555556,41.10055555555556],[-84.3825,41.11472222222223],[-84.73,41.144999999999996],[-84.73,41.144999999999996],[-85.04027777777777,41.17027777777778],[-85.16055555555556,41.18055555555555],[-85.34444444444443,41.195277777777775],[-85.61944444444444,41.21666666666667],[-86.11222222222221,41.25333333333333],[-86.72611111111111,41.29611111111111],[-86.88833333333334,41.30694444444444],[-87.35055555555554,41.33638888888889],[-87.50555555555556,41.346111111111114],[-87.50555555555556,41.346111111111114],[-87.50555555555556,41.346111111111114],[-87.66000000000001,41.355000000000004],[-88.88138888888888,41.42027777777778],[-88.88138888888888,41.42027777777778],[-89.18833333333333,41.43444444444444],[-90.05194444444444,41.47083333333334],[-90.09027777777777,41.47166666666667],[-90.09027777777777,41.47166666666667],[-90.23722222222223,41.477222222222224],[-90.23722222222223,41.477222222222224],[-90.49388888888889,41.48555555555556],[-90.49388888888889,41.48555555555556],[-90.94388888888889,41.500277777777775],[-90.94388888888889,41.500277777777775],[-91.00722222222223,41.5025],[-91.00722222222223,41.5025],[-91.39055555555557,41.513333333333335],[-91.39055555555557,41.513333333333335],[-91.44916666666667,41.515],[-91.74277777777777,41.535555555555554],[-91.74277777777777,41.535555555555554],[-92.13305555555554,41.585],[-92.28472222222221,41.60388888888889],[-92.3286111111111,41.60944444444445],[-92.3286111111111,41.60944444444445],[-92.7575,41.66138888888889],[-92.7575,41.66138888888889],[-92.8536111111111,41.6725],[-93.13472222222222,41.705555555555556],[-93.275,41.72166666666667],[-93.3025,41.725],[-93.3025,41.725],[-93.3025,41.725],[-93.46361111111112,41.74305555555556],[-93.69777777777779,41.769444444444446],[-93.69777777777779,41.769444444444446],[-93.74583333333334,41.77472222222222],[-93.8863888888889,41.79],[-93.8863888888889,41.79],[-93.8863888888889,41.79],[-94.02888888888889,41.80555555555555],[-94.02888888888889,41.80555555555555],[-94.25166666666667,41.82916666666667],[-94.31138888888889,41.83555555555556],[-94.31138888888889,41.83555555555556],[-94.67416666666666,41.87305555555555],[-94.81666666666666,41.88722222222222],[-94.81666666666666,41.88722222222222],[-95.09666666666666,41.915277777777774],[-95.09666666666666,41.915277777777774],[-95.8125,41.983333333333334],[-95.95777777777778,41.99611111111111],[-96.10638888888889,42.000277777777775],[-96.10638888888889,42.000277777777775],[-96.39861111111112,42.000277777777775],[-96.54666666666667,42],[-96.54666666666667,42],[-96.69222222222223,41.999722222222225],[-96.69222222222223,41.999722222222225],[-96.69222222222223,41.999722222222225],[-97.16027777777778,41.99722222222222],[-97.16027777777778,41.99722222222222],[-97.16027777777778,41.99722222222222],[-97.16027777777778,41.99722222222222],[-97.16027777777778,41.99722222222222],[-98.46555555555555,42.00861111111111],[-98.46555555555555,42.00861111111111],[-98.46555555555555,42.00861111111111],[-98.46555555555555,42.00861111111111],[-98.89888888888889,42.01361111111111],[-98.89888888888889,42.01361111111111],[-99.02388888888889,42.01361111111111],[-99.18972222222223,42.01555555555556],[-99.18972222222223,42.01555555555556],[-99.61055555555555,42.01611111111111],[-99.78666666666666,42.01777777777777],[-99.78666666666666,42.01777777777777],[-99.78666666666666,42.01777777777777],[-99.90333333333334,42.016666666666666],[-99.93027777777779,42.018055555555556],[-99.93027777777779,42.018055555555556],[-100.07222222222222,42.01833333333333],[-100.16916666666667,42.0175],[-100.21416666666667,42.018055555555556],[-100.21416666666667,42.018055555555556],[-100.35388888888889,42.0175],[-100.35388888888889,42.0175],[-100.45138888888889,42.015277777777776],[-100.45138888888889,42.015277777777776],[-100.45138888888889,42.015277777777776],[-100.45138888888889,42.015277777777776],[-100.73361111111112,42.01416666666667],[-100.91472222222222,42.014722222222225],[-101.19250000000001,42.01166666666666],[-101.19250000000001,42.01166666666666],[-101.19250000000001,42.01166666666666],[-101.43361111111112,42.0075],[-101.43361111111112,42.0075],[-101.47277777777778,42.00805555555556],[-101.47277777777778,42.00805555555556],[-102.26083333333334,41.961111111111116],[-102.26083333333334,41.961111111111116],[-102.26083333333334,41.961111111111116],[-102.85888888888888,41.85916666666667],[-103.07527777777777,41.822500000000005],[-103.07527777777777,41.822500000000005],[-103.07527777777777,41.822500000000005],[-103.07527777777777,41.822500000000005],[-103.21166666666667,41.799166666666665],[-103.21166666666667,41.799166666666665],[-103.21166666666667,41.799166666666665],[-103.21166666666667,41.799166666666665],[-103.81027777777777,41.69472222222222],[-103.81027777777777,41.69472222222222],[-103.81027777777777,41.69472222222222],[-103.94416666666667,41.670833333333334],[-103.94416666666667,41.670833333333334],[-103.94416666666667,41.670833333333334],[-103.94416666666667,41.670833333333334],[-104.05388888888889,41.651111111111106],[-104.05388888888889,41.651111111111106],[-105.25583333333333,41.42722222222222],[-105.25583333333333,41.42722222222222],[-105.25583333333333,41.42722222222222],[-105.42694444444444,41.39527777777778],[-105.42694444444444,41.39527777777778],[-105.42694444444444,41.39527777777778],[-105.56583333333333,41.36805555555556],[-105.67222222222223,41.346111111111114],[-105.67222222222223,41.346111111111114],[-105.67222222222223,41.346111111111114],[-105.67222222222223,41.346111111111114],[-106.10944444444443,41.24138888888889],[-106.10944444444443,41.24138888888889],[-106.26277777777777,41.20277777777778],[-106.26277777777777,41.20277777777778],[-106.89500000000001,41.041666666666664],[-106.89500000000001,41.041666666666664],[-106.89500000000001,41.041666666666664],[-106.89500000000001,41.041666666666664],[-107.04305555555555,41.00333333333333],[-107.04305555555555,41.00333333333333],[-107.18694444444445,40.96527777777778],[-107.18694444444445,40.96527777777778],[-107.67500000000001,40.836666666666666],[-108.23555555555555,40.68527777777778],[-108.90027777777779,40.50111111111111],[-109.24194444444444,40.405],[-109.24194444444444,40.405],[-109.24194444444444,40.405],[-109.3561111111111,40.37222222222222],[-109.93444444444445,40.205555555555556],[-109.96111111111111,40.19777777777777],[-109.96111111111111,40.19777777777777],[-109.96111111111111,40.19777777777777],[-110.51416666666667,40.01611111111111],[-110.51416666666667,40.01611111111111],[-110.68722222222223,39.955555555555556],[-110.80277777777778,39.91555555555556],[-110.80277777777778,39.91555555555556],[-110.83083333333333,39.90555555555555],[-110.83083333333333,39.90555555555555],[-112.82944444444443,39.22916666666667],[-112.82944444444443,39.22916666666667],[-112.82944444444443,39.22916666666667],[-112.82944444444443,39.22916666666667],[-112.82944444444443,39.22916666666667],[-113.72666666666667,39.021388888888886],[-113.72666666666667,39.021388888888886],[-113.72666666666667,39.021388888888886],[-113.72666666666667,39.021388888888886],[-113.72666666666667,39.021388888888886],[-114.17777777777778,38.91361111111111],[-114.17777777777778,38.91361111111111],[-114.17777777777778,38.91361111111111],[-114.17777777777778,38.91361111111111],[-114.3261111111111,38.87777777777778],[-114.3261111111111,38.87777777777778],[-114.3261111111111,38.87777777777778],[-115.1236111111111,38.68111111111111],[-115.1236111111111,38.68111111111111],[-115.1236111111111,38.68111111111111],[-115.27666666666667,38.64277777777778],[-115.27666666666667,38.64277777777778],[-115.27666666666667,38.64277777777778],[-115.27666666666667,38.64277777777778],[-115.71888888888888,38.53055555555555],[-115.71888888888888,38.53055555555555],[-115.71888888888888,38.53055555555555],[-115.87638888888888,38.48972222222222],[-115.87638888888888,38.48972222222222],[-115.90916666666668,38.481388888888894],[-115.90916666666668,38.481388888888894],[-115.90916666666668,38.481388888888894],[-116.06444444444445,38.441111111111105],[-116.34305555555555,38.36805555555556],[-116.34305555555555,38.36805555555556],[-116.34305555555555,38.36805555555556],[-116.34305555555555,38.36805555555556],[-117.79083333333332,37.54666666666667],[-117.9225,37.47694444444445],[-117.9225,37.47694444444445],[-119.1763888888889,37.595],[-119.1763888888889,37.595],[-119.46222222222222,37.62027777777778],[-119.46222222222222,37.62027777777778],[-119.46222222222222,37.62027777777778],[-119.77055555555556,37.64694444444444],[-119.77055555555556,37.64694444444444],[-119.77055555555556,37.64694444444444],[-119.77055555555556,37.64694444444444],[-119.77055555555556,37.64694444444444],[-120.40166666666667,37.69694444444444],[-120.40166666666667,37.69694444444444],[-121.1438888888889,37.60861111111111],[-121.1438888888889,37.60861111111111],[-121.1438888888889,37.60861111111111],[-121.28722222222223,37.58916666666667],[-121.28722222222223,37.58916666666667],[-121.28722222222223,37.58916666666667],[-121.5,37.56666666666667],[-121.5,37.56666666666667],[-121.5,37.56666666666667],[-121.5,37.56666666666667],[-121.52527777777777,37.5625],[-121.6,37.55],[-121.6,37.55],[-121.90361111111112,37.4925],[-121.90361111111112,37.4925],[-121.90361111111112,37.4925]],"type":"LineString"}
}
