{
  "id": 1981806037,
  "type": "Feature",
  "properties": {
    "geom:area": 0,
    "geom:bbox": "-157.866667,21.166667,-122.189722,37.600000",
    "geom:latitude": 29.56304486687246,
    "geom:longitude": -140.03594207457957,
    "src:alt_label": "swim-path",
    "src:geom": "swim",
    "swim:altitudes": [
      "026C",
      "026C",
      "026C",
      "026C",
      "026C",
      "026C",
      "086C",
      "086C",
      "103C",
      "103C",
      "103C",
      "103C",
      "128C",
      "204C",
      "204C",
      "216C",
      "216C",
      "216C",
      "216C",
      "216C",
      "276C",
      "276C",
      "304C",
      "304C",
      "323C",
      "323C",
      "323C",
      "330",
      "330",
      "330",
      "330",
      "330",
      "330",
      "330",
      "330",
      "330",
      "330",
      "330",
      "330",
      "330C",
      "330C",
      "330C",
      "330C",
      "330C",
      "330C",
      "330C",
      "311",
      "311",
      "311",
      "311",
      "311",
      "311",
      "311",
      "100",
      "100",
      "100",
      "100",
      "100",
      "100",
      "058",
      "058",
      "058",
      "058",
      "029",
      "029",
      "006",
      "006",
      "006",
      "006"
    ],
    "swim:geom": "path",
    "swim:speeds": [
      210,
      210,
      210,
      210,
      210,
      210,
      270,
      270,
      290,
      290,
      290,
      290,
      370,
      430,
      430,
      430,
      430,
      430,
      430,
      430,
      520,
      520,
      520,
      520,
      500,
      500,
      500,
      480,
      480,
      480,
      480,
      480,
      470,
      470,
      470,
      470,
      470,
      470,
      470,
      505,
      505,
      505,
      505,
      505,
      505,
      505,
      500,
      500,
      500,
      500,
      500,
      500,
      500,
      346,
      346,
      346,
      346,
      346,
      346,
      271,
      271,
      271,
      271,
      226,
      226,
      138,
      138,
      138,
      138
    ],
    "swim:timestamps": [
      1761844894,
      1761844894,
      1761844894,
      1761844894,
      1761844894,
      1761844894,
      1761845074,
      1761845074,
      1761845134,
      1761845134,
      1761845134,
      1761845134,
      1761845254,
      1761845555,
      1761845555,
      1761845615,
      1761845615,
      1761845615,
      1761845615,
      1761845615,
      1761846036,
      1761846036,
      1761846216,
      1761846216,
      1761846276,
      1761846276,
      1761846276,
      1761846877,
      1761846877,
      1761846877,
      1761846877,
      1761846877,
      1761847358,
      1761847358,
      1761847358,
      1761847358,
      1761847358,
      1761847358,
      1761847358,
      1761859516,
      1761859516,
      1761859516,
      1761859516,
      1761859516,
      1761859516,
      1761859516,
      1761860117,
      1761860117,
      1761860117,
      1761860117,
      1761860117,
      1761860117,
      1761860117,
      1761860818,
      1761860818,
      1761860818,
      1761860818,
      1761860818,
      1761860818,
      1761861178,
      1761861178,
      1761861178,
      1761861178,
      1761861378,
      1761861378,
      1761861538,
      1761861538,
      1761861538,
      1761861538
    ],
    "wof:geomhash": "197942257777c9aea1dddeaf2792fe52",
    "wof:id": 1981806037,
    "wof:repo": "sfomuseum-data-flights-2025-10"
  },
  "bbox": [
    -157.86666666666667,
    21.166666666666668,
    -122.18972222222223,
    37.6
  ],
  "geometry": {"coordinates":[[-157.86666666666667,21.25],[-157.86666666666667,21.25],[-157.86666666666667,21.25],[-157.86666666666667,21.25],[-157.86666666666667,21.25],[-157.86666666666667,21.25],[-157.68333333333334,21.166666666666668],[-157.68333333333334,21.166666666666668],[-157.6,21.2],[-157.6,21.2],[-157.6,21.2],[-157.6,21.2],[-157.45,21.316666666666666],[-156.96666666666667,21.666666666666668],[-156.96666666666667,21.666666666666668],[-156.86666666666667,21.733333333333334],[-156.86666666666667,21.733333333333334],[-156.86666666666667,21.733333333333334],[-156.86666666666667,21.733333333333334],[-156.86666666666667,21.733333333333334],[-156,22.216666666666665],[-156,22.216666666666665],[-155.6,22.45],[-155.6,22.45],[-155.46666666666667,22.533333333333335],[-155.46666666666667,22.533333333333335],[-155.46666666666667,22.533333333333335],[-154.23333333333332,23.266666666666666],[-154.23333333333332,23.266666666666666],[-154.23333333333332,23.266666666666666],[-154.23333333333332,23.266666666666666],[-154.23333333333332,23.266666666666666],[-153.26666666666668,23.816666666666666],[-153.26666666666668,23.816666666666666],[-153.26666666666668,23.816666666666666],[-153.26666666666668,23.816666666666666],[-153.26666666666668,23.816666666666666],[-153.26666666666668,23.816666666666666],[-153.26666666666668,23.816666666666666],[-125.80722222222222,35.81916666666667],[-125.80722222222222,35.81916666666667],[-125.80722222222222,35.81916666666667],[-125.80722222222222,35.81916666666667],[-125.80722222222222,35.81916666666667],[-125.80722222222222,35.81916666666667],[-125.80722222222222,35.81916666666667],[-124.34472222222222,36.55472222222222],[-124.34472222222222,36.55472222222222],[-124.34472222222222,36.55472222222222],[-124.34472222222222,36.55472222222222],[-124.34472222222222,36.55472222222222],[-124.34472222222222,36.55472222222222],[-124.34472222222222,36.55472222222222],[-122.81666666666666,37.266666666666666],[-122.81666666666666,37.266666666666666],[-122.81666666666666,37.266666666666666],[-122.81666666666666,37.266666666666666],[-122.81666666666666,37.266666666666666],[-122.81666666666666,37.266666666666666],[-122.21666666666667,37.4],[-122.21666666666667,37.4],[-122.21666666666667,37.4],[-122.21666666666667,37.4],[-122.18972222222223,37.54083333333333],[-122.18972222222223,37.54083333333333],[-122.33333333333333,37.6],[-122.33333333333333,37.6],[-122.33333333333333,37.6],[-122.33333333333333,37.6]],"type":"LineString"}
}
