{
  "id": 1981675765,
  "type": "Feature",
  "properties": {
    "geom:area": 0,
    "geom:bbox": "-122.358600,36.744770,-121.892210,37.611690",
    "geom:latitude": 37.22351229614535,
    "geom:longitude": -122.0746743654227,
    "src:alt_label": "swim-approach",
    "src:geom": "swim",
    "swim:elevations": [
      5724,
      5450,
      5178,
      4788,
      4357,
      4264,
      3871,
      3782,
      3691,
      3320,
      3172,
      2998,
      2802,
      2583,
      2442,
      2188,
      2024,
      1913,
      1621,
      1450,
      1304,
      1190,
      966,
      726,
      611,
      472,
      403,
      247,
      217,
      125,
      46
    ],
    "swim:geom": "approach",
    "swim:timestamps": [
      1760537120,
      1760537145,
      1760537173,
      1760537208,
      1760537247,
      1760537257,
      1760537293,
      1760537302,
      1760537312,
      1760537346,
      1760537371,
      1760537424,
      1760537451,
      1760537483,
      1760537502,
      1760537544,
      1760537568,
      1760537582,
      1760537628,
      1760537657,
      1760537682,
      1760537703,
      1760537743,
      1760537788,
      1760537809,
      1760537842,
      1760537862,
      1760537903,
      1760537911,
      1760537940,
      1760537973
    ],
    "wof:geomhash": "f1722dfcd378001d8047df77164a24b6",
    "wof:id": 1981675765,
    "wof:repo": "sfomuseum-data-flights-2025-10"
  },
  "bbox": [
    -122.3586,
    36.74477,
    -121.89221,
    37.61169
  ],
  "geometry": {"coordinates":[[-121.89221,36.74477],[-121.90521,36.78201],[-121.91741,36.82438],[-121.93284,36.87917],[-121.94917,36.93876],[-121.95334,36.95279],[-121.97409,37.00605],[-121.97911,37.01889],[-121.98448,37.03269],[-122.00307,37.08051],[-122.01708,37.11604],[-122.04246,37.1809],[-122.0554,37.21332],[-122.06957,37.24997],[-122.07806,37.27172],[-122.09637,37.31785],[-122.10679,37.34504],[-122.11311,37.36086],[-122.13106,37.4108],[-122.14194,37.44196],[-122.15102,37.469],[-122.15878,37.4905],[-122.17298,37.53004],[-122.21515,37.55136],[-122.23664,37.56058],[-122.26484,37.57241],[-122.28018,37.57886],[-122.30919,37.59107],[-122.31483,37.59338],[-122.33456,37.6017],[-122.3586,37.61169]],"type":"LineString"}
}
