{
  "id": 1981645347,
  "type": "Feature",
  "properties": {
    "geom:area": 0,
    "geom:bbox": "-123.499530,37.418170,-122.506880,37.672840",
    "geom:latitude": 37.546059894483825,
    "geom:longitude": -123.00334730740916,
    "src:alt_label": "swim-takeoff",
    "src:geom": "swim",
    "swim:elevations": [
      1335,
      1568,
      2052,
      2164,
      3563,
      4045,
      4200,
      4735,
      4901,
      5214,
      5585,
      5989
    ],
    "swim:geom": "takeoff",
    "swim:timestamps": [
      1760201806,
      1760201902,
      1760201938,
      1760201947,
      1760202077,
      1760202147,
      1760202158,
      1760202207,
      1760202224,
      1760202255,
      1760202295,
      1760202346
    ],
    "wof:geomhash": "81665c1d780a3969319b9de97292fd6b",
    "wof:id": 1981645347,
    "wof:repo": "sfomuseum-data-flights-2025-10"
  },
  "bbox": [
    -123.49953,
    37.41817,
    -122.50688,
    37.67284
  ],
  "geometry": {"coordinates":[[-122.50688,37.67284],[-122.64862,37.637],[-122.70281,37.62311],[-122.71744,37.61936],[-122.93016,37.56517],[-123.06776,37.52976],[-123.09275,37.52334],[-123.19656,37.49665],[-123.23184,37.48759],[-123.29887,37.47027],[-123.38511,37.4479],[-123.49953,37.41817]],"type":"LineString"}
}
