{
  "id": 1981580165,
  "type": "Feature",
  "properties": {
    "geom:area": 0,
    "geom:bbox": "-122.074060,36.738120,-121.888570,37.261510",
    "geom:latitude": 37.00123850543414,
    "geom:longitude": -121.97695764995628,
    "src:alt_label": "swim-approach",
    "src:geom": "swim",
    "swim:elevations": [
      5282,
      5189,
      4921,
      4760,
      4442,
      4307,
      4009,
      3618,
      3327,
      3174,
      3094,
      3007,
      2767,
      2701,
      2519
    ],
    "swim:geom": "approach",
    "swim:timestamps": [
      1759647208,
      1759647216,
      1759647245,
      1759647262,
      1759647295,
      1759647310,
      1759647341,
      1759647384,
      1759647414,
      1759647435,
      1759647473,
      1759647498,
      1759647536,
      1759647546,
      1759647576
    ],
    "wof:geomhash": "92b6ec46da79fa9a36a0621fd435b5a4",
    "wof:id": 1981580165,
    "wof:repo": "sfomuseum-data-flights-2025-10"
  },
  "bbox": [
    -122.07406,
    36.73812,
    -121.88857,
    37.26151
  ],
  "geometry": {"coordinates":[[-121.88857,36.73812],[-121.8948,36.75052],[-121.90966,36.79716],[-121.91754,36.82479],[-121.93163,36.87582],[-121.93815,36.89908],[-121.95165,36.94661],[-121.97572,37.00983],[-121.99313,37.05503],[-122.00525,37.08584],[-122.02521,37.13635],[-122.0373,37.1679],[-122.05578,37.21475],[-122.06055,37.22687],[-122.07406,37.26151]],"type":"LineString"}
}
