{
  "id": 1981791173,
  "type": "Feature",
  "properties": {
    "geom:area": 0,
    "geom:bbox": "-122.560278,32.675000,-116.871944,37.693333",
    "geom:latitude": 34.90373375537937,
    "geom:longitude": -119.92236433564081,
    "src:alt_label": "swim-path",
    "src:geom": "swim",
    "swim:altitudes": [
      "059",
      "059",
      "138",
      "195",
      "195",
      "220",
      "220",
      "271",
      "271",
      "271",
      "303",
      "303",
      "303",
      "361",
      "361",
      "361",
      "361",
      "390C",
      "390C",
      "390C",
      "390C",
      "390C",
      "390C",
      "390C",
      "390C",
      "390C",
      "390C",
      "390C",
      "390C",
      "390C",
      "390C",
      "390C",
      "390C",
      "390C",
      "390C",
      "390C",
      "390C",
      "390C",
      "390C",
      "390C",
      "353",
      "353",
      "353",
      "353",
      "353",
      "353",
      "353",
      "198",
      "198",
      "198",
      "198",
      "180",
      "180",
      "119",
      "119",
      "119",
      "119",
      "112",
      "070",
      "070",
      "066",
      "066",
      "066",
      "066",
      "051",
      "051",
      "051",
      "051",
      "043",
      "043",
      "043",
      "036",
      "022",
      "012",
      "012",
      "012",
      "012",
      "012",
      "002",
      "002"
    ],
    "swim:geom": "path",
    "swim:speeds": [
      259,
      259,
      311,
      393,
      393,
      416,
      416,
      423,
      423,
      423,
      456,
      456,
      456,
      453,
      453,
      453,
      453,
      465,
      465,
      465,
      465,
      465,
      465,
      461,
      461,
      461,
      461,
      458,
      458,
      458,
      458,
      458,
      461,
      461,
      461,
      461,
      461,
      461,
      461,
      461,
      450,
      450,
      450,
      450,
      450,
      450,
      450,
      353,
      353,
      353,
      353,
      341,
      341,
      319,
      319,
      319,
      319,
      310,
      175,
      175,
      187,
      187,
      187,
      187,
      185,
      185,
      185,
      185,
      189,
      189,
      189,
      185,
      173,
      147,
      147,
      147,
      147,
      147,
      144,
      144
    ],
    "swim:timestamps": [
      1761661077,
      1761661077,
      1761661254,
      1761661374,
      1761661374,
      1761661434,
      1761661434,
      1761661555,
      1761661555,
      1761661555,
      1761661678,
      1761661678,
      1761661678,
      1761661855,
      1761661855,
      1761661855,
      1761661855,
      1761662155,
      1761662155,
      1761662155,
      1761662155,
      1761662155,
      1761662155,
      1761662516,
      1761662516,
      1761662516,
      1761662516,
      1761662877,
      1761662877,
      1761662877,
      1761662877,
      1761662877,
      1761663177,
      1761663177,
      1761663177,
      1761663177,
      1761663177,
      1761663177,
      1761663177,
      1761663177,
      1761663658,
      1761663658,
      1761663658,
      1761663658,
      1761663658,
      1761663658,
      1761663658,
      1761664160,
      1761664160,
      1761664160,
      1761664160,
      1761664220,
      1761664220,
      1761664439,
      1761664439,
      1761664439,
      1761664439,
      1761664460,
      1761664766,
      1761664766,
      1761664826,
      1761664826,
      1761664826,
      1761664826,
      1761665100,
      1761665100,
      1761665100,
      1761665100,
      1761665180,
      1761665180,
      1761665180,
      1761665220,
      1761665300,
      1761665360,
      1761665360,
      1761665360,
      1761665360,
      1761665360,
      1761665426,
      1761665426
    ],
    "wof:geomhash": "ab36b266f76299b3e1c88b48b4bda209",
    "wof:id": 1981791173,
    "wof:repo": "sfomuseum-data-flights-2025-10"
  },
  "bbox": [
    -122.56027777777777,
    32.675,
    -116.87194444444444,
    37.69333333333333
  ],
  "geometry": {"coordinates":[[-122.47583333333334,37.69333333333333],[-122.47583333333334,37.69333333333333],[-122.55222222222221,37.481388888888894],[-122.55722222222222,37.25333333333333],[-122.55722222222222,37.25333333333333],[-122.56027777777777,37.138333333333335],[-122.56027777777777,37.138333333333335],[-122.49583333333334,36.913888888888884],[-122.49583333333334,36.913888888888884],[-122.49583333333334,36.913888888888884],[-122.34027777777777,36.70166666666667],[-122.34027777777777,36.70166666666667],[-122.34027777777777,36.70166666666667],[-122.09805555555555,36.367222222222225],[-122.09805555555555,36.367222222222225],[-122.09805555555555,36.367222222222225],[-122.09805555555555,36.367222222222225],[-121.6325,35.87361111111111],[-121.6325,35.87361111111111],[-121.6325,35.87361111111111],[-121.6325,35.87361111111111],[-121.6325,35.87361111111111],[-121.6325,35.87361111111111],[-120.8888888888889,35.41166666666666],[-120.8888888888889,35.41166666666666],[-120.8888888888889,35.41166666666666],[-120.8888888888889,35.41166666666666],[-120.1286111111111,34.96527777777778],[-120.1286111111111,34.96527777777778],[-120.1286111111111,34.96527777777778],[-120.1286111111111,34.96527777777778],[-120.1286111111111,34.96527777777778],[-119.49,34.58222222222223],[-119.49,34.58222222222223],[-119.49,34.58222222222223],[-119.49,34.58222222222223],[-119.49,34.58222222222223],[-119.49,34.58222222222223],[-119.49,34.58222222222223],[-119.49,34.58222222222223],[-118.49722222222222,33.97361111111111],[-118.49722222222222,33.97361111111111],[-118.49722222222222,33.97361111111111],[-118.49722222222222,33.97361111111111],[-118.49722222222222,33.97361111111111],[-118.49722222222222,33.97361111111111],[-118.49722222222222,33.97361111111111],[-117.71666666666667,33.35],[-117.71666666666667,33.35],[-117.71666666666667,33.35],[-117.71666666666667,33.35],[-117.63333333333334,33.28333333333333],[-117.63333333333334,33.28333333333333],[-117.39555555555556,33.031666666666666],[-117.39555555555556,33.031666666666666],[-117.39555555555556,33.031666666666666],[-117.39555555555556,33.031666666666666],[-117.36666666666666,33],[-117.1,32.8],[-117.1,32.8],[-117.03333333333333,32.78333333333333],[-117.03333333333333,32.78333333333333],[-117.03333333333333,32.78333333333333],[-117.03333333333333,32.78333333333333],[-116.87194444444444,32.675],[-116.87194444444444,32.675],[-116.87194444444444,32.675],[-116.87194444444444,32.675],[-116.95,32.68333333333333],[-116.95,32.68333333333333],[-116.95,32.68333333333333],[-116.99166666666667,32.68527777777778],[-117.06666666666666,32.7],[-117.11666666666666,32.71666666666667],[-117.11666666666666,32.71666666666667],[-117.11666666666666,32.71666666666667],[-117.11666666666666,32.71666666666667],[-117.11666666666666,32.71666666666667],[-117.16666666666667,32.733333333333334],[-117.16666666666667,32.733333333333334]],"type":"LineString"}
}
