{
  "id": 1981797483,
  "type": "Feature",
  "properties": {
    "geom:area": 0,
    "geom:bbox": "-122.314444,33.361944,-111.850000,37.593333",
    "geom:latitude": 34.83379426427452,
    "geom:longitude": -117.52360551243473,
    "src:alt_label": "swim-path",
    "src:geom": "swim",
    "swim:altitudes": [
      "046",
      "046",
      "083",
      "083",
      "128",
      "128",
      "128",
      "128",
      "178",
      "178",
      "178",
      "198",
      "198",
      "198",
      "198",
      "198",
      "198",
      "198",
      "198",
      "327",
      "327",
      "327",
      "327",
      "327",
      "327",
      "327",
      "360C",
      "360C",
      "360C",
      "360C",
      "360C",
      "360C",
      "360C",
      "360C",
      "360C",
      "360C",
      "360C",
      "360C",
      "360C",
      "360C",
      "360C",
      "360C",
      "360C",
      "360C",
      "360C",
      "360C",
      "360C",
      "360C",
      "360C",
      "360C",
      "360C",
      "360C",
      "360C",
      "360C",
      "360C",
      "360C",
      "360C",
      "360C",
      "360C",
      "360C",
      "360C",
      "360C",
      "360C",
      "360C",
      "360C",
      "360C",
      "360C",
      "360C",
      "360C",
      "360C",
      "360C",
      "360C",
      "360C",
      "360C",
      "360C",
      "360C",
      "360C",
      "360C",
      "360C",
      "360C",
      "360C",
      "360C",
      "360C",
      "360C",
      "360C",
      "360C",
      "360C",
      "360C",
      "360C",
      "360C",
      "360C",
      "360C",
      "360C",
      "360",
      "360",
      "360",
      "247",
      "247",
      "247",
      "247",
      "247",
      "247",
      "247",
      "202",
      "202",
      "202",
      "142",
      "142",
      "095",
      "095",
      "095",
      "095",
      "095",
      "095",
      "095",
      "060",
      "060",
      "046",
      "046",
      "046",
      "046",
      "031",
      "031",
      "031",
      "031",
      "031",
      "031",
      "008",
      "008",
      "008",
      "008",
      "008"
    ],
    "swim:geom": "path",
    "swim:speeds": [
      217,
      217,
      253,
      253,
      303,
      303,
      303,
      303,
      374,
      374,
      374,
      397,
      397,
      397,
      397,
      397,
      397,
      397,
      397,
      443,
      443,
      443,
      443,
      443,
      443,
      443,
      431,
      431,
      431,
      431,
      431,
      431,
      430,
      430,
      430,
      430,
      430,
      430,
      432,
      432,
      432,
      432,
      435,
      435,
      435,
      435,
      435,
      435,
      435,
      435,
      444,
      444,
      444,
      444,
      444,
      444,
      444,
      442,
      442,
      442,
      440,
      440,
      439,
      439,
      439,
      439,
      439,
      438,
      438,
      438,
      434,
      434,
      434,
      434,
      434,
      434,
      434,
      434,
      434,
      434,
      434,
      435,
      435,
      435,
      435,
      435,
      433,
      433,
      433,
      433,
      433,
      433,
      433,
      432,
      432,
      432,
      408,
      408,
      408,
      408,
      408,
      408,
      408,
      378,
      378,
      378,
      351,
      351,
      287,
      287,
      287,
      287,
      287,
      287,
      287,
      231,
      231,
      221,
      221,
      221,
      221,
      189,
      189,
      189,
      189,
      189,
      189,
      166,
      166,
      166,
      166,
      166
    ],
    "swim:timestamps": [
      1761758715,
      1761758715,
      1761758781,
      1761758781,
      1761758892,
      1761758892,
      1761758892,
      1761758892,
      1761759136,
      1761759136,
      1761759136,
      1761759256,
      1761759256,
      1761759256,
      1761759256,
      1761759256,
      1761759256,
      1761759256,
      1761759256,
      1761760037,
      1761760037,
      1761760037,
      1761760037,
      1761760037,
      1761760037,
      1761760037,
      1761760277,
      1761760277,
      1761760277,
      1761760277,
      1761760277,
      1761760277,
      1761760458,
      1761760458,
      1761760458,
      1761760458,
      1761760458,
      1761760458,
      1761760878,
      1761760878,
      1761760878,
      1761760878,
      1761760999,
      1761760999,
      1761760999,
      1761760999,
      1761760999,
      1761760999,
      1761760999,
      1761760999,
      1761761874,
      1761761874,
      1761761874,
      1761761874,
      1761761874,
      1761761874,
      1761761874,
      1761761934,
      1761761934,
      1761761934,
      1761762054,
      1761762054,
      1761762114,
      1761762114,
      1761762114,
      1761762114,
      1761762114,
      1761762140,
      1761762140,
      1761762140,
      1761762414,
      1761762414,
      1761762414,
      1761762414,
      1761762475,
      1761762475,
      1761762561,
      1761762561,
      1761762561,
      1761762595,
      1761762595,
      1761762655,
      1761762655,
      1761762655,
      1761762681,
      1761762681,
      1761762835,
      1761762835,
      1761762861,
      1761762861,
      1761762861,
      1761762861,
      1761762861,
      1761762955,
      1761762955,
      1761762955,
      1761763316,
      1761763316,
      1761763316,
      1761763316,
      1761763316,
      1761763316,
      1761763316,
      1761763428,
      1761763428,
      1761763428,
      1761763612,
      1761763612,
      1761763796,
      1761763796,
      1761763796,
      1761763796,
      1761763796,
      1761763796,
      1761763796,
      1761764097,
      1761764097,
      1761764217,
      1761764217,
      1761764217,
      1761764217,
      1761764333,
      1761764333,
      1761764333,
      1761764333,
      1761764333,
      1761764333,
      1761764517,
      1761764517,
      1761764517,
      1761764517,
      1761764517
    ],
    "wof:geomhash": "0a8177e396da9df4c386916ffc5a7f95",
    "wof:id": 1981797483,
    "wof:repo": "sfomuseum-data-flights-2025-10"
  },
  "bbox": [
    -122.31444444444445,
    33.36194444444445,
    -111.85,
    37.593333333333334
  ],
  "geometry": {"coordinates":[[-111.9088888888889,33.43194444444444],[-111.9088888888889,33.43194444444444],[-111.85,33.38333333333333],[-111.85,33.38333333333333],[-111.99083333333333,33.36194444444445],[-111.99083333333333,33.36194444444445],[-111.99083333333333,33.36194444444445],[-111.99083333333333,33.36194444444445],[-112.4563888888889,33.42916666666667],[-112.4563888888889,33.42916666666667],[-112.4563888888889,33.42916666666667],[-112.71555555555555,33.45166666666667],[-112.71555555555555,33.45166666666667],[-112.71555555555555,33.45166666666667],[-112.71555555555555,33.45166666666667],[-112.71555555555555,33.45166666666667],[-112.71555555555555,33.45166666666667],[-112.71555555555555,33.45166666666667],[-112.71555555555555,33.45166666666667],[-114.52055555555556,33.76888888888889],[-114.52055555555556,33.76888888888889],[-114.52055555555556,33.76888888888889],[-114.52055555555556,33.76888888888889],[-114.52055555555556,33.76888888888889],[-114.52055555555556,33.76888888888889],[-114.52055555555556,33.76888888888889],[-115.09777777777778,33.80444444444444],[-115.09777777777778,33.80444444444444],[-115.09777777777778,33.80444444444444],[-115.09777777777778,33.80444444444444],[-115.09777777777778,33.80444444444444],[-115.09777777777778,33.80444444444444],[-115.52222222222223,33.845],[-115.52222222222223,33.845],[-115.52222222222223,33.845],[-115.52222222222223,33.845],[-115.52222222222223,33.845],[-115.52222222222223,33.845],[-116.44916666666667,34.13944444444444],[-116.44916666666667,34.13944444444444],[-116.44916666666667,34.13944444444444],[-116.44916666666667,34.13944444444444],[-116.72361111111111,34.225],[-116.72361111111111,34.225],[-116.72361111111111,34.225],[-116.72361111111111,34.225],[-116.72361111111111,34.225],[-116.72361111111111,34.225],[-116.72361111111111,34.225],[-116.72361111111111,34.225],[-118.70027777777779,34.933611111111105],[-118.70027777777779,34.933611111111105],[-118.70027777777779,34.933611111111105],[-118.70027777777779,34.933611111111105],[-118.70027777777779,34.933611111111105],[-118.70027777777779,34.933611111111105],[-118.70027777777779,34.933611111111105],[-118.83083333333333,34.99444444444445],[-118.83083333333333,34.99444444444445],[-118.83083333333333,34.99444444444445],[-119.08916666666666,35.11416666666667],[-119.08916666666666,35.11416666666667],[-119.21805555555555,35.17361111111111],[-119.21805555555555,35.17361111111111],[-119.21805555555555,35.17361111111111],[-119.21805555555555,35.17361111111111],[-119.21805555555555,35.17361111111111],[-119.26861111111111,35.196666666666665],[-119.26861111111111,35.196666666666665],[-119.26861111111111,35.196666666666665],[-119.8611111111111,35.46638888888889],[-119.8611111111111,35.46638888888889],[-119.8611111111111,35.46638888888889],[-119.8611111111111,35.46638888888889],[-119.98916666666666,35.52388888888889],[-119.98916666666666,35.52388888888889],[-120.17750000000001,35.608333333333334],[-120.17750000000001,35.608333333333334],[-120.17750000000001,35.608333333333334],[-120.24472222222222,35.638333333333335],[-120.24472222222222,35.638333333333335],[-120.37555555555555,35.69472222222222],[-120.37555555555555,35.69472222222222],[-120.37555555555555,35.69472222222222],[-120.45444444444445,35.725],[-120.45444444444445,35.725],[-120.77555555555556,35.84722222222222],[-120.77555555555556,35.84722222222222],[-120.8536111111111,35.876666666666665],[-120.8536111111111,35.876666666666665],[-120.8536111111111,35.876666666666665],[-120.8536111111111,35.876666666666665],[-120.8536111111111,35.876666666666665],[-121.04166666666667,35.9475],[-121.04166666666667,35.9475],[-121.04166666666667,35.9475],[-121.65055555555556,36.433611111111105],[-121.65055555555556,36.433611111111105],[-121.65055555555556,36.433611111111105],[-121.65055555555556,36.433611111111105],[-121.65055555555556,36.433611111111105],[-121.65055555555556,36.433611111111105],[-121.65055555555556,36.433611111111105],[-121.8,36.61666666666667],[-121.8,36.61666666666667],[-121.8,36.61666666666667],[-121.93333333333334,36.9],[-121.93333333333334,36.9],[-122.03694444444444,37.16694444444444],[-122.03694444444444,37.16694444444444],[-122.03694444444444,37.16694444444444],[-122.03694444444444,37.16694444444444],[-122.03694444444444,37.16694444444444],[-122.03694444444444,37.16694444444444],[-122.03694444444444,37.16694444444444],[-122.29555555555555,37.34666666666667],[-122.29555555555555,37.34666666666667],[-122.1675,37.42027777777778],[-122.1675,37.42027777777778],[-122.1675,37.42027777777778],[-122.1675,37.42027777777778],[-122.15,37.516666666666666],[-122.15,37.516666666666666],[-122.15,37.516666666666666],[-122.15,37.516666666666666],[-122.15,37.516666666666666],[-122.15,37.516666666666666],[-122.31444444444445,37.593333333333334],[-122.31444444444445,37.593333333333334],[-122.31444444444445,37.593333333333334],[-122.31444444444445,37.593333333333334],[-122.31444444444445,37.593333333333334]],"type":"LineString"}
}
