{
  "id": 1997539811,
  "type": "Feature",
  "properties": {
    "geom:area": 0,
    "geom:bbox": "-122.770000,37.620000,-73.580000,44.930000",
    "geom:latitude": 43.04358165410602,
    "geom:longitude": -98.26979547973606,
    "src:alt_label": "swim-route",
    "src:geom": "swim",
    "swim:geom": "route",
    "wof:geomhash": "0356be7b3d7a49e9a01c06f69aea5f67",
    "wof:id": 1997539811,
    "wof:repo": "sfomuseum-data-flights-2025-10"
  },
  "bbox": [
    -122.77,
    37.62,
    -73.58,
    44.93
  ],
  "geometry": {"coordinates":[[-73.78,40.64],[-73.86,40.75],[-73.88,40.77],[-73.93,40.85],[-73.95,40.87],[-73.58,40.89],[-73.6,40.9],[-73.69,40.96],[-73.88,41.09],[-73.91,41.11],[-74.02,41.19],[-74.16,41.27],[-74.36,41.41],[-74.36,41.41],[-74.43,41.44],[-74.49,41.47],[-74.5,41.47],[-74.55,41.49],[-74.58,41.5],[-74.76,41.58],[-74.8,41.6],[-74.94,41.66],[-75.06,41.71],[-75.26,41.79],[-75.27,41.8],[-75.53,41.91],[-75.61,41.94],[-75.66,41.96],[-75.81,42.02],[-76.1,42.14],[-76.14,42.16],[-76.59,42.3],[-76.65,42.32],[-77.02,42.44],[-77.03,42.44],[-77.74,42.66],[-77.98,42.72],[-78.74,42.93],[-79.03,43.15],[-79.26,43.32],[-79.65,43.62],[-80.1,43.93],[-80.2,43.98],[-80.3,44.03],[-80.31,44.03],[-80.32,44.03],[-82.27,44.26],[-82.27,44.26],[-86.71,44.67],[-87.11,44.68],[-87.37,44.71],[-90.26,44.86],[-90.29,44.85],[-90.89,44.87],[-91.48,44.89],[-92.63,44.92],[-92.66,44.91],[-93.22,44.92],[-93.26,44.93],[-93.88,44.93],[-93.9,44.93],[-96.61,44.92],[-97.92,44.88],[-97.99,44.88],[-98.79,44.85],[-100.15,44.8],[-100.65,44.77],[-100.93,44.75],[-101.13,44.74],[-101.47,44.72],[-101.52,44.71],[-101.55,44.7],[-103.06,44.38],[-103.34,44.32],[-103.75,44.23],[-106.34,43.61],[-107.2,43.39],[-107.2,43.38],[-107.42,43.33],[-109.9,42.74],[-111.71,42.27],[-113.21,41.85],[-114.48,41.47],[-115.05,41.29],[-118.08,40.3],[-118.58,40.13],[-119.06,39.98],[-119.3,39.91],[-120.5,39.53],[-120.85,39.42],[-121.1,39.34],[-121.1,39.33],[-121.38,39.17],[-121.46,39.12],[-121.55,39.07],[-121.63,39.03],[-121.86,38.89],[-121.93,38.85],[-122.08,38.76],[-122.26,38.65],[-122.26,38.65],[-122.44,38.54],[-122.44,38.54],[-122.68,38.31],[-122.69,38.3],[-122.77,38.22],[-122.75,38.16],[-122.69,37.96],[-122.69,37.95],[-122.67,37.9],[-122.65,37.87],[-122.63,37.86],[-122.62,37.85],[-122.59,37.82],[-122.58,37.81],[-122.51,37.74],[-122.51,37.74],[-122.5,37.73],[-122.44,37.68],[-122.37,37.62],[-122.38,37.62]],"type":"LineString"}
}
