{
  "id": 1981741503,
  "type": "Feature",
  "properties": {
    "geom:area": 0,
    "geom:bbox": "-122.326944,37.656111,-87.516667,42.746944",
    "geom:latitude": 41.64062639175411,
    "geom:longitude": -105.02553558366435,
    "src:alt_label": "swim-path",
    "src:geom": "swim",
    "swim:altitudes": [
      "032",
      "032",
      "095",
      "095",
      "095",
      "095",
      "110",
      "110",
      "110",
      "310C",
      "310C",
      "310C",
      "310C",
      "310C",
      "310C",
      "310C",
      "310C",
      "310C",
      "310C",
      "310C",
      "310C",
      "330C",
      "330C",
      "330C",
      "330C",
      "330C",
      "330C",
      "330C",
      "336",
      "336",
      "336",
      "343",
      "345",
      "345",
      "347",
      "350C",
      "350C",
      "350C",
      "351C",
      "351C",
      "351C",
      "351C",
      "350C",
      "350C",
      "350C",
      "350C",
      "350C",
      "350C",
      "350C",
      "350C",
      "350C",
      "350C",
      "350C",
      "350C",
      "350C",
      "350C",
      "350C",
      "350C",
      "351C",
      "351C",
      "350C",
      "350C",
      "350C",
      "350C",
      "340",
      "340",
      "340",
      "340",
      "340",
      "340",
      "340",
      "340",
      "340",
      "340",
      "340",
      "340",
      "340",
      "350C",
      "350C",
      "350C",
      "350C",
      "350C",
      "350C",
      "350C",
      "350C",
      "350C",
      "350C",
      "350C",
      "350C",
      "350C",
      "350C",
      "350C",
      "350C",
      "350C",
      "350C",
      "350C",
      "350C",
      "350C",
      "350C",
      "350C",
      "350C",
      "350C",
      "350C",
      "350C",
      "350C",
      "350C",
      "350C",
      "350C",
      "350C",
      "350C",
      "350C",
      "350C",
      "350C",
      "350C",
      "350C",
      "350C",
      "350C",
      "350C",
      "350C",
      "350C",
      "350C",
      "350C",
      "350C",
      "350C",
      "350C",
      "350C",
      "350C",
      "350C",
      "346",
      "346",
      "346",
      "329",
      "329",
      "292C",
      "292C",
      "290C",
      "290C",
      "290C",
      "290C",
      "290C",
      "290C",
      "290C",
      "290C",
      "290C",
      "290C",
      "290C",
      "290C",
      "290C",
      "290C",
      "290C",
      "290C",
      "279",
      "279",
      "269",
      "260",
      "260",
      "260",
      "241",
      "241",
      "234",
      "234",
      "234",
      "204",
      "204",
      "189",
      "189",
      "130",
      "112C",
      "111",
      "110C",
      "110C",
      "110",
      "110",
      "103",
      "103",
      "091",
      "081",
      "081",
      "055",
      "045",
      "040",
      "040",
      "040",
      "040",
      "016",
      "016",
      "008",
      "008",
      "008"
    ],
    "swim:geom": "path",
    "swim:speeds": [
      172,
      172,
      274,
      274,
      274,
      274,
      320,
      320,
      320,
      429,
      429,
      429,
      429,
      429,
      434,
      434,
      433,
      433,
      433,
      433,
      433,
      437,
      437,
      437,
      437,
      437,
      433,
      433,
      433,
      433,
      433,
      433,
      436,
      436,
      439,
      440,
      440,
      440,
      445,
      445,
      445,
      445,
      452,
      452,
      456,
      456,
      456,
      456,
      456,
      460,
      460,
      462,
      462,
      462,
      462,
      462,
      463,
      463,
      467,
      467,
      466,
      466,
      466,
      466,
      480,
      480,
      480,
      480,
      489,
      489,
      489,
      496,
      504,
      504,
      504,
      504,
      504,
      510,
      510,
      510,
      511,
      511,
      513,
      513,
      513,
      512,
      512,
      512,
      512,
      512,
      505,
      505,
      505,
      505,
      505,
      505,
      495,
      495,
      495,
      495,
      495,
      495,
      521,
      521,
      521,
      519,
      520,
      521,
      521,
      521,
      528,
      529,
      529,
      530,
      531,
      531,
      531,
      531,
      531,
      531,
      531,
      532,
      532,
      532,
      532,
      532,
      532,
      532,
      518,
      518,
      518,
      513,
      513,
      478,
      478,
      522,
      522,
      522,
      529,
      529,
      529,
      532,
      532,
      522,
      518,
      518,
      517,
      517,
      511,
      511,
      478,
      466,
      466,
      452,
      440,
      402,
      402,
      414,
      414,
      445,
      445,
      445,
      433,
      433,
      430,
      430,
      402,
      382,
      375,
      377,
      377,
      325,
      325,
      320,
      320,
      312,
      309,
      309,
      258,
      247,
      211,
      211,
      168,
      166,
      122,
      122,
      125,
      125,
      125
    ],
    "swim:timestamps": [
      1761167345,
      1761167345,
      1761167525,
      1761167525,
      1761167525,
      1761167525,
      1761167585,
      1761167585,
      1761167585,
      1761168366,
      1761168366,
      1761168366,
      1761168366,
      1761168366,
      1761168380,
      1761168380,
      1761168921,
      1761168921,
      1761168921,
      1761168921,
      1761168921,
      1761169282,
      1761169282,
      1761169282,
      1761169282,
      1761169282,
      1761169628,
      1761169628,
      1761169808,
      1761169808,
      1761169808,
      1761169883,
      1761169928,
      1761169928,
      1761169943,
      1761169988,
      1761169988,
      1761169988,
      1761170183,
      1761170183,
      1761170183,
      1761170183,
      1761170965,
      1761170965,
      1761171085,
      1761171085,
      1761171085,
      1761171085,
      1761171085,
      1761171205,
      1761171205,
      1761171566,
      1761171566,
      1761171566,
      1761171566,
      1761171566,
      1761171686,
      1761171686,
      1761171866,
      1761171866,
      1761171986,
      1761171986,
      1761171986,
      1761171986,
      1761172773,
      1761172773,
      1761172773,
      1761172773,
      1761173008,
      1761173008,
      1761173008,
      1761173134,
      1761173314,
      1761173314,
      1761173314,
      1761173314,
      1761173314,
      1761173489,
      1761173489,
      1761173489,
      1761173549,
      1761173549,
      1761173729,
      1761173729,
      1761173729,
      1761173789,
      1761173789,
      1761173789,
      1761173789,
      1761173789,
      1761174455,
      1761174455,
      1761174455,
      1761174455,
      1761174455,
      1761174455,
      1761174876,
      1761174876,
      1761174876,
      1761174876,
      1761174876,
      1761174876,
      1761175230,
      1761175230,
      1761175230,
      1761175297,
      1761175357,
      1761175417,
      1761175417,
      1761175417,
      1761175590,
      1761175597,
      1761175597,
      1761175657,
      1761175710,
      1761175770,
      1761175770,
      1761175770,
      1761175891,
      1761175951,
      1761175951,
      1761175958,
      1761175958,
      1761175958,
      1761176078,
      1761176131,
      1761176138,
      1761176138,
      1761176311,
      1761176311,
      1761176311,
      1761176431,
      1761176431,
      1761176672,
      1761176672,
      1761177152,
      1761177152,
      1761177152,
      1761177272,
      1761177272,
      1761177272,
      1761177568,
      1761177568,
      1761177749,
      1761177873,
      1761177873,
      1761177929,
      1761177929,
      1761178109,
      1761178109,
      1761178289,
      1761178530,
      1761178530,
      1761178590,
      1761178650,
      1761178710,
      1761178710,
      1761178890,
      1761178890,
      1761179070,
      1761179070,
      1761179070,
      1761179251,
      1761179251,
      1761179311,
      1761179311,
      1761179449,
      1761179551,
      1761179629,
      1761179671,
      1761179671,
      1761179749,
      1761179749,
      1761179791,
      1761179791,
      1761179851,
      1761179912,
      1761179912,
      1761180104,
      1761180152,
      1761180224,
      1761180224,
      1761180452,
      1761180470,
      1761180704,
      1761180704,
      1761180813,
      1761180813,
      1761180813
    ],
    "wof:geomhash": "08f94ade9f50cc4eab1c7f6d43920fb7",
    "wof:id": 1981741503,
    "wof:repo": "sfomuseum-data-flights-2025-10"
  },
  "bbox": [
    -122.32694444444444,
    37.65611111111111,
    -87.51666666666667,
    42.746944444444445
  ],
  "geometry": {"coordinates":[[-122.32694444444444,37.65611111111111],[-122.32694444444444,37.65611111111111],[-122.18916666666667,37.83694444444445],[-122.18916666666667,37.83694444444445],[-122.18916666666667,37.83694444444445],[-122.18916666666667,37.83694444444445],[-122.10805555555555,37.888333333333335],[-122.10805555555555,37.888333333333335],[-122.10805555555555,37.888333333333335],[-120.64333333333335,38.81166666666666],[-120.64333333333335,38.81166666666666],[-120.64333333333335,38.81166666666666],[-120.64333333333335,38.81166666666666],[-120.64333333333335,38.81166666666666],[-120.62555555555555,38.82083333333334],[-120.62555555555555,38.82083333333334],[-119.53444444444445,39.46388888888889],[-119.53444444444445,39.46388888888889],[-119.53444444444445,39.46388888888889],[-119.53444444444445,39.46388888888889],[-119.53444444444445,39.46388888888889],[-118.7425,39.906666666666666],[-118.7425,39.906666666666666],[-118.7425,39.906666666666666],[-118.7425,39.906666666666666],[-118.7425,39.906666666666666],[-117.92916666666667,40.226111111111116],[-117.92916666666667,40.226111111111116],[-117.48805555555556,40.35805555555556],[-117.48805555555556,40.35805555555556],[-117.48805555555556,40.35805555555556],[-117.31416666666667,40.409166666666664],[-117.22277777777778,40.43583333333333],[-117.22277777777778,40.43583333333333],[-117.16250000000001,40.453611111111115],[-117.06972222222223,40.48083333333334],[-117.06972222222223,40.48083333333334],[-117.06972222222223,40.48083333333334],[-116.57638888888889,40.62277777777778],[-116.57638888888889,40.62277777777778],[-116.57638888888889,40.62277777777778],[-116.57638888888889,40.62277777777778],[-114.55666666666666,41.17722222222222],[-114.55666666666666,41.17722222222222],[-114.23694444444445,41.26083333333333],[-114.23694444444445,41.26083333333333],[-114.23694444444445,41.26083333333333],[-114.23694444444445,41.26083333333333],[-114.23694444444445,41.26083333333333],[-113.91527777777779,41.343611111111116],[-113.91527777777779,41.343611111111116],[-112.90722222222223,41.480555555555554],[-112.90722222222223,41.480555555555554],[-112.90722222222223,41.480555555555554],[-112.90722222222223,41.480555555555554],[-112.90722222222223,41.480555555555554],[-112.56861111111111,41.521388888888886],[-112.56861111111111,41.521388888888886],[-112.04944444444445,41.57694444444445],[-112.04944444444445,41.57694444444445],[-111.70555555555556,41.611666666666665],[-111.70555555555556,41.611666666666665],[-111.70555555555556,41.611666666666665],[-111.70555555555556,41.611666666666665],[-109.41916666666667,41.81638888888889],[-109.41916666666667,41.81638888888889],[-109.41916666666667,41.81638888888889],[-109.41916666666667,41.81638888888889],[-108.72472222222223,41.86972222222222],[-108.72472222222223,41.86972222222222],[-108.72472222222223,41.86972222222222],[-108.31861111111111,41.89861111111111],[-107.75722222222223,41.936388888888885],[-107.75722222222223,41.936388888888885],[-107.75722222222223,41.936388888888885],[-107.75722222222223,41.936388888888885],[-107.75722222222223,41.936388888888885],[-107.22527777777778,41.96944444444445],[-107.22527777777778,41.96944444444445],[-107.22527777777778,41.96944444444445],[-107.0363888888889,41.98083333333334],[-107.0363888888889,41.98083333333334],[-106.45,42.013333333333335],[-106.45,42.013333333333335],[-106.45,42.013333333333335],[-106.25833333333334,42.02333333333333],[-106.25833333333334,42.02333333333333],[-106.25833333333334,42.02333333333333],[-106.25833333333334,42.02333333333333],[-106.25833333333334,42.02333333333333],[-104.16638888888889,42.21527777777778],[-104.16638888888889,42.21527777777778],[-104.16638888888889,42.21527777777778],[-104.16638888888889,42.21527777777778],[-104.16638888888889,42.21527777777778],[-104.16638888888889,42.21527777777778],[-102.98111111111112,42.6025],[-102.98111111111112,42.6025],[-102.98111111111112,42.6025],[-102.98111111111112,42.6025],[-102.98111111111112,42.6025],[-102.98111111111112,42.6025],[-101.87055555555555,42.73888888888889],[-101.87055555555555,42.73888888888889],[-101.87055555555555,42.73888888888889],[-101.6388888888889,42.74166666666667],[-101.44027777777778,42.74444444444445],[-101.24388888888889,42.746944444444445],[-101.24388888888889,42.746944444444445],[-101.24388888888889,42.746944444444445],[-100.69888888888889,42.7175],[-100.64750000000001,42.711666666666666],[-100.64750000000001,42.711666666666666],[-100.45027777777779,42.689166666666665],[-100.30055555555555,42.67166666666667],[-100.10527777777777,42.64833333333333],[-100.10527777777777,42.64833333333333],[-100.10527777777777,42.64833333333333],[-99.70972222222223,42.600833333333334],[-99.5075,42.57555555555556],[-99.5075,42.57555555555556],[-99.47111111111111,42.571111111111115],[-99.47111111111111,42.571111111111115],[-99.47111111111111,42.571111111111115],[-99.07388888888889,42.520833333333336],[-98.915,42.500277777777775],[-98.87666666666667,42.49527777777778],[-98.87666666666667,42.49527777777778],[-98.32277777777777,42.483333333333334],[-98.32277777777777,42.483333333333334],[-98.32277777777777,42.483333333333334],[-97.93527777777778,42.49583333333334],[-97.93527777777778,42.49583333333334],[-97.17027777777778,42.51638888888889],[-97.17027777777778,42.51638888888889],[-95.67305555555556,42.54222222222222],[-95.67305555555556,42.54222222222222],[-95.67305555555556,42.54222222222222],[-95.27361111111111,42.54555555555555],[-95.27361111111111,42.54555555555555],[-95.27361111111111,42.54555555555555],[-94.30055555555555,42.54861111111111],[-94.30055555555555,42.54861111111111],[-93.71166666666667,42.54611111111111],[-93.32277777777777,42.543055555555554],[-93.32277777777777,42.543055555555554],[-93.12722222222222,42.54111111111111],[-93.12722222222222,42.54111111111111],[-92.55444444444444,42.533055555555556],[-92.55444444444444,42.533055555555556],[-92.00166666666667,42.524166666666666],[-91.29888888888888,42.52722222222222],[-91.29888888888888,42.52722222222222],[-91.12916666666666,42.52722222222222],[-90.96194444444444,42.528055555555554],[-90.83694444444444,42.58861111111111],[-90.83694444444444,42.58861111111111],[-90.37583333333333,42.620555555555555],[-90.37583333333333,42.620555555555555],[-89.90277777777779,42.54],[-89.90277777777779,42.54],[-89.90277777777779,42.54],[-89.44111111111111,42.477222222222224],[-89.44111111111111,42.477222222222224],[-89.28166666666667,42.4575],[-89.28166666666667,42.4575],[-88.91666666666667,42.416666666666664],[-88.69083333333333,42.38305555555556],[-88.5,42.35],[-88.41611111111112,42.346944444444446],[-88.41611111111112,42.346944444444446],[-88.25,42.266666666666666],[-88.25,42.266666666666666],[-88.19250000000001,42.224444444444444],[-88.19250000000001,42.224444444444444],[-88.1111111111111,42.16416666666667],[-88.03388888888888,42.10055555555556],[-88.03388888888888,42.10055555555556],[-87.7,42.1],[-87.62194444444444,42.09138888888889],[-87.51666666666667,42.083333333333336],[-87.51666666666667,42.083333333333336],[-87.60222222222221,42.00222222222222],[-87.61666666666666,42],[-87.85,42],[-87.85,42],[-87.92,42.00277777777778],[-87.92,42.00277777777778],[-87.92,42.00277777777778]],"type":"LineString"}
}
