{
  "id": 1981702775,
  "type": "Feature",
  "properties": {
    "geom:area": 0,
    "geom:bbox": "-122.357300,37.492010,-121.334840,37.613590",
    "geom:latitude": 37.54335830502755,
    "geom:longitude": -121.8505340739328,
    "src:alt_label": "swim-approach",
    "src:geom": "swim",
    "swim:elevations": [
      4437,
      4198,
      4011,
      3653,
      3427,
      3217,
      3080,
      2864,
      2691,
      2621,
      2314,
      2231,
      2010,
      1922,
      1829,
      1766,
      1574,
      1484,
      1048,
      926,
      653,
      547,
      395,
      369,
      153,
      48
    ],
    "swim:geom": "approach",
    "swim:timestamps": [
      1760787805,
      1760787828,
      1760787849,
      1760787897,
      1760787923,
      1760787953,
      1760787968,
      1760788015,
      1760788044,
      1760788051,
      1760788104,
      1760788120,
      1760788162,
      1760788184,
      1760788221,
      1760788253,
      1760788279,
      1760788292,
      1760788341,
      1760788356,
      1760788405,
      1760788429,
      1760788462,
      1760788472,
      1760788522,
      1760788555
    ],
    "wof:geomhash": "58070bb5338fc3dd40acf805805bc62b",
    "wof:id": 1981702775,
    "wof:repo": "sfomuseum-data-flights-2025-10"
  },
  "bbox": [
    -122.3573,
    37.49201,
    -121.33484,
    37.61359
  ],
  "geometry": {"coordinates":[[-121.33484,37.58457],[-121.37655,37.57973],[-121.41604,37.57519],[-121.50041,37.5654],[-121.54679,37.55998],[-121.59873,37.55391],[-121.62432,37.5505],[-121.69797,37.53343],[-121.74135,37.52282],[-121.75306,37.52008],[-121.83157,37.50131],[-121.85634,37.49536],[-121.91945,37.49201],[-121.9523,37.49292],[-122.00603,37.50063],[-122.04822,37.51428],[-122.07979,37.52454],[-122.09627,37.52982],[-122.15658,37.54942],[-122.17546,37.55556],[-122.23056,37.57315],[-122.25276,37.58042],[-122.28139,37.58886],[-122.28965,37.59125],[-122.33225,37.60343],[-122.3573,37.61359]],"type":"LineString"}
}
