{
  "id": 1981695679,
  "type": "Feature",
  "properties": {
    "geom:area": 0,
    "geom:bbox": "-123.457850,37.627500,-122.396000,37.729160",
    "geom:latitude": 37.69718104030838,
    "geom:longitude": -122.9227522925576,
    "src:alt_label": "swim-takeoff",
    "src:geom": "swim",
    "swim:elevations": [
      152,
      635,
      900,
      1162,
      1181,
      1614,
      1812,
      1868,
      2188,
      2651,
      2938,
      3200,
      3372,
      3500,
      3963,
      4037,
      4323,
      4773,
      4957,
      5177,
      5352,
      5611
    ],
    "swim:geom": "takeoff",
    "swim:timestamps": [
      1760704149,
      1760704184,
      1760704210,
      1760704258,
      1760704263,
      1760704304,
      1760704318,
      1760704323,
      1760704351,
      1760704395,
      1760704422,
      1760704455,
      1760704487,
      1760704509,
      1760704555,
      1760704563,
      1760704591,
      1760704642,
      1760704663,
      1760704691,
      1760704712,
      1760704742
    ],
    "wof:geomhash": "3f6384b6c6844ce3c45d2cd1f4d203dc",
    "wof:id": 1981695679,
    "wof:repo": "sfomuseum-data-flights-2025-10"
  },
  "bbox": [
    -123.45785,
    37.6275,
    -122.396,
    37.72916
  ],
  "geometry": {"coordinates":[[-122.396,37.6275],[-122.43099,37.64267],[-122.45738,37.65445],[-122.51301,37.67543],[-122.51897,37.67601],[-122.58437,37.68005],[-122.60822,37.68115],[-122.61467,37.6815],[-122.66029,37.68422],[-122.73531,37.68877],[-122.78218,37.69148],[-122.84021,37.69514],[-122.90079,37.69865],[-122.9466,37.70136],[-123.0434,37.70694],[-123.0594,37.70785],[-123.12076,37.71124],[-123.23095,37.71743],[-123.2784,37.72009],[-123.34193,37.72358],[-123.38821,37.7258],[-123.45785,37.72916]],"type":"LineString"}
}
