{
  "id": 1981784779,
  "type": "Feature",
  "properties": {
    "geom:area": 0,
    "geom:bbox": "-123.495710,37.419040,-122.394750,37.669400",
    "geom:latitude": 37.55731416559697,
    "geom:longitude": -122.9432196652855,
    "src:alt_label": "swim-takeoff",
    "src:geom": "swim",
    "swim:elevations": [
      122,
      555,
      957,
      1136,
      1326,
      1390,
      2085,
      2330,
      2705,
      3116,
      3318,
      3472,
      3662,
      3930,
      4285,
      4310,
      4770,
      5122,
      5421,
      5408,
      5565,
      5650,
      5867
    ],
    "swim:geom": "takeoff",
    "swim:timestamps": [
      1761609377,
      1761609410,
      1761609447,
      1761609474,
      1761609505,
      1761609511,
      1761609568,
      1761609589,
      1761609616,
      1761609649,
      1761609683,
      1761609701,
      1761609733,
      1761609772,
      1761609808,
      1761609811,
      1761609851,
      1761609893,
      1761609928,
      1761609931,
      1761609955,
      1761609967,
      1761609994
    ],
    "wof:geomhash": "26970021b8841c7bb9a9813f3b571c07",
    "wof:id": 1981784779,
    "wof:repo": "sfomuseum-data-flights-2025-10"
  },
  "bbox": [
    -123.49571,
    37.41904,
    -122.39475,
    37.6694
  ],
  "geometry": {"coordinates":[[-122.39475,37.62694],[-122.42721,37.64091],[-122.46494,37.65742],[-122.4941,37.6694],[-122.53633,37.66741],[-122.54512,37.66497],[-122.63285,37.64144],[-122.66648,37.63224],[-122.71026,37.62103],[-122.76434,37.60715],[-122.82169,37.59233],[-122.85457,37.58408],[-122.91557,37.56816],[-122.9968,37.54767],[-123.0741,37.52786],[-123.08065,37.52616],[-123.16752,37.50365],[-123.26064,37.4794],[-123.34074,37.45899],[-123.34764,37.45728],[-123.40324,37.44301],[-123.43148,37.43569],[-123.49571,37.41904]],"type":"LineString"}
}
