{
  "id": 1981678771,
  "type": "Feature",
  "properties": {
    "geom:area": 0,
    "geom:bbox": "-122.443570,36.745490,-121.459740,37.718460",
    "geom:latitude": 37.23414797217423,
    "geom:longitude": -122.04821771720145,
    "src:alt_label": "swim-takeoff",
    "src:geom": "swim",
    "swim:elevations": [
      152,
      518,
      991,
      1040,
      1398,
      1458,
      1769,
      1979,
      2608,
      3063,
      3215,
      3456,
      4053,
      4551,
      4999,
      5371,
      5759,
      5791,
      5820,
      6030,
      6333,
      6592,
      6881,
      7017,
      7301,
      7578,
      7981,
      8212,
      8429,
      8565
    ],
    "swim:geom": "takeoff",
    "swim:timestamps": [
      1760535053,
      1760535079,
      1760535116,
      1760535121,
      1760535173,
      1760535182,
      1760535202,
      1760535218,
      1760535259,
      1760535289,
      1760535305,
      1760535335,
      1760535377,
      1760535411,
      1760535442,
      1760535463,
      1760535503,
      1760535532,
      1760535568,
      1760535592,
      1760535622,
      1760535648,
      1760535680,
      1760535695,
      1760535725,
      1760535757,
      1760535804,
      1760535835,
      1760535863,
      1760535885
    ],
    "wof:geomhash": "83214041534ceaf920cbe8906aa52bea",
    "wof:id": 1981678771,
    "wof:repo": "sfomuseum-data-flights-2025-10"
  },
  "bbox": [
    -122.44357,
    36.74549,
    -121.45974,
    37.71846
  ],
  "geometry": {"coordinates":[[-122.36931,37.62881],[-122.36407,37.64827],[-122.36286,37.67731],[-122.36244,37.68128],[-122.40093,37.71846],[-122.41355,37.71793],[-122.43804,37.70185],[-122.44357,37.68181],[-122.43608,37.62643],[-122.42915,37.58562],[-122.42496,37.56249],[-122.41625,37.51492],[-122.38498,37.45292],[-122.33098,37.41425],[-122.28331,37.37809],[-122.24863,37.3513],[-122.18395,37.30158],[-122.13456,37.26389],[-122.07359,37.21719],[-122.03211,37.18543],[-121.98019,37.1457],[-121.93212,37.10881],[-121.87291,37.06347],[-121.84538,37.0423],[-121.78734,36.99765],[-121.72439,36.94912],[-121.62775,36.87566],[-121.56551,36.82752],[-121.50616,36.78138],[-121.45974,36.74549]],"type":"LineString"}
}
