{
  "id": 1981751651,
  "type": "Feature",
  "properties": {
    "geom:area": 0,
    "geom:bbox": "-122.374167,37.493611,-87.933333,42.142222",
    "geom:latitude": 40.654925307262886,
    "geom:longitude": -105.26788025672039,
    "src:alt_label": "swim-path",
    "src:geom": "swim",
    "swim:altitudes": [
      "012",
      "012",
      "012",
      "103",
      "118",
      "118",
      "166",
      "166",
      "183",
      "183",
      "282",
      "313",
      "316",
      "325",
      "330",
      "340C",
      "340C",
      "340C",
      "340C",
      "340C",
      "340C",
      "340C",
      "340C",
      "340C",
      "340C",
      "340C",
      "340C",
      "340C",
      "340C",
      "340C",
      "340C",
      "340C",
      "340C",
      "340C",
      "340C",
      "340C",
      "340C",
      "340C",
      "340C",
      "340C",
      "340C",
      "340C",
      "340C",
      "340C",
      "340C",
      "340C",
      "340C",
      "340C",
      "340C",
      "340C",
      "340C",
      "340C",
      "340C",
      "340C",
      "340C",
      "340C",
      "340C",
      "340C",
      "340C",
      "340C",
      "340C",
      "340C",
      "340C",
      "340C",
      "340C",
      "340C",
      "340C",
      "340C",
      "340C",
      "340C",
      "340C",
      "340C",
      "340C",
      "340C",
      "340C",
      "340C",
      "340C",
      "340C",
      "340C",
      "340C",
      "340C",
      "340C",
      "340C",
      "340C",
      "340C",
      "340C",
      "340C",
      "340C",
      "340C",
      "340C",
      "340C",
      "340C",
      "340C",
      "340C",
      "340C",
      "340C",
      "340C",
      "340C",
      "340C",
      "340C",
      "340C",
      "340C",
      "340C",
      "340C",
      "340C",
      "340C",
      "340C",
      "340C",
      "340C",
      "340C",
      "340C",
      "340C",
      "340C",
      "340C",
      "340C",
      "340C",
      "340C",
      "340C",
      "340C",
      "340C",
      "340C",
      "340C",
      "340C",
      "340C",
      "340C",
      "340C",
      "340C",
      "340C",
      "340C",
      "340C",
      "340C",
      "340C",
      "340C",
      "340C",
      "340C",
      "340C",
      "340C",
      "340C",
      "340C",
      "340C",
      "340C",
      "340C",
      "340C",
      "340C",
      "340C",
      "340C",
      "340C",
      "340C",
      "340C",
      "340C",
      "340C",
      "340C",
      "340C",
      "340C",
      "340C",
      "340C",
      "340C",
      "340C",
      "340C",
      "340C",
      "340C",
      "340C",
      "340C",
      "340C",
      "340C",
      "340C",
      "340C",
      "340C",
      "340C",
      "340C",
      "340C",
      "340C",
      "340C",
      "340C",
      "340C",
      "340C",
      "340C",
      "340C",
      "340C",
      "340C",
      "340C",
      "340C",
      "340C",
      "340C",
      "340C",
      "340C",
      "340C",
      "340C",
      "340C",
      "340C",
      "340C",
      "340C",
      "340C",
      "340C",
      "340C",
      "340C",
      "340C",
      "340C",
      "340C",
      "340C",
      "340C",
      "340C",
      "340C",
      "340C",
      "340",
      "340",
      "340",
      "340",
      "288",
      "288",
      "222",
      "222",
      "139",
      "139",
      "139",
      "139",
      "139",
      "139",
      "112",
      "112",
      "112",
      "112",
      "098",
      "096",
      "072",
      "031",
      "031",
      "031",
      "031",
      "031",
      "013",
      "013",
      "013",
      "80",
      "80",
      "80",
      "80"
    ],
    "swim:geom": "path",
    "swim:speeds": [
      168,
      168,
      168,
      252,
      309,
      309,
      342,
      342,
      348,
      348,
      423,
      417,
      416,
      413,
      415,
      401,
      401,
      399,
      400,
      400,
      396,
      395,
      395,
      395,
      395,
      395,
      395,
      395,
      395,
      396,
      396,
      396,
      396,
      396,
      395,
      395,
      394,
      394,
      394,
      394,
      394,
      394,
      392,
      384,
      382,
      382,
      382,
      382,
      382,
      386,
      387,
      388,
      388,
      388,
      388,
      388,
      388,
      390,
      390,
      390,
      391,
      391,
      390,
      390,
      393,
      393,
      393,
      402,
      402,
      402,
      408,
      409,
      397,
      409,
      404,
      410,
      411,
      410,
      415,
      415,
      411,
      411,
      416,
      416,
      416,
      411,
      411,
      416,
      417,
      417,
      417,
      417,
      421,
      421,
      421,
      421,
      432,
      432,
      433,
      433,
      433,
      430,
      430,
      430,
      435,
      435,
      435,
      431,
      447,
      449,
      449,
      455,
      459,
      459,
      459,
      467,
      472,
      472,
      474,
      474,
      473,
      473,
      473,
      473,
      473,
      473,
      474,
      474,
      475,
      475,
      475,
      474,
      477,
      477,
      477,
      478,
      477,
      476,
      476,
      474,
      473,
      473,
      473,
      473,
      475,
      475,
      475,
      476,
      476,
      476,
      477,
      478,
      478,
      478,
      478,
      478,
      478,
      478,
      479,
      479,
      479,
      479,
      479,
      475,
      475,
      471,
      471,
      471,
      472,
      472,
      472,
      476,
      476,
      476,
      476,
      476,
      473,
      473,
      473,
      473,
      473,
      465,
      465,
      465,
      465,
      465,
      463,
      463,
      456,
      456,
      456,
      454,
      452,
      452,
      452,
      451,
      451,
      450,
      446,
      446,
      446,
      446,
      446,
      446,
      439,
      439,
      439,
      439,
      436,
      436,
      390,
      390,
      326,
      326,
      326,
      326,
      326,
      326,
      301,
      301,
      301,
      301,
      290,
      284,
      277,
      208,
      208,
      208,
      208,
      208,
      172,
      172,
      172,
      121,
      121,
      121,
      121
    ],
    "swim:timestamps": [
      1761306786,
      1761306786,
      1761306786,
      1761306995,
      1761307055,
      1761307055,
      1761307175,
      1761307175,
      1761307235,
      1761307235,
      1761307596,
      1761307716,
      1761307744,
      1761307776,
      1761307804,
      1761307924,
      1761307924,
      1761307956,
      1761307984,
      1761307984,
      1761308076,
      1761308164,
      1761308164,
      1761308164,
      1761308257,
      1761308257,
      1761308405,
      1761308405,
      1761308405,
      1761308617,
      1761308645,
      1761308677,
      1761308705,
      1761308705,
      1761308797,
      1761308797,
      1761308918,
      1761308978,
      1761309005,
      1761309005,
      1761309005,
      1761309066,
      1761309158,
      1761309306,
      1761309366,
      1761309366,
      1761309458,
      1761309458,
      1761309458,
      1761309666,
      1761309726,
      1761309786,
      1761309967,
      1761309967,
      1761310087,
      1761310087,
      1761310087,
      1761310147,
      1761310147,
      1761310147,
      1761310207,
      1761310387,
      1761310808,
      1761310808,
      1761310928,
      1761310928,
      1761310928,
      1761311228,
      1761311228,
      1761311228,
      1761311475,
      1761311529,
      1761311545,
      1761311589,
      1761311605,
      1761311649,
      1761311656,
      1761311722,
      1761311776,
      1761311829,
      1761311842,
      1761311842,
      1761311889,
      1761311889,
      1761311889,
      1761311903,
      1761311903,
      1761311949,
      1761312070,
      1761312070,
      1761312070,
      1761312083,
      1761312264,
      1761312264,
      1761312264,
      1761312565,
      1761312797,
      1761312797,
      1761312857,
      1761312857,
      1761312857,
      1761312865,
      1761312986,
      1761312986,
      1761313037,
      1761313037,
      1761313037,
      1761313106,
      1761313406,
      1761313466,
      1761313466,
      1761313518,
      1761313578,
      1761313578,
      1761313578,
      1761313758,
      1761313818,
      1761313818,
      1761313878,
      1761313878,
      1761313947,
      1761313947,
      1761313947,
      1761314067,
      1761314067,
      1761314067,
      1761314127,
      1761314127,
      1761314179,
      1761314179,
      1761314179,
      1761314187,
      1761314428,
      1761314428,
      1761314428,
      1761314548,
      1761314599,
      1761314668,
      1761314668,
      1761314728,
      1761314780,
      1761314780,
      1761314780,
      1761315029,
      1761315260,
      1761315260,
      1761315260,
      1761315329,
      1761315329,
      1761315329,
      1761315386,
      1761315446,
      1761315446,
      1761315446,
      1761315567,
      1761315627,
      1761315627,
      1761315627,
      1761315687,
      1761315807,
      1761315807,
      1761315807,
      1761315807,
      1761316107,
      1761316107,
      1761316408,
      1761316408,
      1761316408,
      1761316648,
      1761316648,
      1761316648,
      1761317369,
      1761317369,
      1761317369,
      1761317369,
      1761317369,
      1761317730,
      1761317730,
      1761317730,
      1761317730,
      1761317730,
      1761318151,
      1761318162,
      1761318162,
      1761318162,
      1761318162,
      1761318222,
      1761318222,
      1761318391,
      1761318391,
      1761318391,
      1761318451,
      1761318511,
      1761318511,
      1761318511,
      1761318763,
      1761318763,
      1761318823,
      1761319063,
      1761319063,
      1761319063,
      1761319063,
      1761319063,
      1761319063,
      1761319364,
      1761319364,
      1761319364,
      1761319364,
      1761319484,
      1761319484,
      1761319664,
      1761319664,
      1761319971,
      1761319971,
      1761319971,
      1761319971,
      1761319971,
      1761319971,
      1761320084,
      1761320084,
      1761320084,
      1761320084,
      1761320144,
      1761320151,
      1761320265,
      1761320505,
      1761320505,
      1761320505,
      1761320505,
      1761320505,
      1761320625,
      1761320625,
      1761320625,
      1761320745,
      1761320745,
      1761320745,
      1761320745
    ],
    "wof:geomhash": "ed1a9ffeb1c04cfb41ce719100fb4424",
    "wof:id": 1981751651,
    "wof:repo": "sfomuseum-data-flights-2025-10"
  },
  "bbox": [
    -122.37416666666665,
    37.493611111111115,
    -87.93333333333334,
    42.14222222222222
  ],
  "geometry": {"coordinates":[[-87.93333333333334,41.983333333333334],[-87.93333333333334,41.983333333333334],[-87.93333333333334,41.983333333333334],[-88.22,42.01305555555555],[-88.32111111111111,42.03944444444444],[-88.32111111111111,42.03944444444444],[-88.54972222222221,42.09805555555556],[-88.54972222222221,42.09805555555556],[-88.67166666666667,42.129444444444445],[-88.67166666666667,42.129444444444445],[-89.59583333333333,42.14222222222222],[-89.90666666666667,42.132222222222225],[-89.95361111111112,42.129444444444445],[-90.04527777777777,42.12777777777778],[-90.10749999999999,42.125],[-90.40611111111112,42.11333333333334],[-90.40611111111112,42.11333333333334],[-90.49388888888889,42.11138888888889],[-90.55416666666666,42.10777777777778],[-90.55416666666666,42.10777777777778],[-90.78777777777778,42.1],[-91.01222222222222,42.09055555555556],[-91.01222222222222,42.09055555555556],[-91.01222222222222,42.09055555555556],[-91.23166666666667,42.08111111111111],[-91.23166666666667,42.08111111111111],[-91.58805555555556,42.0825],[-91.58805555555556,42.0825],[-91.58805555555556,42.0825],[-92.12249999999999,42.08694444444445],[-92.18194444444445,42.08722222222222],[-92.27111111111111,42.087500000000006],[-92.33111111111111,42.08777777777778],[-92.33111111111111,42.08777777777778],[-92.56583333333333,42.08861111111111],[-92.56583333333333,42.08861111111111],[-92.8586111111111,42.08888888888889],[-93.00777777777778,42.08861111111111],[-93.06638888888888,42.08861111111111],[-93.06638888888888,42.08861111111111],[-93.06638888888888,42.08861111111111],[-93.21416666666667,42.088055555555556],[-93.44611111111111,42.08694444444445],[-93.79166666666667,42.09138888888889],[-93.92750000000001,42.093333333333334],[-93.92750000000001,42.093333333333334],[-94.15944444444445,42.09638888888889],[-94.15944444444445,42.09638888888889],[-94.15944444444445,42.09638888888889],[-94.64333333333335,42.10166666666667],[-94.78916666666666,42.10277777777778],[-94.935,42.10388888888889],[-95.36749999999999,42.105555555555554],[-95.36749999999999,42.105555555555554],[-95.65694444444445,42.091944444444444],[-95.65694444444445,42.091944444444444],[-95.65694444444445,42.091944444444444],[-95.83027777777778,42.0825],[-95.83027777777778,42.0825],[-95.83027777777778,42.0825],[-95.97638888888889,42.073888888888895],[-96.40944444444445,42.047777777777775],[-97.41611111111112,41.98083333333334],[-97.41611111111112,41.98083333333334],[-97.70777777777778,41.959722222222226],[-97.70777777777778,41.959722222222226],[-97.70777777777778,41.959722222222226],[-98.45444444444445,41.90277777777778],[-98.45444444444445,41.90277777777778],[-98.45444444444445,41.90277777777778],[-99.05944444444444,41.895833333333336],[-99.21388888888889,41.89361111111111],[-99.22166666666666,41.89222222222222],[-99.36388888888888,41.89138888888889],[-99.3761111111111,41.890277777777776],[-99.515,41.88861111111111],[-99.5175,41.88861111111111],[-99.68583333333333,41.884166666666665],[-99.84083333333332,41.882222222222225],[-99.9825,41.87916666666667],[-99.99416666666667,41.878055555555555],[-99.99416666666667,41.878055555555555],[-100.13388888888889,41.87583333333333],[-100.13388888888889,41.87583333333333],[-100.13388888888889,41.87583333333333],[-100.14777777777779,41.87444444444444],[-100.14777777777779,41.87444444444444],[-100.28888888888889,41.871944444444445],[-100.59722222222221,41.875277777777775],[-100.59722222222221,41.875277777777775],[-100.59722222222221,41.875277777777775],[-100.63111111111111,41.874722222222225],[-101.10055555555554,41.882777777777775],[-101.10055555555554,41.882777777777775],[-101.10055555555554,41.882777777777775],[-101.88611111111112,41.89222222222222],[-102.53027777777778,41.89611111111111],[-102.53027777777778,41.89611111111111],[-102.69111111111111,41.896388888888886],[-102.69111111111111,41.896388888888886],[-102.69111111111111,41.896388888888886],[-102.69111111111111,41.89666666666667],[-103.01416666666667,41.896388888888886],[-103.01416666666667,41.896388888888886],[-103.17666666666668,41.89555555555555],[-103.17666666666668,41.89555555555555],[-103.17666666666668,41.89555555555555],[-103.3386111111111,41.894999999999996],[-104.15444444444445,41.77333333333333],[-104.31916666666666,41.74333333333333],[-104.31916666666666,41.74333333333333],[-104.45138888888889,41.719166666666666],[-104.61666666666666,41.68861111111111],[-104.61666666666666,41.68861111111111],[-104.61666666666666,41.68861111111111],[-105.12083333333332,41.59305555555556],[-105.29138888888889,41.56055555555555],[-105.29138888888889,41.56055555555555],[-105.46222222222222,41.52722222222222],[-105.46222222222222,41.52722222222222],[-105.65861111111111,41.488055555555555],[-105.65861111111111,41.488055555555555],[-105.65861111111111,41.488055555555555],[-105.99805555555555,41.42055555555555],[-105.99805555555555,41.42055555555555],[-105.99805555555555,41.42055555555555],[-106.1675,41.386944444444445],[-106.1675,41.386944444444445],[-106.30972222222222,41.358333333333334],[-106.30972222222222,41.358333333333334],[-106.30972222222222,41.358333333333334],[-106.33638888888889,41.35194444444445],[-107.01444444444445,41.21222222222222],[-107.01444444444445,41.21222222222222],[-107.01444444444445,41.21222222222222],[-107.35416666666666,41.140277777777776],[-107.52305555555556,41.10388888888889],[-107.68944444444445,41.06805555555556],[-107.68944444444445,41.06805555555556],[-107.85694444444444,41.03138888888889],[-108.02305555555556,40.99444444444445],[-108.02305555555556,40.99444444444445],[-108.02305555555556,40.99444444444445],[-108.68333333333334,40.82472222222223],[-109.32722222222222,40.649166666666666],[-109.32722222222222,40.649166666666666],[-109.32722222222222,40.649166666666666],[-109.48833333333333,40.59777777777778],[-109.48833333333333,40.59777777777778],[-109.48833333333333,40.59777777777778],[-109.64916666666667,40.545833333333334],[-109.80888888888889,40.493611111111115],[-109.80888888888889,40.493611111111115],[-109.80888888888889,40.493611111111115],[-110.12583333333333,40.38972222222222],[-110.28611111111111,40.336666666666666],[-110.28611111111111,40.336666666666666],[-110.28611111111111,40.336666666666666],[-110.44722222222222,40.283055555555556],[-110.76416666666667,40.17666666666666],[-110.76416666666667,40.17666666666666],[-110.76416666666667,40.17666666666666],[-110.76416666666667,40.17666666666666],[-111.58,39.89722222222222],[-111.58,39.89722222222222],[-112.34416666666667,39.62833333333333],[-112.34416666666667,39.62833333333333],[-112.34416666666667,39.62833333333333],[-112.96138888888889,39.40555555555555],[-112.96138888888889,39.40555555555555],[-112.96138888888889,39.40555555555555],[-114.89166666666668,38.924166666666665],[-114.89166666666668,38.924166666666665],[-114.89166666666668,38.924166666666665],[-114.89166666666668,38.924166666666665],[-114.89166666666668,38.924166666666665],[-115.84777777777778,38.69277777777778],[-115.84777777777778,38.69277777777778],[-115.84777777777778,38.69277777777778],[-115.84777777777778,38.69277777777778],[-115.84777777777778,38.69277777777778],[-116.95138888888889,38.413888888888884],[-116.98305555555555,38.40555555555555],[-116.98305555555555,38.40555555555555],[-116.98305555555555,38.40555555555555],[-116.98305555555555,38.40555555555555],[-117.1375,38.36555555555556],[-117.1375,38.36555555555556],[-117.55277777777778,38.25055555555556],[-117.55277777777778,38.25055555555556],[-117.55277777777778,38.25055555555556],[-117.70305555555557,38.2075],[-117.85333333333332,38.16416666666667],[-117.85333333333332,38.16416666666667],[-117.85333333333332,38.16416666666667],[-118.47833333333334,37.98111111111111],[-118.47833333333334,37.98111111111111],[-118.62555555555555,37.93722222222222],[-119.26222222222222,37.83861111111111],[-119.26222222222222,37.83861111111111],[-119.26222222222222,37.83861111111111],[-119.26222222222222,37.83861111111111],[-119.26222222222222,37.83861111111111],[-119.26222222222222,37.83861111111111],[-120.02805555555555,37.74611111111111],[-120.02805555555555,37.74611111111111],[-120.02805555555555,37.74611111111111],[-120.02805555555555,37.74611111111111],[-120.32805555555555,37.70861111111111],[-120.32805555555555,37.70861111111111],[-120.75416666666666,37.658055555555556],[-120.75416666666666,37.658055555555556],[-121.38333333333334,37.583333333333336],[-121.38333333333334,37.583333333333336],[-121.38333333333334,37.583333333333336],[-121.38333333333334,37.583333333333336],[-121.38333333333334,37.583333333333336],[-121.38333333333334,37.583333333333336],[-121.58,37.55611111111111],[-121.58,37.55611111111111],[-121.58,37.55611111111111],[-121.58,37.55611111111111],[-121.67833333333334,37.53777777777778],[-121.68333333333334,37.53333333333333],[-121.86333333333333,37.493611111111115],[-122.17305555555556,37.53361111111111],[-122.17305555555556,37.53361111111111],[-122.17305555555556,37.53361111111111],[-122.17305555555556,37.53361111111111],[-122.17305555555556,37.53361111111111],[-122.285,37.58083333333334],[-122.285,37.58083333333334],[-122.285,37.58083333333334],[-122.37416666666665,37.61833333333333],[-122.37416666666665,37.61833333333333],[-122.37416666666665,37.61833333333333],[-122.37416666666665,37.61833333333333]],"type":"LineString"}
}
