{
  "id": 1981795907,
  "type": "Feature",
  "properties": {
    "geom:area": 0,
    "geom:bbox": "-122.266667,37.493611,-93.300000,44.900000",
    "geom:latitude": 40.67283702088891,
    "geom:longitude": -107.62368043950435,
    "src:alt_label": "swim-path",
    "src:geom": "swim",
    "swim:altitudes": [
      "028",
      "028",
      "028",
      "028",
      "032",
      "032",
      "057",
      "057",
      "057",
      "107",
      "107",
      "119",
      "119",
      "141",
      "141",
      "141",
      "181",
      "181",
      "181",
      "181",
      "236",
      "236",
      "236",
      "265",
      "265",
      "265",
      "300",
      "300",
      "300",
      "300",
      "300",
      "300",
      "320",
      "320",
      "320",
      "320",
      "320",
      "320",
      "320",
      "320",
      "320",
      "320",
      "320",
      "320",
      "320",
      "320",
      "320",
      "320",
      "320C",
      "320C",
      "320C",
      "320C",
      "320C",
      "320C",
      "320C",
      "320C",
      "320C",
      "320C",
      "320C",
      "320C",
      "320C",
      "320C",
      "320C",
      "320C",
      "320C",
      "320C",
      "320C",
      "320C",
      "320C",
      "320C",
      "320C",
      "320C",
      "320C",
      "320C",
      "320C",
      "320C",
      "320C",
      "320C",
      "320C",
      "320C",
      "320C",
      "320C",
      "320C",
      "320C",
      "320C",
      "320C",
      "320C",
      "320C",
      "320C",
      "320C",
      "320C",
      "320C",
      "320C",
      "320C",
      "320C",
      "320C",
      "320C",
      "320C",
      "320C",
      "320C",
      "320C",
      "320C",
      "320C",
      "320C",
      "320C",
      "320C",
      "320C",
      "320C",
      "320C",
      "320C",
      "320C",
      "320C",
      "340",
      "340",
      "340",
      "340",
      "340",
      "340",
      "340",
      "340",
      "340",
      "340",
      "340",
      "340",
      "360C",
      "360C",
      "360C",
      "360C",
      "360C",
      "360C",
      "360C",
      "360C",
      "360C",
      "360C",
      "360C",
      "360C",
      "360C",
      "360C",
      "360C",
      "360C",
      "360C",
      "360C",
      "360C",
      "360C",
      "360C",
      "360C",
      "360C",
      "360C",
      "360C",
      "360C",
      "360C",
      "360C",
      "360C",
      "360C",
      "360C",
      "360C",
      "360C",
      "360C",
      "360C",
      "360C",
      "360C",
      "360C",
      "360C",
      "360C",
      "360C",
      "360C",
      "360C",
      "360C",
      "360C",
      "360C",
      "360C",
      "360C",
      "360C",
      "360C",
      "360C",
      "360C",
      "360C",
      "360C",
      "360C",
      "360C",
      "360C",
      "360C",
      "360C",
      "360C",
      "360C",
      "360C",
      "360C",
      "360C",
      "360C",
      "360C",
      "360C",
      "360C",
      "360C",
      "360C",
      "360C",
      "360C",
      "360C",
      "360C",
      "360C",
      "360C",
      "360C",
      "360C",
      "360C",
      "360C",
      "360C",
      "360C",
      "360C",
      "360C",
      "360C",
      "360C",
      "360C",
      "360C",
      "360C",
      "360C",
      "360C",
      "360C",
      "360C",
      "360C",
      "360C",
      "360C",
      "360C",
      "360C",
      "360C",
      "360C",
      "360C",
      "360C",
      "360C",
      "360C",
      "360C",
      "360C",
      "360C",
      "360C",
      "360C",
      "360C",
      "360C",
      "360C",
      "360C",
      "360C",
      "360C",
      "360C",
      "360C",
      "360C",
      "360C",
      "360C",
      "360C",
      "360C",
      "360C",
      "360C",
      "360C",
      "360C",
      "360C",
      "360C",
      "360C",
      "360C",
      "360C",
      "360C",
      "360C",
      "360C",
      "360C",
      "360C",
      "360C",
      "360C",
      "360C",
      "360C",
      "360C",
      "360C",
      "360C",
      "360C",
      "360C",
      "360C",
      "360C",
      "360C",
      "360C",
      "360C",
      "360C",
      "360C",
      "360C",
      "360C",
      "360C",
      "360C",
      "360C",
      "360C",
      "360C",
      "360C",
      "360C",
      "360C",
      "360C",
      "360C",
      "360C",
      "360C",
      "360C",
      "360C",
      "360C",
      "360C",
      "360C",
      "360C",
      "360C",
      "360C",
      "360C",
      "360C",
      "360C",
      "360C",
      "360C",
      "360C",
      "360C",
      "360C",
      "360C",
      "360C",
      "360C",
      "360C",
      "360C",
      "359",
      "359",
      "359",
      "359",
      "329",
      "329",
      "329",
      "223",
      "223",
      "223",
      "203",
      "203",
      "203",
      "203",
      "203",
      "203",
      "203",
      "124",
      "124",
      "105",
      "105",
      "105",
      "105",
      "105",
      "072",
      "072",
      "072",
      "065",
      "065",
      "065",
      "046",
      "046",
      "046",
      "046",
      "046",
      "016",
      "016",
      "016",
      "016",
      "016",
      "016",
      "016"
    ],
    "swim:geom": "path",
    "swim:speeds": [
      220,
      220,
      220,
      220,
      232,
      232,
      272,
      272,
      272,
      297,
      297,
      360,
      360,
      377,
      377,
      377,
      405,
      405,
      405,
      405,
      434,
      434,
      434,
      446,
      446,
      446,
      465,
      465,
      465,
      465,
      465,
      465,
      464,
      464,
      464,
      464,
      464,
      464,
      464,
      464,
      464,
      464,
      464,
      464,
      464,
      464,
      464,
      464,
      478,
      478,
      478,
      478,
      478,
      478,
      480,
      480,
      480,
      480,
      480,
      482,
      482,
      482,
      488,
      488,
      488,
      488,
      488,
      451,
      451,
      451,
      453,
      453,
      453,
      453,
      453,
      453,
      453,
      453,
      453,
      453,
      453,
      455,
      455,
      457,
      457,
      457,
      458,
      456,
      458,
      458,
      458,
      458,
      459,
      458,
      458,
      457,
      457,
      457,
      457,
      458,
      458,
      458,
      457,
      457,
      457,
      457,
      454,
      454,
      454,
      454,
      454,
      454,
      448,
      448,
      448,
      448,
      448,
      448,
      448,
      448,
      445,
      445,
      445,
      445,
      447,
      436,
      436,
      439,
      439,
      435,
      435,
      435,
      435,
      435,
      434,
      434,
      434,
      434,
      434,
      434,
      434,
      432,
      432,
      432,
      432,
      424,
      424,
      424,
      424,
      424,
      424,
      424,
      424,
      425,
      425,
      425,
      425,
      425,
      425,
      429,
      429,
      429,
      429,
      431,
      431,
      429,
      429,
      431,
      431,
      431,
      431,
      431,
      429,
      429,
      429,
      429,
      429,
      429,
      429,
      428,
      429,
      429,
      429,
      429,
      427,
      427,
      425,
      425,
      423,
      421,
      421,
      421,
      421,
      421,
      421,
      421,
      422,
      422,
      422,
      422,
      422,
      422,
      422,
      425,
      425,
      425,
      425,
      425,
      425,
      425,
      421,
      421,
      421,
      421,
      421,
      419,
      419,
      419,
      418,
      418,
      418,
      418,
      418,
      416,
      416,
      416,
      416,
      416,
      416,
      414,
      414,
      414,
      414,
      414,
      414,
      414,
      414,
      414,
      414,
      413,
      413,
      413,
      413,
      413,
      413,
      413,
      413,
      414,
      414,
      414,
      414,
      414,
      414,
      411,
      411,
      411,
      411,
      415,
      415,
      415,
      415,
      415,
      415,
      415,
      414,
      414,
      414,
      414,
      414,
      414,
      414,
      414,
      417,
      417,
      417,
      417,
      417,
      421,
      421,
      421,
      421,
      421,
      421,
      421,
      419,
      419,
      419,
      418,
      418,
      418,
      418,
      418,
      416,
      416,
      416,
      416,
      416,
      416,
      416,
      420,
      421,
      421,
      421,
      421,
      421,
      421,
      421,
      421,
      421,
      421,
      421,
      420,
      420,
      420,
      420,
      441,
      441,
      441,
      391,
      391,
      391,
      383,
      383,
      383,
      383,
      383,
      383,
      383,
      342,
      342,
      324,
      324,
      324,
      324,
      324,
      268,
      268,
      268,
      258,
      258,
      258,
      205,
      205,
      205,
      205,
      205,
      182,
      182,
      182,
      182,
      182,
      182,
      182
    ],
    "swim:timestamps": [
      1761746324,
      1761746324,
      1761746324,
      1761746324,
      1761746341,
      1761746341,
      1761746401,
      1761746401,
      1761746401,
      1761746522,
      1761746522,
      1761746582,
      1761746582,
      1761746642,
      1761746642,
      1761746642,
      1761746762,
      1761746762,
      1761746762,
      1761746762,
      1761746942,
      1761746942,
      1761746942,
      1761747062,
      1761747062,
      1761747062,
      1761747243,
      1761747243,
      1761747243,
      1761747243,
      1761747243,
      1761747243,
      1761747363,
      1761747363,
      1761747483,
      1761747483,
      1761747483,
      1761747483,
      1761747723,
      1761747723,
      1761747723,
      1761747723,
      1761747723,
      1761747723,
      1761747723,
      1761747723,
      1761747723,
      1761747723,
      1761748084,
      1761748084,
      1761748084,
      1761748084,
      1761748084,
      1761748084,
      1761748144,
      1761748144,
      1761748144,
      1761748144,
      1761748144,
      1761748204,
      1761748204,
      1761748204,
      1761748504,
      1761748504,
      1761748504,
      1761748504,
      1761748504,
      1761748663,
      1761748663,
      1761748663,
      1761748731,
      1761748731,
      1761748792,
      1761748792,
      1761748792,
      1761748792,
      1761748912,
      1761748972,
      1761748972,
      1761748972,
      1761748972,
      1761749045,
      1761749045,
      1761749105,
      1761749105,
      1761749105,
      1761749144,
      1761749152,
      1761749165,
      1761749165,
      1761749165,
      1761749165,
      1761749204,
      1761749285,
      1761749285,
      1761749332,
      1761749332,
      1761749332,
      1761749332,
      1761749345,
      1761749345,
      1761749345,
      1761749384,
      1761749384,
      1761749384,
      1761749384,
      1761749564,
      1761749564,
      1761749564,
      1761749564,
      1761749564,
      1761749564,
      1761750045,
      1761750045,
      1761750045,
      1761750045,
      1761750045,
      1761750054,
      1761750054,
      1761750054,
      1761750165,
      1761750165,
      1761750165,
      1761750165,
      1761750294,
      1761750345,
      1761750345,
      1761750414,
      1761750414,
      1761750465,
      1761750465,
      1761750465,
      1761750465,
      1761750465,
      1761750525,
      1761750525,
      1761750525,
      1761750525,
      1761750525,
      1761750585,
      1761750585,
      1761750706,
      1761750706,
      1761750706,
      1761750706,
      1761751015,
      1761751015,
      1761751015,
      1761751015,
      1761751015,
      1761751066,
      1761751066,
      1761751066,
      1761751126,
      1761751126,
      1761751196,
      1761751196,
      1761751196,
      1761751196,
      1761751306,
      1761751306,
      1761751306,
      1761751306,
      1761751367,
      1761751367,
      1761751436,
      1761751436,
      1761751487,
      1761751487,
      1761751487,
      1761751487,
      1761751487,
      1761751556,
      1761751556,
      1761751616,
      1761751616,
      1761751616,
      1761751667,
      1761751667,
      1761751727,
      1761751736,
      1761751736,
      1761751736,
      1761751736,
      1761751797,
      1761751797,
      1761751847,
      1761751847,
      1761751917,
      1761752027,
      1761752027,
      1761752027,
      1761752097,
      1761752097,
      1761752097,
      1761752097,
      1761752148,
      1761752148,
      1761752157,
      1761752157,
      1761752157,
      1761752157,
      1761752157,
      1761752388,
      1761752388,
      1761752388,
      1761752388,
      1761752388,
      1761752388,
      1761752388,
      1761752638,
      1761752638,
      1761752638,
      1761752638,
      1761752638,
      1761752929,
      1761752929,
      1761752929,
      1761753059,
      1761753059,
      1761753059,
      1761753059,
      1761753059,
      1761753169,
      1761753169,
      1761753179,
      1761753179,
      1761753179,
      1761753179,
      1761753299,
      1761753299,
      1761753299,
      1761753299,
      1761753479,
      1761753479,
      1761753479,
      1761753479,
      1761753479,
      1761753479,
      1761754080,
      1761754080,
      1761754080,
      1761754080,
      1761754080,
      1761754080,
      1761754080,
      1761754080,
      1761754442,
      1761754442,
      1761754442,
      1761754442,
      1761754442,
      1761754442,
      1761754802,
      1761754802,
      1761754802,
      1761754802,
      1761754981,
      1761754981,
      1761754981,
      1761754981,
      1761754981,
      1761754981,
      1761754981,
      1761755041,
      1761755041,
      1761755041,
      1761755402,
      1761755402,
      1761755402,
      1761755402,
      1761755402,
      1761755582,
      1761755582,
      1761755582,
      1761755582,
      1761755582,
      1761755794,
      1761755794,
      1761755794,
      1761755854,
      1761755854,
      1761755854,
      1761755854,
      1761755974,
      1761755974,
      1761755974,
      1761756003,
      1761756003,
      1761756003,
      1761756003,
      1761756003,
      1761756244,
      1761756244,
      1761756244,
      1761756244,
      1761756244,
      1761756244,
      1761756244,
      1761756455,
      1761756604,
      1761756604,
      1761756604,
      1761756635,
      1761756635,
      1761756635,
      1761756635,
      1761756695,
      1761756695,
      1761756695,
      1761756695,
      1761756755,
      1761756755,
      1761756755,
      1761756755,
      1761756875,
      1761756875,
      1761756875,
      1761757511,
      1761757511,
      1761757511,
      1761757571,
      1761757571,
      1761757571,
      1761757571,
      1761757571,
      1761757571,
      1761757571,
      1761757811,
      1761757811,
      1761757876,
      1761757876,
      1761757876,
      1761757876,
      1761757876,
      1761758077,
      1761758077,
      1761758077,
      1761758116,
      1761758116,
      1761758116,
      1761758231,
      1761758231,
      1761758231,
      1761758231,
      1761758231,
      1761758411,
      1761758411,
      1761758411,
      1761758411,
      1761758411,
      1761758411,
      1761758411
    ],
    "wof:geomhash": "2139a9d9471aef0093f5f53f344c3a1c",
    "wof:id": 1981795907,
    "wof:repo": "sfomuseum-data-flights-2025-10"
  },
  "bbox": [
    -122.26666666666667,
    37.493611111111115,
    -93.3,
    44.9
  ],
  "geometry": {"coordinates":[[-93.3,44.9],[-93.3,44.9],[-93.3,44.9],[-93.3,44.9],[-93.32138888888889,44.89666666666667],[-93.32138888888889,44.89666666666667],[-93.42472222222223,44.89277777777778],[-93.42472222222223,44.89277777777778],[-93.42472222222223,44.89277777777778],[-93.59666666666666,44.80333333333333],[-93.59666666666666,44.80333333333333],[-93.69222222222223,44.73861111111111],[-93.69222222222223,44.73861111111111],[-93.79722222222222,44.66555555555556],[-93.79722222222222,44.66555555555556],[-93.79722222222222,44.66555555555556],[-94.01972222222223,44.51166666666666],[-94.01972222222223,44.51166666666666],[-94.01972222222223,44.51166666666666],[-94.01972222222223,44.51166666666666],[-94.4075,44.28527777777778],[-94.4075,44.28527777777778],[-94.4075,44.28527777777778],[-94.69500000000001,44.14888888888889],[-94.69500000000001,44.14888888888889],[-94.69500000000001,44.14888888888889],[-95.16361111111112,43.96333333333334],[-95.16361111111112,43.96333333333334],[-95.16361111111112,43.96333333333334],[-95.16361111111112,43.96333333333334],[-95.16361111111112,43.96333333333334],[-95.16361111111112,43.96333333333334],[-95.47722222222222,43.83722222222222],[-95.47722222222222,43.83722222222222],[-95.79083333333332,43.71],[-95.79083333333332,43.71],[-95.79083333333332,43.71],[-95.79083333333332,43.71],[-96.41166666666668,43.453611111111115],[-96.41166666666668,43.453611111111115],[-96.41166666666668,43.453611111111115],[-96.41166666666668,43.453611111111115],[-96.41166666666668,43.453611111111115],[-96.41166666666668,43.453611111111115],[-96.41166666666668,43.453611111111115],[-96.41166666666668,43.453611111111115],[-96.41166666666668,43.453611111111115],[-96.41166666666668,43.453611111111115],[-97.33999999999999,43.06055555555555],[-97.33999999999999,43.06055555555555],[-97.33999999999999,43.06055555555555],[-97.33999999999999,43.06055555555555],[-97.33999999999999,43.06055555555555],[-97.33999999999999,43.06055555555555],[-97.49916666666667,42.99138888888889],[-97.49916666666667,42.99138888888889],[-97.49916666666667,42.99138888888889],[-97.49916666666667,42.99138888888889],[-97.49916666666667,42.99138888888889],[-97.65611111111112,42.92305555555555],[-97.65611111111112,42.92305555555555],[-97.65611111111112,42.92305555555555],[-98.45666666666666,42.569722222222225],[-98.45666666666666,42.569722222222225],[-98.45666666666666,42.569722222222225],[-98.45666666666666,42.569722222222225],[-98.45666666666666,42.569722222222225],[-98.86999999999999,42.44694444444444],[-98.86999999999999,42.44694444444444],[-98.86999999999999,42.44694444444444],[-99.04333333333334,42.41444444444444],[-99.04333333333334,42.41444444444444],[-99.20555555555556,42.385],[-99.20555555555556,42.385],[-99.20555555555556,42.385],[-99.20555555555556,42.385],[-99.53388888888888,42.32416666666667],[-99.70222222222222,42.2925],[-99.70222222222222,42.2925],[-99.70222222222222,42.2925],[-99.70222222222222,42.2925],[-99.92555555555556,42.251666666666665],[-99.92555555555556,42.251666666666665],[-100.09277777777777,42.219722222222224],[-100.09277777777777,42.219722222222224],[-100.09277777777777,42.219722222222224],[-100.20305555555557,42.198611111111106],[-100.2175,42.193888888888885],[-100.25861111111111,42.187777777777775],[-100.25861111111111,42.187777777777775],[-100.25861111111111,42.187777777777775],[-100.25861111111111,42.187777777777775],[-100.36916666666666,42.16638888888889],[-100.58611111111111,42.12388888888889],[-100.58611111111111,42.12388888888889],[-100.71388888888889,42.09583333333334],[-100.71388888888889,42.09583333333334],[-100.71388888888889,42.09583333333334],[-100.71388888888889,42.09583333333334],[-100.75083333333333,42.09055555555556],[-100.75083333333333,42.09055555555556],[-100.75083333333333,42.09055555555556],[-100.86138888888888,42.06916666666667],[-100.86138888888888,42.06916666666667],[-100.86138888888888,42.06916666666667],[-100.86138888888888,42.06916666666667],[-101.35111111111111,41.97027777777778],[-101.35111111111111,41.97027777777778],[-101.35111111111111,41.97027777777778],[-101.35111111111111,41.97027777777778],[-101.35111111111111,41.97027777777778],[-101.35111111111111,41.97027777777778],[-102.625,41.70138888888889],[-102.625,41.70138888888889],[-102.625,41.70138888888889],[-102.625,41.70138888888889],[-102.625,41.70138888888889],[-102.65555555555557,41.696666666666665],[-102.65555555555557,41.696666666666665],[-102.65555555555557,41.696666666666665],[-102.94083333333333,41.6325],[-102.94083333333333,41.6325],[-102.94083333333333,41.6325],[-102.94083333333333,41.6325],[-103.28611111111111,41.555277777777775],[-103.40944444444445,41.52777777777778],[-103.40944444444445,41.52777777777778],[-103.5936111111111,41.48638888888889],[-103.5936111111111,41.48638888888889],[-103.71861111111112,41.45777777777778],[-103.71861111111112,41.45777777777778],[-103.71861111111112,41.45777777777778],[-103.71861111111112,41.45777777777778],[-103.71861111111112,41.45777777777778],[-103.87083333333332,41.422777777777775],[-103.87083333333332,41.422777777777775],[-103.87083333333332,41.422777777777775],[-103.87083333333332,41.422777777777775],[-103.87083333333332,41.422777777777775],[-104.02527777777777,41.386944444444445],[-104.02527777777777,41.386944444444445],[-104.32972222222222,41.316111111111105],[-104.32972222222222,41.316111111111105],[-104.32972222222222,41.316111111111105],[-104.32972222222222,41.316111111111105],[-105.11388888888888,41.151666666666664],[-105.11388888888888,41.151666666666664],[-105.11388888888888,41.151666666666664],[-105.11388888888888,41.151666666666664],[-105.11388888888888,41.151666666666664],[-105.23972222222223,41.129444444444445],[-105.23972222222223,41.129444444444445],[-105.23972222222223,41.129444444444445],[-105.39083333333333,41.10277777777778],[-105.39083333333333,41.10277777777778],[-105.57138888888889,41.07055555555556],[-105.57138888888889,41.07055555555556],[-105.57138888888889,41.07055555555556],[-105.57138888888889,41.07055555555556],[-105.85249999999999,41.019444444444446],[-105.85249999999999,41.019444444444446],[-105.85249999999999,41.019444444444446],[-105.85249999999999,41.019444444444446],[-106.00111111111111,40.992222222222225],[-106.00111111111111,40.992222222222225],[-106.18722222222223,40.95722222222223],[-106.18722222222223,40.95722222222223],[-106.3086111111111,40.934999999999995],[-106.3086111111111,40.934999999999995],[-106.3086111111111,40.934999999999995],[-106.3086111111111,40.934999999999995],[-106.3086111111111,40.934999999999995],[-106.49305555555556,40.89972222222222],[-106.49305555555556,40.89972222222222],[-106.64555555555556,40.87],[-106.64555555555556,40.87],[-106.64555555555556,40.87],[-106.76722222222222,40.848333333333336],[-106.76722222222222,40.848333333333336],[-106.92083333333333,40.81888888888889],[-106.94944444444445,40.8125],[-106.94944444444445,40.8125],[-106.94944444444445,40.8125],[-106.94944444444445,40.8125],[-107.09944444444444,40.78333333333333],[-107.09944444444444,40.78333333333333],[-107.2213888888889,40.76027777777778],[-107.2213888888889,40.76027777777778],[-107.39972222222222,40.72527777777778],[-107.67083333333333,40.67111111111111],[-107.67083333333333,40.67111111111111],[-107.67083333333333,40.67111111111111],[-107.84527777777777,40.63611111111111],[-107.84527777777777,40.63611111111111],[-107.84527777777777,40.63611111111111],[-107.84527777777777,40.63611111111111],[-107.97527777777778,40.609722222222224],[-107.97527777777778,40.609722222222224],[-107.99527777777777,40.605555555555554],[-107.99527777777777,40.605555555555554],[-107.99527777777777,40.605555555555554],[-107.99527777777777,40.605555555555554],[-107.99527777777777,40.605555555555554],[-108.56,40.48916666666667],[-108.56,40.48916666666667],[-108.56,40.48916666666667],[-108.56,40.48916666666667],[-108.56,40.48916666666667],[-108.56,40.48916666666667],[-108.56,40.48916666666667],[-109.18055555555556,40.3575],[-109.18055555555556,40.3575],[-109.18055555555556,40.3575],[-109.18055555555556,40.3575],[-109.18055555555556,40.3575],[-109.90805555555556,40.198055555555555],[-109.90805555555556,40.198055555555555],[-109.90805555555556,40.198055555555555],[-110.19444444444444,40.126111111111115],[-110.19444444444444,40.126111111111115],[-110.19444444444444,40.126111111111115],[-110.19444444444444,40.126111111111115],[-110.19444444444444,40.126111111111115],[-110.46916666666667,40.03138888888889],[-110.46916666666667,40.03138888888889],[-110.46916666666667,40.03138888888889],[-110.46916666666667,40.03138888888889],[-110.46916666666667,40.03138888888889],[-110.46916666666667,40.03138888888889],[-110.74138888888889,39.93694444444444],[-110.74138888888889,39.93694444444444],[-110.74138888888889,39.93694444444444],[-110.74138888888889,39.93694444444444],[-111.14833333333334,39.79388888888889],[-111.14833333333334,39.79388888888889],[-111.14833333333334,39.79388888888889],[-111.14833333333334,39.79388888888889],[-111.14833333333334,39.79388888888889],[-111.14833333333334,39.79388888888889],[-112.60222222222221,39.47416666666667],[-112.60222222222221,39.47416666666667],[-112.60222222222221,39.47416666666667],[-112.60222222222221,39.47416666666667],[-112.60222222222221,39.47416666666667],[-112.60222222222221,39.47416666666667],[-112.60222222222221,39.47416666666667],[-112.60222222222221,39.47416666666667],[-113.45694444444445,39.27861111111111],[-113.45694444444445,39.27861111111111],[-113.45694444444445,39.27861111111111],[-113.45694444444445,39.27861111111111],[-113.45694444444445,39.27861111111111],[-113.45694444444445,39.27861111111111],[-114.27833333333334,39.08361111111111],[-114.27833333333334,39.08361111111111],[-114.27833333333334,39.08361111111111],[-114.27833333333334,39.08361111111111],[-114.7238888888889,38.975],[-114.7238888888889,38.975],[-114.7238888888889,38.975],[-114.7238888888889,38.975],[-114.7238888888889,38.975],[-114.7238888888889,38.975],[-114.7238888888889,38.975],[-114.86472222222221,38.94027777777777],[-114.86472222222221,38.94027777777777],[-114.86472222222221,38.94027777777777],[-115.69944444444445,38.730000000000004],[-115.69944444444445,38.730000000000004],[-115.69944444444445,38.730000000000004],[-115.69944444444445,38.730000000000004],[-115.69944444444445,38.730000000000004],[-116.12388888888889,38.620555555555555],[-116.12388888888889,38.620555555555555],[-116.12388888888889,38.620555555555555],[-116.12388888888889,38.620555555555555],[-116.12388888888889,38.620555555555555],[-116.63305555555554,38.486666666666665],[-116.63305555555554,38.486666666666665],[-116.63305555555554,38.486666666666665],[-116.77527777777777,38.448611111111106],[-116.77527777777777,38.448611111111106],[-116.77527777777777,38.448611111111106],[-116.77527777777777,38.448611111111106],[-117.05277777777778,38.37388888888889],[-117.05277777777778,38.37388888888889],[-117.05277777777778,38.37388888888889],[-117.10666666666665,38.35944444444445],[-117.10666666666665,38.35944444444445],[-117.10666666666665,38.35944444444445],[-117.10666666666665,38.35944444444445],[-117.10666666666665,38.35944444444445],[-117.65277777777779,38.21],[-117.65277777777779,38.21],[-117.65277777777779,38.21],[-117.65277777777779,38.21],[-117.65277777777779,38.21],[-117.65277777777779,38.21],[-117.65277777777779,38.21],[-118.15833333333335,38.06861111111112],[-118.49083333333333,37.974444444444444],[-118.49083333333333,37.974444444444444],[-118.49083333333333,37.974444444444444],[-118.57666666666667,37.95194444444445],[-118.57666666666667,37.95194444444445],[-118.57666666666667,37.95194444444445],[-118.57666666666667,37.95194444444445],[-118.7238888888889,37.93222222222222],[-118.7238888888889,37.93222222222222],[-118.7238888888889,37.93222222222222],[-118.7238888888889,37.93222222222222],[-118.86861111111111,37.91305555555555],[-118.86861111111111,37.91305555555555],[-118.86861111111111,37.91305555555555],[-118.86861111111111,37.91305555555555],[-119.15972222222223,37.87416666666667],[-119.15972222222223,37.87416666666667],[-119.15972222222223,37.87416666666667],[-120.8,37.65],[-120.8,37.65],[-120.8,37.65],[-120.93333333333334,37.63333333333333],[-120.93333333333334,37.63333333333333],[-120.93333333333334,37.63333333333333],[-120.93333333333334,37.63333333333333],[-120.93333333333334,37.63333333333333],[-120.93333333333334,37.63333333333333],[-120.93333333333334,37.63333333333333],[-121.43333333333334,37.56666666666667],[-121.43333333333334,37.56666666666667],[-121.55,37.56666666666667],[-121.55,37.56666666666667],[-121.55,37.56666666666667],[-121.55,37.56666666666667],[-121.55,37.56666666666667],[-121.8611111111111,37.493611111111115],[-121.8611111111111,37.493611111111115],[-121.8611111111111,37.493611111111115],[-121.93333333333334,37.5],[-121.93333333333334,37.5],[-121.93333333333334,37.5],[-122.08333333333333,37.516666666666666],[-122.08333333333333,37.516666666666666],[-122.08333333333333,37.516666666666666],[-122.08333333333333,37.516666666666666],[-122.08333333333333,37.516666666666666],[-122.26666666666667,37.583333333333336],[-122.26666666666667,37.583333333333336],[-122.26666666666667,37.583333333333336],[-122.26666666666667,37.583333333333336],[-122.26666666666667,37.583333333333336],[-122.26666666666667,37.583333333333336],[-122.26666666666667,37.583333333333336]],"type":"LineString"}
}
