{
  "id": 1981739805,
  "type": "Feature",
  "properties": {
    "geom:area": 0,
    "geom:bbox": "-122.386389,33.533333,-84.083333,38.652500",
    "geom:latitude": 37.5907531418089,
    "geom:longitude": -102.62110705407606,
    "src:alt_label": "swim-path",
    "src:geom": "swim",
    "swim:altitudes": [
      "011",
      "011",
      "095",
      "117",
      "117",
      "150",
      "327",
      "370C",
      "370C",
      "370C",
      "370C",
      "370C",
      "370C",
      "370C",
      "370C",
      "370C",
      "370C",
      "370C",
      "370C",
      "370C",
      "370C",
      "370C",
      "370C",
      "370C",
      "370C",
      "370C",
      "370C",
      "370C",
      "370C",
      "370C",
      "370C",
      "370C",
      "370C",
      "370C",
      "370C",
      "370C",
      "370C",
      "370C",
      "370C",
      "370C",
      "370C",
      "370C",
      "370C",
      "370C",
      "370C",
      "370C",
      "370C",
      "370C",
      "370C",
      "370C",
      "370C",
      "370C",
      "370C",
      "370C",
      "370C",
      "370C",
      "370C",
      "370C",
      "370C",
      "370C",
      "370C",
      "370C",
      "370C",
      "370C",
      "370C",
      "370C",
      "370C",
      "370C",
      "370C",
      "370C",
      "370C",
      "370C",
      "370C",
      "370C",
      "370C",
      "370C",
      "370C",
      "370C",
      "370C",
      "370C",
      "370C",
      "370C",
      "370C",
      "370C",
      "370C",
      "370C",
      "370C",
      "370C",
      "370C",
      "370C",
      "370C",
      "370C",
      "370C",
      "370C",
      "370C",
      "370C",
      "370C",
      "370C",
      "370C",
      "370C",
      "370C",
      "370C",
      "370C",
      "370C",
      "370C",
      "370C",
      "370C",
      "370C",
      "370C",
      "370C",
      "370C",
      "370C",
      "370C",
      "370C",
      "370C",
      "370C",
      "370C",
      "370C",
      "370C",
      "370C",
      "370C",
      "370C",
      "370C",
      "370C",
      "370C",
      "370C",
      "370C",
      "370C",
      "370C",
      "370C",
      "370C",
      "370C",
      "370C",
      "370C",
      "370C",
      "370C",
      "370C",
      "370C",
      "370C",
      "370C",
      "370C",
      "370C",
      "370C",
      "370C",
      "370C",
      "370C",
      "370C",
      "370C",
      "370C",
      "370C",
      "370C",
      "370C",
      "370C",
      "370C",
      "370C",
      "370C",
      "370C",
      "370C",
      "370C",
      "370C",
      "370C",
      "370C",
      "370C",
      "370C",
      "370C",
      "370C",
      "370C",
      "370C",
      "355",
      "350C",
      "350C",
      "350C",
      "350C",
      "350",
      "350",
      "334",
      "290",
      "225",
      "225",
      "151",
      "130",
      "130",
      "130",
      "130",
      "130",
      "129",
      "090",
      "073",
      "058",
      "047",
      "047",
      "040",
      "040",
      "040",
      "040",
      "040",
      "030",
      "023",
      "009",
      "009",
      "009"
    ],
    "swim:geom": "path",
    "swim:speeds": [
      176,
      176,
      277,
      333,
      333,
      364,
      491,
      479,
      479,
      479,
      479,
      479,
      479,
      480,
      483,
      483,
      486,
      490,
      490,
      495,
      495,
      495,
      495,
      495,
      494,
      495,
      494,
      494,
      494,
      494,
      494,
      494,
      495,
      495,
      495,
      495,
      495,
      495,
      498,
      498,
      499,
      499,
      506,
      508,
      508,
      508,
      506,
      504,
      504,
      503,
      501,
      501,
      499,
      499,
      498,
      500,
      500,
      500,
      501,
      496,
      497,
      498,
      498,
      498,
      500,
      500,
      500,
      501,
      503,
      504,
      506,
      506,
      507,
      507,
      507,
      507,
      507,
      507,
      507,
      507,
      507,
      507,
      509,
      518,
      517,
      517,
      516,
      516,
      522,
      522,
      523,
      523,
      523,
      523,
      521,
      521,
      522,
      525,
      525,
      523,
      526,
      526,
      526,
      526,
      526,
      524,
      525,
      528,
      528,
      529,
      529,
      531,
      532,
      534,
      534,
      534,
      534,
      536,
      536,
      537,
      537,
      537,
      536,
      536,
      536,
      536,
      537,
      537,
      540,
      540,
      540,
      541,
      540,
      540,
      541,
      540,
      540,
      540,
      540,
      543,
      543,
      543,
      543,
      542,
      542,
      543,
      542,
      543,
      543,
      546,
      546,
      546,
      550,
      552,
      556,
      558,
      569,
      569,
      579,
      581,
      581,
      580,
      579,
      579,
      580,
      579,
      580,
      580,
      584,
      575,
      560,
      557,
      553,
      553,
      553,
      555,
      534,
      496,
      496,
      433,
      425,
      427,
      427,
      417,
      337,
      297,
      273,
      229,
      223,
      216,
      216,
      181,
      165,
      165,
      172,
      174,
      163,
      147,
      127,
      127,
      127
    ],
    "swim:timestamps": [
      1761197054,
      1761197054,
      1761197294,
      1761197354,
      1761197354,
      1761197414,
      1761197895,
      1761198435,
      1761198435,
      1761198495,
      1761198555,
      1761198555,
      1761198615,
      1761198675,
      1761198855,
      1761198855,
      1761198975,
      1761199035,
      1761199035,
      1761199215,
      1761199215,
      1761199395,
      1761199395,
      1761199395,
      1761199515,
      1761199635,
      1761199759,
      1761199759,
      1761199819,
      1761199879,
      1761199879,
      1761199940,
      1761200001,
      1761200061,
      1761200120,
      1761200242,
      1761200242,
      1761200300,
      1761200420,
      1761200420,
      1761200481,
      1761200540,
      1761200600,
      1761200660,
      1761200660,
      1761200720,
      1761200840,
      1761200900,
      1761200900,
      1761200961,
      1761201065,
      1761201080,
      1761201125,
      1761201140,
      1761201185,
      1761201200,
      1761201245,
      1761201245,
      1761201320,
      1761201380,
      1761201425,
      1761201485,
      1761201485,
      1761201500,
      1761201545,
      1761201545,
      1761201605,
      1761201682,
      1761201742,
      1761201800,
      1761201845,
      1761201860,
      1761201905,
      1761201905,
      1761201920,
      1761201965,
      1761201965,
      1761201980,
      1761202040,
      1761202085,
      1761202146,
      1761202206,
      1761202326,
      1761202506,
      1761202566,
      1761202566,
      1761202626,
      1761202626,
      1761202746,
      1761202746,
      1761202806,
      1761202866,
      1761203046,
      1761203046,
      1761203226,
      1761203226,
      1761203286,
      1761203406,
      1761203466,
      1761203506,
      1761203526,
      1761203526,
      1761203586,
      1761203646,
      1761203706,
      1761203748,
      1761203807,
      1761203826,
      1761203826,
      1761203886,
      1761203926,
      1761204007,
      1761204067,
      1761204105,
      1761204127,
      1761204127,
      1761204127,
      1761204307,
      1761204346,
      1761204406,
      1761204487,
      1761204487,
      1761204526,
      1761204588,
      1761204607,
      1761204646,
      1761204709,
      1761204709,
      1761204887,
      1761204947,
      1761204947,
      1761205066,
      1761205189,
      1761205189,
      1761205788,
      1761205849,
      1761205849,
      1761205907,
      1761205968,
      1761205993,
      1761206053,
      1761206053,
      1761206053,
      1761206147,
      1761206147,
      1761206209,
      1761206233,
      1761206269,
      1761206353,
      1761206387,
      1761206387,
      1761206473,
      1761206568,
      1761206810,
      1761206953,
      1761207170,
      1761207409,
      1761207409,
      1761207829,
      1761207974,
      1761208034,
      1761208213,
      1761208393,
      1761208393,
      1761208454,
      1761208514,
      1761208574,
      1761208574,
      1761208694,
      1761208934,
      1761209174,
      1761209234,
      1761209354,
      1761209474,
      1761209474,
      1761209534,
      1761209654,
      1761209894,
      1761209894,
      1761210074,
      1761210134,
      1761210216,
      1761210216,
      1761210258,
      1761210375,
      1761210552,
      1761210675,
      1761210744,
      1761210795,
      1761210855,
      1761210855,
      1761210924,
      1761210985,
      1761210985,
      1761211104,
      1761211155,
      1761211218,
      1761211275,
      1761211395,
      1761211395,
      1761211395
    ],
    "wof:geomhash": "7bdcbf5f1d0940060d3307ed14d009cb",
    "wof:id": 1981739805,
    "wof:repo": "sfomuseum-data-flights-2025-10"
  },
  "bbox": [
    -122.3863888888889,
    33.53333333333333,
    -84.08333333333333,
    38.652499999999996
  ],
  "geometry": {"coordinates":[[-122.36,37.63722222222222],[-122.36,37.63722222222222],[-122.3863888888889,37.86555555555556],[-122.36083333333333,37.94222222222222],[-122.36083333333333,37.94222222222222],[-122.24083333333333,37.97],[-120.99972222222222,38.00694444444444],[-119.49861111111112,38.22972222222222],[-119.49861111111112,38.22972222222222],[-119.32555555555555,38.25388888888889],[-119.1575,38.277499999999996],[-119.1575,38.277499999999996],[-118.99055555555556,38.30027777777777],[-118.82444444444444,38.323055555555555],[-118.31805555555555,38.390277777777776],[-118.31805555555555,38.390277777777776],[-117.97472222222223,38.43472222222222],[-117.8025,38.45666666666667],[-117.8025,38.45666666666667],[-117.27777777777777,38.51833333333333],[-117.27777777777777,38.51833333333333],[-116.74527777777777,38.50888888888889],[-116.74527777777777,38.50888888888889],[-116.74527777777777,38.50888888888889],[-116.39333333333335,38.5],[-116.07555555555555,38.49111111111111],[-115.69,38.47888888888889],[-115.69,38.47888888888889],[-115.51666666666667,38.473055555555554],[-115.3425,38.466944444444444],[-115.3425,38.466944444444444],[-115.1713888888889,38.46138888888889],[-114.99722222222222,38.48694444444445],[-114.82527777777777,38.51555555555556],[-114.65277777777779,38.544444444444444],[-114.30777777777777,38.59166666666667],[-114.30777777777777,38.59166666666667],[-114.13416666666667,38.60388888888889],[-113.78,38.62444444444444],[-113.78,38.62444444444444],[-113.60249999999999,38.634166666666665],[-113.42472222222223,38.63972222222222],[-113.24444444444444,38.645833333333336],[-113.06361111111111,38.651944444444446],[-113.06361111111111,38.651944444444446],[-112.88166666666666,38.652499999999996],[-112.52472222222222,38.645833333333336],[-112.34583333333333,38.64333333333333],[-112.34583333333333,38.64333333333333],[-112.16444444444446,38.64111111111111],[-111.86305555555555,38.63666666666666],[-111.81027777777777,38.63583333333333],[-111.70555555555556,38.63388888888889],[-111.63388888888889,38.6325],[-111.5286111111111,38.63055555555555],[-111.45666666666666,38.62916666666667],[-111.34805555555555,38.62694444444445],[-111.34805555555555,38.62694444444445],[-111.09916666666666,38.62166666666667],[-110.92472222222223,38.6175],[-110.79694444444445,38.61416666666667],[-110.61888888888888,38.60944444444445],[-110.61888888888888,38.60944444444445],[-110.58277777777778,38.60861111111111],[-110.44194444444445,38.60444444444445],[-110.44194444444445,38.60444444444445],[-110.265,38.599444444444444],[-110.0525,38.59277777777778],[-109.87333333333332,38.58694444444445],[-109.69583333333334,38.58083333333334],[-109.55361111111111,38.575833333333335],[-109.51472222222222,38.574444444444445],[-109.37222222222222,38.56916666666667],[-109.37222222222222,38.56916666666667],[-109.33722222222222,38.56777777777778],[-109.19361111111111,38.56222222222222],[-109.19361111111111,38.56222222222222],[-109.1575,38.56083333333333],[-108.97944444444444,38.55361111111111],[-108.83805555555556,38.547777777777775],[-108.65694444444445,38.54],[-108.48,38.53194444444444],[-108.12166666666666,38.515],[-107.57444444444444,38.48722222222222],[-107.3938888888889,38.4775],[-107.3938888888889,38.4775],[-107.21027777777778,38.467222222222226],[-107.21027777777778,38.467222222222226],[-106.8325,38.44555555555555],[-106.8325,38.44555555555555],[-106.64722222222223,38.43416666666666],[-106.465,38.42305555555555],[-105.905,38.38638888888889],[-105.905,38.38638888888889],[-105.36416666666666,38.348333333333336],[-105.36416666666666,38.348333333333336],[-105.16916666666667,38.33416666666667],[-104.79944444444445,38.30638888888888],[-104.61472222222221,38.29194444444444],[-104.49833333333333,38.28111111111111],[-104.43027777777779,38.27722222222222],[-104.43027777777779,38.27722222222222],[-104.24305555555556,38.261944444444445],[-104.05638888888889,38.24666666666667],[-103.87027777777777,38.23083333333334],[-103.75694444444444,38.22166666666667],[-103.57194444444444,38.205000000000005],[-103.53444444444445,38.20166666666667],[-103.53444444444445,38.20166666666667],[-103.34861111111111,38.184999999999995],[-103.20277777777778,38.17194444444444],[-102.97527777777778,38.15083333333333],[-102.78833333333333,38.13333333333333],[-102.64305555555556,38.11944444444445],[-102.60166666666666,38.11555555555556],[-102.60166666666666,38.11555555555556],[-102.60166666666666,38.11555555555556],[-102.03888888888889,38.05972222222222],[-101.89305555555556,38.04472222222222],[-101.70416666666667,38.025277777777774],[-101.47638888888889,38.00138888888889],[-101.47638888888889,38.00138888888889],[-101.33027777777778,37.98583333333333],[-101.14166666666668,37.96527777777778],[-101.10249999999999,37.961111111111116],[-100.95194444444445,37.94444444444444],[-100.76333333333334,37.92361111111111],[-100.76333333333334,37.92361111111111],[-100.22638888888889,37.89694444444444],[-100.03888888888889,37.888333333333335],[-100.03888888888889,37.888333333333335],[-99.66027777777778,37.86972222222222],[-99.28305555555555,37.849722222222226],[-99.28305555555555,37.849722222222226],[-97.38111111111111,37.73388888888889],[-97.18388888888889,37.723333333333336],[-97.18388888888889,37.723333333333336],[-96.99472222222222,37.712500000000006],[-96.80722222222222,37.70166666666667],[-96.71611111111112,37.69638888888888],[-96.56388888888888,37.68611111111111],[-96.56388888888888,37.68611111111111],[-96.56388888888888,37.68611111111111],[-96.24166666666667,37.66611111111111],[-96.24166666666667,37.66611111111111],[-96.06944444444444,37.655],[-95.99472222222222,37.64888888888889],[-95.87666666666667,37.64222222222222],[-95.6125,37.62277777777778],[-95.49416666666667,37.61555555555556],[-95.49416666666667,37.61555555555556],[-95.22666666666667,37.59638888888889],[-94.91388888888889,37.573055555555555],[-94.14111111111112,37.51166666666666],[-93.65222222222222,37.46194444444445],[-92.99916666666667,37.38805555555555],[-92.22583333333334,37.276944444444446],[-92.22583333333334,37.276944444444446],[-90.83361111111111,37.01694444444444],[-90.36305555555555,36.925555555555555],[-90.16694444444445,36.88666666666666],[-89.60111111111111,36.77333333333333],[-89.02027777777778,36.65416666666667],[-89.02027777777778,36.65416666666667],[-88.82638888888889,36.61333333333334],[-88.63555555555556,36.571111111111115],[-88.44055555555556,36.52916666666667],[-88.44055555555556,36.52916666666667],[-88.05055555555555,36.44472222222222],[-87.25416666666666,36.2675],[-86.58888888888889,36.003055555555555],[-86.49472222222222,35.86972222222222],[-86.30638888888889,35.600833333333334],[-86.10277777777777,35.34388888888889],[-86.10277777777777,35.34388888888889],[-85.98666666666666,35.22361111111111],[-85.75694444444444,34.98305555555556],[-85.33777777777777,34.53916666666667],[-85.33777777777777,34.53916666666667],[-85.06166666666667,34.24388888888889],[-84.97500000000001,34.15],[-84.85,34.016666666666666],[-84.85,34.016666666666666],[-84.78333333333333,33.95],[-84.7038888888889,33.779444444444444],[-84.58333333333333,33.55],[-84.38694444444445,33.53722222222222],[-84.28333333333333,33.53333333333333],[-84.22944444444444,33.536944444444444],[-84.15722222222223,33.536944444444444],[-84.15722222222223,33.536944444444444],[-84.08333333333333,33.55],[-84.08333333333333,33.6],[-84.08333333333333,33.6],[-84.18333333333334,33.63333333333333],[-84.23361111111112,33.63194444444444],[-84.3,33.63333333333333],[-84.34055555555555,33.63194444444444],[-84.43305555555555,33.63194444444444],[-84.43305555555555,33.63194444444444],[-84.43305555555555,33.63194444444444]],"type":"LineString"}
}
