{
  "id": 1981789365,
  "type": "Feature",
  "properties": {
    "geom:area": 0,
    "geom:bbox": "-157.816667,21.166667,-122.138333,37.566667",
    "geom:latitude": 29.58473268121812,
    "geom:longitude": -140.02537313007818,
    "src:alt_label": "swim-path",
    "src:geom": "swim",
    "swim:altitudes": [
      "050C",
      "050C",
      "050C",
      "050C",
      "073C",
      "073C",
      "073C",
      "073C",
      "121C",
      "121C",
      "141C",
      "141C",
      "173C",
      "173C",
      "188C",
      "188C",
      "188C",
      "188C",
      "201C",
      "201C",
      "241C",
      "241C",
      "241C",
      "241C",
      "241C",
      "241C",
      "264C",
      "264C",
      "264C",
      "264C",
      "264C",
      "330",
      "330",
      "330",
      "330",
      "330",
      "330",
      "330",
      "330",
      "330",
      "330",
      "330",
      "330",
      "330",
      "330",
      "330",
      "330",
      "330",
      "330",
      "330",
      "330",
      "330",
      "330",
      "330",
      "330",
      "330",
      "330",
      "330",
      "330",
      "330",
      "330C",
      "330C",
      "330C",
      "330C",
      "330C",
      "330C",
      "330C",
      "330C",
      "330C",
      "330",
      "330",
      "330",
      "330",
      "330",
      "330",
      "330",
      "330",
      "330",
      "330",
      "223C",
      "223C",
      "223C",
      "223C",
      "204C",
      "204C",
      "170",
      "170",
      "170",
      "129",
      "129",
      "129",
      "129",
      "129",
      "129",
      "129",
      "056",
      "056",
      "056",
      "056",
      "029",
      "029",
      "029",
      "020",
      "020",
      "020",
      "020",
      "020"
    ],
    "swim:geom": "path",
    "swim:speeds": [
      250,
      250,
      250,
      250,
      260,
      260,
      260,
      260,
      370,
      370,
      390,
      390,
      410,
      410,
      430,
      430,
      430,
      430,
      450,
      450,
      480,
      480,
      480,
      480,
      480,
      480,
      500,
      500,
      500,
      500,
      500,
      500,
      500,
      500,
      500,
      500,
      500,
      500,
      500,
      490,
      490,
      490,
      490,
      490,
      490,
      490,
      490,
      500,
      500,
      500,
      500,
      500,
      500,
      500,
      500,
      500,
      500,
      500,
      500,
      500,
      463,
      463,
      463,
      463,
      463,
      463,
      463,
      463,
      463,
      469,
      469,
      469,
      469,
      469,
      469,
      469,
      472,
      472,
      472,
      430,
      430,
      430,
      430,
      410,
      410,
      387,
      387,
      387,
      387,
      387,
      387,
      387,
      387,
      387,
      387,
      228,
      228,
      228,
      228,
      184,
      184,
      184,
      173,
      173,
      173,
      173,
      173
    ],
    "swim:timestamps": [
      1761671571,
      1761671571,
      1761671571,
      1761671571,
      1761671631,
      1761671631,
      1761671631,
      1761671631,
      1761671811,
      1761671811,
      1761671872,
      1761671872,
      1761671992,
      1761671992,
      1761672052,
      1761672052,
      1761672052,
      1761672052,
      1761672112,
      1761672112,
      1761672292,
      1761672292,
      1761672292,
      1761672292,
      1761672292,
      1761672292,
      1761672412,
      1761672412,
      1761672412,
      1761672412,
      1761672412,
      1761672772,
      1761672772,
      1761672772,
      1761672772,
      1761672772,
      1761672833,
      1761672833,
      1761672833,
      1761672953,
      1761672953,
      1761672953,
      1761672953,
      1761672953,
      1761672953,
      1761673013,
      1761673013,
      1761673673,
      1761673673,
      1761673673,
      1761673673,
      1761673673,
      1761673881,
      1761673881,
      1761673881,
      1761673881,
      1761673881,
      1761673881,
      1761673881,
      1761673881,
      1761685889,
      1761685889,
      1761685889,
      1761685889,
      1761685889,
      1761685889,
      1761685889,
      1761685889,
      1761685889,
      1761686369,
      1761686429,
      1761686429,
      1761686429,
      1761686429,
      1761686429,
      1761686429,
      1761686669,
      1761686669,
      1761686669,
      1761686985,
      1761686985,
      1761686985,
      1761686985,
      1761687045,
      1761687045,
      1761687150,
      1761687150,
      1761687150,
      1761687270,
      1761687270,
      1761687270,
      1761687270,
      1761687270,
      1761687270,
      1761687270,
      1761687931,
      1761687931,
      1761687931,
      1761687931,
      1761688111,
      1761688111,
      1761688111,
      1761688173,
      1761688173,
      1761688173,
      1761688173,
      1761688173
    ],
    "wof:geomhash": "71f5cedd1a5de5f06ebfdd614e277d4c",
    "wof:id": 1981789365,
    "wof:repo": "sfomuseum-data-flights-2025-10"
  },
  "bbox": [
    -157.81666666666666,
    21.166666666666668,
    -122.13833333333334,
    37.56666666666667
  ],
  "geometry": {"coordinates":[[-157.81666666666666,21.183333333333334],[-157.81666666666666,21.183333333333334],[-157.81666666666666,21.183333333333334],[-157.81666666666666,21.183333333333334],[-157.75,21.166666666666668],[-157.75,21.166666666666668],[-157.75,21.166666666666668],[-157.75,21.166666666666668],[-157.48333333333332,21.25],[-157.48333333333332,21.25],[-157.38333333333333,21.283333333333335],[-157.38333333333333,21.283333333333335],[-157.15,21.383333333333333],[-157.15,21.383333333333333],[-157.05,21.45],[-157.05,21.45],[-157.05,21.45],[-157.05,21.45],[-156.95,21.516666666666666],[-156.95,21.516666666666666],[-156.6,21.733333333333334],[-156.6,21.733333333333334],[-156.6,21.733333333333334],[-156.6,21.733333333333334],[-156.6,21.733333333333334],[-156.6,21.733333333333334],[-156.36666666666667,21.883333333333333],[-156.36666666666667,21.883333333333333],[-156.36666666666667,21.883333333333333],[-156.36666666666667,21.883333333333333],[-156.36666666666667,21.883333333333333],[-155.61666666666667,22.366666666666667],[-155.61666666666667,22.366666666666667],[-155.61666666666667,22.366666666666667],[-155.61666666666667,22.366666666666667],[-155.61666666666667,22.366666666666667],[-155.5,22.45],[-155.5,22.45],[-155.5,22.45],[-155.25,22.6],[-155.25,22.6],[-155.25,22.6],[-155.25,22.6],[-155.25,22.6],[-155.25,22.6],[-155.13333333333333,22.683333333333334],[-155.13333333333333,22.683333333333334],[-153.75,23.533333333333335],[-153.75,23.533333333333335],[-153.75,23.533333333333335],[-153.75,23.533333333333335],[-153.75,23.533333333333335],[-153.31666666666666,23.8],[-153.31666666666666,23.8],[-153.31666666666666,23.8],[-153.31666666666666,23.8],[-153.31666666666666,23.8],[-153.31666666666666,23.8],[-153.31666666666666,23.8],[-153.31666666666666,23.8],[-126.21916666666667,35.69583333333333],[-126.21916666666667,35.69583333333333],[-126.21916666666667,35.69583333333333],[-126.21916666666667,35.69583333333333],[-126.21916666666667,35.69583333333333],[-126.21916666666667,35.69583333333333],[-126.21916666666667,35.69583333333333],[-126.21916666666667,35.69583333333333],[-126.21916666666667,35.69583333333333],[-125.10749999999999,36.205000000000005],[-124.96972222222223,36.27166666666667],[-124.96972222222223,36.27166666666667],[-124.96972222222223,36.27166666666667],[-124.96972222222223,36.27166666666667],[-124.96972222222223,36.27166666666667],[-124.96972222222223,36.27166666666667],[-124.41000000000001,36.53972222222222],[-124.41000000000001,36.53972222222222],[-124.41000000000001,36.53972222222222],[-123.66666666666667,36.86666666666667],[-123.66666666666667,36.86666666666667],[-123.66666666666667,36.86666666666667],[-123.66666666666667,36.86666666666667],[-123.55,36.93333333333333],[-123.55,36.93333333333333],[-123.3461111111111,37.03722222222222],[-123.3461111111111,37.03722222222222],[-123.3461111111111,37.03722222222222],[-123.11222222222221,37.144444444444446],[-123.11222222222221,37.144444444444446],[-123.11222222222221,37.144444444444446],[-123.11222222222221,37.144444444444446],[-123.11222222222221,37.144444444444446],[-123.11222222222221,37.144444444444446],[-123.11222222222221,37.144444444444446],[-122.13833333333334,37.41],[-122.13833333333334,37.41],[-122.13833333333334,37.41],[-122.13833333333334,37.41],[-122.18222222222222,37.535555555555554],[-122.18222222222222,37.535555555555554],[-122.18222222222222,37.535555555555554],[-122.23333333333333,37.56666666666667],[-122.23333333333333,37.56666666666667],[-122.23333333333333,37.56666666666667],[-122.23333333333333,37.56666666666667],[-122.23333333333333,37.56666666666667]],"type":"LineString"}
}
