{
  "id": 1981630021,
  "type": "Feature",
  "properties": {
    "geom:area": 0,
    "geom:bbox": "-123.174220,37.436520,-122.141430,38.416920",
    "geom:latitude": 37.87790446736395,
    "geom:longitude": -122.58350638383133,
    "src:alt_label": "swim-approach",
    "src:geom": "swim",
    "swim:elevations": [
      7437,
      7282,
      7012,
      6816,
      6566,
      6168,
      5956,
      5803,
      5559,
      5346,
      4953,
      4920,
      4573,
      4432,
      4267,
      4129,
      3895,
      3530,
      3353,
      3322,
      2806,
      2463,
      2404,
      2100,
      1790,
      1693,
      1521,
      1524,
      1388,
      1293,
      1066,
      987,
      824,
      764,
      580,
      482,
      333,
      246,
      162
    ],
    "swim:geom": "approach",
    "swim:timestamps": [
      1760090128,
      1760090144,
      1760090178,
      1760090202,
      1760090229,
      1760090274,
      1760090300,
      1760090327,
      1760090360,
      1760090383,
      1760090428,
      1760090432,
      1760090476,
      1760090494,
      1760090530,
      1760090575,
      1760090598,
      1760090635,
      1760090717,
      1760090730,
      1760090788,
      1760090816,
      1760090820,
      1760090857,
      1760090905,
      1760090922,
      1760090957,
      1760090992,
      1760091026,
      1760091041,
      1760091084,
      1760091101,
      1760091177,
      1760091186,
      1760091232,
      1760091250,
      1760091287,
      1760091306,
      1760091332
    ],
    "wof:geomhash": "886e64bb0643cfa194ed934f8cc39d59",
    "wof:id": 1981630021,
    "wof:repo": "sfomuseum-data-flights-2025-10"
  },
  "bbox": [
    -123.17422,
    37.43652,
    -122.14143,
    38.41692
  ],
  "geometry": {"coordinates":[[-123.17422,38.41692],[-123.14103,38.40098],[-123.06675,38.36606],[-123.01761,38.34287],[-122.96295,38.31713],[-122.87113,38.27375],[-122.81702,38.24819],[-122.77517,38.21592],[-122.74989,38.16609],[-122.73912,38.13017],[-122.71985,38.06117],[-122.71788,38.05415],[-122.69885,37.98798],[-122.69081,37.96036],[-122.67397,37.90838],[-122.62697,37.85568],[-122.60122,37.83135],[-122.56023,37.79276],[-122.471,37.70875],[-122.45692,37.69558],[-122.39556,37.63786],[-122.36557,37.6089],[-122.3613,37.60448],[-122.34058,37.5627],[-122.31013,37.50991],[-122.2984,37.49126],[-122.26137,37.4617],[-122.21278,37.44636],[-122.16457,37.43652],[-122.14596,37.44283],[-122.14143,37.47999],[-122.15247,37.49274],[-122.19987,37.54417],[-122.20767,37.54818],[-122.25053,37.56639],[-122.26628,37.57302],[-122.29594,37.58549],[-122.31111,37.59191],[-122.33243,37.6008]],"type":"LineString"}
}
