{
  "id": 1981797347,
  "type": "Feature",
  "properties": {
    "geom:area": 0,
    "geom:bbox": "-122.358250,37.491370,-121.250850,37.613900",
    "geom:latitude": 37.54687601559739,
    "geom:longitude": -121.8093527507287,
    "src:alt_label": "swim-approach",
    "src:geom": "swim",
    "swim:elevations": [
      4791,
      4537,
      4295,
      3907,
      3544,
      3295,
      3231,
      3138,
      3041,
      2946,
      2707,
      2395,
      2268,
      2138,
      2072,
      1993,
      1796,
      1445,
      1412,
      1334,
      1114,
      1028,
      952,
      795,
      601,
      556,
      451,
      271,
      152,
      55,
      0
    ],
    "swim:geom": "approach",
    "swim:timestamps": [
      1761771712,
      1761771734,
      1761771758,
      1761771796,
      1761771833,
      1761771856,
      1761771868,
      1761771896,
      1761771923,
      1761771936,
      1761771969,
      1761772018,
      1761772041,
      1761772065,
      1761772106,
      1761772114,
      1761772153,
      1761772197,
      1761772206,
      1761772217,
      1761772257,
      1761772277,
      1761772290,
      1761772322,
      1761772364,
      1761772370,
      1761772394,
      1761772434,
      1761772464,
      1761772493,
      1761772501
    ],
    "wof:geomhash": "105174a961262afd847cfd05dfe63356",
    "wof:id": 1981797347,
    "wof:repo": "sfomuseum-data-flights-2025-10"
  },
  "bbox": [
    -122.35825,
    37.49137,
    -121.25085,
    37.6139
  ],
  "geometry": {"coordinates":[[-121.25085,37.59441],[-121.29742,37.58845],[-121.34771,37.58305],[-121.42399,37.57421],[-121.49563,37.56584],[-121.54265,37.56044],[-121.56619,37.55766],[-121.61704,37.5517],[-121.66337,37.54154],[-121.68427,37.53656],[-121.73884,37.52363],[-121.81575,37.50507],[-121.8511,37.49662],[-121.88737,37.49137],[-121.9475,37.4936],[-121.95895,37.49393],[-122.01024,37.50257],[-122.06394,37.51975],[-122.07473,37.52307],[-122.08807,37.5273],[-122.133,37.54169],[-122.15441,37.54867],[-122.16731,37.55286],[-122.20152,37.56394],[-122.2434,37.57746],[-122.24986,37.57955],[-122.27203,37.58626],[-122.30645,37.59629],[-122.33065,37.60355],[-122.35257,37.61171],[-122.35825,37.6139]],"type":"LineString"}
}
