{
  "id": 1981724181,
  "type": "Feature",
  "properties": {
    "geom:area": 0,
    "geom:bbox": "-122.526080,36.727460,-122.166530,37.711440",
    "geom:latitude": 37.234099792304605,
    "geom:longitude": -122.41698813536378,
    "src:alt_label": "swim-takeoff",
    "src:geom": "swim",
    "swim:elevations": [
      213,
      609,
      859,
      1178,
      2014,
      2401,
      2914,
      3118,
      3362,
      3440,
      3911,
      4462,
      4921,
      5228,
      5447,
      6392,
      6555,
      6789,
      7039,
      7412,
      7527,
      7910,
      8198,
      8409,
      8678,
      8844
    ],
    "swim:geom": "takeoff",
    "swim:timestamps": [
      1760992714,
      1760992767,
      1760992788,
      1760992810,
      1760992884,
      1760992906,
      1760992935,
      1760992945,
      1760992973,
      1760992984,
      1760993025,
      1760993059,
      1760993095,
      1760993120,
      1760993139,
      1760993213,
      1760993227,
      1760993248,
      1760993271,
      1760993306,
      1760993317,
      1760993359,
      1760993390,
      1760993413,
      1760993440,
      1760993452
    ],
    "wof:geomhash": "346a05eac159ccc1bd2e38961456b1d5",
    "wof:id": 1981724181,
    "wof:repo": "sfomuseum-data-flights-2025-10"
  },
  "bbox": [
    -122.52608,
    36.72746,
    -122.16653,
    37.71144
  ],
  "geometry": {"coordinates":[[-122.36764,37.63061],[-122.36194,37.6729],[-122.36358,37.69423],[-122.38192,37.71144],[-122.4525,37.66788],[-122.45631,37.64023],[-122.46103,37.60281],[-122.46259,37.58956],[-122.46728,37.54971],[-122.46949,37.5323],[-122.48002,37.46321],[-122.49098,37.40496],[-122.50246,37.34172],[-122.51085,37.29594],[-122.51744,37.25999],[-122.52608,37.12044],[-122.50921,37.09643],[-122.47791,37.06393],[-122.44396,37.02796],[-122.39106,36.9713],[-122.37398,36.95293],[-122.31068,36.88359],[-122.26394,36.8328],[-122.22717,36.79312],[-122.18509,36.74768],[-122.16653,36.72746]],"type":"LineString"}
}
