{
  "id": 1981710761,
  "type": "Feature",
  "properties": {
    "geom:area": 0,
    "geom:bbox": "-122.350810,36.773550,-121.902840,37.608580",
    "geom:latitude": 37.23447984531606,
    "geom:longitude": -122.07766553775491,
    "src:alt_label": "swim-approach",
    "src:geom": "swim",
    "swim:elevations": [
      5507,
      5328,
      5089,
      4620,
      4273,
      4092,
      3832,
      3632,
      3288,
      3216,
      3115,
      3001,
      2756,
      2640,
      2389,
      2102,
      1853,
      1666,
      1612,
      1367,
      1250,
      1128,
      980,
      784,
      700,
      543,
      526,
      381,
      199,
      97,
      58
    ],
    "swim:geom": "approach",
    "swim:timestamps": [
      1760874446,
      1760874467,
      1760874487,
      1760874530,
      1760874566,
      1760874583,
      1760874611,
      1760874630,
      1760874686,
      1760874703,
      1760874725,
      1760874754,
      1760874794,
      1760874814,
      1760874859,
      1760874899,
      1760874942,
      1760874977,
      1760874993,
      1760875041,
      1760875069,
      1760875093,
      1760875127,
      1760875167,
      1760875185,
      1760875228,
      1760875231,
      1760875266,
      1760875318,
      1760875344,
      1760875356
    ],
    "wof:geomhash": "6a5bf1d74a926a71bd6cded7402da282",
    "wof:id": 1981710761,
    "wof:repo": "sfomuseum-data-flights-2025-10"
  },
  "bbox": [
    -122.35081,
    36.77355,
    -121.90284,
    37.60858
  ],
  "geometry": {"coordinates":[[-121.90284,36.77355],[-121.91189,36.80615],[-121.92041,36.83597],[-121.93829,36.89928],[-121.95318,36.95193],[-121.96259,36.97677],[-121.97747,37.01499],[-121.98743,37.04069],[-122.01611,37.11427],[-122.02471,37.1351],[-122.03503,37.16158],[-122.04748,37.19347],[-122.06377,37.23556],[-122.07157,37.25547],[-122.08864,37.2988],[-122.10265,37.33411],[-122.11744,37.37253],[-122.12839,37.40336],[-122.13333,37.41757],[-122.1473,37.45865],[-122.15532,37.48191],[-122.16206,37.50063],[-122.17097,37.52684],[-122.20166,37.54585],[-122.21754,37.55251],[-122.25344,37.56766],[-122.2565,37.56892],[-122.28454,37.58071],[-122.3236,37.5971],[-122.34245,37.60506],[-122.35081,37.60858]],"type":"LineString"}
}
