{
  "id": 1981587203,
  "type": "Feature",
  "properties": {
    "geom:area": 0,
    "geom:bbox": "-122.358910,36.726100,-121.881750,37.611710",
    "geom:latitude": 37.20983671933619,
    "geom:longitude": -122.07065212391825,
    "src:alt_label": "swim-approach",
    "src:geom": "swim",
    "swim:elevations": [
      5335,
      5229,
      4798,
      4698,
      4581,
      4345,
      4256,
      4054,
      3936,
      3561,
      3470,
      3252,
      2989,
      2658,
      2451,
      2438,
      2312,
      2267,
      1961,
      1850,
      1738,
      1601,
      1522,
      1266,
      1226,
      896,
      751,
      592,
      438,
      272,
      182,
      135,
      106
    ],
    "swim:geom": "approach",
    "swim:timestamps": [
      1759706215,
      1759706224,
      1759706275,
      1759706287,
      1759706302,
      1759706329,
      1759706341,
      1759706367,
      1759706381,
      1759706428,
      1759706438,
      1759706468,
      1759706501,
      1759706543,
      1759706576,
      1759706594,
      1759706636,
      1759706643,
      1759706687,
      1759706708,
      1759706728,
      1759706747,
      1759706769,
      1759706816,
      1759706825,
      1759706876,
      1759706897,
      1759706936,
      1759706963,
      1759706998,
      1759707028,
      1759707042,
      1759707077
    ],
    "wof:geomhash": "94c2fa774413d177b589c5a5d961dd73",
    "wof:id": 1981587203,
    "wof:repo": "sfomuseum-data-flights-2025-10"
  },
  "bbox": [
    -122.35891,
    36.7261,
    -121.88175,
    37.61171
  ],
  "geometry": {"coordinates":[[-121.88175,36.7261],[-121.89072,36.73836],[-121.91386,36.81259],[-121.919,36.83094],[-121.92519,36.85281],[-121.93626,36.89275],[-121.94116,36.91003],[-121.95139,36.94645],[-121.95853,36.96625],[-121.98385,37.03122],[-121.9891,37.04477],[-122.00504,37.08563],[-122.0225,37.13049],[-122.04432,37.18624],[-122.06087,37.2283],[-122.06933,37.24982],[-122.08737,37.29571],[-122.09033,37.30328],[-122.10884,37.35013],[-122.11746,37.37199],[-122.12536,37.39275],[-122.13146,37.4126],[-122.13949,37.43561],[-122.15922,37.4831],[-122.16326,37.49189],[-122.20321,37.53073],[-122.21952,37.54555],[-122.25296,37.5666],[-122.27716,37.57716],[-122.30544,37.58924],[-122.32594,37.59807],[-122.33521,37.60194],[-122.35891,37.61171]],"type":"LineString"}
}
