{
  "id": 1981670263,
  "type": "Feature",
  "properties": {
    "geom:area": 0,
    "geom:bbox": "-122.386230,37.629580,-121.444450,38.508980",
    "geom:latitude": 38.11931068496396,
    "geom:longitude": -122.01808931189682,
    "src:alt_label": "swim-takeoff",
    "src:geom": "swim",
    "swim:elevations": [
      213,
      860,
      930,
      1457,
      2060,
      2319,
      3069,
      3355,
      3617,
      3943,
      4459,
      4610,
      5020,
      5408,
      5638,
      6055,
      6313,
      6702,
      6816,
      7095,
      7286,
      7449,
      7862,
      8093,
      8431,
      8472,
      8557,
      8891,
      8985
    ],
    "swim:geom": "takeoff",
    "swim:timestamps": [
      1760507144,
      1760507188,
      1760507194,
      1760507245,
      1760507276,
      1760507291,
      1760507331,
      1760507368,
      1760507398,
      1760507425,
      1760507465,
      1760507479,
      1760507506,
      1760507539,
      1760507557,
      1760507592,
      1760507614,
      1760507650,
      1760507662,
      1760507695,
      1760507715,
      1760507734,
      1760507777,
      1760507803,
      1760507848,
      1760507854,
      1760507866,
      1760507908,
      1760507921
    ],
    "wof:geomhash": "66fdf375888aede8309e5345f794cb23",
    "wof:id": 1981670263,
    "wof:repo": "sfomuseum-data-flights-2025-10"
  },
  "bbox": [
    -122.38623,
    37.62958,
    -121.44445,
    38.50898
  ],
  "geometry": {"coordinates":[[-122.36564,37.62958],[-122.33452,37.6587],[-122.32953,37.6628],[-122.31835,37.71428],[-122.33766,37.74815],[-122.34694,37.76473],[-122.3698,37.81114],[-122.38623,37.85569],[-122.38507,37.90043],[-122.37353,37.94165],[-122.31278,37.98506],[-122.28859,37.99953],[-122.24212,38.02745],[-122.18346,38.06262],[-122.1517,38.08193],[-122.08884,38.1202],[-122.04984,38.14385],[-121.98312,38.18448],[-121.9608,38.19796],[-121.89748,38.23623],[-121.85853,38.25965],[-121.82123,38.28213],[-121.73587,38.33347],[-121.68477,38.3643],[-121.59396,38.41856],[-121.58179,38.42585],[-121.55724,38.44055],[-121.47149,38.4924],[-121.44445,38.50898]],"type":"LineString"}
}
