{
  "id": 1997538991,
  "type": "Feature",
  "properties": {
    "geom:area": 0,
    "geom:bbox": "-122.474600,37.338320,-121.264660,37.712200",
    "geom:latitude": 37.476356440737554,
    "geom:longitude": -121.98657113025915,
    "src:alt_label": "swim-takeoff",
    "src:geom": "swim",
    "swim:elevations": [
      122,
      684,
      965,
      1038,
      1555,
      1791,
      2351,
      3030,
      3337,
      3709,
      3994,
      4237,
      4898,
      5486,
      5524,
      5850,
      6173,
      6420,
      6591,
      6792,
      7190,
      7228,
      7357
    ],
    "swim:geom": "takeoff",
    "swim:timestamps": [
      1761869700,
      1761869754,
      1761869785,
      1761869800,
      1761869878,
      1761869892,
      1761869934,
      1761869984,
      1761870022,
      1761870083,
      1761870113,
      1761870140,
      1761870203,
      1761870266,
      1761870272,
      1761870307,
      1761870345,
      1761870378,
      1761870402,
      1761870426,
      1761870477,
      1761870484,
      1761870499
    ],
    "wof:geomhash": "0da4983eb49d5f2179c8fe51da01ee71",
    "wof:id": 1997538991,
    "wof:repo": "sfomuseum-data-flights-2025-10"
  },
  "bbox": [
    -122.4746,
    37.33832,
    -121.26466,
    37.7122
  ],
  "geometry": {"coordinates":[[-122.36936,37.62797],[-122.36282,37.66516],[-122.36313,37.68885],[-122.3725,37.69828],[-122.46295,37.7122],[-122.4746,37.69773],[-122.47306,37.64335],[-122.46211,37.5775],[-122.43271,37.5302],[-122.31347,37.50427],[-122.24692,37.49104],[-122.18649,37.47702],[-122.03849,37.44212],[-121.88451,37.42015],[-121.86938,37.41827],[-121.77768,37.40669],[-121.6792,37.3938],[-121.59315,37.38248],[-121.52888,37.37381],[-121.464,37.36519],[-121.32313,37.34623],[-121.30648,37.34397],[-121.26466,37.33832]],"type":"LineString"}
}
