{
  "id": 1981671753,
  "type": "Feature",
  "properties": {
    "geom:area": 0,
    "geom:bbox": "-122.527580,37.630440,-121.252450,38.149720",
    "geom:latitude": 37.93707105820526,
    "geom:longitude": -121.9826391895454,
    "src:alt_label": "swim-takeoff",
    "src:geom": "swim",
    "swim:elevations": [
      244,
      614,
      919,
      1158,
      1196,
      1430,
      2082,
      2129,
      2592,
      2784,
      3186,
      3348,
      3361,
      3627,
      3870,
      4033,
      4274,
      4336,
      4560,
      4794,
      4836,
      5168,
      5324,
      5763,
      5979,
      6224,
      6315,
      6459,
      6815,
      7095,
      7224,
      7459,
      7577
    ],
    "swim:geom": "takeoff",
    "swim:timestamps": [
      1760485527,
      1760485554,
      1760485581,
      1760485617,
      1760485626,
      1760485650,
      1760485707,
      1760485710,
      1760485740,
      1760485755,
      1760485794,
      1760485826,
      1760485832,
      1760485870,
      1760485897,
      1760485915,
      1760485945,
      1760485954,
      1760485978,
      1760486005,
      1760486011,
      1760486050,
      1760486070,
      1760486126,
      1760486157,
      1760486187,
      1760486199,
      1760486220,
      1760486270,
      1760486306,
      1760486325,
      1760486359,
      1760486380
    ],
    "wof:geomhash": "38c72f1c0037936bd4a1d1c6e42393cd",
    "wof:id": 1981671753,
    "wof:repo": "sfomuseum-data-flights-2025-10"
  },
  "bbox": [
    -122.52758,
    37.63044,
    -121.25245,
    38.14972
  ],
  "geometry": {"coordinates":[[-122.40289,37.63044],[-122.42981,37.64157],[-122.45588,37.65282],[-122.49305,37.66974],[-122.50278,37.67509],[-122.52393,37.69519],[-122.52758,37.76421],[-122.52755,37.76789],[-122.51552,37.80235],[-122.49846,37.81508],[-122.43931,37.83379],[-122.38551,37.84871],[-122.37486,37.85165],[-122.30514,37.87038],[-122.25412,37.88425],[-122.21953,37.89388],[-122.16153,37.9102],[-122.14388,37.91491],[-122.09662,37.92723],[-122.04306,37.941],[-122.03103,37.94412],[-121.95345,37.9646],[-121.91263,37.97557],[-121.79874,38.00615],[-121.73372,38.02352],[-121.67048,38.04029],[-121.64497,38.04695],[-121.59917,38.05905],[-121.49175,38.0875],[-121.41366,38.10791],[-121.37222,38.11864],[-121.29845,38.13783],[-121.25245,38.14972]],"type":"LineString"}
}
