{
  "id": 1981562871,
  "type": "Feature",
  "properties": {
    "geom:area": 0,
    "geom:bbox": "-122.360440,36.734820,-121.886020,37.612610",
    "geom:latitude": 37.232727926418576,
    "geom:longitude": -122.14192521106519,
    "src:alt_label": "swim-approach",
    "src:geom": "swim",
    "swim:elevations": [
      5357,
      5029,
      4923,
      4761,
      4577,
      4172,
      3939,
      3604,
      3360,
      3329,
      3274,
      3171,
      3134,
      3021,
      2858,
      2696,
      2650,
      2502,
      2438,
      2438,
      2438,
      2303,
      2040,
      1958,
      1736,
      1595,
      1525,
      1524,
      1524,
      1524,
      1524,
      1490,
      1368,
      1170,
      1033,
      884,
      789,
      792,
      700,
      551,
      454,
      387,
      308,
      279,
      244,
      150,
      65
    ],
    "swim:geom": "approach",
    "swim:timestamps": [
      1759441402,
      1759441433,
      1759441442,
      1759441461,
      1759441478,
      1759441522,
      1759441548,
      1759441585,
      1759441610,
      1759441620,
      1759441636,
      1759441673,
      1759441690,
      1759441719,
      1759441755,
      1759441782,
      1759441791,
      1759441824,
      1759441849,
      1759441888,
      1759441897,
      1759441929,
      1759441976,
      1759441989,
      1759442038,
      1759442066,
      1759442098,
      1759442118,
      1759442128,
      1759442131,
      1759442143,
      1759442180,
      1759442202,
      1759442246,
      1759442268,
      1759442306,
      1759442336,
      1759442340,
      1759442388,
      1759442428,
      1759442450,
      1759442468,
      1759442489,
      1759442498,
      1759442510,
      1759442533,
      1759442576
    ],
    "wof:geomhash": "d8125413800f1a7cb9be726f323d5855",
    "wof:id": 1981562871,
    "wof:repo": "sfomuseum-data-flights-2025-10"
  },
  "bbox": [
    -122.36044,
    36.73482,
    -121.88602,
    37.61261
  ],
  "geometry": {"coordinates":[[-121.88602,36.73482],[-121.90618,36.78629],[-121.91041,36.80171],[-121.91953,36.83358],[-121.92718,36.86048],[-121.94671,36.92987],[-121.96012,36.96959],[-121.98163,37.02458],[-121.99912,37.06079],[-122.01076,37.07142],[-122.03451,37.08338],[-122.0895,37.1047],[-122.11251,37.11357],[-122.15092,37.12838],[-122.19521,37.14511],[-122.22769,37.15752],[-122.23849,37.16157],[-122.27335,37.18136],[-122.2835,37.20886],[-122.29623,37.24982],[-122.29927,37.25944],[-122.31047,37.29428],[-122.3262,37.34266],[-122.3296,37.35637],[-122.28487,37.38851],[-122.24461,37.3918],[-122.20173,37.39511],[-122.1742,37.39736],[-122.16072,37.39842],[-122.15666,37.39875],[-122.14045,37.40006],[-122.10005,37.41612],[-122.09804,37.43574],[-122.12347,37.46775],[-122.13658,37.48335],[-122.15882,37.50957],[-122.17613,37.53011],[-122.17863,37.53288],[-122.21804,37.55275],[-122.25163,37.56684],[-122.26974,37.57449],[-122.28346,37.58028],[-122.2986,37.58659],[-122.30516,37.5894],[-122.31363,37.59293],[-122.3303,37.59988],[-122.36044,37.61261]],"type":"LineString"}
}
