{
  "id": 1981669755,
  "type": "Feature",
  "properties": {
    "geom:area": 0,
    "geom:bbox": "-122.366970,37.627420,-122.235110,38.481980",
    "geom:latitude": 38.02598407544697,
    "geom:longitude": -122.25740511562599,
    "src:alt_label": "swim-takeoff",
    "src:geom": "swim",
    "swim:elevations": [
      122,
      183,
      593,
      752,
      1028,
      1532,
      1964,
      2417,
      2859,
      3041,
      3238,
      3287,
      4118,
      4348,
      4896,
      4980,
      5430,
      5723,
      6116,
      6289,
      6706,
      6798,
      7483,
      7673,
      7906
    ],
    "swim:geom": "takeoff",
    "swim:timestamps": [
      1760429457,
      1760429461,
      1760429494,
      1760429512,
      1760429533,
      1760429572,
      1760429598,
      1760429627,
      1760429659,
      1760429674,
      1760429693,
      1760429700,
      1760429752,
      1760429767,
      1760429810,
      1760429816,
      1760429846,
      1760429867,
      1760429906,
      1760429925,
      1760429966,
      1760429973,
      1760430027,
      1760430043,
      1760430071
    ],
    "wof:geomhash": "1b6156dffc19a4487183825894b1328f",
    "wof:id": 1981669755,
    "wof:repo": "sfomuseum-data-flights-2025-10"
  },
  "bbox": [
    -122.36697,
    37.62742,
    -122.23511,
    38.48198
  ],
  "geometry": {"coordinates":[[-122.36697,37.62742],[-122.36508,37.63033],[-122.34121,37.64829],[-122.32334,37.65804],[-122.30096,37.67073],[-122.25534,37.69787],[-122.23976,37.72561],[-122.25093,37.76152],[-122.26551,37.80153],[-122.26676,37.82157],[-122.26504,37.8474],[-122.26434,37.85752],[-122.25931,37.93286],[-122.25793,37.95596],[-122.25348,38.02088],[-122.2528,38.0303],[-122.24949,38.07765],[-122.24726,38.11154],[-122.24301,38.17761],[-122.24078,38.21042],[-122.23593,38.28484],[-122.23511,38.29768],[-122.23639,38.39819],[-122.23936,38.42842],[-122.24501,38.48198]],"type":"LineString"}
}
