{
  "id": 1981698059,
  "type": "Feature",
  "properties": {
    "geom:area": 0,
    "geom:bbox": "-122.465880,37.327040,-121.284070,37.711550",
    "geom:latitude": 37.45410871822805,
    "geom:longitude": -121.99333881830152,
    "src:alt_label": "swim-takeoff",
    "src:geom": "swim",
    "swim:elevations": [
      363,
      445,
      723,
      1109,
      1381,
      1710,
      2422,
      2569,
      2999,
      3337,
      3370,
      3728,
      4292,
      4477,
      4964,
      5288,
      5514,
      5810,
      6066,
      6310,
      6865,
      7098,
      7375,
      7634,
      7795,
      8107,
      8329,
      8373
    ],
    "swim:geom": "takeoff",
    "swim:timestamps": [
      1760765305,
      1760765321,
      1760765350,
      1760765377,
      1760765410,
      1760765431,
      1760765485,
      1760765497,
      1760765530,
      1760765576,
      1760765586,
      1760765619,
      1760765667,
      1760765681,
      1760765724,
      1760765755,
      1760765781,
      1760765810,
      1760765834,
      1760765855,
      1760765908,
      1760765935,
      1760765966,
      1760765997,
      1760766018,
      1760766055,
      1760766085,
      1760766091
    ],
    "wof:geomhash": "ea824ba01a9585a70c6c3de7a67179ac",
    "wof:id": 1981698059,
    "wof:repo": "sfomuseum-data-flights-2025-10"
  },
  "bbox": [
    -122.46588,
    37.32704,
    -121.28407,
    37.71155
  ],
  "geometry": {"coordinates":[[-122.36517,37.64349],[-122.36427,37.65704],[-122.3616,37.68574],[-122.37927,37.70976],[-122.42725,37.71155],[-122.44721,37.6904],[-122.45759,37.61997],[-122.45974,37.60359],[-122.46588,37.55741],[-122.43812,37.49817],[-122.42146,37.49178],[-122.35695,37.47756],[-122.26014,37.45556],[-122.22962,37.44877],[-122.14224,37.42942],[-122.07556,37.41945],[-122.01896,37.41312],[-121.95359,37.4058],[-121.89891,37.39956],[-121.85108,37.39403],[-121.72957,37.38005],[-121.66636,37.37278],[-121.59017,37.36379],[-121.51765,37.35525],[-121.46588,37.34891],[-121.37451,37.33802],[-121.29911,37.32891],[-121.28407,37.32704]],"type":"LineString"}
}
