{
  "id": 1997545315,
  "type": "Feature",
  "properties": {
    "geom:area": 0,
    "geom:bbox": "-172.870000,21.930000,180.000000,46.000000",
    "geom:latitude": 37.68491250014407,
    "geom:longitude": 7.361345511086768,
    "src:alt_label": "swim-route",
    "src:geom": "swim",
    "swim:geom": "route",
    "wof:geomhash": "fdfbbc571d11e0dbe753d3c522d77ab3",
    "wof:id": 1997545315,
    "wof:repo": "sfomuseum-data-flights-2025-10"
  },
  "bbox": [
    -172.87,
    21.93,
    180,
    46
  ],
  "geometry": {"coordinates":[[[-122.38,37.62],[-122.5,37.67],[-122.5,37.67],[-122.5,37.67],[-122.61,37.68],[-122.61,37.68],[-122.66,37.68],[-122.74,37.69],[-122.75,37.69],[-122.86,37.7],[-122.88,37.7],[-123,37.7],[-123.09,37.71],[-123.53,37.73],[-123.54,37.73],[-123.8,37.75],[-124.01,37.76],[-124.12,37.76],[-124.32,37.77],[-124.4,37.78],[-124.57,37.78],[-124.76,37.79],[-124.94,37.8],[-125.47,37.82],[-125.67,37.83],[-125.83,37.83],[-126.99,38.13],[-127,38.13],[-127.34,38.23],[-130,39],[-140,44],[-146.17,45.35],[-150,46],[-155.04,45.61],[-156.29,45.48],[-160,45],[-170,42],[-170.97,41.58],[-171.93,41.16],[-172.87,40.72]],[[180,37],[176.25,35.64],[173.52,34.55],[170,33],[167.48,32.33],[165,31.62],[161.65,30.56],[160,30],[150.88,27.3],[150,27],[140,25],[139.25,24.89],[137,24.54],[136,24.37],[132.03,23.63],[129.08,23],[128.45,22.94],[126.54,22.72],[123.68,22.35],[122.74,22.21],[120.84,21.93],[120.04,22.03],[118.98,22.16],[118.53,22.22],[118.13,22.26],[118,22.28],[117.5,22.33],[116.93,22.32],[116.67,22.32],[116.39,22.31],[116.3,22.31],[116.25,22.31],[116.01,22.3],[115.83,22.3],[115.69,22.3],[115.41,22.3],[115.06,22.31],[114.88,22.31],[114.65,22.31],[114.6,22.31],[114.47,22.31],[114.38,22.32],[114.29,22.32],[114.2,22.32]]],"type":"MultiLineString"}
}
