{
  "id": 1981804993,
  "type": "Feature",
  "properties": {
    "geom:area": 0,
    "geom:bbox": "-122.359910,37.492450,-121.251230,37.614430",
    "geom:latitude": 37.54245632970062,
    "geom:longitude": -121.81270527972352,
    "src:alt_label": "swim-approach",
    "src:geom": "swim",
    "swim:elevations": [
      4588,
      4286,
      3983,
      3741,
      3606,
      3395,
      3167,
      3058,
      2800,
      2470,
      2438,
      2319,
      2184,
      1973,
      1828,
      1594,
      1406,
      1188,
      1171,
      1024,
      849,
      667,
      549,
      410,
      283,
      155,
      5,
      0
    ],
    "swim:geom": "approach",
    "swim:timestamps": [
      1761881300,
      1761881335,
      1761881368,
      1761881393,
      1761881411,
      1761881435,
      1761881467,
      1761881497,
      1761881527,
      1761881560,
      1761881602,
      1761881632,
      1761881659,
      1761881695,
      1761881719,
      1761881756,
      1761881786,
      1761881818,
      1761881824,
      1761881858,
      1761881891,
      1761881924,
      1761881959,
      1761881989,
      1761882019,
      1761882052,
      1761882085,
      1761882090
    ],
    "wof:geomhash": "a104543e6a97a7cf302a2d7bb723b7d0",
    "wof:id": 1981804993,
    "wof:repo": "sfomuseum-data-flights-2025-10"
  },
  "bbox": [
    -122.35991,
    37.49245,
    -121.25123,
    37.61443
  ],
  "geometry": {"coordinates":[[-121.25123,37.59352],[-121.31913,37.58489],[-121.38218,37.5781],[-121.429,37.57297],[-121.46237,37.56917],[-121.50642,37.56394],[-121.56439,37.55703],[-121.61649,37.55095],[-121.66559,37.54043],[-121.71931,37.52746],[-121.7826,37.51235],[-121.82699,37.50176],[-121.86642,37.49245],[-121.92015,37.49284],[-121.95549,37.49521],[-122.00973,37.4983],[-122.05365,37.50078],[-122.09996,37.50477],[-122.10767,37.50767],[-122.14833,37.52562],[-122.18573,37.54137],[-122.22103,37.5563],[-122.25622,37.57115],[-122.28373,37.5827],[-122.30777,37.5928],[-122.33235,37.60314],[-122.35671,37.61324],[-122.35991,37.61443]],"type":"LineString"}
}
