{
  "id": 1981769813,
  "type": "Feature",
  "properties": {
    "geom:area": 0,
    "geom:bbox": "-122.346470,37.492430,-121.272070,37.609360",
    "geom:latitude": 37.545251387856766,
    "geom:longitude": -121.81378551023748,
    "src:alt_label": "swim-approach",
    "src:geom": "swim",
    "swim:elevations": [
      5149,
      4960,
      4458,
      4189,
      3882,
      3448,
      3328,
      3321,
      3080,
      2816,
      2662,
      2572,
      2330,
      2286,
      2222,
      2000,
      1980,
      1769,
      1656,
      1471,
      1271,
      1140,
      1041,
      783,
      567,
      424,
      323,
      184,
      64
    ],
    "swim:geom": "approach",
    "swim:timestamps": [
      1761466695,
      1761466713,
      1761466758,
      1761466785,
      1761466812,
      1761466853,
      1761466886,
      1761466893,
      1761466934,
      1761466974,
      1761466992,
      1761467013,
      1761467052,
      1761467061,
      1761467070,
      1761467125,
      1761467131,
      1761467184,
      1761467208,
      1761467236,
      1761467267,
      1761467303,
      1761467321,
      1761467368,
      1761467398,
      1761467426,
      1761467447,
      1761467483,
      1761467510
    ],
    "wof:geomhash": "6de07156dd8f1761e4f202c79e1ce8fa",
    "wof:id": 1981769813,
    "wof:repo": "sfomuseum-data-flights-2025-10"
  },
  "bbox": [
    -122.34647,
    37.49243,
    -121.27207,
    37.60936
  ],
  "geometry": {"coordinates":[[-121.27207,37.59148],[-121.30389,37.58775],[-121.3832,37.57915],[-121.43009,37.57345],[-121.47838,37.56781],[-121.55125,37.5595],[-121.60616,37.55295],[-121.61706,37.55161],[-121.67851,37.5379],[-121.73415,37.52466],[-121.75881,37.51873],[-121.78718,37.51188],[-121.8374,37.49991],[-121.84897,37.49716],[-121.86054,37.49441],[-121.93246,37.49243],[-121.94029,37.4926],[-122.00782,37.50128],[-122.03716,37.51068],[-122.07156,37.52181],[-122.10967,37.53427],[-122.15367,37.54828],[-122.17365,37.55461],[-122.22025,37.56981],[-122.24798,37.57888],[-122.27153,37.58621],[-122.29022,37.59184],[-122.32242,37.60162],[-122.34647,37.60936]],"type":"LineString"}
}
