{
  "id": 1981757849,
  "type": "Feature",
  "properties": {
    "geom:area": 0,
    "geom:bbox": "-122.390000,33.640000,-84.040000,40.920000",
    "geom:latitude": 38.44781240656275,
    "geom:longitude": -102.73285299692377,
    "src:alt_label": "swim-route",
    "src:geom": "swim",
    "swim:geom": "route",
    "wof:geomhash": "bb58e1300de2466865effc839dcf07ba",
    "wof:id": 1981757849,
    "wof:repo": "sfomuseum-data-flights-2025-10"
  },
  "bbox": [
    -122.39,
    33.64,
    -84.04,
    40.92
  ],
  "geometry": {"coordinates":[[-122.38,37.62],[-122.3,37.68],[-122.32,37.71],[-122.32,37.71],[-122.34,37.75],[-122.35,37.77],[-122.35,37.77],[-122.36,37.79],[-122.39,37.84],[-122.39,37.85],[-122.39,37.86],[-122.38,37.94],[-122.31,37.96],[-122.15,37.99],[-122.1,37.99],[-122,37.99],[-121.89,37.99],[-121.81,37.99],[-121.7,37.99],[-121.69,37.99],[-121.48,37.99],[-121.36,37.99],[-121.33,37.99],[-121.3,37.99],[-121.21,37.99],[-121.1,37.99],[-120.9,38.02],[-120.81,38.04],[-120.8,38.04],[-120.69,38.05],[-120.58,38.07],[-120.38,38.1],[-119.78,38.19],[-120.12,38.14],[-119.18,38.27],[-118.94,38.31],[-117.29,38.52],[-117.28,38.52],[-116.66,38.58],[-116.12,38.63],[-116.04,38.64],[-115.84,38.65],[-114.12,38.79],[-113.49,38.83],[-112.75,38.87],[-111.76,38.93],[-111.01,38.96],[-110,39],[-109.98,39],[-109.65,39.01],[-109.1,39.01],[-106.92,39.01],[-106,39],[-105.28,39.08],[-105.02,39.1],[-104.76,39.13],[-104.24,39.18],[-103.03,39.28],[-101.69,39.39],[-100.19,39.93],[-100,40],[-99.17,40.43],[-99.05,40.44],[-97.94,40.58],[-96.74,40.92],[-95.76,40.43],[-95.31,40.2],[-94,39.5],[-93.89,39.45],[-93.59,39.31],[-91.62,38.37],[-90.74,37.93],[-90.23,37.67],[-89.53,37.38],[-89.33,37.3],[-89.11,37.2],[-88.88,37.11],[-87.77,36.63],[-87.26,36.4],[-87.1,36.33],[-87.07,36.31],[-86.68,36.14],[-86.4,35.74],[-86.28,35.56],[-86.24,35.5],[-86.22,35.48],[-86.19,35.43],[-86.03,35.27],[-85.58,34.79],[-85.43,34.64],[-85.17,34.36],[-84.97,34.14],[-84.84,34.01],[-84.82,33.99],[-84.79,33.96],[-84.76,33.92],[-84.58,33.73],[-84.43,33.73],[-84.31,33.73],[-84.26,33.73],[-84.14,33.73],[-84.06,33.73],[-84.04,33.73],[-84.21,33.69],[-84.3,33.67],[-84.4,33.64],[-84.43,33.64]],"type":"LineString"}
}
