{
  "id": 1981798781,
  "type": "Feature",
  "properties": {
    "geom:area": 0,
    "geom:bbox": "-122.524444,37.633333,-122.112778,48.718611",
    "geom:latitude": 43.144886500743254,
    "geom:longitude": -122.24945783426509,
    "src:alt_label": "swim-path",
    "src:geom": "swim",
    "swim:altitudes": [
      "005",
      "035",
      "035",
      "035",
      "037",
      "047",
      "155",
      "155",
      "155",
      "153",
      "197",
      "197",
      "197",
      "216",
      "284",
      "298",
      "298",
      "298",
      "298",
      "298",
      "380C",
      "380C",
      "380C",
      "380C",
      "380C",
      "380C",
      "380C",
      "380C",
      "380C",
      "380C",
      "380C",
      "380C",
      "380C",
      "380C",
      "380C",
      "380C",
      "380C",
      "380C",
      "380C",
      "380C",
      "380C",
      "380C",
      "380C",
      "380C",
      "380C",
      "380C",
      "380C",
      "380C",
      "380C",
      "380C",
      "380C",
      "380C",
      "380C",
      "380C",
      "380C",
      "380C",
      "380C",
      "380C",
      "380C",
      "380C",
      "380C",
      "380C",
      "380C",
      "380C",
      "380C",
      "380C",
      "380C",
      "380C",
      "380C",
      "380C",
      "380C",
      "380C",
      "380C",
      "380C",
      "380C",
      "380C",
      "380C",
      "380C",
      "380C",
      "380C",
      "380C",
      "380C",
      "380C",
      "380C",
      "380C",
      "380C",
      "380C",
      "380C",
      "380C",
      "380C",
      "380C",
      "380C",
      "380C",
      "380",
      "380",
      "380",
      "370",
      "346",
      "346",
      "346",
      "279",
      "253",
      "253",
      "253",
      "253",
      "253",
      "189",
      "189",
      "151",
      "151",
      "151",
      "151",
      "120",
      "120",
      "120",
      "120",
      "120"
    ],
    "swim:geom": "path",
    "swim:speeds": [
      169,
      162,
      162,
      162,
      166,
      234,
      341,
      341,
      341,
      340,
      367,
      367,
      367,
      372,
      415,
      423,
      423,
      423,
      423,
      423,
      442,
      442,
      442,
      442,
      442,
      442,
      443,
      443,
      443,
      444,
      444,
      447,
      447,
      447,
      448,
      448,
      448,
      448,
      449,
      449,
      449,
      448,
      448,
      448,
      445,
      444,
      441,
      441,
      441,
      441,
      441,
      441,
      441,
      434,
      434,
      434,
      434,
      434,
      434,
      434,
      434,
      434,
      434,
      435,
      435,
      435,
      435,
      438,
      438,
      438,
      440,
      440,
      440,
      440,
      439,
      439,
      427,
      427,
      427,
      425,
      425,
      425,
      419,
      419,
      418,
      418,
      418,
      418,
      425,
      425,
      425,
      425,
      427,
      429,
      429,
      429,
      431,
      432,
      432,
      432,
      408,
      390,
      390,
      390,
      390,
      390,
      358,
      358,
      342,
      342,
      342,
      342,
      286,
      286,
      286,
      286,
      286
    ],
    "swim:timestamps": [
      1761786708,
      1761786774,
      1761786774,
      1761786774,
      1761786793,
      1761786853,
      1761787148,
      1761787148,
      1761787148,
      1761787154,
      1761787274,
      1761787274,
      1761787274,
      1761787328,
      1761787574,
      1761787634,
      1761787634,
      1761787634,
      1761787634,
      1761787634,
      1761788110,
      1761788110,
      1761788110,
      1761788110,
      1761788110,
      1761788110,
      1761788290,
      1761788290,
      1761788290,
      1761788410,
      1761788410,
      1761788711,
      1761788711,
      1761788711,
      1761788775,
      1761788775,
      1761788891,
      1761788891,
      1761788956,
      1761788956,
      1761788956,
      1761789011,
      1761789011,
      1761789011,
      1761789071,
      1761789136,
      1761789312,
      1761789372,
      1761789372,
      1761789372,
      1761789372,
      1761789372,
      1761789372,
      1761789910,
      1761789970,
      1761789970,
      1761790030,
      1761790030,
      1761790030,
      1761790030,
      1761790210,
      1761790210,
      1761790210,
      1761790330,
      1761790330,
      1761790330,
      1761790330,
      1761790511,
      1761790511,
      1761790511,
      1761790811,
      1761790811,
      1761790811,
      1761790811,
      1761790932,
      1761790932,
      1761791052,
      1761791052,
      1761791052,
      1761791112,
      1761791112,
      1761791112,
      1761791232,
      1761791232,
      1761791352,
      1761791352,
      1761791352,
      1761791352,
      1761791654,
      1761791654,
      1761791654,
      1761791654,
      1761791714,
      1761791774,
      1761791774,
      1761791774,
      1761791834,
      1761791894,
      1761791894,
      1761791894,
      1761792072,
      1761792132,
      1761792132,
      1761792132,
      1761792132,
      1761792132,
      1761792313,
      1761792313,
      1761792433,
      1761792433,
      1761792433,
      1761792433,
      1761792554,
      1761792554,
      1761792554,
      1761792554,
      1761792554
    ],
    "wof:geomhash": "0ff7db51f41fe824f8c701ab7df5af93",
    "wof:id": 1981798781,
    "wof:repo": "sfomuseum-data-flights-2025-10"
  },
  "bbox": [
    -122.52444444444444,
    37.63333333333333,
    -122.11277777777777,
    48.718611111111116
  ],
  "geometry": {"coordinates":[[-122.36666666666666,37.63333333333333],[-122.31666666666666,37.666666666666664],[-122.31666666666666,37.666666666666664],[-122.31666666666666,37.666666666666664],[-122.30638888888889,37.666666666666664],[-122.24777777777778,37.70055555555556],[-122.15083333333334,38.11222222222222],[-122.15083333333334,38.11222222222222],[-122.15083333333334,38.11222222222222],[-122.15083333333334,38.10638888888889],[-122.115,38.32277777777778],[-122.115,38.32277777777778],[-122.115,38.32277777777778],[-122.11277777777777,38.414722222222224],[-122.14888888888889,38.86027777777778],[-122.1575,38.97944444444445],[-122.1575,38.97944444444445],[-122.1575,38.97944444444445],[-122.1575,38.97944444444445],[-122.1575,38.97944444444445],[-122.22583333333334,39.95444444444445],[-122.22583333333334,39.95444444444445],[-122.22583333333334,39.95444444444445],[-122.22583333333334,39.95444444444445],[-122.22583333333334,39.95444444444445],[-122.22583333333334,39.95444444444445],[-122.23777777777778,40.314166666666665],[-122.23777777777778,40.314166666666665],[-122.23777777777778,40.314166666666665],[-122.23861111111111,40.559444444444445],[-122.23861111111111,40.559444444444445],[-122.24166666666667,41.17972222222222],[-122.24166666666667,41.17972222222222],[-122.24166666666667,41.17972222222222],[-122.2425,41.330555555555556],[-122.2425,41.330555555555556],[-122.24333333333334,41.56111111111111],[-122.24333333333334,41.56111111111111],[-122.24388888888889,41.687777777777775],[-122.24388888888889,41.687777777777775],[-122.24388888888889,41.687777777777775],[-122.24444444444444,41.812777777777775],[-122.24444444444444,41.812777777777775],[-122.24444444444444,41.812777777777775],[-122.24527777777777,41.936388888888885],[-122.24583333333334,42.06111111111111],[-122.2475,42.4325],[-122.24833333333333,42.55611111111111],[-122.24833333333333,42.55611111111111],[-122.24833333333333,42.55611111111111],[-122.24833333333333,42.55611111111111],[-122.24833333333333,42.55611111111111],[-122.24833333333333,42.55611111111111],[-122.2538888888889,43.657222222222224],[-122.25444444444445,43.77722222222222],[-122.25444444444445,43.77722222222222],[-122.25527777777778,43.897777777777776],[-122.25527777777778,43.897777777777776],[-122.25527777777778,43.897777777777776],[-122.25527777777778,43.897777777777776],[-122.25722222222223,44.25888888888889],[-122.25722222222223,44.25888888888889],[-122.25722222222223,44.25888888888889],[-122.25833333333334,44.5],[-122.25833333333334,44.5],[-122.25833333333334,44.5],[-122.25833333333334,44.5],[-122.26027777777777,44.863055555555555],[-122.26027777777777,44.863055555555555],[-122.26027777777777,44.863055555555555],[-122.26361111111112,45.476111111111116],[-122.26361111111112,45.476111111111116],[-122.26361111111112,45.476111111111116],[-122.26361111111112,45.476111111111116],[-122.265,45.721111111111114],[-122.265,45.721111111111114],[-122.26666666666667,45.956944444444446],[-122.26666666666667,45.956944444444446],[-122.26666666666667,45.956944444444446],[-122.26722222222222,46.075],[-122.26722222222222,46.075],[-122.26722222222222,46.075],[-122.26805555555555,46.299166666666665],[-122.26805555555555,46.299166666666665],[-122.26972222222223,46.52972222222222],[-122.26972222222223,46.52972222222222],[-122.26972222222223,46.52972222222222],[-122.26972222222223,46.52972222222222],[-122.27305555555556,47.11527777777778],[-122.27305555555556,47.11527777777778],[-122.27305555555556,47.11527777777778],[-122.27305555555556,47.11527777777778],[-122.27388888888889,47.23361111111111],[-122.27416666666666,47.35472222222222],[-122.27416666666666,47.35472222222222],[-122.27416666666666,47.35472222222222],[-122.27527777777777,47.473055555555554],[-122.2761111111111,47.591944444444444],[-122.2761111111111,47.591944444444444],[-122.2761111111111,47.591944444444444],[-122.28222222222222,47.93472222222222],[-122.31944444444444,48.06305555555555],[-122.31944444444444,48.06305555555555],[-122.31944444444444,48.06305555555555],[-122.31944444444444,48.06305555555555],[-122.31944444444444,48.06305555555555],[-122.40527777777778,48.35861111111111],[-122.40527777777778,48.35861111111111],[-122.45916666666668,48.54194444444444],[-122.45916666666668,48.54194444444444],[-122.45916666666668,48.54194444444444],[-122.45916666666668,48.54194444444444],[-122.52444444444444,48.718611111111116],[-122.52444444444444,48.718611111111116],[-122.52444444444444,48.718611111111116],[-122.52444444444444,48.718611111111116],[-122.52444444444444,48.718611111111116]],"type":"LineString"}
}
