{
  "id": 1981618969,
  "type": "Feature",
  "properties": {
    "geom:area": 0,
    "geom:bbox": "-122.406680,37.627920,-121.292260,38.068760",
    "geom:latitude": 37.83965593908667,
    "geom:longitude": -121.85395536031425,
    "src:alt_label": "swim-takeoff",
    "src:geom": "swim",
    "swim:elevations": [
      211,
      524,
      964,
      1225,
      1449,
      2144,
      2440,
      2691,
      3148,
      3472,
      3577,
      3783,
      4139,
      4352,
      4528,
      4946,
      4969,
      5270,
      5592,
      5999,
      6057,
      6145,
      6292
    ],
    "swim:geom": "takeoff",
    "swim:timestamps": [
      1759944400,
      1759944424,
      1759944460,
      1759944488,
      1759944511,
      1759944565,
      1759944587,
      1759944604,
      1759944638,
      1759944687,
      1759944711,
      1759944742,
      1759944776,
      1759944798,
      1759944825,
      1759944868,
      1759944871,
      1759944906,
      1759944937,
      1759944986,
      1759944994,
      1759945006,
      1759945026
    ],
    "wof:geomhash": "321b45c0440083ff137b04df1c1f28a1",
    "wof:id": 1981618969,
    "wof:repo": "sfomuseum-data-flights-2025-10"
  },
  "bbox": [
    -122.40668,
    37.62792,
    -121.29226,
    38.06876
  ],
  "geometry": {"coordinates":[[-122.39614,37.62792],[-122.40668,37.64597],[-122.3758,37.6652],[-122.34192,37.67426],[-122.3119,37.68426],[-122.23425,37.71086],[-122.20249,37.72357],[-122.17833,37.7362],[-122.12836,37.75828],[-122.04214,37.77873],[-121.9941,37.78954],[-121.92753,37.80474],[-121.85222,37.82242],[-121.80357,37.83358],[-121.7408,37.85266],[-121.64838,37.89703],[-121.64185,37.90017],[-121.56678,37.93631],[-121.49593,37.9704],[-121.38481,38.02363],[-121.36635,38.0326],[-121.33853,38.04615],[-121.29226,38.06876]],"type":"LineString"}
}
