{
  "id": 1981553653,
  "type": "Feature",
  "properties": {
    "geom:area": 0,
    "geom:bbox": "-122.357730,37.491900,-121.247970,37.613210",
    "geom:latitude": 37.54298028549247,
    "geom:longitude": -121.8097914116244,
    "src:alt_label": "swim-approach",
    "src:geom": "swim",
    "swim:elevations": [
      5080,
      4850,
      4389,
      4253,
      3916,
      3622,
      3348,
      3320,
      3012,
      2848,
      2562,
      2476,
      2295,
      2059,
      2020,
      1878,
      1710,
      1436,
      1229,
      1219,
      1020,
      845,
      818,
      521,
      475,
      341,
      155,
      0
    ],
    "swim:geom": "approach",
    "swim:timestamps": [
      1759344741,
      1759344761,
      1759344808,
      1759344820,
      1759344854,
      1759344882,
      1759344928,
      1759344934,
      1759344984,
      1759345002,
      1759345048,
      1759345070,
      1759345099,
      1759345138,
      1759345143,
      1759345176,
      1759345216,
      1759345250,
      1759345280,
      1759345313,
      1759345344,
      1759345377,
      1759345382,
      1759345437,
      1759345443,
      1759345472,
      1759345518,
      1759345552
    ],
    "wof:geomhash": "a8994f93627ef95d35dab9bbc1ca0f37",
    "wof:id": 1981553653,
    "wof:repo": "sfomuseum-data-flights-2025-10"
  },
  "bbox": [
    -122.35773,
    37.4919,
    -121.24797,
    37.61321
  ],
  "geometry": {"coordinates":[[-121.24797,37.59469],[-121.28772,37.58944],[-121.37577,37.57994],[-121.3984,37.57743],[-121.46006,37.57024],[-121.5106,37.56432],[-121.59175,37.55454],[-121.60179,37.55338],[-121.67996,37.53763],[-121.70695,37.53108],[-121.77566,37.51481],[-121.80415,37.50799],[-121.84337,37.49855],[-121.89543,37.4919],[-121.90268,37.4924],[-121.94745,37.4949],[-122.00049,37.49806],[-122.0443,37.5003],[-122.08456,37.50277],[-122.12442,37.51528],[-122.16265,37.53173],[-122.20064,37.54765],[-122.20572,37.54982],[-122.263,37.57395],[-122.26896,37.5765],[-122.29549,37.58764],[-122.33207,37.60294],[-122.35773,37.61321]],"type":"LineString"}
}
