{
  "id": 1981804387,
  "type": "Feature",
  "properties": {
    "geom:area": 0,
    "geom:bbox": "-122.306944,37.456667,-111.951944,40.561111",
    "geom:latitude": 38.51167965667973,
    "geom:longitude": -117.03747340193861,
    "src:alt_label": "swim-path",
    "src:geom": "swim",
    "swim:altitudes": [
      "118",
      "118",
      "118",
      "118",
      "118",
      "118",
      "118",
      "118",
      "118",
      "118",
      "118",
      "320",
      "320",
      "320",
      "320",
      "320",
      "320",
      "320",
      "320",
      "320",
      "320",
      "340C",
      "340C",
      "340C",
      "340C",
      "340C",
      "340C",
      "340C",
      "340C",
      "340C",
      "340C",
      "340C",
      "340C",
      "340C",
      "340C",
      "340C",
      "340C",
      "340C",
      "340C",
      "340C",
      "340C",
      "340C",
      "340C",
      "340C",
      "340C",
      "340C",
      "340C",
      "340C",
      "340C",
      "340C",
      "340C",
      "340C",
      "340C",
      "340C",
      "340C",
      "340C",
      "340C",
      "340C",
      "340C",
      "340C",
      "340C",
      "340C",
      "340C",
      "340C",
      "340C",
      "340C",
      "340C",
      "340C",
      "340C",
      "340",
      "340",
      "340",
      "340",
      "340",
      "340",
      "340",
      "281",
      "281",
      "281",
      "281",
      "258",
      "258",
      "204",
      "204",
      "204",
      "204",
      "187",
      "187",
      "187",
      "187",
      "187",
      "157",
      "157",
      "157",
      "157",
      "110",
      "110",
      "110",
      "110",
      "110",
      "110",
      "110",
      "110",
      "100",
      "100",
      "100",
      "100",
      "098",
      "090",
      "090",
      "090",
      "090",
      "081",
      "081",
      "081",
      "081",
      "078",
      "067",
      "067",
      "052",
      "052",
      "052",
      "032",
      "017",
      "017",
      "011",
      "009",
      "009",
      "009",
      "009",
      "009"
    ],
    "swim:geom": "path",
    "swim:speeds": [
      285,
      285,
      285,
      285,
      285,
      285,
      285,
      285,
      285,
      285,
      285,
      428,
      428,
      428,
      428,
      428,
      428,
      428,
      428,
      428,
      428,
      424,
      424,
      424,
      424,
      424,
      428,
      428,
      428,
      428,
      427,
      427,
      427,
      427,
      427,
      429,
      429,
      429,
      429,
      429,
      429,
      429,
      429,
      429,
      429,
      429,
      414,
      414,
      414,
      414,
      414,
      413,
      413,
      413,
      413,
      413,
      413,
      413,
      413,
      413,
      413,
      413,
      407,
      407,
      407,
      407,
      407,
      407,
      407,
      421,
      421,
      421,
      421,
      421,
      421,
      421,
      421,
      421,
      421,
      421,
      407,
      407,
      331,
      331,
      331,
      331,
      319,
      319,
      319,
      319,
      319,
      267,
      267,
      267,
      267,
      247,
      247,
      247,
      247,
      247,
      247,
      247,
      247,
      243,
      243,
      243,
      243,
      241,
      245,
      245,
      245,
      245,
      239,
      239,
      239,
      239,
      236,
      236,
      236,
      232,
      232,
      232,
      176,
      140,
      140,
      134,
      136,
      136,
      136,
      136,
      136
    ],
    "swim:timestamps": [
      1761846256,
      1761846256,
      1761846256,
      1761846256,
      1761846256,
      1761846256,
      1761846256,
      1761846256,
      1761846256,
      1761846256,
      1761846256,
      1761847218,
      1761847218,
      1761847218,
      1761847218,
      1761847218,
      1761847218,
      1761847218,
      1761847218,
      1761847218,
      1761847218,
      1761847578,
      1761847578,
      1761847578,
      1761847578,
      1761847578,
      1761847759,
      1761847759,
      1761847759,
      1761847759,
      1761847879,
      1761847879,
      1761847879,
      1761847879,
      1761847879,
      1761848360,
      1761848360,
      1761848360,
      1761848360,
      1761848360,
      1761848360,
      1761848360,
      1761848360,
      1761848360,
      1761848360,
      1761848360,
      1761848901,
      1761848901,
      1761848901,
      1761848901,
      1761848901,
      1761849081,
      1761849081,
      1761849081,
      1761849081,
      1761849081,
      1761849081,
      1761849145,
      1761849145,
      1761849145,
      1761849145,
      1761849145,
      1761849806,
      1761849806,
      1761849806,
      1761849806,
      1761849806,
      1761849806,
      1761849806,
      1761850047,
      1761850047,
      1761850047,
      1761850047,
      1761850047,
      1761850047,
      1761850047,
      1761850287,
      1761850287,
      1761850287,
      1761850287,
      1761850347,
      1761850347,
      1761850527,
      1761850527,
      1761850527,
      1761850527,
      1761850564,
      1761850564,
      1761850564,
      1761850564,
      1761850564,
      1761850708,
      1761850708,
      1761850708,
      1761850708,
      1761850929,
      1761850929,
      1761850929,
      1761850929,
      1761850948,
      1761850948,
      1761850948,
      1761850948,
      1761851164,
      1761851164,
      1761851164,
      1761851164,
      1761851188,
      1761851248,
      1761851248,
      1761851248,
      1761851248,
      1761851308,
      1761851308,
      1761851308,
      1761851308,
      1761851369,
      1761851404,
      1761851404,
      1761851489,
      1761851489,
      1761851489,
      1761851609,
      1761851729,
      1761851729,
      1761851764,
      1761851789,
      1761851789,
      1761851789,
      1761851789,
      1761851789
    ],
    "wof:geomhash": "9e0c4b5ad3a118e62274f5c5dfb8817d",
    "wof:id": 1981804387,
    "wof:repo": "sfomuseum-data-flights-2025-10"
  },
  "bbox": [
    -122.30694444444444,
    37.45666666666667,
    -111.95194444444445,
    40.56111111111111
  ],
  "geometry": {"coordinates":[[-111.95194444444445,40.56111111111111],[-111.95194444444445,40.56111111111111],[-111.95194444444445,40.56111111111111],[-111.95194444444445,40.56111111111111],[-111.95194444444445,40.56111111111111],[-111.95194444444445,40.56111111111111],[-111.95194444444445,40.56111111111111],[-111.95194444444445,40.56111111111111],[-111.95194444444445,40.56111111111111],[-111.95194444444445,40.56111111111111],[-111.95194444444445,40.56111111111111],[-113.18722222222223,39.311388888888885],[-113.18722222222223,39.311388888888885],[-113.18722222222223,39.311388888888885],[-113.18722222222223,39.311388888888885],[-113.18722222222223,39.311388888888885],[-113.18722222222223,39.311388888888885],[-113.18722222222223,39.311388888888885],[-113.18722222222223,39.311388888888885],[-113.18722222222223,39.311388888888885],[-113.18722222222223,39.311388888888885],[-114.06861111111111,39.11138888888889],[-114.06861111111111,39.11138888888889],[-114.06861111111111,39.11138888888889],[-114.06861111111111,39.11138888888889],[-114.06861111111111,39.11138888888889],[-114.5125,39.00611111111111],[-114.5125,39.00611111111111],[-114.5125,39.00611111111111],[-114.5125,39.00611111111111],[-114.79583333333333,38.93805555555555],[-114.79583333333333,38.93805555555555],[-114.79583333333333,38.93805555555555],[-114.79583333333333,38.93805555555555],[-114.79583333333333,38.93805555555555],[-115.96583333333334,38.647777777777776],[-115.96583333333334,38.647777777777776],[-115.96583333333334,38.647777777777776],[-115.96583333333334,38.647777777777776],[-115.96583333333334,38.647777777777776],[-115.96583333333334,38.647777777777776],[-115.96583333333334,38.647777777777776],[-115.96583333333334,38.647777777777776],[-115.96583333333334,38.647777777777776],[-115.96583333333334,38.647777777777776],[-115.96583333333334,38.647777777777776],[-117.24916666666667,38.31305555555555],[-117.24916666666667,38.31305555555555],[-117.24916666666667,38.31305555555555],[-117.24916666666667,38.31305555555555],[-117.24916666666667,38.31305555555555],[-117.65611111111112,38.20333333333333],[-117.65611111111112,38.20333333333333],[-117.65611111111112,38.20333333333333],[-117.65611111111112,38.20333333333333],[-117.65611111111112,38.20333333333333],[-117.65611111111112,38.20333333333333],[-117.82388888888889,38.157777777777774],[-117.82388888888889,38.157777777777774],[-117.82388888888889,38.157777777777774],[-117.82388888888889,38.157777777777774],[-117.82388888888889,38.157777777777774],[-119.35972222222222,37.82694444444445],[-119.35972222222222,37.82694444444445],[-119.35972222222222,37.82694444444445],[-119.35972222222222,37.82694444444445],[-119.35972222222222,37.82694444444445],[-119.35972222222222,37.82694444444445],[-119.35972222222222,37.82694444444445],[-119.90166666666667,37.761944444444445],[-119.90166666666667,37.761944444444445],[-119.90166666666667,37.761944444444445],[-119.90166666666667,37.761944444444445],[-119.90166666666667,37.761944444444445],[-119.90166666666667,37.761944444444445],[-119.90166666666667,37.761944444444445],[-120.49111111111111,37.689166666666665],[-120.49111111111111,37.689166666666665],[-120.49111111111111,37.689166666666665],[-120.49111111111111,37.689166666666665],[-120.63361111111112,37.6725],[-120.63361111111112,37.6725],[-121.01888888888888,37.62555555555556],[-121.01888888888888,37.62555555555556],[-121.01888888888888,37.62555555555556],[-121.01888888888888,37.62555555555556],[-121.1,37.61666666666667],[-121.1,37.61666666666667],[-121.1,37.61666666666667],[-121.1,37.61666666666667],[-121.1,37.61666666666667],[-121.3236111111111,37.58583333333333],[-121.3236111111111,37.58583333333333],[-121.3236111111111,37.58583333333333],[-121.3236111111111,37.58583333333333],[-121.66666666666667,37.55],[-121.66666666666667,37.55],[-121.66666666666667,37.55],[-121.66666666666667,37.55],[-121.6713888888889,37.55777777777777],[-121.6713888888889,37.55777777777777],[-121.6713888888889,37.55777777777777],[-121.6713888888889,37.55777777777777],[-121.93333333333334,37.6],[-121.93333333333334,37.6],[-121.93333333333334,37.6],[-121.93333333333334,37.6],[-121.92416666666666,37.58972222222222],[-121.8711111111111,37.53638888888889],[-121.8711111111111,37.53638888888889],[-121.8711111111111,37.53638888888889],[-121.8711111111111,37.53638888888889],[-121.82972222222222,37.47916666666667],[-121.82972222222222,37.47916666666667],[-121.82972222222222,37.47916666666667],[-121.82972222222222,37.47916666666667],[-121.89611111111111,37.45666666666667],[-121.96666666666667,37.46666666666667],[-121.96666666666667,37.46666666666667],[-122.05361111111111,37.48527777777778],[-122.05361111111111,37.48527777777778],[-122.05361111111111,37.48527777777778],[-122.17361111111111,37.53611111111111],[-122.26583333333333,37.575],[-122.26583333333333,37.575],[-122.3,37.583333333333336],[-122.30694444444444,37.592222222222226],[-122.30694444444444,37.592222222222226],[-122.30694444444444,37.592222222222226],[-122.30694444444444,37.592222222222226],[-122.30694444444444,37.592222222222226]],"type":"LineString"}
}
