{
  "id": 1981710247,
  "type": "Feature",
  "properties": {
    "geom:area": 0,
    "geom:bbox": "-122.345730,37.491360,-121.251760,37.608610",
    "geom:latitude": 37.545710530803426,
    "geom:longitude": -121.80337988295379,
    "src:alt_label": "swim-approach",
    "src:geom": "swim",
    "swim:elevations": [
      4666,
      4506,
      4282,
      3978,
      3883,
      3477,
      3351,
      3353,
      3353,
      3247,
      3167,
      2995,
      2864,
      2610,
      2499,
      2401,
      2172,
      1994,
      1856,
      1834,
      1774,
      1509,
      1427,
      1275,
      1129,
      926,
      884,
      762,
      638,
      492,
      412,
      332,
      167,
      81
    ],
    "swim:geom": "approach",
    "swim:timestamps": [
      1760863803,
      1760863821,
      1760863847,
      1760863887,
      1760863899,
      1760863947,
      1760863971,
      1760863983,
      1760863993,
      1760864035,
      1760864055,
      1760864089,
      1760864106,
      1760864137,
      1760864153,
      1760864163,
      1760864187,
      1760864207,
      1760864226,
      1760864261,
      1760864290,
      1760864334,
      1760864347,
      1760864375,
      1760864401,
      1760864438,
      1760864452,
      1760864470,
      1760864492,
      1760864518,
      1760864536,
      1760864554,
      1760864599,
      1760864621
    ],
    "wof:geomhash": "1b6cf9c5a8a241c03d9d71c4054578d3",
    "wof:id": 1981710247,
    "wof:repo": "sfomuseum-data-flights-2025-10"
  },
  "bbox": [
    -122.34573,
    37.49136,
    -121.25176,
    37.60861
  ],
  "geometry": {"coordinates":[[-121.25176,37.59407],[-121.2838,37.58983],[-121.32893,37.5846],[-121.39653,37.57723],[-121.41792,37.57476],[-121.49914,37.56535],[-121.5382,37.56075],[-121.55788,37.55836],[-121.57433,37.55644],[-121.64252,37.54647],[-121.67172,37.53946],[-121.71725,37.52852],[-121.73995,37.52308],[-121.78129,37.51336],[-121.80253,37.50834],[-121.81571,37.50518],[-121.84757,37.49746],[-121.8751,37.49136],[-121.90233,37.49149],[-121.9499,37.49288],[-121.98909,37.49497],[-122.04299,37.51272],[-122.05954,37.51804],[-122.09432,37.52931],[-122.12587,37.5395],[-122.17074,37.55398],[-122.18823,37.55966],[-122.21045,37.56687],[-122.23515,37.5749],[-122.26101,37.58317],[-122.2774,37.5879],[-122.29241,37.59224],[-122.32895,37.60293],[-122.34573,37.60861]],"type":"LineString"}
}
