{
  "id": 1981558327,
  "type": "Feature",
  "properties": {
    "geom:area": 0,
    "geom:bbox": "-122.556560,36.729280,-122.361640,37.707190",
    "geom:latitude": 37.24757334287826,
    "geom:longitude": -122.47335926238226,
    "src:alt_label": "swim-takeoff",
    "src:geom": "swim",
    "swim:elevations": [
      152,
      213,
      632,
      1130,
      1221,
      1574,
      2532,
      2650,
      2977,
      3291,
      3493,
      3575,
      3883,
      4517,
      4965,
      5204,
      5588,
      5794,
      6210,
      6633,
      6909,
      7069,
      7260,
      7636,
      7928,
      8017
    ],
    "swim:geom": "takeoff",
    "swim:timestamps": [
      1759308928,
      1759308933,
      1759308968,
      1759309018,
      1759309031,
      1759309059,
      1759309108,
      1759309115,
      1759309134,
      1759309157,
      1759309198,
      1759309206,
      1759309230,
      1759309281,
      1759309318,
      1759309340,
      1759309377,
      1759309391,
      1759309428,
      1759309467,
      1759309495,
      1759309511,
      1759309531,
      1759309576,
      1759309616,
      1759309627
    ],
    "wof:geomhash": "af5a5ff2493c8726355e674f6453b9c2",
    "wof:id": 1981558327,
    "wof:repo": "sfomuseum-data-flights-2025-10"
  },
  "bbox": [
    -122.55656,
    36.72928,
    -122.36164,
    37.70719
  ],
  "geometry": {"coordinates":[[-122.36875,37.62942],[-122.36678,37.63244],[-122.363,37.65998],[-122.37377,37.70176],[-122.38885,37.70719],[-122.42264,37.69722],[-122.4408,37.64023],[-122.44259,37.63193],[-122.4472,37.609],[-122.45269,37.58078],[-122.46448,37.52053],[-122.46706,37.50731],[-122.47473,37.46826],[-122.49221,37.37855],[-122.50511,37.31202],[-122.5127,37.27264],[-122.52594,37.20411],[-122.53137,37.17601],[-122.54491,37.10555],[-122.55656,37.02998],[-122.54109,36.97658],[-122.51954,36.94585],[-122.49319,36.9097],[-122.43181,36.82557],[-122.37742,36.75018],[-122.36164,36.72928]],"type":"LineString"}
}
