{
  "id": 1981711187,
  "type": "Feature",
  "properties": {
    "geom:area": 0,
    "geom:bbox": "-122.353270,37.491670,-121.260850,37.611920",
    "geom:latitude": 37.54599677157545,
    "geom:longitude": -121.81183380628529,
    "src:alt_label": "swim-approach",
    "src:geom": "swim",
    "swim:elevations": [
      4721,
      4495,
      4119,
      3883,
      3717,
      3288,
      3230,
      3200,
      3135,
      3024,
      2677,
      2610,
      2361,
      2226,
      2046,
      1919,
      1832,
      1779,
      1682,
      1584,
      1408,
      1191,
      1058,
      896,
      669,
      556,
      449,
      333,
      234,
      182,
      52
    ],
    "swim:geom": "approach",
    "swim:timestamps": [
      1760864006,
      1760864028,
      1760864065,
      1760864089,
      1760864106,
      1760864153,
      1760864163,
      1760864177,
      1760864199,
      1760864226,
      1760864271,
      1760864283,
      1760864334,
      1760864353,
      1760864393,
      1760864421,
      1760864441,
      1760864452,
      1760864470,
      1760864492,
      1760864518,
      1760864539,
      1760864567,
      1760864589,
      1760864621,
      1760864658,
      1760864686,
      1760864719,
      1760864750,
      1760864765,
      1760864802
    ],
    "wof:geomhash": "aad7d96a95d0411f3578fafd6c1a77b4",
    "wof:id": 1981711187,
    "wof:repo": "sfomuseum-data-flights-2025-10"
  },
  "bbox": [
    -122.35327,
    37.49167,
    -121.26085,
    37.61192
  ],
  "geometry": {"coordinates":[[-121.26085,37.59296],[-121.30389,37.58759],[-121.37586,37.57976],[-121.42175,37.57459],[-121.45478,37.57079],[-121.54408,37.56025],[-121.56276,37.55807],[-121.58671,37.55534],[-121.62491,37.55006],[-121.66733,37.54075],[-121.73487,37.52441],[-121.75361,37.51993],[-121.82727,37.50224],[-121.8539,37.49589],[-121.91251,37.49167],[-121.95403,37.49282],[-121.98337,37.49485],[-121.99965,37.4985],[-122.02501,37.50659],[-122.05413,37.51628],[-122.08638,37.52686],[-122.11183,37.53513],[-122.14381,37.54536],[-122.16581,37.55244],[-122.19867,37.563],[-122.23633,37.57506],[-122.2631,37.58364],[-122.29098,37.59186],[-122.31602,37.59881],[-122.32721,37.60211],[-122.35327,37.61192]],"type":"LineString"}
}
