{
  "id": 1981767769,
  "type": "Feature",
  "properties": {
    "geom:area": 0,
    "geom:bbox": "-122.361480,37.635710,-122.189600,38.510130",
    "geom:latitude": 38.04221306874623,
    "geom:longitude": -122.23300836091852,
    "src:alt_label": "swim-takeoff",
    "src:geom": "swim",
    "swim:elevations": [
      257,
      700,
      1039,
      1245,
      1495,
      1774,
      2176,
      2948,
      3312,
      3408,
      3719,
      4138,
      4551,
      4877,
      5067,
      5338,
      5578,
      5806,
      6162,
      6384,
      6724,
      6810,
      7035
    ],
    "swim:geom": "takeoff",
    "swim:timestamps": [
      1761419545,
      1761419572,
      1761419606,
      1761419635,
      1761419658,
      1761419678,
      1761419704,
      1761419756,
      1761419783,
      1761419800,
      1761419841,
      1761419875,
      1761419905,
      1761419926,
      1761419941,
      1761419968,
      1761419994,
      1761420015,
      1761420051,
      1761420078,
      1761420117,
      1761420129,
      1761420156
    ],
    "wof:geomhash": "04427fdb38c43cdfc6c4374c8369f9d7",
    "wof:id": 1981767769,
    "wof:repo": "sfomuseum-data-flights-2025-10"
  },
  "bbox": [
    -122.36148,
    37.63571,
    -122.1896,
    38.51013
  ],
  "geometry": {"coordinates":[[-122.36148,37.63571],[-122.33946,37.65072],[-122.30711,37.667],[-122.27518,37.68565],[-122.2452,37.70175],[-122.22188,37.71963],[-122.21528,37.75226],[-122.21698,37.81968],[-122.2176,37.8575],[-122.21869,37.88257],[-122.22104,37.94676],[-122.22214,38.00572],[-122.22369,38.05698],[-122.22452,38.093],[-122.22518,38.11865],[-122.22669,38.16543],[-122.228,38.21108],[-122.22894,38.24859],[-122.23046,38.31446],[-122.23187,38.36304],[-122.21296,38.43556],[-122.20591,38.45827],[-122.1896,38.51013]],"type":"LineString"}
}
