{
  "id": 1981631899,
  "type": "Feature",
  "properties": {
    "geom:area": 0,
    "geom:bbox": "-122.328030,37.490920,-121.255680,37.602790",
    "geom:latitude": 37.54473653439389,
    "geom:longitude": -121.79624194693186,
    "src:alt_label": "swim-approach",
    "src:geom": "swim",
    "swim:elevations": [
      4994,
      4817,
      4775,
      4587,
      4430,
      4019,
      3966,
      3683,
      3518,
      3329,
      3224,
      3125,
      2702,
      2650,
      2438,
      2438,
      2396,
      2338,
      2163,
      1920,
      1829,
      1807,
      1737,
      1477,
      1248,
      1055,
      991,
      877,
      700,
      642,
      394,
      303,
      180
    ],
    "swim:geom": "approach",
    "swim:timestamps": [
      1760089736,
      1760089753,
      1760089775,
      1760089796,
      1760089811,
      1760089857,
      1760089864,
      1760089907,
      1760089931,
      1760089961,
      1760089977,
      1760089996,
      1760090037,
      1760090042,
      1760090097,
      1760090128,
      1760090152,
      1760090165,
      1760090202,
      1760090233,
      1760090274,
      1760090301,
      1760090327,
      1760090356,
      1760090379,
      1760090417,
      1760090432,
      1760090476,
      1760090512,
      1760090524,
      1760090575,
      1760090598,
      1760090627
    ],
    "wof:geomhash": "8eb873c8e1c1ce8f5c894ea419ad4698",
    "wof:id": 1981631899,
    "wof:repo": "sfomuseum-data-flights-2025-10"
  },
  "bbox": [
    -122.32803,
    37.49092,
    -121.25568,
    37.60279
  ],
  "geometry": {"coordinates":[[-121.25568,37.5942],[-121.28081,37.59054],[-121.31136,37.58689],[-121.33972,37.58385],[-121.35858,37.58172],[-121.42266,37.57446],[-121.43245,37.57333],[-121.49184,37.56653],[-121.52512,37.56269],[-121.56477,37.55803],[-121.58457,37.55565],[-121.60961,37.55263],[-121.66332,37.54184],[-121.66888,37.54049],[-121.73963,37.52368],[-121.77751,37.51459],[-121.80876,37.50701],[-121.82462,37.50316],[-121.86926,37.49227],[-121.90947,37.49092],[-121.96341,37.49326],[-121.99828,37.49804],[-122.02748,37.50758],[-122.05883,37.51796],[-122.08504,37.52648],[-122.12746,37.54007],[-122.14492,37.54574],[-122.18829,37.55969],[-122.22272,37.57086],[-122.2346,37.57466],[-122.28402,37.58977],[-122.30344,37.59557],[-122.32803,37.60279]],"type":"LineString"}
}
