{
  "id": 1981711079,
  "type": "Feature",
  "properties": {
    "geom:area": 0,
    "geom:bbox": "-122.357510,36.736450,-121.888960,37.611240",
    "geom:latitude": 37.21610411349472,
    "geom:longitude": -122.07274413710263,
    "src:alt_label": "swim-approach",
    "src:geom": "swim",
    "swim:elevations": [
      4978,
      4918,
      4535,
      4213,
      3904,
      3392,
      3227,
      3042,
      2956,
      2739,
      2540,
      2438,
      2438,
      2438,
      2438,
      2385,
      2087,
      2039,
      1877,
      1788,
      1364,
      1253,
      1091,
      846,
      824,
      699,
      543,
      436,
      274,
      187,
      79,
      0
    ],
    "swim:geom": "approach",
    "swim:timestamps": [
      1760901443,
      1760901450,
      1760901483,
      1760901514,
      1760901544,
      1760901594,
      1760901614,
      1760901653,
      1760901678,
      1760901710,
      1760901738,
      1760901771,
      1760901780,
      1760901828,
      1760901858,
      1760901888,
      1760901928,
      1760901934,
      1760901955,
      1760901964,
      1760902012,
      1760902037,
      1760902061,
      1760902098,
      1760902111,
      1760902148,
      1760902178,
      1760902207,
      1760902256,
      1760902286,
      1760902318,
      1760902336
    ],
    "wof:geomhash": "7c864f3b76908511b1b51ec40afc4990",
    "wof:id": 1981711079,
    "wof:repo": "sfomuseum-data-flights-2025-10"
  },
  "bbox": [
    -122.35751,
    36.73645,
    -121.88896,
    37.61124
  ],
  "geometry": {"coordinates":[[-121.88896,36.73645],[-121.89414,36.74695],[-121.90972,36.7985],[-121.92307,36.84534],[-121.93598,36.89117],[-121.95884,36.96645],[-121.97029,36.99579],[-121.99031,37.04701],[-122.00256,37.0784],[-122.01855,37.11943],[-122.03196,37.15375],[-122.04739,37.19324],[-122.05157,37.20402],[-122.07363,37.26052],[-122.08794,37.29671],[-122.10065,37.32919],[-122.11669,37.36953],[-122.11895,37.37545],[-122.12623,37.39654],[-122.12919,37.40527],[-122.14643,37.45464],[-122.15712,37.47798],[-122.17088,37.49874],[-122.19248,37.52953],[-122.19942,37.53934],[-122.23086,37.557],[-122.25677,37.56782],[-122.27823,37.5773],[-122.30936,37.59087],[-122.32703,37.59856],[-122.34624,37.60661],[-122.35751,37.61124]],"type":"LineString"}
}
