{
  "id": 1981750623,
  "type": "Feature",
  "properties": {
    "geom:area": 0,
    "geom:bbox": "-122.465580,36.730130,-121.370110,37.708010",
    "geom:latitude": 37.211006465616975,
    "geom:longitude": -122.01741919719817,
    "src:alt_label": "swim-takeoff",
    "src:geom": "swim",
    "swim:elevations": [
      244,
      569,
      822,
      1012,
      1193,
      1229,
      1783,
      2119,
      2587,
      2920,
      3205,
      3291,
      3633,
      4081,
      4735,
      5160,
      5399,
      5621,
      5801,
      6068,
      6311,
      6387,
      6793,
      6839,
      7031,
      7214,
      7381,
      7658,
      7838,
      8011,
      8089
    ],
    "swim:geom": "takeoff",
    "swim:timestamps": [
      1761265257,
      1761265286,
      1761265310,
      1761265331,
      1761265371,
      1761265380,
      1761265434,
      1761265461,
      1761265494,
      1761265523,
      1761265556,
      1761265575,
      1761265613,
      1761265654,
      1761265723,
      1761265768,
      1761265796,
      1761265828,
      1761265850,
      1761265884,
      1761265910,
      1761265920,
      1761265974,
      1761265980,
      1761266008,
      1761266034,
      1761266058,
      1761266097,
      1761266127,
      1761266151,
      1761266166
    ],
    "wof:geomhash": "64c764f14a2c9aa765bf2111706f4969",
    "wof:id": 1981750623,
    "wof:repo": "sfomuseum-data-flights-2025-10"
  },
  "bbox": [
    -122.46558,
    36.73013,
    -121.37011,
    37.70801
  ],
  "geometry": {"coordinates":[[-122.3645,37.63561],[-122.36244,37.65807],[-122.36241,37.67606],[-122.36513,37.69213],[-122.40115,37.70801],[-122.41254,37.70547],[-122.44157,37.64547],[-122.44723,37.61009],[-122.45694,37.56655],[-122.46558,37.52819],[-122.45086,37.4847],[-122.42401,37.46578],[-122.36362,37.42549],[-122.30069,37.37873],[-122.19122,37.29561],[-122.11723,37.24025],[-122.06848,37.20728],[-122.01174,37.16903],[-121.97228,37.14244],[-121.91078,37.10068],[-121.86181,37.06733],[-121.84381,37.05516],[-121.74348,36.98662],[-121.73217,36.9789],[-121.67931,36.94278],[-121.62958,36.90868],[-121.58321,36.87685],[-121.50672,36.82443],[-121.44662,36.78374],[-121.39974,36.75064],[-121.37011,36.73013]],"type":"LineString"}
}
