{
  "id": 1981771905,
  "type": "Feature",
  "properties": {
    "geom:area": 0,
    "geom:bbox": "-122.756180,37.417720,-122.115440,38.517730",
    "geom:latitude": 37.840646748750935,
    "geom:longitude": -122.47032841084437,
    "src:alt_label": "swim-approach",
    "src:geom": "swim",
    "swim:elevations": [
      7315,
      7315,
      7289,
      7159,
      6742,
      6468,
      6156,
      5873,
      5604,
      5288,
      5030,
      4882,
      4548,
      4506,
      4280,
      4062,
      3934,
      3689,
      3443,
      3385,
      3355,
      3353,
      3353,
      3325,
      3291,
      3232,
      3113,
      3080,
      2828,
      2463,
      2375,
      2230,
      2094,
      2004,
      1771,
      1584,
      1466,
      1168,
      893,
      819,
      666,
      552,
      368,
      307,
      240,
      200,
      49
    ],
    "swim:geom": "approach",
    "swim:timestamps": [
      1761469873,
      1761469911,
      1761469940,
      1761469953,
      1761470000,
      1761470029,
      1761470061,
      1761470090,
      1761470113,
      1761470144,
      1761470177,
      1761470193,
      1761470232,
      1761470237,
      1761470262,
      1761470293,
      1761470311,
      1761470350,
      1761470391,
      1761470403,
      1761470421,
      1761470449,
      1761470475,
      1761470516,
      1761470523,
      1761470555,
      1761470576,
      1761470581,
      1761470617,
      1761470666,
      1761470679,
      1761470704,
      1761470739,
      1761470770,
      1761470816,
      1761470844,
      1761470859,
      1761470899,
      1761470937,
      1761470956,
      1761470987,
      1761471008,
      1761471050,
      1761471068,
      1761471085,
      1761471094,
      1761471131
    ],
    "wof:geomhash": "148bf1f007aa8b69639783e17349db9e",
    "wof:id": 1981771905,
    "wof:repo": "sfomuseum-data-flights-2025-10"
  },
  "bbox": [
    -122.75618,
    37.41772,
    -122.11544,
    38.51773
  ],
  "geometry": {"coordinates":[[-122.75618,38.51773],[-122.68535,38.46768],[-122.66413,38.41809],[-122.65929,38.39374],[-122.65929,38.31406],[-122.66071,38.26688],[-122.66267,38.21483],[-122.66445,38.16971],[-122.66556,38.13413],[-122.66751,38.08508],[-122.66885,38.03396],[-122.6696,38.01085],[-122.67132,37.95214],[-122.67157,37.94461],[-122.66701,37.90673],[-122.63597,37.86437],[-122.61381,37.84337],[-122.56569,37.798],[-122.51657,37.75167],[-122.50279,37.73859],[-122.48093,37.7179],[-122.44738,37.68639],[-122.41759,37.6583],[-122.36993,37.61357],[-122.36314,37.60647],[-122.33987,37.57135],[-122.32753,37.55007],[-122.32462,37.54495],[-122.30317,37.50778],[-122.27244,37.45747],[-122.2574,37.44656],[-122.22306,37.43467],[-122.17252,37.41872],[-122.13145,37.41772],[-122.11544,37.45598],[-122.12655,37.47741],[-122.13376,37.48793],[-122.15432,37.51636],[-122.1826,37.53808],[-122.20062,37.54553],[-122.23011,37.55795],[-122.25102,37.56654],[-122.28602,37.58134],[-122.3008,37.58756],[-122.31372,37.59303],[-122.32134,37.59621],[-122.35,37.60822]],"type":"LineString"}
}
