{
  "id": 1981754661,
  "type": "Feature",
  "properties": {
    "geom:area": 0,
    "geom:bbox": "-122.333333,32.769722,-117.265000,37.600000",
    "geom:latitude": 35.03032940231975,
    "geom:longitude": -119.9894442137253,
    "src:alt_label": "swim-path",
    "src:geom": "swim",
    "swim:altitudes": [
      "030",
      "081",
      "156",
      "156",
      "261",
      "305",
      "355",
      "355",
      "322",
      "322",
      "161",
      "161",
      "088",
      "088",
      "047",
      "018",
      "012",
      "004"
    ],
    "swim:geom": "path",
    "swim:speeds": [
      213,
      274,
      386,
      386,
      451,
      460,
      462,
      462,
      448,
      448,
      365,
      365,
      232,
      232,
      200,
      181,
      158,
      139
    ],
    "swim:timestamps": [
      1761341393,
      1761341513,
      1761341753,
      1761341753,
      1761342114,
      1761342294,
      1761342532,
      1761342532,
      1761343793,
      1761343793,
      1761344243,
      1761344243,
      1761344542,
      1761344542,
      1761344777,
      1761344962,
      1761345023,
      1761345083
    ],
    "wof:geomhash": "09aeccdff25d33feabc00500f79fa3db",
    "wof:id": 1981754661,
    "wof:repo": "sfomuseum-data-flights-2025-10"
  },
  "bbox": [
    -122.33333333333333,
    32.76972222222222,
    -117.265,
    37.6
  ],
  "geometry": {"coordinates":[[-117.265,32.76972222222222],[-117.40444444444445,32.855000000000004],[-117.75277777777778,33.086666666666666],[-117.75277777777778,33.086666666666666],[-118.35055555555554,33.60138888888889],[-118.68472222222222,33.87694444444445],[-119.14,34.20638888888889],[-119.14,34.20638888888889],[-121.38694444444445,36.096944444444446],[-121.38694444444445,36.096944444444446],[-121.91666666666667,36.833333333333336],[-121.91666666666667,36.833333333333336],[-122.06666666666666,37.25],[-122.06666666666666,37.25],[-122.15,37.416666666666664],[-122.23333333333333,37.56666666666667],[-122.28333333333333,37.583333333333336],[-122.33333333333333,37.6]],"type":"LineString"}
}
