{
  "id": 1997539737,
  "type": "Feature",
  "properties": {
    "geom:area": 0,
    "geom:bbox": "-122.279167,35.312500,-81.040833,41.096111",
    "geom:latitude": 39.24545428303164,
    "geom:longitude": -101.30582191124557,
    "src:alt_label": "swim-path",
    "src:geom": "swim",
    "swim:altitudes": [
      "055",
      "055",
      "055",
      "116",
      "116",
      "116",
      "116",
      "154",
      "154",
      "154",
      "154",
      "230",
      "230",
      "300C",
      "300C",
      "300C",
      "300C",
      "300C",
      "300C",
      "300C",
      "300C",
      "300C",
      "300C",
      "300C",
      "300C",
      "300C",
      "301C",
      "300C",
      "300C",
      "300C",
      "300C",
      "300C",
      "300C",
      "300C",
      "300C",
      "300C",
      "300C",
      "300C",
      "300C",
      "300C",
      "300C",
      "300C",
      "300C",
      "300C",
      "300C",
      "300C",
      "300C",
      "300C",
      "300C",
      "300C",
      "300C",
      "300C",
      "300C",
      "300C",
      "300",
      "300",
      "300C",
      "300C",
      "300C",
      "300C",
      "300C",
      "300C",
      "300C",
      "300C",
      "300C",
      "300C",
      "300C",
      "300C",
      "300C",
      "300C",
      "300C",
      "300C",
      "300C",
      "300C",
      "300C",
      "300C",
      "300C",
      "300C",
      "300C",
      "300C",
      "300C",
      "300C",
      "300C",
      "300C",
      "300C",
      "300C",
      "300C",
      "300C",
      "300C",
      "300C",
      "300C",
      "300C",
      "300C",
      "300C",
      "300C",
      "300C",
      "300C",
      "300C",
      "300C",
      "300C",
      "300C",
      "300C",
      "300C",
      "300C",
      "300C",
      "300C",
      "300C",
      "300C",
      "300C",
      "300C",
      "300C",
      "300C",
      "300C",
      "300C",
      "300C",
      "300C",
      "300C",
      "300C",
      "300C",
      "300C",
      "300C",
      "300C",
      "300C",
      "300C",
      "300C",
      "300C",
      "300C",
      "300C",
      "300C",
      "300C",
      "300C",
      "300C",
      "300C",
      "300C",
      "300C",
      "300C",
      "300C",
      "300C",
      "300C",
      "300C",
      "300C",
      "300C",
      "300C",
      "300C",
      "300C",
      "333",
      "333",
      "337",
      "360C",
      "360C",
      "360C",
      "360C",
      "360C",
      "360C",
      "360C",
      "360C",
      "360C",
      "360C",
      "360C",
      "360C",
      "360C",
      "360C",
      "360C",
      "360C",
      "360C",
      "361C",
      "361C",
      "360C",
      "360C",
      "360C",
      "360C",
      "360C",
      "360C",
      "360C",
      "360C",
      "360C",
      "360C",
      "360C",
      "360C",
      "360C",
      "360C",
      "360C",
      "361C",
      "361C",
      "361C",
      "361C",
      "361C",
      "360C",
      "360C",
      "360C",
      "360C",
      "360C",
      "360C",
      "360C",
      "360C",
      "360C",
      "360C",
      "360C",
      "360C",
      "360C",
      "360C",
      "360C",
      "360C",
      "360C",
      "360C",
      "360C",
      "360C",
      "360C",
      "360C",
      "360C",
      "360C",
      "360C",
      "360C",
      "360C",
      "360C",
      "360C",
      "360C",
      "360C",
      "360C",
      "360C",
      "360C",
      "360C",
      "360C",
      "360C",
      "360C",
      "360C",
      "360C",
      "360C",
      "360C",
      "360C",
      "360C",
      "360C",
      "360C",
      "360C",
      "360C",
      "360C",
      "360C",
      "360C",
      "360C",
      "360C",
      "360C",
      "360C",
      "360C",
      "360C",
      "360C",
      "360C",
      "360C",
      "360C",
      "360C",
      "360C",
      "360C",
      "360C",
      "360C",
      "360C",
      "360C",
      "360C",
      "360C",
      "360C",
      "360C",
      "360C",
      "360C",
      "360C",
      "360C",
      "360C",
      "360C",
      "360C",
      "360",
      "360",
      "360",
      "360",
      "351",
      "351",
      "306",
      "268",
      "268",
      "244",
      "226",
      "206",
      "186",
      "186",
      "168",
      "168",
      "166",
      "129",
      "129",
      "111",
      "104",
      "088",
      "042",
      "041",
      "029",
      "013",
      "013"
    ],
    "swim:geom": "path",
    "swim:speeds": [
      247,
      247,
      247,
      342,
      342,
      342,
      342,
      376,
      376,
      376,
      376,
      427,
      427,
      427,
      427,
      427,
      427,
      423,
      423,
      423,
      423,
      423,
      423,
      421,
      421,
      413,
      412,
      408,
      408,
      408,
      408,
      403,
      401,
      401,
      400,
      400,
      400,
      400,
      400,
      400,
      400,
      399,
      399,
      400,
      399,
      399,
      399,
      399,
      399,
      399,
      400,
      400,
      400,
      400,
      403,
      403,
      401,
      401,
      401,
      401,
      401,
      401,
      400,
      401,
      401,
      401,
      401,
      399,
      399,
      399,
      396,
      396,
      396,
      396,
      393,
      391,
      391,
      391,
      391,
      391,
      391,
      391,
      391,
      390,
      390,
      390,
      389,
      389,
      389,
      388,
      388,
      388,
      388,
      385,
      384,
      384,
      383,
      382,
      382,
      381,
      382,
      387,
      387,
      387,
      387,
      387,
      387,
      387,
      387,
      386,
      386,
      386,
      386,
      387,
      387,
      387,
      387,
      387,
      387,
      386,
      386,
      386,
      386,
      386,
      386,
      388,
      388,
      389,
      390,
      390,
      390,
      393,
      394,
      394,
      394,
      394,
      394,
      398,
      400,
      403,
      407,
      413,
      413,
      409,
      413,
      423,
      423,
      427,
      430,
      431,
      431,
      431,
      431,
      441,
      441,
      441,
      450,
      457,
      457,
      458,
      458,
      452,
      452,
      458,
      456,
      455,
      455,
      456,
      455,
      455,
      452,
      442,
      442,
      443,
      447,
      447,
      439,
      415,
      415,
      416,
      442,
      443,
      453,
      453,
      455,
      455,
      456,
      455,
      456,
      453,
      453,
      454,
      454,
      453,
      454,
      454,
      454,
      454,
      454,
      456,
      455,
      455,
      454,
      454,
      453,
      453,
      453,
      454,
      454,
      454,
      455,
      455,
      455,
      455,
      446,
      446,
      445,
      445,
      444,
      444,
      446,
      446,
      447,
      447,
      451,
      451,
      452,
      452,
      453,
      453,
      451,
      451,
      452,
      452,
      454,
      454,
      454,
      454,
      455,
      455,
      455,
      458,
      457,
      458,
      458,
      460,
      465,
      465,
      464,
      462,
      462,
      462,
      462,
      462,
      462,
      462,
      462,
      462,
      462,
      462,
      462,
      462,
      462,
      462,
      462,
      462,
      461,
      461,
      461,
      461,
      459,
      459,
      460,
      430,
      430,
      416,
      392,
      382,
      372,
      372,
      357,
      357,
      360,
      344,
      344,
      335,
      298,
      290,
      226,
      229,
      224,
      185,
      185
    ],
    "swim:timestamps": [
      1761954739,
      1761954739,
      1761954739,
      1761954919,
      1761954919,
      1761954919,
      1761954919,
      1761955038,
      1761955038,
      1761955038,
      1761955038,
      1761955339,
      1761955339,
      1761955696,
      1761955696,
      1761955696,
      1761955696,
      1761955936,
      1761955936,
      1761955997,
      1761955997,
      1761955997,
      1761955997,
      1761956177,
      1761956177,
      1761956477,
      1761956537,
      1761956597,
      1761956597,
      1761956597,
      1761956597,
      1761956778,
      1761956838,
      1761956838,
      1761956898,
      1761957018,
      1761957018,
      1761957205,
      1761957205,
      1761957205,
      1761957205,
      1761957439,
      1761957439,
      1761957499,
      1761957619,
      1761957619,
      1761957619,
      1761957619,
      1761957919,
      1761957919,
      1761957979,
      1761957979,
      1761957979,
      1761957979,
      1761958074,
      1761958074,
      1761958220,
      1761958280,
      1761958314,
      1761958314,
      1761958314,
      1761958314,
      1761958340,
      1761958400,
      1761958494,
      1761958494,
      1761958494,
      1761958580,
      1761958614,
      1761958614,
      1761958881,
      1761958881,
      1761958881,
      1761958881,
      1761959001,
      1761959125,
      1761959125,
      1761959245,
      1761959245,
      1761959245,
      1761959546,
      1761959546,
      1761959606,
      1761959666,
      1761959666,
      1761959726,
      1761959846,
      1761959846,
      1761960086,
      1761960207,
      1761960207,
      1761960207,
      1761960207,
      1761960527,
      1761960647,
      1761960647,
      1761960707,
      1761960947,
      1761960947,
      1761960988,
      1761961067,
      1761961229,
      1761961229,
      1761961247,
      1761961289,
      1761961289,
      1761961349,
      1761961349,
      1761961349,
      1761961409,
      1761961529,
      1761961548,
      1761961548,
      1761961589,
      1761961589,
      1761961668,
      1761961710,
      1761961710,
      1761961848,
      1761961968,
      1761961968,
      1761961968,
      1761961968,
      1761962088,
      1761962088,
      1761962328,
      1761962328,
      1761962448,
      1761962590,
      1761962590,
      1761962590,
      1761962929,
      1761963049,
      1761963049,
      1761963229,
      1761963229,
      1761963229,
      1761963409,
      1761963469,
      1761963552,
      1761963792,
      1761963930,
      1761963930,
      1761963972,
      1761963990,
      1761964232,
      1761964232,
      1761964272,
      1761964592,
      1761964633,
      1761964633,
      1761964652,
      1761964652,
      1761964772,
      1761964772,
      1761964772,
      1761964832,
      1761964952,
      1761965072,
      1761965132,
      1761965132,
      1761965173,
      1761965173,
      1761965193,
      1761965253,
      1761965293,
      1761965313,
      1761965353,
      1761965373,
      1761965373,
      1761965413,
      1761965534,
      1761965534,
      1761965554,
      1761965674,
      1761965674,
      1761965714,
      1761965795,
      1761965795,
      1761965855,
      1761966014,
      1761966074,
      1761966273,
      1761966273,
      1761966314,
      1761966314,
      1761966333,
      1761966374,
      1761966495,
      1761966615,
      1761966615,
      1761966635,
      1761966635,
      1761966675,
      1761966693,
      1761966693,
      1761966693,
      1761966735,
      1761966753,
      1761966855,
      1761966975,
      1761966975,
      1761966994,
      1761966994,
      1761967114,
      1761967155,
      1761967174,
      1761967215,
      1761967215,
      1761967215,
      1761967275,
      1761967294,
      1761967335,
      1761967355,
      1761967515,
      1761967515,
      1761967535,
      1761967656,
      1761967696,
      1761967696,
      1761967836,
      1761967896,
      1761967956,
      1761967956,
      1761968077,
      1761968077,
      1761968254,
      1761968254,
      1761968436,
      1761968436,
      1761968677,
      1761968677,
      1761968797,
      1761968797,
      1761969096,
      1761969096,
      1761969155,
      1761969215,
      1761969275,
      1761969275,
      1761969275,
      1761969457,
      1761969490,
      1761969517,
      1761969517,
      1761969696,
      1761969730,
      1761969730,
      1761969790,
      1761969816,
      1761969937,
      1761970030,
      1761970030,
      1761970058,
      1761970150,
      1761970210,
      1761970210,
      1761970210,
      1761970239,
      1761970270,
      1761970330,
      1761970330,
      1761970450,
      1761970479,
      1761970479,
      1761970598,
      1761970871,
      1761970871,
      1761970871,
      1761971111,
      1761971171,
      1761971171,
      1761971291,
      1761971396,
      1761971396,
      1761971471,
      1761971531,
      1761971591,
      1761971651,
      1761971651,
      1761971701,
      1761971701,
      1761971711,
      1761971831,
      1761971831,
      1761971891,
      1761971941,
      1761972012,
      1761972241,
      1761972252,
      1761972312,
      1761972432,
      1761972432
    ],
    "wof:geomhash": "62c851b58c010cbdf1d9248f35ab16c7",
    "wof:id": 1997539737,
    "wof:repo": "sfomuseum-data-flights-2025-10"
  },
  "bbox": [
    -122.27916666666667,
    35.3125,
    -81.04083333333332,
    41.096111111111114
  ],
  "geometry": {"coordinates":[[-81.04083333333332,35.3125],[-81.04083333333332,35.3125],[-81.04083333333332,35.3125],[-81.27527777777777,35.44555555555555],[-81.27527777777777,35.44555555555555],[-81.27527777777777,35.44555555555555],[-81.27527777777777,35.44555555555555],[-81.47694444444444,35.56166666666666],[-81.47694444444444,35.56166666666666],[-81.47694444444444,35.56166666666666],[-81.47694444444444,35.56166666666666],[-82.03472222222221,35.92666666666666],[-82.03472222222221,35.92666666666666],[-82.73111111111112,36.37305555555555],[-82.73111111111112,36.37305555555555],[-82.73111111111112,36.37305555555555],[-82.73111111111112,36.37305555555555],[-83.19416666666667,36.665],[-83.19416666666667,36.665],[-83.2875,36.723333333333336],[-83.2875,36.723333333333336],[-83.2875,36.723333333333336],[-83.2875,36.723333333333336],[-83.63583333333334,36.93944444444444],[-83.63583333333334,36.93944444444444],[-84.24222222222222,37.24944444444444],[-84.36472222222221,37.309444444444445],[-84.48388888888888,37.3675],[-84.48388888888888,37.3675],[-84.48388888888888,37.3675],[-84.48388888888888,37.3675],[-84.8425,37.54138888888889],[-84.96361111111112,37.599444444444444],[-84.96361111111112,37.599444444444444],[-85.08277777777778,37.656388888888884],[-85.32222222222222,37.77055555555555],[-85.32222222222222,37.77055555555555],[-85.71027777777778,37.95388888888889],[-85.71027777777778,37.95388888888889],[-85.71027777777778,37.95388888888889],[-85.71027777777778,37.95388888888889],[-86.16972222222223,38.1675],[-86.16972222222223,38.1675],[-86.29222222222222,38.22416666666667],[-86.53722222222223,38.336666666666666],[-86.53722222222223,38.336666666666666],[-86.53722222222223,38.336666666666666],[-86.53722222222223,38.336666666666666],[-87.1675,38.621944444444445],[-87.1675,38.621944444444445],[-87.29166666666667,38.677499999999995],[-87.29166666666667,38.677499999999995],[-87.29166666666667,38.677499999999995],[-87.29166666666667,38.677499999999995],[-87.465,38.755833333333335],[-87.465,38.755833333333335],[-87.78611111111111,38.89972222222222],[-87.91055555555556,38.955000000000005],[-87.96194444444444,38.97777777777778],[-87.96194444444444,38.97777777777778],[-87.96194444444444,38.97777777777778],[-87.96194444444444,38.97777777777778],[-88.01,38.99916666666667],[-88.13416666666667,39.053888888888885],[-88.33777777777777,39.14361111111111],[-88.33777777777777,39.14361111111111],[-88.33777777777777,39.14361111111111],[-88.50888888888889,39.218333333333334],[-88.58694444444444,39.25222222222222],[-88.58694444444444,39.25222222222222],[-89.16277777777778,39.46333333333334],[-89.16277777777778,39.46333333333334],[-89.16277777777778,39.46333333333334],[-89.16277777777778,39.46333333333334],[-89.43388888888889,39.51972222222222],[-89.70416666666667,39.57527777777778],[-89.70416666666667,39.57527777777778],[-89.97444444444444,39.63055555555555],[-89.97444444444444,39.63055555555555],[-89.97444444444444,39.63055555555555],[-90.67916666666667,39.77027777777778],[-90.67916666666667,39.77027777777778],[-90.81527777777778,39.79666666666667],[-90.95222222222222,39.82333333333334],[-90.95222222222222,39.82333333333334],[-91.08833333333332,39.849444444444444],[-91.36166666666666,39.90138888888889],[-91.36166666666666,39.90138888888889],[-91.90805555555556,40.00277777777778],[-92.17916666666667,40.05222222222222],[-92.17916666666667,40.05222222222222],[-92.17916666666667,40.05222222222222],[-92.17916666666667,40.05222222222222],[-92.89472222222223,40.17916666666667],[-93.16666666666667,40.226111111111116],[-93.16666666666667,40.226111111111116],[-93.30194444444444,40.24944444444444],[-93.84472222222222,40.34],[-93.84472222222222,40.34],[-93.92527777777778,40.35305555555556],[-94.11694444444444,40.38444444444444],[-94.47611111111111,40.442499999999995],[-94.47611111111111,40.442499999999995],[-94.53027777777778,40.45111111111111],[-94.61305555555555,40.46416666666667],[-94.61305555555555,40.46416666666667],[-94.75027777777778,40.48555555555556],[-94.75027777777778,40.48555555555556],[-94.75027777777778,40.48555555555556],[-94.88861111111112,40.50694444444444],[-95.16388888888889,40.54944444444444],[-95.21944444444445,40.558055555555555],[-95.21944444444445,40.558055555555555],[-95.30138888888888,40.57027777777778],[-95.30138888888888,40.57027777777778],[-95.49805555555555,40.6],[-95.57833333333333,40.61194444444445],[-95.57833333333333,40.61194444444445],[-95.91555555555556,40.66138888888889],[-96.19527777777778,40.70166666666667],[-96.19527777777778,40.70166666666667],[-96.19527777777778,40.70166666666667],[-96.19527777777778,40.70166666666667],[-96.47194444444445,40.74111111111111],[-96.47194444444445,40.74111111111111],[-97.03388888888888,40.81861111111112],[-97.03388888888888,40.81861111111112],[-97.31416666666667,40.85611111111111],[-97.64888888888889,40.901944444444446],[-97.64888888888889,40.901944444444446],[-97.64888888888889,40.901944444444446],[-98.45666666666666,40.98916666666667],[-98.74833333333333,40.99944444444444],[-98.74833333333333,40.99944444444444],[-99.18583333333333,41.013333333333335],[-99.18583333333333,41.013333333333335],[-99.18583333333333,41.013333333333335],[-99.60027777777778,41.02472222222222],[-99.75,41.02861111111111],[-99.96861111111112,41.03388888888889],[-100.56194444444444,41.045833333333334],[-100.90277777777779,41.05583333333333],[-100.90277777777779,41.05583333333333],[-101.00444444444445,41.056666666666665],[-101.0525,41.06111111111111],[-101.67277777777778,41.0775],[-101.67277777777778,41.0775],[-101.77916666666667,41.07666666666667],[-102.62638888888888,41.093611111111116],[-102.72833333333334,41.093611111111116],[-102.72833333333334,41.093611111111116],[-102.78666666666666,41.096111111111114],[-102.78666666666666,41.096111111111114],[-103.1125,41.07222222222222],[-103.1125,41.07222222222222],[-103.1125,41.07222222222222],[-103.27527777777777,41.03722222222222],[-103.60333333333332,40.968333333333334],[-103.92722222222223,40.89888888888889],[-104.09027777777777,40.86388888888889],[-104.09027777777777,40.86388888888889],[-104.21694444444445,40.83694444444445],[-104.21694444444445,40.83694444444445],[-104.24833333333333,40.82944444444445],[-104.4063888888889,40.79472222222222],[-104.53666666666666,40.76694444444444],[-104.56444444444445,40.75861111111111],[-104.69638888888889,40.73166666666667],[-104.73305555555555,40.723333333333336],[-104.73305555555555,40.723333333333336],[-104.85194444444444,40.69694444444444],[-105.16083333333334,40.6275],[-105.16083333333334,40.6275],[-105.19416666666667,40.61972222222222],[-105.50694444444444,40.54833333333333],[-105.50694444444444,40.54833333333333],[-105.62805555555555,40.52638888888889],[-105.8125,40.51972222222222],[-105.8125,40.51972222222222],[-105.96638888888889,40.50527777777778],[-106.37166666666666,40.410555555555554],[-106.52638888888889,40.37444444444444],[-107.0586111111111,40.2475],[-107.0586111111111,40.2475],[-107.16055555555556,40.22416666666667],[-107.16055555555556,40.22416666666667],[-107.21722222222222,40.21],[-107.34222222222222,40.18055555555555],[-107.65805555555556,40.10333333333333],[-107.96777777777778,40.026944444444446],[-107.96777777777778,40.026944444444446],[-108.00027777777778,40.01888888888889],[-108.00027777777778,40.01888888888889],[-108.12305555555555,39.98833333333334],[-108.15722222222223,39.97972222222222],[-108.15722222222223,39.97972222222222],[-108.15722222222223,39.97972222222222],[-108.27777777777777,39.94944444444444],[-108.31166666666667,39.94083333333333],[-108.59305555555555,39.86944444444445],[-108.89694444444446,39.79138888888889],[-108.89694444444446,39.79138888888889],[-108.92805555555556,39.78361111111111],[-108.92805555555556,39.78361111111111],[-109.23416666666667,39.703611111111115],[-109.35499999999999,39.67194444444444],[-109.41888888888889,39.655277777777776],[-109.51166666666667,39.63055555555555],[-109.51166666666667,39.63055555555555],[-109.51166666666667,39.63055555555555],[-109.66527777777779,39.59],[-109.72805555555556,39.573055555555555],[-109.82055555555556,39.54833333333333],[-109.88305555555554,39.531666666666666],[-110.285,39.45416666666667],[-110.285,39.45416666666667],[-110.34916666666666,39.443888888888885],[-110.6613888888889,39.3925],[-110.75277777777778,39.3775],[-110.75277777777778,39.3775],[-111.1286111111111,39.314166666666665],[-111.28527777777778,39.28722222222222],[-111.43388888888889,39.26138888888889],[-111.43388888888889,39.26138888888889],[-111.73305555555555,39.20944444444445],[-111.73305555555555,39.20944444444445],[-112.20527777777778,39.125],[-112.20527777777778,39.125],[-112.6738888888889,39.03944444444444],[-112.6738888888889,39.03944444444444],[-113.32888888888888,38.91638888888889],[-113.32888888888888,38.91638888888889],[-113.64166666666668,38.85638888888889],[-113.64166666666668,38.85638888888889],[-114.42305555555556,38.70166666666667],[-114.42305555555556,38.70166666666667],[-114.5786111111111,38.67027777777778],[-114.7325,38.638888888888886],[-114.88861111111112,38.606944444444444],[-114.88861111111112,38.606944444444444],[-114.88861111111112,38.606944444444444],[-115.36055555555555,38.51583333333333],[-115.43444444444445,38.50277777777778],[-115.49805555555555,38.49055555555556],[-115.49805555555555,38.49055555555556],[-115.97333333333333,38.401944444444446],[-116.07138888888889,38.38333333333333],[-116.07138888888889,38.38333333333333],[-116.23027777777779,38.35333333333333],[-116.29138888888889,38.34138888888889],[-116.61,38.28638888888889],[-116.86861111111111,38.24194444444444],[-116.86861111111111,38.24194444444444],[-116.93055555555556,38.23111111111111],[-117.19666666666667,38.18444444444444],[-117.35749999999999,38.155833333333334],[-117.35749999999999,38.155833333333334],[-117.35749999999999,38.155833333333334],[-117.42555555555556,38.14388888888889],[-117.52166666666666,38.12638888888889],[-117.68027777777779,38.09777777777778],[-117.68027777777779,38.09777777777778],[-117.99944444444445,38.03944444444444],[-118.06,38.02833333333333],[-118.06,38.02833333333333],[-118.37722222222222,37.969166666666666],[-119.11083333333333,37.85638888888889],[-119.11083333333333,37.85638888888889],[-119.11083333333333,37.85638888888889],[-119.75083333333333,37.78055555555555],[-119.90972222222223,37.76111111111111],[-119.90972222222223,37.76111111111111],[-120.22805555555556,37.72166666666667],[-120.48333333333333,37.68333333333333],[-120.48333333333333,37.68333333333333],[-120.64861111111112,37.670833333333334],[-120.78694444444444,37.654444444444444],[-120.91888888888889,37.638333333333335],[-121.04972222222221,37.62166666666667],[-121.04972222222221,37.62166666666667],[-121.16666666666667,37.6],[-121.16666666666667,37.6],[-121.18472222222222,37.60333333333333],[-121.42277777777778,37.574444444444445],[-121.42277777777778,37.574444444444445],[-121.53972222222222,37.56083333333333],[-121.63333333333334,37.55],[-121.74416666666667,37.52194444444444],[-122.06666666666666,37.516666666666666],[-122.07777777777777,37.524166666666666],[-122.15138888888889,37.547777777777775],[-122.27916666666667,37.58833333333334],[-122.27916666666667,37.58833333333334]],"type":"LineString"}
}
