{
  "id": 1997539737,
  "type": "Feature",
  "properties": {
    "geom:area": 0,
    "geom:bbox": "-122.380000,35.210000,-80.950000,41.100000",
    "geom:latitude": 39.306638356389,
    "geom:longitude": -101.21857128601418,
    "src:alt_label": "swim-route",
    "src:geom": "swim",
    "swim:geom": "route",
    "wof:geomhash": "b5a46270b92a01f5991aac12f5d8054a",
    "wof:id": 1997539737,
    "wof:repo": "sfomuseum-data-flights-2025-10"
  },
  "bbox": [
    -122.38,
    35.21,
    -80.95,
    41.1
  ],
  "geometry": {"coordinates":[[-80.95,35.21],[-81.09,35.31],[-81.13,35.34],[-81.25,35.43],[-81.28,35.44],[-81.4,35.51],[-81.43,35.53],[-81.44,35.54],[-81.47,35.55],[-81.6,35.61],[-81.76,35.68],[-81.92,35.75],[-82.24,36.08],[-82.32,36.17],[-82.46,36.31],[-82.6,36.46],[-82.88,36.74],[-82.94,36.8],[-83.01,36.88],[-83.45,37.1],[-83.84,37.29],[-84.24,37.48],[-84.25,37.48],[-84.99,37.83],[-85.58,38.1],[-86.51,38.42],[-87.24,38.65],[-87.86,38.93],[-88.12,39.05],[-89.88,39.8],[-90.26,39.96],[-91.09,40.22],[-91.78,40.42],[-92.69,40.64],[-92.9,40.69],[-93.54,40.83],[-93.56,40.84],[-95.85,40.91],[-96.74,40.92],[-98.31,40.98],[-99.04,41.01],[-100.75,41.05],[-101.3,41.06],[-102.98,41.1],[-103.54,40.98],[-104.6,40.75],[-105.19,40.62],[-105.64,40.52],[-105.89,40.52],[-107.28,40.19],[-110,39.5],[-110.2,39.47],[-110.7,39.39],[-111.71,39.21],[-113.43,38.9],[-115.09,38.56],[-115.41,38.51],[-116.33,38.33],[-117.27,38.17],[-117.52,38.13],[-117.77,38.08],[-118.76,37.9],[-119.1,37.86],[-119.82,37.77],[-119.92,37.76],[-120.02,37.75],[-120.31,37.71],[-120.4,37.7],[-120.4,37.7],[-120.57,37.68],[-120.69,37.67],[-120.75,37.66],[-120.79,37.65],[-120.8,37.65],[-120.96,37.63],[-121,37.63],[-121.01,37.63],[-121.07,37.62],[-121.17,37.61],[-121.26,37.59],[-121.39,37.58],[-121.41,37.58],[-121.6,37.55],[-121.61,37.55],[-121.62,37.55],[-121.72,37.53],[-121.8,37.51],[-121.88,37.49],[-121.89,37.49],[-122.01,37.53],[-122.08,37.54],[-122.18,37.57],[-122.18,37.57],[-122.28,37.59],[-122.33,37.61],[-122.36,37.61],[-122.38,37.62]],"type":"LineString"}
}
