{
  "id": 1981778869,
  "type": "Feature",
  "properties": {
    "date:inception_lower": "2025-10-27",
    "date:inception_upper": "2025-10-27",
    "edtf:cessation": "",
    "edtf:inception": "2025-10-27",
    "flysfo:actual_timestamp": -1,
    "flysfo:airline": "CI",
    "flysfo:date": "2025-10-27",
    "flysfo:estimated_timestamp": -1,
    "flysfo:event": "A",
    "flysfo:flight_number": "CI5345P",
    "flysfo:gate": "",
    "flysfo:journey": "ATL-SFO",
    "flysfo:scheduled_timestamp": 1761564600,
    "flysfo:timestamp": 1761564600,
    "geom:area": 0,
    "geom:bbox": "-122.370943,33.636518,-84.430686,37.617990",
    "geom:latitude": 35.627254,
    "geom:longitude": -103.4008145,
    "iata:airline": "CI",
    "icao:airline": "CAL",
    "lbl:latitude": 37.61799,
    "lbl:longitude": -122.370943,
    "sfomuseum:airline_id": 1159284153,
    "sfomuseum:arrival_id": 102527513,
    "sfomuseum:departure_id": 102526927,
    "sfomuseum:flight_id": "20251027-A-CAL-5345P",
    "sfomuseum:flight_number": [
      "CAL5345P",
      "CI5345P"
    ],
    "sfomuseum:placetype": "flight",
    "src:geom": "flysfo",
    "wof:belongsto": [],
    "wof:country": "US",
    "wof:created": 1761667532,
    "wof:geomhash": "ae92617dd2aca2afdb0c9096232ff0bb",
    "wof:hierarchy": [
      {
        "custom_id": 1981778869,
        "flight_id": 1981778869
      }
    ],
    "wof:id": 1981778869,
    "wof:involves": [
      102527513,
      102526927,
      1159284153,
      -1
    ],
    "wof:lastmodified": 1761667532,
    "wof:name": "CI5345P (ATL-SFO)",
    "wof:parent_id": -1,
    "wof:placetype": "custom",
    "wof:placetype_alt": [
      "flight"
    ],
    "wof:repo": "sfomuseum-data-flights-2025-10",
    "wof:superseded_by": [],
    "wof:supersedes": []
  },
  "bbox": [
    -122.370943,
    33.636518,
    -84.430686,
    37.61799
  ],
  "geometry": {"coordinates":[[-84.430686,33.636518],[-122.370943,37.61799]],"type":"MultiPoint"}
}
