{
  "id": 1981789105,
  "type": "Feature",
  "properties": {
    "geom:area": 0,
    "geom:bbox": "-122.380000,37.490000,-75.240000,42.400000",
    "geom:latitude": 40.58966368087938,
    "geom:longitude": -98.42118943758305,
    "src:alt_label": "swim-route",
    "src:geom": "swim",
    "swim:geom": "route",
    "wof:geomhash": "4ffb915644f80566bb8eba455d10020a",
    "wof:id": 1981789105,
    "wof:repo": "sfomuseum-data-flights-2025-10"
  },
  "bbox": [
    -122.38,
    37.49,
    -75.24,
    42.4
  ],
  "geometry": {"coordinates":[[-75.24,39.87],[-75.29,39.93],[-75.32,39.96],[-75.35,39.99],[-75.37,40.02],[-75.4,40.04],[-75.42,40.07],[-75.45,40.1],[-75.46,40.11],[-75.48,40.13],[-75.5,40.15],[-75.5,40.16],[-75.55,40.21],[-75.56,40.22],[-75.57,40.23],[-75.7,40.32],[-75.71,40.32],[-75.73,40.34],[-75.8,40.38],[-75.88,40.43],[-75.89,40.44],[-76.37,40.52],[-76.52,40.54],[-76.58,40.55],[-76.6,40.55],[-76.65,40.57],[-77.26,40.73],[-76.94,40.65],[-77.59,40.81],[-77.95,40.91],[-77.99,40.92],[-78.06,40.92],[-78.08,40.93],[-78.43,40.97],[-78.74,41.01],[-80.16,41.17],[-80.33,41.18],[-80.42,41.19],[-80.88,41.24],[-81.53,40.92],[-82.27,41.07],[-82.72,41.15],[-84.62,41.51],[-84.74,41.53],[-85.1,41.59],[-87,41.9],[-87.03,41.9],[-88.55,42.12],[-90.71,42.4],[-90.81,42.4],[-93.23,42.24],[-96,42],[-96.35,41.97],[-96.88,41.91],[-98.18,41.77],[-99.03,41.66],[-101.3,41.36],[-102.98,41.1],[-103.52,41],[-104.59,40.79],[-105.22,40.66],[-107.33,40.2],[-107.92,40.07],[-109.76,39.78],[-109.87,39.77],[-111.19,39.54],[-112.51,39.3],[-113.32,39.12],[-114.17,38.91],[-115.02,38.71],[-115.87,38.49],[-117.27,38.12],[-117.27,38.12],[-117.77,38],[-118.76,37.9],[-119.1,37.86],[-119.27,37.84],[-119.38,37.82],[-119.94,37.76],[-120.04,37.75],[-120.22,37.72],[-120.4,37.7],[-120.41,37.7],[-120.48,37.69],[-120.69,37.67],[-120.75,37.66],[-120.77,37.66],[-120.83,37.65],[-120.96,37.63],[-121,37.63],[-121.08,37.62],[-121.17,37.6],[-121.26,37.59],[-121.39,37.58],[-121.41,37.58],[-121.6,37.55],[-121.61,37.55],[-121.62,37.55],[-121.7,37.53],[-121.8,37.51],[-121.83,37.5],[-121.88,37.49],[-122.08,37.54],[-122.14,37.56],[-122.18,37.57],[-122.28,37.59],[-122.33,37.61],[-122.36,37.61],[-122.38,37.62]],"type":"LineString"}
}
