{
  "id": 1981793177,
  "type": "Feature",
  "properties": {
    "geom:area": 0,
    "geom:bbox": "-122.466667,33.966667,-118.150000,37.692778",
    "geom:latitude": 35.7149332937616,
    "geom:longitude": -120.34611948364038,
    "src:alt_label": "swim-path",
    "src:geom": "swim",
    "swim:altitudes": [
      "041",
      "041",
      "041",
      "092",
      "092",
      "092",
      "092",
      "092",
      "209",
      "209",
      "305",
      "305",
      "305",
      "305",
      "330C",
      "330C",
      "330C",
      "330C",
      "330C",
      "254",
      "254",
      "254",
      "254",
      "254",
      "254",
      "203",
      "203",
      "203",
      "203",
      "120",
      "100",
      "100",
      "092",
      "092",
      "092",
      "076",
      "076",
      "076",
      "066",
      "059",
      "059",
      "027",
      "027",
      "024",
      "024",
      "024",
      "024",
      "024",
      "024",
      "024",
      "024",
      "024",
      "024"
    ],
    "swim:geom": "path",
    "swim:speeds": [
      194,
      194,
      194,
      294,
      294,
      294,
      294,
      294,
      365,
      365,
      439,
      439,
      439,
      439,
      432,
      432,
      432,
      432,
      432,
      426,
      426,
      426,
      426,
      426,
      426,
      397,
      397,
      397,
      397,
      309,
      285,
      285,
      283,
      283,
      283,
      254,
      254,
      254,
      241,
      195,
      195,
      193,
      193,
      196,
      196,
      196,
      196,
      196,
      196,
      196,
      190,
      190,
      190
    ],
    "swim:timestamps": [
      1761662519,
      1761662519,
      1761662519,
      1761662606,
      1761662606,
      1761662606,
      1761662606,
      1761662606,
      1761662877,
      1761662877,
      1761663180,
      1761663180,
      1761663180,
      1761663180,
      1761663360,
      1761663360,
      1761663360,
      1761663360,
      1761663360,
      1761664679,
      1761664679,
      1761664679,
      1761664679,
      1761664679,
      1761664679,
      1761664820,
      1761664820,
      1761664820,
      1761664820,
      1761665100,
      1761665181,
      1761665181,
      1761665220,
      1761665220,
      1761665220,
      1761665300,
      1761665300,
      1761665300,
      1761665360,
      1761665426,
      1761665426,
      1761665552,
      1761665552,
      1761665600,
      1761665600,
      1761665600,
      1761665600,
      1761665600,
      1761665600,
      1761665600,
      1761665726,
      1761665726,
      1761665726
    ],
    "wof:geomhash": "5dd584aac931c173d3cf676439b66906",
    "wof:id": 1981793177,
    "wof:repo": "sfomuseum-data-flights-2025-10"
  },
  "bbox": [
    -122.46666666666667,
    33.96666666666667,
    -118.15,
    37.69277777777778
  ],
  "geometry": {"coordinates":[[-122.36277777777777,37.69277777777778],[-122.36277777777777,37.69277777777778],[-122.36277777777777,37.69277777777778],[-122.46666666666667,37.666666666666664],[-122.46666666666667,37.666666666666664],[-122.46666666666667,37.666666666666664],[-122.46666666666667,37.666666666666664],[-122.46666666666667,37.666666666666664],[-122.14916666666667,37.34111111111111],[-122.14916666666667,37.34111111111111],[-121.65194444444445,36.93277777777777],[-121.65194444444445,36.93277777777777],[-121.65194444444445,36.93277777777777],[-121.65194444444445,36.93277777777777],[-121.33583333333333,36.665277777777774],[-121.33583333333333,36.665277777777774],[-121.33583333333333,36.665277777777774],[-121.33583333333333,36.665277777777774],[-121.33583333333333,36.665277777777774],[-119.2975,34.714444444444446],[-119.2975,34.714444444444446],[-119.2975,34.714444444444446],[-119.2975,34.714444444444446],[-119.2975,34.714444444444446],[-119.2975,34.714444444444446],[-119.1,34.483333333333334],[-119.1,34.483333333333334],[-119.1,34.483333333333334],[-119.1,34.483333333333334],[-118.76416666666667,34.121944444444445],[-118.66666666666667,34.03333333333333],[-118.66666666666667,34.03333333333333],[-118.61527777777778,34.025277777777774],[-118.61527777777778,34.025277777777774],[-118.61527777777778,34.025277777777774],[-118.48333333333333,34.016666666666666],[-118.48333333333333,34.016666666666666],[-118.48333333333333,34.016666666666666],[-118.4,34.016666666666666],[-118.33333333333333,34.03333333333333],[-118.33333333333333,34.03333333333333],[-118.2,34.05],[-118.2,34.05],[-118.15,34.03333333333333],[-118.15,34.03333333333333],[-118.15,34.03333333333333],[-118.15,34.03333333333333],[-118.15,34.03333333333333],[-118.15,34.03333333333333],[-118.15,34.03333333333333],[-118.23333333333333,33.96666666666667],[-118.23333333333333,33.96666666666667],[-118.23333333333333,33.96666666666667]],"type":"LineString"}
}
