{
  "id": 1981739555,
  "type": "Feature",
  "properties": {
    "geom:area": 0,
    "geom:bbox": "-122.342778,37.647500,-77.031667,40.546944",
    "geom:latitude": 39.65379947551178,
    "geom:longitude": -99.68989522983418,
    "src:alt_label": "swim-path",
    "src:geom": "swim",
    "swim:altitudes": [
      "016",
      "016",
      "029",
      "029",
      "029",
      "060",
      "060",
      "061",
      "061",
      "061",
      "236",
      "236",
      "236",
      "236",
      "254",
      "254",
      "254",
      "254",
      "285",
      "300",
      "300",
      "324",
      "343",
      "343",
      "343",
      "350C",
      "350C",
      "350C",
      "350C",
      "350C",
      "350C",
      "350C",
      "350C",
      "350C",
      "350C",
      "350C",
      "350C",
      "350C",
      "350C",
      "350C",
      "350C",
      "350C",
      "350C",
      "350C",
      "350C",
      "350C",
      "350C",
      "350C",
      "350C",
      "350C",
      "350C",
      "350C",
      "350C",
      "350C",
      "350C",
      "350C",
      "350C",
      "350C",
      "350C",
      "350C",
      "350C",
      "350C",
      "350C",
      "350C",
      "350C",
      "350C",
      "350C",
      "350C",
      "350C",
      "350C",
      "350C",
      "350C",
      "350C",
      "350C",
      "350C",
      "350C",
      "350C",
      "350C",
      "350C",
      "350C",
      "350C",
      "350C",
      "350C",
      "350C",
      "350C",
      "350C",
      "350C",
      "350C",
      "350C",
      "350C",
      "350C",
      "350C",
      "350C",
      "350C",
      "350C",
      "350C",
      "350C",
      "350C",
      "350C",
      "350C",
      "350C",
      "350C",
      "350C",
      "350C",
      "350C",
      "350C",
      "350C",
      "350C",
      "350C",
      "350C",
      "350C",
      "350C",
      "350C",
      "350C",
      "350C",
      "350C",
      "350C",
      "350C",
      "350C",
      "350C",
      "350C",
      "350C",
      "350C",
      "350C",
      "350C",
      "350C",
      "350C",
      "350C",
      "350C",
      "350C",
      "350C",
      "350C",
      "350C",
      "350C",
      "350C",
      "350C",
      "350C",
      "350C",
      "350C",
      "350C",
      "350C",
      "350C",
      "350C",
      "350C",
      "350C",
      "350C",
      "350C",
      "350C",
      "350C",
      "350C",
      "350C",
      "350C",
      "350C",
      "350C",
      "350C",
      "350C",
      "350C",
      "350C",
      "350C",
      "350C",
      "350C",
      "350C",
      "350C",
      "350C",
      "350C",
      "350C",
      "350C",
      "350C",
      "350C",
      "350C",
      "350C",
      "350C",
      "350C",
      "350C",
      "350C",
      "350C",
      "350C",
      "350C",
      "350C",
      "350C",
      "350C",
      "350C",
      "350C",
      "350C",
      "350C",
      "350C",
      "350C",
      "350C",
      "350C",
      "350C",
      "350C",
      "350C",
      "350C",
      "350C",
      "350C",
      "350C",
      "350C",
      "350C",
      "350C",
      "350C",
      "350C",
      "350C",
      "350C",
      "350C",
      "350C",
      "350C",
      "350C",
      "350C",
      "350C",
      "350C",
      "350C",
      "350C",
      "350C",
      "350C",
      "350C",
      "350C",
      "350C",
      "350C",
      "350C",
      "350C",
      "350C",
      "350C",
      "350C",
      "350C",
      "350C",
      "350C",
      "350C",
      "350C",
      "350C",
      "350C",
      "350C",
      "350C",
      "350C",
      "350C",
      "350C",
      "350C",
      "350C",
      "350C",
      "350C",
      "350",
      "350",
      "350",
      "350",
      "216",
      "216",
      "216",
      "216",
      "145",
      "145",
      "145",
      "121",
      "121",
      "119",
      "119",
      "060",
      "051",
      "051",
      "051",
      "042",
      "042",
      "042",
      "031",
      "031",
      "012",
      "012",
      "012"
    ],
    "swim:geom": "path",
    "swim:speeds": [
      180,
      180,
      262,
      262,
      262,
      277,
      277,
      272,
      272,
      272,
      407,
      407,
      407,
      407,
      412,
      412,
      412,
      412,
      418,
      420,
      420,
      419,
      426,
      426,
      426,
      440,
      440,
      440,
      440,
      440,
      446,
      446,
      446,
      446,
      447,
      447,
      442,
      442,
      442,
      442,
      442,
      448,
      448,
      448,
      448,
      448,
      448,
      452,
      455,
      455,
      455,
      455,
      455,
      455,
      459,
      459,
      459,
      454,
      454,
      469,
      469,
      469,
      477,
      477,
      477,
      477,
      477,
      477,
      491,
      491,
      491,
      494,
      494,
      494,
      494,
      494,
      499,
      499,
      499,
      499,
      501,
      501,
      501,
      501,
      501,
      503,
      503,
      504,
      504,
      504,
      504,
      504,
      505,
      505,
      504,
      504,
      504,
      504,
      504,
      506,
      506,
      506,
      507,
      507,
      507,
      507,
      509,
      509,
      509,
      509,
      510,
      510,
      510,
      510,
      510,
      517,
      519,
      520,
      520,
      520,
      520,
      520,
      520,
      520,
      522,
      522,
      521,
      521,
      521,
      521,
      521,
      521,
      522,
      522,
      522,
      523,
      523,
      524,
      524,
      524,
      526,
      528,
      528,
      528,
      528,
      528,
      532,
      532,
      536,
      536,
      536,
      541,
      541,
      541,
      543,
      543,
      543,
      544,
      544,
      544,
      543,
      542,
      542,
      541,
      541,
      540,
      540,
      540,
      540,
      540,
      540,
      540,
      542,
      543,
      543,
      544,
      544,
      545,
      545,
      544,
      544,
      543,
      543,
      544,
      544,
      544,
      548,
      548,
      546,
      546,
      546,
      546,
      546,
      546,
      546,
      546,
      546,
      545,
      545,
      545,
      545,
      545,
      545,
      546,
      546,
      546,
      546,
      544,
      544,
      544,
      544,
      543,
      539,
      539,
      539,
      539,
      533,
      533,
      533,
      531,
      531,
      530,
      532,
      532,
      532,
      533,
      533,
      534,
      531,
      531,
      531,
      534,
      534,
      534,
      532,
      532,
      530,
      530,
      530,
      525,
      525,
      525,
      525,
      444,
      444,
      444,
      444,
      391,
      391,
      391,
      363,
      363,
      363,
      363,
      291,
      284,
      284,
      284,
      283,
      283,
      283,
      221,
      221,
      164,
      164,
      164
    ],
    "swim:timestamps": [
      1761152841,
      1761152841,
      1761152896,
      1761152896,
      1761152896,
      1761152956,
      1761152956,
      1761152962,
      1761152962,
      1761152962,
      1761153442,
      1761153442,
      1761153442,
      1761153442,
      1761153502,
      1761153502,
      1761153502,
      1761153502,
      1761153622,
      1761153682,
      1761153682,
      1761153803,
      1761153923,
      1761153923,
      1761153923,
      1761154163,
      1761154163,
      1761154163,
      1761154163,
      1761154163,
      1761154523,
      1761154523,
      1761154523,
      1761154523,
      1761154584,
      1761154584,
      1761155004,
      1761155004,
      1761155004,
      1761155004,
      1761155004,
      1761155425,
      1761155425,
      1761155425,
      1761155425,
      1761155425,
      1761155425,
      1761155485,
      1761155608,
      1761155608,
      1761155608,
      1761155608,
      1761155608,
      1761155668,
      1761155788,
      1761155788,
      1761155788,
      1761155968,
      1761155968,
      1761156389,
      1761156389,
      1761156389,
      1761156569,
      1761156569,
      1761156569,
      1761156569,
      1761156569,
      1761156569,
      1761157050,
      1761157050,
      1761157050,
      1761157110,
      1761157110,
      1761157110,
      1761157110,
      1761157110,
      1761157471,
      1761157471,
      1761157471,
      1761157471,
      1761157525,
      1761157525,
      1761157531,
      1761157531,
      1761157531,
      1761157825,
      1761157825,
      1761157945,
      1761158005,
      1761158005,
      1761158011,
      1761158011,
      1761158186,
      1761158186,
      1761158372,
      1761158372,
      1761158372,
      1761158372,
      1761158372,
      1761158847,
      1761158847,
      1761158847,
      1761158907,
      1761158907,
      1761158907,
      1761158907,
      1761159147,
      1761159147,
      1761159147,
      1761159147,
      1761159567,
      1761159567,
      1761159567,
      1761159567,
      1761159567,
      1761159748,
      1761159868,
      1761160168,
      1761160168,
      1761160168,
      1761160349,
      1761160349,
      1761160349,
      1761160349,
      1761160469,
      1761160469,
      1761160960,
      1761160960,
      1761160960,
      1761161020,
      1761161020,
      1761161020,
      1761161080,
      1761161080,
      1761161080,
      1761161130,
      1761161130,
      1761161183,
      1761161190,
      1761161243,
      1761161370,
      1761161423,
      1761161423,
      1761161423,
      1761161423,
      1761161423,
      1761161573,
      1761161573,
      1761161844,
      1761161844,
      1761161844,
      1761162113,
      1761162113,
      1761162113,
      1761162234,
      1761162234,
      1761162234,
      1761162264,
      1761162264,
      1761162264,
      1761162384,
      1761162444,
      1761162444,
      1761162505,
      1761162505,
      1761162594,
      1761162625,
      1761162625,
      1761162654,
      1761162654,
      1761162685,
      1761162685,
      1761162745,
      1761162805,
      1761162805,
      1761162865,
      1761162895,
      1761163015,
      1761163015,
      1761163075,
      1761163075,
      1761163225,
      1761163225,
      1761163315,
      1761163315,
      1761163315,
      1761163556,
      1761163556,
      1761163796,
      1761163796,
      1761164097,
      1761164097,
      1761164097,
      1761164097,
      1761164097,
      1761164277,
      1761164277,
      1761164457,
      1761164457,
      1761164457,
      1761164754,
      1761164754,
      1761164754,
      1761164881,
      1761164881,
      1761164881,
      1761164881,
      1761165062,
      1761165062,
      1761165062,
      1761165062,
      1761165122,
      1761165362,
      1761165362,
      1761165362,
      1761165362,
      1761165663,
      1761165663,
      1761165663,
      1761165783,
      1761165783,
      1761165810,
      1761166051,
      1761166051,
      1761166051,
      1761166111,
      1761166111,
      1761166143,
      1761166350,
      1761166350,
      1761166350,
      1761166384,
      1761166384,
      1761166384,
      1761166471,
      1761166471,
      1761166624,
      1761166624,
      1761166624,
      1761167011,
      1761167011,
      1761167011,
      1761167011,
      1761167553,
      1761167553,
      1761167553,
      1761167553,
      1761167834,
      1761167834,
      1761167834,
      1761167960,
      1761167960,
      1761167973,
      1761167973,
      1761168273,
      1761168333,
      1761168333,
      1761168333,
      1761168394,
      1761168394,
      1761168394,
      1761168494,
      1761168494,
      1761168634,
      1761168634,
      1761168634
    ],
    "wof:geomhash": "d7d8837d5566650fd2fda507e7a9c2e6",
    "wof:id": 1981739555,
    "wof:repo": "sfomuseum-data-flights-2025-10"
  },
  "bbox": [
    -122.34277777777777,
    37.6475,
    -77.03166666666667,
    40.54694444444444
  ],
  "geometry": {"coordinates":[[-122.34277777777777,37.6475],[-122.34277777777777,37.6475],[-122.28333333333333,37.68333333333333],[-122.28333333333333,37.68333333333333],[-122.28333333333333,37.68333333333333],[-122.2,37.733333333333334],[-122.2,37.733333333333334],[-122.19722222222222,37.72694444444445],[-122.19722222222222,37.72694444444445],[-122.19722222222222,37.72694444444445],[-121.30694444444444,38.100833333333334],[-121.30694444444444,38.100833333333334],[-121.30694444444444,38.100833333333334],[-121.30694444444444,38.100833333333334],[-121.1763888888889,38.151666666666664],[-121.1763888888889,38.151666666666664],[-121.1763888888889,38.151666666666664],[-121.1763888888889,38.151666666666664],[-120.89916666666667,38.22555555555556],[-120.75361111111111,38.24611111111111],[-120.75361111111111,38.24611111111111],[-120.46555555555555,38.28611111111111],[-120.16722222222222,38.327222222222225],[-120.16722222222222,38.327222222222225],[-120.16722222222222,38.327222222222225],[-119.5586111111111,38.408055555555556],[-119.5586111111111,38.408055555555556],[-119.5586111111111,38.408055555555556],[-119.5586111111111,38.408055555555556],[-119.5586111111111,38.408055555555556],[-118.62277777777777,38.525555555555556],[-118.62277777777777,38.525555555555556],[-118.62277777777777,38.525555555555556],[-118.62277777777777,38.525555555555556],[-118.46694444444445,38.54416666666666],[-118.46694444444445,38.54416666666666],[-117.37638888888888,38.67027777777778],[-117.37638888888888,38.67027777777778],[-117.37638888888888,38.67027777777778],[-117.37638888888888,38.67027777777778],[-117.37638888888888,38.67027777777778],[-116.30916666666667,38.8],[-116.30916666666667,38.8],[-116.30916666666667,38.8],[-116.30916666666667,38.8],[-116.30916666666667,38.8],[-116.30916666666667,38.8],[-116.15555555555557,38.843333333333334],[-115.8536111111111,38.92916666666667],[-115.8536111111111,38.92916666666667],[-115.8536111111111,38.92916666666667],[-115.8536111111111,38.92916666666667],[-115.8536111111111,38.92916666666667],[-115.70083333333334,38.973333333333336],[-115.36416666666666,39.07138888888889],[-115.36416666666666,39.07138888888889],[-115.36416666666666,39.07138888888889],[-114.92166666666667,39.14888888888889],[-114.92166666666667,39.14888888888889],[-113.77111111111111,39.25555555555555],[-113.77111111111111,39.25555555555555],[-113.77111111111111,39.25555555555555],[-113.26138888888889,39.29888888888889],[-113.26138888888889,39.29888888888889],[-113.26138888888889,39.29888888888889],[-113.26138888888889,39.29888888888889],[-113.26138888888889,39.29888888888889],[-113.26138888888889,39.29888888888889],[-111.86888888888888,39.524166666666666],[-111.86888888888888,39.524166666666666],[-111.86888888888888,39.524166666666666],[-111.69555555555556,39.551111111111105],[-111.69555555555556,39.551111111111105],[-111.69555555555556,39.551111111111105],[-111.69555555555556,39.551111111111105],[-111.69555555555556,39.551111111111105],[-110.63277777777778,39.71],[-110.63277777777778,39.71],[-110.63277777777778,39.71],[-110.63277777777778,39.71],[-110.49055555555556,39.73027777777778],[-110.49055555555556,39.73027777777778],[-110.45444444444445,39.73555555555556],[-110.45444444444445,39.73555555555556],[-110.45444444444445,39.73555555555556],[-109.59666666666666,39.85444444444445],[-109.59666666666666,39.85444444444445],[-109.23694444444445,39.902499999999996],[-109.05499999999999,39.92638888888889],[-109.05499999999999,39.92638888888889],[-109.02194444444444,39.93055555555555],[-109.02194444444444,39.93055555555555],[-108.50861111111111,39.99611111111111],[-108.50861111111111,39.99611111111111],[-107.96333333333334,40.062777777777775],[-107.96333333333334,40.062777777777775],[-107.96333333333334,40.062777777777775],[-107.96333333333334,40.062777777777775],[-107.96333333333334,40.062777777777775],[-106.5325,40.236666666666665],[-106.5325,40.236666666666665],[-106.5325,40.236666666666665],[-106.33666666666666,40.259166666666665],[-106.33666666666666,40.259166666666665],[-106.33666666666666,40.259166666666665],[-106.33666666666666,40.259166666666665],[-105.615,40.33861111111111],[-105.615,40.33861111111111],[-105.615,40.33861111111111],[-105.615,40.33861111111111],[-104.3236111111111,40.46944444444445],[-104.3236111111111,40.46944444444445],[-104.3236111111111,40.46944444444445],[-104.3236111111111,40.46944444444445],[-104.3236111111111,40.46944444444445],[-103.75722222222223,40.51027777777778],[-103.37833333333333,40.525277777777774],[-102.43611111111112,40.54138888888889],[-102.43611111111112,40.54138888888889],[-102.43611111111112,40.54138888888889],[-101.86694444444444,40.54555555555555],[-101.86694444444444,40.54555555555555],[-101.86694444444444,40.54555555555555],[-101.86694444444444,40.54555555555555],[-101.48805555555556,40.54694444444444],[-101.48805555555556,40.54694444444444],[-99.92500000000001,40.53861111111111],[-99.92500000000001,40.53861111111111],[-99.92500000000001,40.53861111111111],[-99.73444444444445,40.53583333333333],[-99.73444444444445,40.53583333333333],[-99.73444444444445,40.53583333333333],[-99.54277777777777,40.532777777777774],[-99.54277777777777,40.532777777777774],[-99.54277777777777,40.532777777777774],[-99.38805555555557,40.53138888888889],[-99.38805555555557,40.53138888888889],[-99.19666666666667,40.528055555555554],[-99.19666666666667,40.528055555555554],[-99.00444444444445,40.524166666666666],[-98.59055555555555,40.515277777777776],[-98.43361111111112,40.51166666666666],[-98.43361111111112,40.51166666666666],[-98.43361111111112,40.51166666666666],[-98.43361111111112,40.51166666666666],[-98.43361111111112,40.51166666666666],[-97.96944444444445,40.49888888888889],[-97.96944444444445,40.49888888888889],[-97.08138888888888,40.45611111111111],[-97.08138888888888,40.45611111111111],[-97.08138888888888,40.45611111111111],[-96.19250000000001,40.406666666666666],[-96.19250000000001,40.406666666666666],[-96.19250000000001,40.406666666666666],[-95.79638888888888,40.382222222222225],[-95.79638888888888,40.382222222222225],[-95.79638888888888,40.382222222222225],[-95.71388888888889,40.37694444444445],[-95.71388888888889,40.37694444444445],[-95.71388888888889,40.37694444444445],[-95.31944444444444,40.35111111111111],[-95.08777777777777,40.335],[-95.08777777777777,40.335],[-94.89111111111112,40.32194444444445],[-94.89111111111112,40.32194444444445],[-94.61749999999999,40.30166666666666],[-94.50277777777778,40.29333333333333],[-94.50277777777778,40.29333333333333],[-94.42361111111111,40.2875],[-94.42361111111111,40.2875],[-94.30833333333334,40.27861111111111],[-94.30833333333334,40.27861111111111],[-94.10944444444443,40.263333333333335],[-93.91333333333334,40.24777777777778],[-93.91333333333334,40.24777777777778],[-93.71805555555555,40.2325],[-93.64,40.225833333333334],[-93.24583333333334,40.19277777777778],[-93.24583333333334,40.19277777777778],[-93.05027777777778,40.17583333333333],[-93.05027777777778,40.17583333333333],[-92.55388888888889,40.13138888888889],[-92.55388888888889,40.13138888888889],[-92.28361111111111,40.10444444444445],[-92.28361111111111,40.10444444444445],[-92.28361111111111,40.10444444444445],[-91.49388888888889,40.02361111111111],[-91.49388888888889,40.02361111111111],[-90.71277777777777,39.93722222222222],[-90.71277777777777,39.93722222222222],[-89.74416666666667,39.82277777777778],[-89.74416666666667,39.82277777777778],[-89.74416666666667,39.82277777777778],[-89.74416666666667,39.82277777777778],[-89.74416666666667,39.82277777777778],[-89.12833333333333,39.74583333333334],[-89.12833333333333,39.74583333333334],[-88.54777777777778,39.66972222222222],[-88.54777777777778,39.66972222222222],[-88.54777777777778,39.66972222222222],[-87.57972222222222,39.53666666666666],[-87.57972222222222,39.53666666666666],[-87.57972222222222,39.53666666666666],[-87.17527777777778,39.489444444444445],[-87.17527777777778,39.489444444444445],[-87.17527777777778,39.489444444444445],[-87.17527777777778,39.489444444444445],[-86.59027777777777,39.49055555555556],[-86.59027777777777,39.49055555555556],[-86.59027777777777,39.49055555555556],[-86.59027777777777,39.49055555555556],[-86.39666666666668,39.49055555555556],[-85.62722222222222,39.486666666666665],[-85.62722222222222,39.486666666666665],[-85.62722222222222,39.486666666666665],[-85.62722222222222,39.486666666666665],[-84.66444444444446,39.47527777777778],[-84.66444444444446,39.47527777777778],[-84.66444444444446,39.47527777777778],[-84.2863888888889,39.46805555555556],[-84.2863888888889,39.46805555555556],[-84.18666666666667,39.465833333333336],[-83.45472222222223,39.47944444444445],[-83.45472222222223,39.47944444444445],[-83.45472222222223,39.47944444444445],[-83.26666666666667,39.49916666666667],[-83.26666666666667,39.49916666666667],[-83.14,39.51277777777778],[-82.48694444444445,39.49166666666667],[-82.48694444444445,39.49166666666667],[-82.48694444444445,39.49166666666667],[-82.37444444444444,39.484722222222224],[-82.37444444444444,39.484722222222224],[-82.37444444444444,39.484722222222224],[-82.08888888888889,39.46638888888889],[-82.08888888888889,39.46638888888889],[-81.62055555555555,39.43416666666666],[-81.62055555555555,39.43416666666666],[-81.62055555555555,39.43416666666666],[-80.42166666666667,39.343611111111116],[-80.42166666666667,39.343611111111116],[-80.42166666666667,39.343611111111116],[-80.42166666666667,39.343611111111116],[-78.76027777777777,39.20333333333333],[-78.76027777777777,39.20333333333333],[-78.76027777777777,39.20333333333333],[-78.76027777777777,39.20333333333333],[-78.1,39.1],[-78.1,39.1],[-78.1,39.1],[-77.83333333333333,39.03333333333333],[-77.83333333333333,39.03333333333333],[-77.81444444444445,39.02472222222222],[-77.81444444444445,39.02472222222222],[-77.30527777777777,38.84861111111111],[-77.21944444444445,38.80972222222222],[-77.21944444444445,38.80972222222222],[-77.21944444444445,38.80972222222222],[-77.1375,38.772777777777776],[-77.1375,38.772777777777776],[-77.1375,38.772777777777776],[-77.05,38.68333333333333],[-77.05,38.68333333333333],[-77.03166666666667,38.78361111111111],[-77.03166666666667,38.78361111111111],[-77.03166666666667,38.78361111111111]],"type":"LineString"}
}
