{
  "id": 1997545377,
  "type": "Feature",
  "properties": {
    "geom:area": 0,
    "geom:bbox": "-122.368810,37.624780,-121.267650,38.412160",
    "geom:latitude": 38.01701018218213,
    "geom:longitude": -121.81762799889228,
    "src:alt_label": "swim-takeoff",
    "src:geom": "swim",
    "swim:elevations": [
      152,
      213,
      575,
      839,
      1433,
      2095,
      2228,
      3348,
      3466,
      3675,
      4088,
      4219,
      4812,
      4970,
      5419,
      5523,
      5810,
      6314,
      6507,
      7150,
      7664,
      7828
    ],
    "swim:geom": "takeoff",
    "swim:timestamps": [
      1761921867,
      1761921872,
      1761921907,
      1761921932,
      1761921977,
      1761922017,
      1761922024,
      1761922105,
      1761922122,
      1761922156,
      1761922196,
      1761922207,
      1761922258,
      1761922275,
      1761922317,
      1761922327,
      1761922352,
      1761922405,
      1761922423,
      1761922493,
      1761922553,
      1761922575
    ],
    "wof:geomhash": "01b379f8b51f3b8b5d78927124e76914",
    "wof:id": 1997545377,
    "wof:repo": "sfomuseum-data-flights-2025-10"
  },
  "bbox": [
    -122.36881,
    37.62478,
    -121.26765,
    38.41216
  ],
  "geometry": {"coordinates":[[-122.36881,37.62478],[-122.3665,37.62803],[-122.34125,37.64688],[-122.31681,37.66144],[-122.26491,37.69158],[-122.21338,37.71989],[-122.20457,37.72593],[-122.10538,37.79957],[-122.08294,37.81657],[-122.03288,37.85447],[-121.96985,37.9019],[-121.95079,37.91628],[-121.86583,37.98031],[-121.83616,38.00276],[-121.76152,38.0588],[-121.74453,38.07155],[-121.69966,38.10526],[-121.60211,38.17817],[-121.56988,38.20212],[-121.43612,38.30152],[-121.31378,38.38337],[-121.26765,38.41216]],"type":"LineString"}
}
