{
  "id": 1981678737,
  "type": "Feature",
  "properties": {
    "geom:area": 0,
    "geom:bbox": "-122.361100,37.637040,-121.273730,38.407920",
    "geom:latitude": 38.03129758493859,
    "geom:longitude": -121.82538336758965,
    "src:alt_label": "swim-takeoff",
    "src:geom": "swim",
    "swim:elevations": [
      372,
      667,
      1078,
      1186,
      1516,
      1691,
      2483,
      2659,
      3147,
      3370,
      3441,
      4067,
      4224,
      4762,
      5332,
      5698,
      6228,
      6484,
      6758,
      7068,
      7171,
      7573,
      7653,
      8112,
      8159,
      8248,
      8387,
      8567,
      8655
    ],
    "swim:geom": "takeoff",
    "swim:timestamps": [
      1760547986,
      1760548007,
      1760548047,
      1760548063,
      1760548105,
      1760548118,
      1760548163,
      1760548172,
      1760548201,
      1760548225,
      1760548236,
      1760548287,
      1760548296,
      1760548338,
      1760548373,
      1760548393,
      1760548431,
      1760548464,
      1760548491,
      1760548521,
      1760548532,
      1760548580,
      1760548590,
      1760548648,
      1760548655,
      1760548669,
      1760548690,
      1760548723,
      1760548745
    ],
    "wof:geomhash": "b0729688f53029c8d3411fe5e9ad6e9e",
    "wof:id": 1981678737,
    "wof:repo": "sfomuseum-data-flights-2025-10"
  },
  "bbox": [
    -122.3611,
    37.63704,
    -121.27373,
    38.40792
  ],
  "geometry": {"coordinates":[[-122.3611,37.63704],[-122.34599,37.64534],[-122.31821,37.66159],[-122.30486,37.66925],[-122.26014,37.69392],[-122.24345,37.70266],[-122.19221,37.74125],[-122.18417,37.75042],[-122.15737,37.78057],[-122.13376,37.80655],[-122.12281,37.81845],[-122.06143,37.88287],[-122.04784,37.89277],[-121.98101,37.93826],[-121.92235,37.97824],[-121.89133,37.9991],[-121.83274,38.03844],[-121.77868,38.07526],[-121.7341,38.10557],[-121.68409,38.13954],[-121.6661,38.15165],[-121.58217,38.20815],[-121.56561,38.21922],[-121.46063,38.2893],[-121.44729,38.29787],[-121.42208,38.31465],[-121.38188,38.34109],[-121.31948,38.38043],[-121.27373,38.40792]],"type":"LineString"}
}
