{
  "id": 1981784859,
  "type": "Feature",
  "properties": {
    "geom:area": 0,
    "geom:bbox": "-121.443333,38.300556,-70.997778,43.210833",
    "geom:latitude": 42.40034296837254,
    "geom:longitude": -96.36642843706828,
    "src:alt_label": "swim-path",
    "src:geom": "swim",
    "swim:altitudes": [
      "217",
      "217",
      "217",
      "217",
      "217",
      "217",
      "217",
      "217",
      "217",
      "217",
      "277",
      "277",
      "277",
      "277",
      "277",
      "286",
      "286",
      "310",
      "310",
      "310",
      "310",
      "310",
      "310",
      "310",
      "310",
      "310",
      "310",
      "310",
      "310",
      "310",
      "310",
      "310",
      "310",
      "312",
      "312",
      "329C",
      "329C",
      "329C",
      "329C",
      "330C",
      "330C",
      "330C",
      "330C",
      "330C",
      "330C",
      "330C",
      "330C",
      "330C",
      "330C",
      "330C",
      "330C",
      "330C",
      "330C",
      "330C",
      "330C",
      "330C",
      "330C",
      "330C",
      "330C",
      "330C",
      "330C",
      "330C",
      "330C",
      "330C",
      "330C",
      "330C",
      "330C",
      "330C",
      "330C",
      "330C",
      "330C",
      "350C",
      "350C",
      "350C",
      "350C",
      "350C",
      "350C",
      "350C",
      "350C",
      "350C",
      "350C",
      "350C",
      "350C",
      "350C",
      "350C",
      "350C",
      "350C",
      "350C",
      "350C",
      "350C",
      "350C",
      "350C",
      "350C",
      "350C",
      "350C",
      "350C",
      "350C",
      "350C",
      "350C",
      "350C",
      "350C",
      "350C",
      "350C",
      "350C",
      "350C",
      "350C",
      "350C",
      "350C",
      "350C",
      "350C",
      "350C",
      "350C",
      "350C",
      "350C",
      "350C",
      "350C",
      "350C",
      "350C",
      "350C",
      "350C",
      "350C",
      "350C",
      "350C",
      "350C",
      "350C",
      "350C",
      "350C",
      "350C",
      "350C",
      "350C",
      "350C",
      "350C",
      "350C",
      "350C",
      "350C",
      "350C",
      "350C",
      "350C",
      "350C",
      "350C",
      "350C",
      "350C",
      "350C",
      "350C",
      "350C",
      "350C",
      "350C",
      "350C",
      "350C",
      "350C",
      "350C",
      "350C",
      "350C",
      "350C",
      "350C",
      "350C",
      "350C",
      "350C",
      "350C",
      "350C",
      "350C",
      "350C",
      "350C",
      "350C",
      "350C",
      "350C",
      "350C",
      "350C",
      "350C",
      "350C",
      "350C",
      "350C",
      "350C",
      "350C",
      "350C",
      "350C",
      "350C",
      "350C",
      "350C",
      "350C",
      "350C",
      "350C",
      "350C",
      "350C",
      "350C",
      "350C",
      "350C",
      "350C",
      "350C",
      "350C",
      "350C",
      "350C",
      "350C",
      "350C",
      "350C",
      "350C",
      "350C",
      "350C",
      "350C",
      "350C",
      "350C",
      "350C",
      "350C",
      "350C",
      "350C",
      "350C",
      "350C",
      "350C",
      "350C",
      "350C",
      "350C",
      "350C",
      "350C",
      "350C",
      "350C",
      "350C",
      "350C",
      "350C",
      "350C",
      "350C",
      "350C",
      "350C",
      "350C",
      "350C",
      "350C",
      "350C",
      "350C",
      "350C",
      "350C",
      "350C",
      "350C",
      "350C",
      "350C",
      "350C",
      "350C",
      "350C",
      "350C",
      "350C",
      "350C",
      "350C",
      "350C",
      "350C",
      "350C",
      "350C",
      "350C",
      "350C",
      "350C",
      "350C",
      "350C",
      "350C",
      "350C",
      "350C",
      "350C",
      "350C",
      "350C",
      "350C",
      "350C",
      "350C",
      "350C",
      "350C",
      "350C",
      "350C",
      "350C",
      "350C",
      "350C",
      "350C",
      "350C",
      "350C",
      "350C",
      "350C",
      "350C",
      "350C",
      "350C",
      "350C",
      "350C",
      "350C",
      "350C",
      "350C",
      "350C",
      "350C",
      "350C",
      "350C",
      "350C",
      "350C",
      "350C",
      "350C",
      "350C",
      "350C",
      "350C",
      "350C",
      "350C",
      "350C",
      "350C",
      "350C",
      "350C",
      "350C",
      "350C",
      "350C",
      "350C",
      "350C",
      "350C",
      "350C",
      "350C",
      "350C",
      "350C",
      "350C",
      "350C",
      "350C",
      "350C",
      "350C",
      "350C",
      "350C",
      "350C",
      "350C",
      "350C",
      "350C",
      "350C",
      "350C",
      "350C",
      "350C",
      "350C",
      "350C",
      "350C",
      "350C",
      "350C",
      "350C",
      "350C",
      "350C",
      "350C",
      "350C",
      "350C",
      "350C",
      "350C",
      "350C",
      "350C",
      "350C",
      "350C",
      "350C",
      "350C",
      "350C",
      "350C",
      "350C",
      "350C",
      "350C",
      "350C",
      "350C",
      "350C",
      "350C",
      "350C",
      "350C",
      "350C",
      "350C",
      "350C",
      "350C",
      "350C",
      "350C",
      "350C",
      "350C",
      "350C",
      "350C",
      "350C",
      "350C",
      "350C",
      "350C",
      "350C",
      "350C",
      "350C",
      "350C",
      "350C",
      "350C",
      "350C",
      "350C",
      "350C",
      "350C",
      "350C",
      "350C",
      "350C",
      "350C",
      "350C",
      "350C",
      "350C",
      "350C",
      "350C",
      "350C",
      "350C",
      "350C",
      "350C",
      "350C",
      "350C",
      "350C",
      "350C",
      "350C",
      "350C",
      "350C",
      "350C",
      "350C",
      "350C",
      "350C",
      "350C",
      "350C",
      "350C",
      "350C",
      "350C",
      "350C",
      "350C",
      "350C",
      "350C",
      "350C",
      "350C",
      "350C",
      "350C",
      "350C",
      "350C",
      "350C",
      "350C",
      "350C",
      "350C",
      "350C",
      "350C",
      "350C",
      "350C",
      "350C",
      "350C",
      "350C",
      "350C",
      "350C",
      "350C",
      "350C",
      "350C",
      "350C",
      "350C",
      "350C",
      "350C",
      "350C",
      "350C",
      "350C",
      "350C",
      "350C",
      "350C",
      "350C",
      "204",
      "204",
      "204",
      "204",
      "204",
      "204",
      "204",
      "204",
      "190",
      "190",
      "190",
      "190",
      "139",
      "139",
      "139",
      "139",
      "139",
      "122",
      "122",
      "109C",
      "109C",
      "109C",
      "101",
      "099",
      "099",
      "099",
      "099",
      "099",
      "099",
      "099",
      "099",
      "070",
      "070",
      "070",
      "070",
      "070",
      "070",
      "070",
      "068",
      "068",
      "068",
      "068",
      "060",
      "060",
      "048",
      "048",
      "048",
      "048",
      "041",
      "041",
      "036",
      "036",
      "036",
      "036",
      "036",
      "030",
      "030",
      "030",
      "030",
      "030",
      "030",
      "030",
      "030",
      "030"
    ],
    "swim:geom": "path",
    "swim:speeds": [
      413,
      413,
      413,
      413,
      413,
      413,
      413,
      413,
      413,
      413,
      452,
      452,
      452,
      452,
      452,
      461,
      461,
      485,
      485,
      485,
      485,
      485,
      485,
      485,
      485,
      485,
      485,
      485,
      485,
      485,
      485,
      485,
      485,
      487,
      487,
      491,
      491,
      491,
      491,
      507,
      507,
      508,
      508,
      508,
      508,
      508,
      508,
      508,
      508,
      508,
      517,
      517,
      517,
      517,
      517,
      519,
      519,
      519,
      519,
      519,
      519,
      519,
      505,
      505,
      505,
      505,
      505,
      505,
      505,
      505,
      505,
      509,
      509,
      509,
      509,
      509,
      509,
      509,
      516,
      516,
      516,
      516,
      516,
      516,
      516,
      516,
      523,
      523,
      523,
      523,
      523,
      523,
      523,
      523,
      526,
      526,
      526,
      526,
      526,
      526,
      520,
      520,
      520,
      520,
      520,
      520,
      524,
      524,
      524,
      524,
      525,
      525,
      525,
      524,
      524,
      524,
      522,
      522,
      522,
      522,
      523,
      523,
      523,
      523,
      523,
      523,
      523,
      523,
      523,
      523,
      523,
      523,
      522,
      522,
      522,
      522,
      522,
      522,
      522,
      518,
      518,
      518,
      518,
      518,
      518,
      517,
      517,
      517,
      513,
      513,
      513,
      513,
      513,
      513,
      513,
      513,
      505,
      505,
      505,
      505,
      505,
      505,
      505,
      505,
      505,
      505,
      505,
      505,
      505,
      507,
      507,
      507,
      507,
      496,
      496,
      496,
      496,
      496,
      494,
      494,
      494,
      494,
      494,
      493,
      493,
      493,
      493,
      493,
      493,
      493,
      493,
      493,
      493,
      486,
      486,
      486,
      486,
      486,
      486,
      486,
      486,
      486,
      486,
      471,
      471,
      471,
      471,
      471,
      471,
      471,
      471,
      472,
      472,
      472,
      472,
      472,
      472,
      472,
      473,
      473,
      473,
      473,
      473,
      473,
      473,
      473,
      473,
      473,
      473,
      471,
      471,
      471,
      471,
      471,
      471,
      471,
      471,
      471,
      459,
      459,
      459,
      459,
      459,
      459,
      459,
      459,
      459,
      459,
      459,
      459,
      459,
      459,
      457,
      457,
      457,
      457,
      457,
      457,
      457,
      457,
      457,
      456,
      456,
      455,
      455,
      455,
      455,
      455,
      453,
      453,
      453,
      453,
      453,
      453,
      453,
      454,
      454,
      456,
      456,
      456,
      456,
      456,
      456,
      456,
      458,
      458,
      458,
      458,
      458,
      458,
      458,
      458,
      458,
      458,
      458,
      458,
      458,
      461,
      461,
      461,
      461,
      461,
      461,
      461,
      454,
      454,
      453,
      453,
      453,
      453,
      453,
      453,
      453,
      453,
      453,
      453,
      453,
      453,
      445,
      445,
      445,
      445,
      445,
      443,
      443,
      443,
      443,
      443,
      443,
      443,
      443,
      441,
      441,
      441,
      441,
      441,
      441,
      441,
      440,
      440,
      440,
      442,
      442,
      442,
      442,
      442,
      442,
      442,
      442,
      442,
      443,
      443,
      443,
      443,
      443,
      443,
      441,
      441,
      441,
      441,
      441,
      441,
      441,
      441,
      441,
      455,
      455,
      455,
      455,
      455,
      455,
      455,
      455,
      455,
      455,
      455,
      454,
      454,
      454,
      454,
      454,
      454,
      454,
      456,
      456,
      456,
      458,
      458,
      458,
      458,
      471,
      471,
      471,
      471,
      471,
      471,
      471,
      471,
      475,
      475,
      475,
      475,
      475,
      475,
      475,
      475,
      475,
      475,
      475,
      479,
      479,
      479,
      479,
      479,
      481,
      481,
      481,
      481,
      481,
      481,
      481,
      486,
      486,
      486,
      486,
      486,
      486,
      487,
      487,
      487,
      487,
      488,
      488,
      488,
      488,
      488,
      488,
      488,
      488,
      488,
      391,
      391,
      391,
      391,
      391,
      391,
      391,
      391,
      374,
      374,
      374,
      374,
      334,
      334,
      334,
      334,
      334,
      324,
      324,
      301,
      301,
      301,
      301,
      268,
      268,
      268,
      268,
      268,
      268,
      268,
      268,
      242,
      242,
      242,
      242,
      242,
      242,
      242,
      246,
      246,
      246,
      246,
      250,
      250,
      240,
      240,
      240,
      240,
      242,
      242,
      221,
      221,
      221,
      221,
      221,
      158,
      158,
      158,
      155,
      155,
      155,
      155,
      155,
      155
    ],
    "swim:timestamps": [
      1761596862,
      1761596862,
      1761596862,
      1761596862,
      1761596862,
      1761596862,
      1761596862,
      1761596862,
      1761596862,
      1761596862,
      1761597173,
      1761597173,
      1761597173,
      1761597173,
      1761597173,
      1761597223,
      1761597223,
      1761597523,
      1761597523,
      1761597523,
      1761597594,
      1761597594,
      1761597594,
      1761597594,
      1761597594,
      1761597703,
      1761597703,
      1761597703,
      1761597703,
      1761597703,
      1761597703,
      1761597703,
      1761597703,
      1761597894,
      1761597894,
      1761598014,
      1761598014,
      1761598014,
      1761598014,
      1761598135,
      1761598135,
      1761598195,
      1761598195,
      1761598195,
      1761598195,
      1761598195,
      1761598304,
      1761598304,
      1761598304,
      1761598304,
      1761598364,
      1761598364,
      1761598364,
      1761598364,
      1761598364,
      1761598484,
      1761598484,
      1761598484,
      1761598484,
      1761598484,
      1761598484,
      1761598484,
      1761599517,
      1761599517,
      1761599517,
      1761599517,
      1761599517,
      1761599517,
      1761599517,
      1761599517,
      1761599517,
      1761599817,
      1761599817,
      1761599817,
      1761599817,
      1761599817,
      1761599817,
      1761599817,
      1761599997,
      1761599997,
      1761599997,
      1761599997,
      1761599997,
      1761599997,
      1761599997,
      1761599997,
      1761600418,
      1761600418,
      1761600418,
      1761600418,
      1761600418,
      1761600418,
      1761600418,
      1761600418,
      1761600839,
      1761600839,
      1761600839,
      1761600839,
      1761600839,
      1761600839,
      1761601019,
      1761601019,
      1761601019,
      1761601019,
      1761601019,
      1761601019,
      1761601139,
      1761601139,
      1761601139,
      1761601139,
      1761601199,
      1761601199,
      1761601199,
      1761601319,
      1761601319,
      1761601319,
      1761601356,
      1761601356,
      1761601356,
      1761601356,
      1761601536,
      1761601536,
      1761601536,
      1761601536,
      1761601536,
      1761601536,
      1761601716,
      1761601716,
      1761601716,
      1761601716,
      1761601716,
      1761601716,
      1761601860,
      1761601860,
      1761601896,
      1761601896,
      1761601896,
      1761601896,
      1761601896,
      1761602077,
      1761602077,
      1761602077,
      1761602077,
      1761602077,
      1761602077,
      1761602161,
      1761602557,
      1761602557,
      1761602677,
      1761602677,
      1761602677,
      1761602677,
      1761602677,
      1761602677,
      1761602677,
      1761602677,
      1761603252,
      1761603252,
      1761603252,
      1761603252,
      1761603252,
      1761603252,
      1761603252,
      1761603312,
      1761603312,
      1761603312,
      1761603312,
      1761603312,
      1761603312,
      1761603519,
      1761603519,
      1761603519,
      1761603519,
      1761603759,
      1761603759,
      1761603759,
      1761603759,
      1761603759,
      1761603819,
      1761603819,
      1761603819,
      1761603819,
      1761603819,
      1761604119,
      1761604119,
      1761604119,
      1761604119,
      1761604119,
      1761604119,
      1761604153,
      1761604153,
      1761604153,
      1761604153,
      1761604333,
      1761604333,
      1761604333,
      1761604333,
      1761604333,
      1761604333,
      1761604333,
      1761604333,
      1761604333,
      1761604333,
      1761604754,
      1761604754,
      1761604754,
      1761604754,
      1761604754,
      1761604754,
      1761604754,
      1761604754,
      1761604934,
      1761604934,
      1761604934,
      1761604934,
      1761604934,
      1761604994,
      1761604994,
      1761605114,
      1761605114,
      1761605114,
      1761605114,
      1761605114,
      1761605174,
      1761605174,
      1761605174,
      1761605174,
      1761605174,
      1761605174,
      1761605415,
      1761605415,
      1761605415,
      1761605415,
      1761605415,
      1761605415,
      1761605415,
      1761605415,
      1761605415,
      1761605715,
      1761605715,
      1761605715,
      1761605715,
      1761605715,
      1761605715,
      1761605715,
      1761605715,
      1761605715,
      1761606130,
      1761606130,
      1761606130,
      1761606130,
      1761606130,
      1761606250,
      1761606250,
      1761606250,
      1761606250,
      1761606250,
      1761606256,
      1761606256,
      1761606256,
      1761606256,
      1761606310,
      1761606310,
      1761606370,
      1761606370,
      1761606370,
      1761606370,
      1761606370,
      1761606611,
      1761606611,
      1761606611,
      1761606797,
      1761606797,
      1761606797,
      1761606797,
      1761606857,
      1761606857,
      1761606911,
      1761606911,
      1761606911,
      1761606911,
      1761606911,
      1761606917,
      1761606917,
      1761606971,
      1761606971,
      1761606971,
      1761606971,
      1761607151,
      1761607151,
      1761607151,
      1761607157,
      1761607157,
      1761607157,
      1761607157,
      1761607157,
      1761607157,
      1761607332,
      1761607332,
      1761607332,
      1761607332,
      1761607332,
      1761607332,
      1761607332,
      1761607632,
      1761607632,
      1761607692,
      1761607692,
      1761607692,
      1761607692,
      1761607692,
      1761607692,
      1761607698,
      1761607698,
      1761607698,
      1761607698,
      1761607698,
      1761607698,
      1761608233,
      1761608233,
      1761608233,
      1761608233,
      1761608233,
      1761608353,
      1761608353,
      1761608353,
      1761608353,
      1761608353,
      1761608353,
      1761608353,
      1761608353,
      1761608473,
      1761608473,
      1761608473,
      1761608473,
      1761608473,
      1761608473,
      1761608473,
      1761608533,
      1761608533,
      1761608533,
      1761608774,
      1761608774,
      1761608774,
      1761608774,
      1761608774,
      1761608774,
      1761608774,
      1761608774,
      1761608774,
      1761608834,
      1761608834,
      1761608834,
      1761608834,
      1761608834,
      1761608834,
      1761609074,
      1761609074,
      1761609074,
      1761609074,
      1761609074,
      1761609074,
      1761609074,
      1761609074,
      1761609074,
      1761609733,
      1761609733,
      1761609733,
      1761609733,
      1761609733,
      1761609733,
      1761609733,
      1761609733,
      1761609733,
      1761609733,
      1761609733,
      1761610274,
      1761610274,
      1761610274,
      1761610274,
      1761610274,
      1761610274,
      1761610274,
      1761610394,
      1761610394,
      1761610394,
      1761610454,
      1761610454,
      1761610454,
      1761610454,
      1761611115,
      1761611115,
      1761611115,
      1761611115,
      1761611115,
      1761611115,
      1761611115,
      1761611115,
      1761611476,
      1761611476,
      1761611476,
      1761611476,
      1761611536,
      1761611536,
      1761611536,
      1761611536,
      1761611536,
      1761611536,
      1761611536,
      1761612497,
      1761612497,
      1761612497,
      1761612497,
      1761612497,
      1761612677,
      1761612677,
      1761612677,
      1761612677,
      1761612677,
      1761612677,
      1761612677,
      1761612978,
      1761612978,
      1761612978,
      1761612978,
      1761612978,
      1761612978,
      1761613038,
      1761613038,
      1761613038,
      1761613038,
      1761613158,
      1761613158,
      1761613158,
      1761613158,
      1761613158,
      1761613158,
      1761613158,
      1761613158,
      1761613158,
      1761613679,
      1761613679,
      1761613679,
      1761613679,
      1761613679,
      1761613679,
      1761613679,
      1761613679,
      1761613733,
      1761613733,
      1761613733,
      1761613733,
      1761613913,
      1761613913,
      1761613913,
      1761613913,
      1761613913,
      1761613973,
      1761613973,
      1761614059,
      1761614059,
      1761614059,
      1761614093,
      1761614153,
      1761614153,
      1761614153,
      1761614153,
      1761614153,
      1761614153,
      1761614153,
      1761614153,
      1761614333,
      1761614333,
      1761614333,
      1761614333,
      1761614333,
      1761614333,
      1761614333,
      1761614359,
      1761614359,
      1761614359,
      1761614359,
      1761614419,
      1761614419,
      1761614513,
      1761614513,
      1761614513,
      1761614513,
      1761614539,
      1761614539,
      1761614573,
      1761614573,
      1761614573,
      1761614573,
      1761614573,
      1761614693,
      1761614693,
      1761614693,
      1761614753,
      1761614753,
      1761614753,
      1761614753,
      1761614753,
      1761614753
    ],
    "wof:geomhash": "515c9bb59cb2e79dfccef9589f053cee",
    "wof:id": 1981784859,
    "wof:repo": "sfomuseum-data-flights-2025-10"
  },
  "bbox": [
    -121.44333333333334,
    38.300555555555555,
    -70.99777777777778,
    43.21083333333333
  ],
  "geometry": {"coordinates":[[-121.44333333333334,38.300555555555555],[-121.44333333333334,38.300555555555555],[-121.44333333333334,38.300555555555555],[-121.44333333333334,38.300555555555555],[-121.44333333333334,38.300555555555555],[-121.44333333333334,38.300555555555555],[-121.44333333333334,38.300555555555555],[-121.44333333333334,38.300555555555555],[-121.44333333333334,38.300555555555555],[-121.44333333333334,38.300555555555555],[-120.815,38.69027777777777],[-120.815,38.69027777777777],[-120.815,38.69027777777777],[-120.815,38.69027777777777],[-120.815,38.69027777777777],[-120.70777777777778,38.755833333333335],[-120.70777777777778,38.755833333333335],[-120.03194444444445,39.1625],[-120.03194444444445,39.1625],[-120.03194444444445,39.1625],[-119.86638888888888,39.26138888888889],[-119.86638888888888,39.26138888888889],[-119.86638888888888,39.26138888888889],[-119.86638888888888,39.26138888888889],[-119.86638888888888,39.26138888888889],[-119.61527777777778,39.40972222222222],[-119.61527777777778,39.40972222222222],[-119.61527777777778,39.40972222222222],[-119.61527777777778,39.40972222222222],[-119.61527777777778,39.40972222222222],[-119.61527777777778,39.40972222222222],[-119.61527777777778,39.40972222222222],[-119.61527777777778,39.40972222222222],[-119.17194444444445,39.66888888888889],[-119.17194444444445,39.66888888888889],[-118.88444444444445,39.835],[-118.88444444444445,39.835],[-118.88444444444445,39.835],[-118.88444444444445,39.835],[-118.56972222222223,39.97694444444445],[-118.56972222222223,39.97694444444445],[-118.40555555555557,40.04333333333333],[-118.40555555555557,40.04333333333333],[-118.40555555555557,40.04333333333333],[-118.40555555555557,40.04333333333333],[-118.40555555555557,40.04333333333333],[-118.10777777777777,40.16361111111111],[-118.10777777777777,40.16361111111111],[-118.10777777777777,40.16361111111111],[-118.10777777777777,40.16361111111111],[-117.94,40.223055555555554],[-117.94,40.223055555555554],[-117.94,40.223055555555554],[-117.94,40.223055555555554],[-117.94,40.223055555555554],[-117.58388888888888,40.32944444444445],[-117.58388888888888,40.32944444444445],[-117.58388888888888,40.32944444444445],[-117.58388888888888,40.32944444444445],[-117.58388888888888,40.32944444444445],[-117.58388888888888,40.32944444444445],[-117.58388888888888,40.32944444444445],[-114.56944444444444,41.17361111111111],[-114.56944444444444,41.17361111111111],[-114.56944444444444,41.17361111111111],[-114.56944444444444,41.17361111111111],[-114.56944444444444,41.17361111111111],[-114.56944444444444,41.17361111111111],[-114.56944444444444,41.17361111111111],[-114.56944444444444,41.17361111111111],[-114.56944444444444,41.17361111111111],[-113.67805555555556,41.40611111111111],[-113.67805555555556,41.40611111111111],[-113.67805555555556,41.40611111111111],[-113.67805555555556,41.40611111111111],[-113.67805555555556,41.40611111111111],[-113.67805555555556,41.40611111111111],[-113.67805555555556,41.40611111111111],[-113.13972222222223,41.54861111111111],[-113.13972222222223,41.54861111111111],[-113.13972222222223,41.54861111111111],[-113.13972222222223,41.54861111111111],[-113.13972222222223,41.54861111111111],[-113.13972222222223,41.54861111111111],[-113.13972222222223,41.54861111111111],[-113.13972222222223,41.54861111111111],[-111.84722222222221,41.87638888888889],[-111.84722222222221,41.87638888888889],[-111.84722222222221,41.87638888888889],[-111.84722222222221,41.87638888888889],[-111.84722222222221,41.87638888888889],[-111.84722222222221,41.87638888888889],[-111.84722222222221,41.87638888888889],[-111.84722222222221,41.87638888888889],[-110.55416666666666,42.18722222222222],[-110.55416666666666,42.18722222222222],[-110.55416666666666,42.18722222222222],[-110.55416666666666,42.18722222222222],[-110.55416666666666,42.18722222222222],[-110.55416666666666,42.18722222222222],[-109.99472222222222,42.31583333333333],[-109.99472222222222,42.31583333333333],[-109.99472222222222,42.31583333333333],[-109.99472222222222,42.31583333333333],[-109.99472222222222,42.31583333333333],[-109.99472222222222,42.31583333333333],[-109.61694444444444,42.40083333333333],[-109.61694444444444,42.40083333333333],[-109.61694444444444,42.40083333333333],[-109.61694444444444,42.40083333333333],[-109.42833333333334,42.44277777777778],[-109.42833333333334,42.44277777777778],[-109.42833333333334,42.44277777777778],[-109.04972222222221,42.52638888888889],[-109.04972222222221,42.52638888888889],[-109.04972222222221,42.52638888888889],[-108.93416666666667,42.55083333333333],[-108.93416666666667,42.55083333333333],[-108.93416666666667,42.55083333333333],[-108.93416666666667,42.55083333333333],[-108.36861111111111,42.67222222222222],[-108.36861111111111,42.67222222222222],[-108.36861111111111,42.67222222222222],[-108.36861111111111,42.67222222222222],[-108.36861111111111,42.67222222222222],[-108.36861111111111,42.67222222222222],[-107.79666666666667,42.79083333333333],[-107.79666666666667,42.79083333333333],[-107.79666666666667,42.79083333333333],[-107.79666666666667,42.79083333333333],[-107.79666666666667,42.79083333333333],[-107.79666666666667,42.79083333333333],[-107.33555555555554,42.86888888888889],[-107.33555555555554,42.86888888888889],[-107.19916666666667,42.879444444444445],[-107.19916666666667,42.879444444444445],[-107.19916666666667,42.879444444444445],[-107.19916666666667,42.879444444444445],[-107.19916666666667,42.879444444444445],[-106.61638888888888,42.92222222222222],[-106.61638888888888,42.92222222222222],[-106.61638888888888,42.92222222222222],[-106.61638888888888,42.92222222222222],[-106.61638888888888,42.92222222222222],[-106.61638888888888,42.92222222222222],[-106.34055555555555,42.94166666666666],[-105.05111111111111,43.02333333333333],[-105.05111111111111,43.02333333333333],[-104.66055555555556,43.044999999999995],[-104.66055555555556,43.044999999999995],[-104.66055555555556,43.044999999999995],[-104.66055555555556,43.044999999999995],[-104.66055555555556,43.044999999999995],[-104.66055555555556,43.044999999999995],[-104.66055555555556,43.044999999999995],[-104.66055555555556,43.044999999999995],[-102.81805555555555,43.12861111111111],[-102.81805555555555,43.12861111111111],[-102.81805555555555,43.12861111111111],[-102.81805555555555,43.12861111111111],[-102.81805555555555,43.12861111111111],[-102.81805555555555,43.12861111111111],[-102.81805555555555,43.12861111111111],[-102.61999999999999,43.13722222222222],[-102.61999999999999,43.13722222222222],[-102.61999999999999,43.13722222222222],[-102.61999999999999,43.13722222222222],[-102.61999999999999,43.13722222222222],[-102.61999999999999,43.13722222222222],[-101.96055555555556,43.159166666666664],[-101.96055555555556,43.159166666666664],[-101.96055555555556,43.159166666666664],[-101.96055555555556,43.159166666666664],[-101.20444444444445,43.17944444444444],[-101.20444444444445,43.17944444444444],[-101.20444444444445,43.17944444444444],[-101.20444444444445,43.17944444444444],[-101.20444444444445,43.17944444444444],[-101.01583333333333,43.18388888888889],[-101.01583333333333,43.18388888888889],[-101.01583333333333,43.18388888888889],[-101.01583333333333,43.18388888888889],[-101.01583333333333,43.18388888888889],[-100.0975,43.20027777777778],[-100.0975,43.20027777777778],[-100.0975,43.20027777777778],[-100.0975,43.20027777777778],[-100.0975,43.20027777777778],[-100.0975,43.20027777777778],[-99.98333333333333,43.20166666666667],[-99.98333333333333,43.20166666666667],[-99.98333333333333,43.20166666666667],[-99.98333333333333,43.20166666666667],[-99.42944444444444,43.2075],[-99.42944444444444,43.2075],[-99.42944444444444,43.2075],[-99.42944444444444,43.2075],[-99.42944444444444,43.2075],[-99.42944444444444,43.2075],[-99.42944444444444,43.2075],[-99.42944444444444,43.2075],[-99.42944444444444,43.2075],[-99.42944444444444,43.2075],[-98.14888888888889,43.21083333333333],[-98.14888888888889,43.21083333333333],[-98.14888888888889,43.21083333333333],[-98.14888888888889,43.21083333333333],[-98.14888888888889,43.21083333333333],[-98.14888888888889,43.21083333333333],[-98.14888888888889,43.21083333333333],[-98.14888888888889,43.21083333333333],[-97.61305555555555,43.20805555555556],[-97.61305555555555,43.20805555555556],[-97.61305555555555,43.20805555555556],[-97.61305555555555,43.20805555555556],[-97.61305555555555,43.20805555555556],[-97.4325,43.20666666666667],[-97.4325,43.20666666666667],[-97.07472222222222,43.20277777777778],[-97.07472222222222,43.20277777777778],[-97.07472222222222,43.20277777777778],[-97.07472222222222,43.20277777777778],[-97.07472222222222,43.20277777777778],[-96.89527777777778,43.2],[-96.89527777777778,43.2],[-96.89527777777778,43.2],[-96.89527777777778,43.2],[-96.89527777777778,43.2],[-96.89527777777778,43.2],[-96.18361111111112,43.18805555555555],[-96.18361111111112,43.18805555555555],[-96.18361111111112,43.18805555555555],[-96.18361111111112,43.18805555555555],[-96.18361111111112,43.18805555555555],[-96.18361111111112,43.18805555555555],[-96.18361111111112,43.18805555555555],[-96.18361111111112,43.18805555555555],[-96.18361111111112,43.18805555555555],[-95.31194444444444,43.16722222222222],[-95.31194444444444,43.16722222222222],[-95.31194444444444,43.16722222222222],[-95.31194444444444,43.16722222222222],[-95.31194444444444,43.16722222222222],[-95.31194444444444,43.16722222222222],[-95.31194444444444,43.16722222222222],[-95.31194444444444,43.16722222222222],[-95.31194444444444,43.16722222222222],[-94.09305555555555,43.126666666666665],[-94.09305555555555,43.126666666666665],[-94.09305555555555,43.126666666666665],[-94.09305555555555,43.126666666666665],[-94.09305555555555,43.126666666666665],[-93.74861111111112,43.11277777777778],[-93.74861111111112,43.11277777777778],[-93.74861111111112,43.11277777777778],[-93.74861111111112,43.11277777777778],[-93.74861111111112,43.11277777777778],[-93.74861111111112,43.11277777777778],[-93.74861111111112,43.11277777777778],[-93.74861111111112,43.11277777777778],[-93.74861111111112,43.11277777777778],[-93.57583333333334,43.105555555555554],[-93.57583333333334,43.105555555555554],[-93.40444444444445,43.098333333333336],[-93.40444444444445,43.098333333333336],[-93.40444444444445,43.098333333333336],[-93.40444444444445,43.098333333333336],[-93.40444444444445,43.098333333333336],[-92.71611111111112,43.10916666666667],[-92.71611111111112,43.10916666666667],[-92.71611111111112,43.10916666666667],[-92.2,43.11888888888889],[-92.2,43.11888888888889],[-92.2,43.11888888888889],[-92.2,43.11888888888889],[-92.02638888888889,43.12166666666667],[-92.02638888888889,43.12166666666667],[-91.85055555555554,43.12444444444444],[-91.85055555555554,43.12444444444444],[-91.85055555555554,43.12444444444444],[-91.85055555555554,43.12444444444444],[-91.85055555555554,43.12444444444444],[-91.85083333333333,43.12444444444444],[-91.85083333333333,43.12444444444444],[-91.67361111111111,43.12638888888889],[-91.67361111111111,43.12638888888889],[-91.67361111111111,43.12638888888889],[-91.67361111111111,43.12638888888889],[-91.18305555555555,43.13138888888889],[-91.18305555555555,43.13138888888889],[-91.18305555555555,43.13138888888889],[-91.14611111111111,43.13166666666667],[-91.14611111111111,43.13166666666667],[-91.14611111111111,43.13166666666667],[-91.14611111111111,43.13166666666667],[-91.14611111111111,43.13166666666667],[-91.14611111111111,43.13166666666667],[-90.65694444444445,43.13388888888889],[-90.65694444444445,43.13388888888889],[-90.65694444444445,43.13388888888889],[-90.65694444444445,43.13388888888889],[-90.65694444444445,43.13388888888889],[-90.65694444444445,43.13388888888889],[-90.65694444444445,43.13388888888889],[-89.76611111111112,43.13333333333333],[-89.76611111111112,43.13333333333333],[-89.59722222222221,43.1325],[-89.59722222222221,43.1325],[-89.59722222222221,43.1325],[-89.59722222222221,43.1325],[-89.59722222222221,43.1325],[-89.59722222222221,43.1325],[-89.59944444444444,43.1325],[-89.59944444444444,43.1325],[-89.59944444444444,43.1325],[-89.59944444444444,43.1325],[-89.59944444444444,43.1325],[-89.59944444444444,43.1325],[-88.08111111111111,43.11055555555556],[-88.08111111111111,43.11055555555556],[-88.08111111111111,43.11055555555556],[-88.08111111111111,43.11055555555556],[-88.08111111111111,43.11055555555556],[-87.74694444444445,43.099722222222226],[-87.74694444444445,43.099722222222226],[-87.74694444444445,43.099722222222226],[-87.74694444444445,43.099722222222226],[-87.74694444444445,43.099722222222226],[-87.74694444444445,43.099722222222226],[-87.74694444444445,43.099722222222226],[-87.74694444444445,43.099722222222226],[-87.415,43.08777777777778],[-87.415,43.08777777777778],[-87.415,43.08777777777778],[-87.415,43.08777777777778],[-87.415,43.08777777777778],[-87.415,43.08777777777778],[-87.415,43.08777777777778],[-87.24416666666667,43.08111111111111],[-87.24416666666667,43.08111111111111],[-87.24416666666667,43.08111111111111],[-86.57722222222222,43.05333333333333],[-86.57722222222222,43.05333333333333],[-86.57722222222222,43.05333333333333],[-86.57722222222222,43.05333333333333],[-86.57722222222222,43.05333333333333],[-86.57722222222222,43.05333333333333],[-86.57722222222222,43.05333333333333],[-86.57722222222222,43.05333333333333],[-86.57722222222222,43.05333333333333],[-86.4075,43.045833333333334],[-86.4075,43.045833333333334],[-86.4075,43.045833333333334],[-86.4075,43.045833333333334],[-86.4075,43.045833333333334],[-86.4075,43.045833333333334],[-85.7225,43.011944444444445],[-85.7225,43.011944444444445],[-85.7225,43.011944444444445],[-85.7225,43.011944444444445],[-85.7225,43.011944444444445],[-85.7225,43.011944444444445],[-85.7225,43.011944444444445],[-85.7225,43.011944444444445],[-85.7225,43.011944444444445],[-83.89500000000001,42.901944444444446],[-83.89500000000001,42.901944444444446],[-83.89500000000001,42.901944444444446],[-83.89500000000001,42.901944444444446],[-83.89500000000001,42.901944444444446],[-83.89500000000001,42.901944444444446],[-83.89500000000001,42.901944444444446],[-83.89500000000001,42.901944444444446],[-83.89500000000001,42.901944444444446],[-83.89500000000001,42.901944444444446],[-83.89500000000001,42.901944444444446],[-82.3475,42.778055555555554],[-82.3475,42.778055555555554],[-82.3475,42.778055555555554],[-82.3475,42.778055555555554],[-82.3475,42.778055555555554],[-82.3475,42.778055555555554],[-82.3475,42.778055555555554],[-82.00833333333334,42.744166666666665],[-82.00833333333334,42.744166666666665],[-82.00833333333334,42.744166666666665],[-81.83583333333333,42.72666666666667],[-81.83583333333333,42.72666666666667],[-81.83583333333333,42.72666666666667],[-81.83583333333333,42.72666666666667],[-79.91666666666667,42.717222222222226],[-79.91666666666667,42.717222222222226],[-79.91666666666667,42.717222222222226],[-79.91666666666667,42.717222222222226],[-79.91666666666667,42.717222222222226],[-79.91666666666667,42.717222222222226],[-79.91666666666667,42.717222222222226],[-79.91666666666667,42.717222222222226],[-78.84638888888888,42.74583333333334],[-78.84638888888888,42.74583333333334],[-78.84638888888888,42.74583333333334],[-78.84638888888888,42.74583333333334],[-78.67,42.749722222222225],[-78.67,42.749722222222225],[-78.67,42.749722222222225],[-78.67,42.749722222222225],[-78.67,42.749722222222225],[-78.67,42.749722222222225],[-78.67,42.749722222222225],[-75.7786111111111,42.772777777777776],[-75.7786111111111,42.772777777777776],[-75.7786111111111,42.772777777777776],[-75.7786111111111,42.772777777777776],[-75.7786111111111,42.772777777777776],[-75.23527777777778,42.76888888888889],[-75.23527777777778,42.76888888888889],[-75.23527777777778,42.76888888888889],[-75.23527777777778,42.76888888888889],[-75.23527777777778,42.76888888888889],[-75.23527777777778,42.76888888888889],[-75.23527777777778,42.76888888888889],[-74.32333333333332,42.75666666666667],[-74.32333333333332,42.75666666666667],[-74.32333333333332,42.75666666666667],[-74.32333333333332,42.75666666666667],[-74.32333333333332,42.75666666666667],[-74.32333333333332,42.75666666666667],[-74.13972222222223,42.75333333333333],[-74.13972222222223,42.75333333333333],[-74.13972222222223,42.75333333333333],[-74.13972222222223,42.75333333333333],[-73.73527777777778,42.74611111111111],[-73.73527777777778,42.74611111111111],[-73.73527777777778,42.74611111111111],[-73.73527777777778,42.74611111111111],[-73.73527777777778,42.74611111111111],[-73.73527777777778,42.74611111111111],[-73.73527777777778,42.74611111111111],[-73.73527777777778,42.74611111111111],[-73.73527777777778,42.74611111111111],[-72.26666666666667,42.63333333333333],[-72.26666666666667,42.63333333333333],[-72.26666666666667,42.63333333333333],[-72.26666666666667,42.63333333333333],[-72.26666666666667,42.63333333333333],[-72.26666666666667,42.63333333333333],[-72.26666666666667,42.63333333333333],[-72.26666666666667,42.63333333333333],[-72.13333333333334,42.61666666666667],[-72.13333333333334,42.61666666666667],[-72.13333333333334,42.61666666666667],[-72.13333333333334,42.61666666666667],[-71.75,42.56666666666667],[-71.75,42.56666666666667],[-71.75,42.56666666666667],[-71.75,42.56666666666667],[-71.75,42.56666666666667],[-71.61666666666666,42.55],[-71.61666666666666,42.55],[-71.46611111111112,42.524166666666666],[-71.46611111111112,42.524166666666666],[-71.46611111111112,42.524166666666666],[-71.4,42.516666666666666],[-71.3,42.483333333333334],[-71.3,42.483333333333334],[-71.3,42.483333333333334],[-71.3,42.483333333333334],[-71.3,42.483333333333334],[-71.3,42.483333333333334],[-71.3,42.483333333333334],[-71.3,42.483333333333334],[-71.01666666666667,42.43333333333333],[-71.01666666666667,42.43333333333333],[-71.01666666666667,42.43333333333333],[-71.01666666666667,42.43333333333333],[-71.01666666666667,42.43333333333333],[-71.01666666666667,42.43333333333333],[-71.01666666666667,42.43333333333333],[-71.0111111111111,42.41277777777778],[-71.0111111111111,42.41277777777778],[-71.0111111111111,42.41277777777778],[-71.0111111111111,42.41277777777778],[-71.00666666666666,42.341944444444444],[-71.00666666666666,42.341944444444444],[-71,42.233333333333334],[-71,42.233333333333334],[-71,42.233333333333334],[-71,42.233333333333334],[-70.99777777777778,42.20444444444445],[-70.99777777777778,42.20444444444445],[-71.01666666666667,42.166666666666664],[-71.01666666666667,42.166666666666664],[-71.01666666666667,42.166666666666664],[-71.01666666666667,42.166666666666664],[-71.01666666666667,42.166666666666664],[-71.1,42.166666666666664],[-71.1,42.166666666666664],[-71.1,42.166666666666664],[-71.1,42.2],[-71.1,42.2],[-71.1,42.2],[-71.1,42.2],[-71.1,42.2],[-71.1,42.2]],"type":"LineString"}
}
