{
  "id": 1981708231,
  "type": "Feature",
  "properties": {
    "geom:area": 0,
    "geom:bbox": "-123.134560,37.519720,-122.072370,38.514940",
    "geom:latitude": 37.91791627388133,
    "geom:longitude": -122.5581884275808,
    "src:alt_label": "swim-approach",
    "src:geom": "swim",
    "swim:elevations": [
      7922,
      7650,
      7292,
      7269,
      6867,
      6549,
      6465,
      6375,
      5892,
      5668,
      5526,
      5380,
      4856,
      4751,
      4614,
      4384,
      4267,
      3963,
      3962,
      3962,
      3836,
      3707,
      3418,
      3108,
      2839,
      2471,
      2082,
      1943,
      1911,
      1732,
      1669,
      1546,
      1341,
      1220,
      1126,
      1041,
      942,
      708,
      633,
      433,
      247,
      119,
      61
    ],
    "swim:geom": "approach",
    "swim:timestamps": [
      1760939934,
      1760939956,
      1760939997,
      1760940000,
      1760940042,
      1760940078,
      1760940087,
      1760940096,
      1760940148,
      1760940175,
      1760940190,
      1760940211,
      1760940268,
      1760940280,
      1760940295,
      1760940322,
      1760940335,
      1760940382,
      1760940416,
      1760940422,
      1760940473,
      1760940487,
      1760940533,
      1760940566,
      1760940591,
      1760940621,
      1760940654,
      1760940686,
      1760940695,
      1760940737,
      1760940746,
      1760940776,
      1760940806,
      1760940824,
      1760940859,
      1760940877,
      1760940910,
      1760940946,
      1760940961,
      1760941002,
      1760941045,
      1760941077,
      1760941089
    ],
    "wof:geomhash": "de6c76bb0ce4a579dd3978c303827734",
    "wof:id": 1981708231,
    "wof:repo": "sfomuseum-data-flights-2025-10"
  },
  "bbox": [
    -123.13456,
    37.51972,
    -122.07237,
    38.51494
  ],
  "geometry": {"coordinates":[[-123.13456,38.51494],[-123.09416,38.48385],[-123.02242,38.42798],[-123.01722,38.42382],[-122.94517,38.36654],[-122.88447,38.31825],[-122.86945,38.3063],[-122.85448,38.29435],[-122.77491,38.22323],[-122.75392,38.17723],[-122.7459,38.1509],[-122.73513,38.11414],[-122.70661,38.01486],[-122.70062,37.99417],[-122.69317,37.96844],[-122.67937,37.9226],[-122.66878,37.90186],[-122.60775,37.83741],[-122.5622,37.79482],[-122.55413,37.78725],[-122.48755,37.72546],[-122.46635,37.71438],[-122.39343,37.69203],[-122.34821,37.67781],[-122.31274,37.66789],[-122.27105,37.65704],[-122.22375,37.64473],[-122.17881,37.6334],[-122.16598,37.63017],[-122.10854,37.616],[-122.09661,37.61278],[-122.07237,37.58894],[-122.08242,37.55814],[-122.09297,37.54005],[-122.13043,37.51972],[-122.15153,37.52626],[-122.18678,37.542],[-122.22392,37.5575],[-122.23947,37.56406],[-122.27767,37.58018],[-122.31298,37.59504],[-122.33801,37.6055],[-122.34751,37.60942]],"type":"LineString"}
}
