{
  "id": 1981780809,
  "type": "Feature",
  "properties": {
    "geom:area": 0,
    "geom:bbox": "-122.793750,37.438260,-122.159910,38.504500",
    "geom:latitude": 37.84623518681962,
    "geom:longitude": -122.51686396213773,
    "src:alt_label": "swim-approach",
    "src:geom": "swim",
    "swim:elevations": [
      7620,
      7468,
      7170,
      7079,
      7043,
      6734,
      6528,
      6240,
      5965,
      5863,
      5404,
      5042,
      4988,
      4756,
      4573,
      4251,
      3964,
      3832,
      3483,
      3423,
      3410,
      3352,
      3353,
      3353,
      3286,
      3127,
      2913,
      2805,
      2705,
      2510,
      2317,
      2143,
      1924,
      1585,
      1504,
      1339,
      1283,
      1182,
      1080,
      947,
      850,
      696,
      616,
      531,
      457,
      244,
      203,
      146,
      35
    ],
    "swim:geom": "approach",
    "swim:timestamps": [
      1761597913,
      1761597928,
      1761597955,
      1761597965,
      1761597969,
      1761597997,
      1761598018,
      1761598047,
      1761598074,
      1761598083,
      1761598137,
      1761598167,
      1761598173,
      1761598197,
      1761598214,
      1761598250,
      1761598279,
      1761598294,
      1761598331,
      1761598344,
      1761598350,
      1761598375,
      1761598390,
      1761598417,
      1761598438,
      1761598465,
      1761598492,
      1761598503,
      1761598515,
      1761598539,
      1761598567,
      1761598592,
      1761598623,
      1761598676,
      1761598687,
      1761598715,
      1761598728,
      1761598760,
      1761598793,
      1761598818,
      1761598839,
      1761598869,
      1761598887,
      1761598904,
      1761598922,
      1761598968,
      1761598984,
      1761598997,
      1761599027
    ],
    "wof:geomhash": "4fc5ab062688d1740e0366645f163225",
    "wof:id": 1981780809,
    "wof:repo": "sfomuseum-data-flights-2025-10"
  },
  "bbox": [
    -122.79375,
    37.43826,
    -122.15991,
    38.5045
  ],
  "geometry": {"coordinates":[[-122.79375,38.5045],[-122.79089,38.47594],[-122.78549,38.422],[-122.78374,38.40335],[-122.78301,38.39636],[-122.7776,38.34091],[-122.77475,38.30228],[-122.77001,38.24873],[-122.75975,38.19758],[-122.7548,38.18139],[-122.72649,38.08571],[-122.71113,38.03339],[-122.7081,38.02296],[-122.69686,37.98273],[-122.6884,37.95277],[-122.6644,37.89495],[-122.62699,37.85581],[-122.60644,37.83634],[-122.55525,37.78868],[-122.5379,37.77211],[-122.53013,37.76484],[-122.49899,37.73565],[-122.48117,37.71882],[-122.45067,37.69013],[-122.4281,37.66854],[-122.40051,37.64244],[-122.37426,37.61753],[-122.36399,37.60664],[-122.35472,37.5943],[-122.34096,37.56789],[-122.32545,37.53814],[-122.30961,37.51203],[-122.29011,37.4806],[-122.23691,37.44311],[-122.22314,37.43826],[-122.18775,37.44368],[-122.17681,37.4535],[-122.15991,37.48068],[-122.16375,37.50679],[-122.18159,37.52248],[-122.19613,37.53552],[-122.22021,37.55307],[-122.23716,37.56073],[-122.25335,37.56754],[-122.27115,37.57492],[-122.31098,37.59171],[-122.32265,37.59654],[-122.333,37.60103],[-122.35682,37.61103]],"type":"LineString"}
}
