{
  "id": 1981806249,
  "type": "Feature",
  "properties": {
    "geom:area": 0,
    "geom:bbox": "-122.350000,32.730833,-117.465278,37.600000",
    "geom:latitude": 35.08660976883009,
    "geom:longitude": -120.0574051052604,
    "src:alt_label": "swim-path",
    "src:geom": "swim",
    "swim:altitudes": [
      "400C",
      "400C",
      "400C",
      "400C",
      "400C",
      "400C",
      "400C",
      "400C",
      "400C",
      "400C",
      "400C",
      "400C",
      "400C",
      "400C",
      "400C",
      "400C",
      "400C",
      "400C",
      "400C",
      "400C",
      "400C",
      "400C",
      "400C",
      "400C",
      "400C",
      "400C",
      "400C",
      "400C",
      "400C",
      "400C",
      "400C",
      "400C",
      "400",
      "400",
      "400",
      "400",
      "369",
      "369",
      "369",
      "259",
      "259",
      "259",
      "259",
      "202",
      "202",
      "202",
      "135",
      "135",
      "135",
      "108",
      "098",
      "098",
      "055",
      "043",
      "041",
      "041",
      "038",
      "038",
      "015",
      "015",
      "015",
      "015",
      "010",
      "008",
      "008",
      "008",
      "008",
      "008",
      "003"
    ],
    "swim:geom": "path",
    "swim:speeds": [
      423,
      423,
      423,
      423,
      422,
      422,
      422,
      422,
      422,
      421,
      414,
      415,
      415,
      415,
      415,
      416,
      416,
      416,
      421,
      421,
      421,
      423,
      423,
      421,
      421,
      421,
      421,
      421,
      420,
      420,
      421,
      421,
      423,
      422,
      422,
      422,
      417,
      417,
      417,
      451,
      451,
      451,
      451,
      383,
      383,
      383,
      346,
      346,
      346,
      283,
      241,
      241,
      237,
      209,
      207,
      207,
      186,
      186,
      141,
      141,
      141,
      141,
      130,
      132,
      132,
      132,
      132,
      132,
      130
    ],
    "swim:timestamps": [
      1761873404,
      1761873404,
      1761873404,
      1761873464,
      1761873524,
      1761873524,
      1761873524,
      1761873524,
      1761873584,
      1761873644,
      1761874005,
      1761874065,
      1761874065,
      1761874065,
      1761874125,
      1761874245,
      1761874245,
      1761874245,
      1761874546,
      1761874546,
      1761874606,
      1761874727,
      1761874727,
      1761874786,
      1761874907,
      1761874907,
      1761874907,
      1761874907,
      1761874966,
      1761874966,
      1761875448,
      1761875448,
      1761875628,
      1761875687,
      1761875687,
      1761875687,
      1761875808,
      1761875808,
      1761875808,
      1761875989,
      1761875989,
      1761875989,
      1761875989,
      1761876169,
      1761876169,
      1761876169,
      1761876349,
      1761876349,
      1761876349,
      1761876443,
      1761876509,
      1761876509,
      1761876683,
      1761876749,
      1761876770,
      1761876770,
      1761876830,
      1761876830,
      1761877010,
      1761877010,
      1761877010,
      1761877010,
      1761877049,
      1761877070,
      1761877070,
      1761877070,
      1761877070,
      1761877070,
      1761877109
    ],
    "wof:geomhash": "8ca3fa2bdcdbd30a423cf4ea86ea2de0",
    "wof:id": 1981806249,
    "wof:repo": "sfomuseum-data-flights-2025-10"
  },
  "bbox": [
    -122.35,
    32.73083333333334,
    -117.46527777777779,
    37.6
  ],
  "geometry": {"coordinates":[[-117.46527777777779,32.73083333333334],[-117.46527777777779,32.73083333333334],[-117.46527777777779,32.73083333333334],[-117.55638888888889,32.83888888888889],[-117.6375,32.93444444444444],[-117.6375,32.93444444444444],[-117.6375,32.93444444444444],[-117.6375,32.93444444444444],[-117.7175,33.028888888888886],[-117.79944444444445,33.12416666666667],[-118.35166666666666,33.61055555555556],[-118.45305555555557,33.69305555555555],[-118.45305555555557,33.69305555555555],[-118.45305555555557,33.69305555555555],[-118.55388888888889,33.775277777777774],[-118.75555555555556,33.93805555555555],[-118.75555555555556,33.93805555555555],[-118.75555555555556,33.93805555555555],[-119.26833333333333,34.33833333333334],[-119.26833333333333,34.33833333333334],[-119.37222222222222,34.41722222222222],[-119.58888888888889,34.57944444444445],[-119.58888888888889,34.57944444444445],[-119.69027777777778,34.66],[-119.8888888888889,34.83083333333334],[-119.8888888888889,34.83083333333334],[-119.8888888888889,34.83083333333334],[-119.8888888888889,34.83083333333334],[-119.98666666666666,34.914722222222224],[-119.98666666666666,34.914722222222224],[-120.78666666666666,35.59027777777778],[-120.78666666666666,35.59027777777778],[-121.09083333333332,35.84305555555556],[-121.1913888888889,35.92583333333333],[-121.1913888888889,35.92583333333333],[-121.1913888888889,35.92583333333333],[-121.38722222222223,36.096944444444446],[-121.38722222222223,36.096944444444446],[-121.38722222222223,36.096944444444446],[-121.63472222222222,36.41305555555555],[-121.63472222222222,36.41305555555555],[-121.63472222222222,36.41305555555555],[-121.63472222222222,36.41305555555555],[-121.85444444444444,36.69138888888889],[-121.85444444444444,36.69138888888889],[-121.85444444444444,36.69138888888889],[-121.96277777777777,36.976111111111116],[-121.96277777777777,36.976111111111116],[-121.96277777777777,36.976111111111116],[-122.01666666666667,37.11666666666667],[-122.05,37.18333333333333],[-122.05,37.18333333333333],[-122.11666666666666,37.36666666666667],[-122.11666666666666,37.43333333333333],[-122.11,37.45305555555556],[-122.11,37.45305555555556],[-122.12027777777777,37.50222222222222],[-122.12027777777777,37.50222222222222],[-122.27305555555556,37.575833333333335],[-122.27305555555556,37.575833333333335],[-122.27305555555556,37.575833333333335],[-122.27305555555556,37.575833333333335],[-122.3,37.583333333333336],[-122.31277777777777,37.5925],[-122.31277777777777,37.5925],[-122.31277777777777,37.5925],[-122.31277777777777,37.5925],[-122.31277777777777,37.5925],[-122.35,37.6]],"type":"LineString"}
}
