{
  "id": 1981592543,
  "type": "Feature",
  "properties": {
    "geom:area": 0,
    "geom:bbox": "-122.363750,37.631780,-121.256690,38.073400",
    "geom:latitude": 37.88546081401578,
    "geom:longitude": -121.8226361114272,
    "src:alt_label": "swim-takeoff",
    "src:geom": "swim",
    "swim:elevations": [
      244,
      668,
      1021,
      1194,
      1370,
      1762,
      2133,
      2378,
      2937,
      3195,
      3401,
      3790,
      3831,
      4478,
      4792,
      5101,
      5295,
      5585,
      5813,
      6318,
      6649,
      6718,
      6917,
      6980,
      7523
    ],
    "swim:geom": "takeoff",
    "swim:timestamps": [
      1759690656,
      1759690698,
      1759690727,
      1759690745,
      1759690763,
      1759690794,
      1759690820,
      1759690842,
      1759690884,
      1759690910,
      1759690946,
      1759690978,
      1759690981,
      1759691035,
      1759691055,
      1759691077,
      1759691093,
      1759691119,
      1759691143,
      1759691183,
      1759691217,
      1759691224,
      1759691243,
      1759691250,
      1759691305
    ],
    "wof:geomhash": "dc08ed63d2365e944bdba55ee116cf08",
    "wof:id": 1981592543,
    "wof:repo": "sfomuseum-data-flights-2025-10"
  },
  "bbox": [
    -122.36375,
    37.63178,
    -121.25669,
    38.0734
  ],
  "geometry": {"coordinates":[[-122.36375,37.63178],[-122.328,37.65467],[-122.29681,37.67203],[-122.2781,37.68304],[-122.25634,37.69576],[-122.2164,37.71679],[-122.18246,37.7344],[-122.15266,37.74943],[-122.09316,37.78012],[-122.05537,37.79985],[-121.99787,37.82877],[-121.93976,37.85195],[-121.93423,37.85416],[-121.83214,37.89468],[-121.794,37.90976],[-121.7511,37.92661],[-121.72002,37.93886],[-121.66763,37.9596],[-121.62021,37.97827],[-121.5364,38.01112],[-121.46255,38.03574],[-121.44851,38.03866],[-121.40408,38.04663],[-121.38594,38.04993],[-121.25669,38.0734]],"type":"LineString"}
}
