{
  "id": 1981761607,
  "type": "Feature",
  "properties": {
    "geom:area": 0,
    "geom:bbox": "-123.391944,37.528611,-122.155278,47.430556",
    "geom:latitude": 42.54936026709222,
    "geom:longitude": -123.1030396792087,
    "src:alt_label": "swim-path",
    "src:geom": "swim",
    "swim:altitudes": [
      "011",
      "011",
      "011",
      "011",
      "011",
      "011",
      "106",
      "106",
      "120",
      "120",
      "120",
      "120",
      "120",
      "120",
      "120",
      "141",
      "141",
      "141",
      "141",
      "141",
      "259",
      "259",
      "259",
      "259",
      "259",
      "294",
      "294",
      "294",
      "294",
      "294",
      "294",
      "330C",
      "330C",
      "330C",
      "330C",
      "330C",
      "330C",
      "330C",
      "330C",
      "330C",
      "330C",
      "330C",
      "330C",
      "330C",
      "330C",
      "330C",
      "330C",
      "330C",
      "330C",
      "330C",
      "330C",
      "330C",
      "330C",
      "330C",
      "330C",
      "330C",
      "330C",
      "330C",
      "330C",
      "330C",
      "330C",
      "330C",
      "330C",
      "330C",
      "330C",
      "330C",
      "330C",
      "330C",
      "330C",
      "330C",
      "330C",
      "330C",
      "330C",
      "330C",
      "330C",
      "330C",
      "330C",
      "330C",
      "330C",
      "330C",
      "330C",
      "330C",
      "330C",
      "330C",
      "330C",
      "330C",
      "330C",
      "330C",
      "330C",
      "330C",
      "330C",
      "330C",
      "330C",
      "330C",
      "330C",
      "330C",
      "330C",
      "330C",
      "330C",
      "330C",
      "330C",
      "330C",
      "330C",
      "330C",
      "330C",
      "330C",
      "330C",
      "330C",
      "330C",
      "330C",
      "330C",
      "330C",
      "330C",
      "330C",
      "330C",
      "330C",
      "330C",
      "330C",
      "330C",
      "330C",
      "330C",
      "330C",
      "330C",
      "330C",
      "330C",
      "330C",
      "330",
      "330",
      "330",
      "330",
      "330",
      "330",
      "330",
      "330",
      "309",
      "309",
      "309",
      "298",
      "290",
      "290",
      "280",
      "280",
      "280",
      "280",
      "280",
      "280",
      "280",
      "270",
      "270",
      "270",
      "250",
      "250",
      "220",
      "220",
      "220",
      "220",
      "220",
      "220",
      "191",
      "191",
      "191",
      "191",
      "181",
      "181",
      "181",
      "181",
      "109",
      "109",
      "109",
      "109",
      "109",
      "100",
      "100",
      "100",
      "036",
      "036",
      "030",
      "030",
      "030",
      "030",
      "030",
      "030",
      "030"
    ],
    "swim:geom": "path",
    "swim:speeds": [
      171,
      171,
      171,
      171,
      171,
      171,
      282,
      282,
      324,
      324,
      324,
      324,
      324,
      324,
      324,
      329,
      329,
      329,
      329,
      329,
      358,
      358,
      358,
      358,
      358,
      385,
      385,
      385,
      385,
      385,
      385,
      395,
      395,
      396,
      396,
      396,
      398,
      398,
      398,
      398,
      398,
      406,
      406,
      406,
      406,
      406,
      409,
      409,
      409,
      409,
      409,
      412,
      412,
      412,
      413,
      413,
      413,
      413,
      413,
      413,
      413,
      413,
      413,
      413,
      413,
      413,
      413,
      408,
      409,
      410,
      410,
      410,
      410,
      410,
      410,
      411,
      411,
      411,
      411,
      412,
      412,
      412,
      418,
      417,
      417,
      417,
      416,
      416,
      416,
      416,
      414,
      414,
      414,
      413,
      413,
      413,
      413,
      413,
      414,
      414,
      416,
      416,
      421,
      421,
      421,
      421,
      421,
      427,
      427,
      427,
      427,
      427,
      427,
      427,
      427,
      427,
      427,
      427,
      427,
      424,
      424,
      424,
      424,
      424,
      424,
      424,
      427,
      427,
      429,
      429,
      429,
      430,
      430,
      430,
      409,
      409,
      409,
      480,
      478,
      478,
      405,
      405,
      405,
      405,
      405,
      405,
      405,
      353,
      353,
      353,
      339,
      339,
      333,
      333,
      333,
      333,
      333,
      333,
      330,
      330,
      330,
      330,
      337,
      337,
      337,
      337,
      302,
      302,
      302,
      302,
      302,
      254,
      254,
      254,
      178,
      178,
      174,
      174,
      174,
      174,
      174,
      174,
      174
    ],
    "swim:timestamps": [
      1761409319,
      1761409319,
      1761409319,
      1761409319,
      1761409319,
      1761409319,
      1761409583,
      1761409583,
      1761409643,
      1761409643,
      1761409643,
      1761409643,
      1761409643,
      1761409643,
      1761409643,
      1761409703,
      1761409703,
      1761409703,
      1761409703,
      1761409703,
      1761410064,
      1761410064,
      1761410064,
      1761410064,
      1761410064,
      1761410242,
      1761410242,
      1761410242,
      1761410242,
      1761410242,
      1761410242,
      1761410543,
      1761410543,
      1761410603,
      1761410603,
      1761410603,
      1761410663,
      1761410663,
      1761410663,
      1761410663,
      1761410663,
      1761410783,
      1761410783,
      1761410783,
      1761410783,
      1761410783,
      1761411083,
      1761411083,
      1761411083,
      1761411083,
      1761411083,
      1761411264,
      1761411264,
      1761411264,
      1761411324,
      1761411324,
      1761411384,
      1761411384,
      1761411384,
      1761411505,
      1761411505,
      1761411685,
      1761411685,
      1761411685,
      1761411685,
      1761411685,
      1761411685,
      1761412066,
      1761412126,
      1761412165,
      1761412165,
      1761412226,
      1761412226,
      1761412226,
      1761412226,
      1761412367,
      1761412367,
      1761412367,
      1761412367,
      1761412526,
      1761412526,
      1761412526,
      1761412727,
      1761412787,
      1761412787,
      1761412787,
      1761412826,
      1761412847,
      1761412847,
      1761412847,
      1761412887,
      1761412887,
      1761412887,
      1761412967,
      1761412967,
      1761412967,
      1761413027,
      1761413027,
      1761413088,
      1761413088,
      1761413127,
      1761413127,
      1761413208,
      1761413208,
      1761413208,
      1761413208,
      1761413208,
      1761413427,
      1761413427,
      1761413427,
      1761413427,
      1761413427,
      1761413548,
      1761413548,
      1761413548,
      1761413548,
      1761413628,
      1761413628,
      1761413628,
      1761413748,
      1761413748,
      1761413748,
      1761413748,
      1761413848,
      1761413848,
      1761413848,
      1761413929,
      1761413929,
      1761413968,
      1761413968,
      1761413968,
      1761413989,
      1761413989,
      1761413989,
      1761414109,
      1761414109,
      1761414109,
      1761414169,
      1761414229,
      1761414229,
      1761414289,
      1761414289,
      1761414289,
      1761414289,
      1761414289,
      1761414289,
      1761414289,
      1761414349,
      1761414349,
      1761414349,
      1761414469,
      1761414469,
      1761414649,
      1761414649,
      1761414649,
      1761414649,
      1761414649,
      1761414649,
      1761414829,
      1761414829,
      1761414829,
      1761414829,
      1761414890,
      1761414890,
      1761414890,
      1761414890,
      1761415285,
      1761415285,
      1761415285,
      1761415285,
      1761415285,
      1761415345,
      1761415345,
      1761415345,
      1761415730,
      1761415730,
      1761415765,
      1761415765,
      1761415765,
      1761415765,
      1761415765,
      1761415765,
      1761415765
    ],
    "wof:geomhash": "c541dc183ec9dcd1f69dcd89fe14c4df",
    "wof:id": 1981761607,
    "wof:repo": "sfomuseum-data-flights-2025-10"
  },
  "bbox": [
    -123.39194444444445,
    37.52861111111111,
    -122.15527777777778,
    47.43055555555555
  ],
  "geometry": {"coordinates":[[-122.30972222222222,47.43055555555555],[-122.30972222222222,47.43055555555555],[-122.30972222222222,47.43055555555555],[-122.30972222222222,47.43055555555555],[-122.30972222222222,47.43055555555555],[-122.30972222222222,47.43055555555555],[-122.56916666666666,47.31111111111111],[-122.56916666666666,47.31111111111111],[-122.69972222222222,47.31361111111111],[-122.69972222222222,47.31361111111111],[-122.69972222222222,47.31361111111111],[-122.69972222222222,47.31361111111111],[-122.69972222222222,47.31361111111111],[-122.69972222222222,47.31361111111111],[-122.69972222222222,47.31361111111111],[-122.83166666666666,47.301111111111105],[-122.83166666666666,47.301111111111105],[-122.83166666666666,47.301111111111105],[-122.83166666666666,47.301111111111105],[-122.83166666666666,47.301111111111105],[-123.3913888888889,46.913333333333334],[-123.3913888888889,46.913333333333334],[-123.3913888888889,46.913333333333334],[-123.3913888888889,46.913333333333334],[-123.3913888888889,46.913333333333334],[-123.39194444444445,46.60138888888889],[-123.39194444444445,46.60138888888889],[-123.39194444444445,46.60138888888889],[-123.39194444444445,46.60138888888889],[-123.39194444444445,46.60138888888889],[-123.39194444444445,46.60138888888889],[-123.37527777777777,46.05777777777777],[-123.37527777777777,46.05777777777777],[-123.37194444444444,45.9475],[-123.37194444444444,45.9475],[-123.37194444444444,45.9475],[-123.36833333333333,45.83555555555556],[-123.36833333333333,45.83555555555556],[-123.36833333333333,45.83555555555556],[-123.36833333333333,45.83555555555556],[-123.36833333333333,45.83555555555556],[-123.36166666666666,45.61055555555556],[-123.36166666666666,45.61055555555556],[-123.36166666666666,45.61055555555556],[-123.36166666666666,45.61055555555556],[-123.36166666666666,45.61055555555556],[-123.34472222222222,45.03972222222222],[-123.34472222222222,45.03972222222222],[-123.34472222222222,45.03972222222222],[-123.34472222222222,45.03972222222222],[-123.34472222222222,45.03972222222222],[-123.33472222222221,44.69166666666666],[-123.33472222222221,44.69166666666666],[-123.33472222222221,44.69166666666666],[-123.33083333333333,44.57472222222223],[-123.33083333333333,44.57472222222223],[-123.3275,44.46027777777778],[-123.3275,44.46027777777778],[-123.3275,44.46027777777778],[-123.31805555555555,44.23083333333334],[-123.31805555555555,44.23083333333334],[-123.30499999999999,43.88166666666667],[-123.30499999999999,43.88166666666667],[-123.30499999999999,43.88166666666667],[-123.30499999999999,43.88166666666667],[-123.30499999999999,43.88166666666667],[-123.30499999999999,43.88166666666667],[-123.2725,43.17472222222222],[-123.26861111111111,43.06027777777778],[-123.26861111111111,42.97],[-123.26861111111111,42.97],[-123.26444444444445,42.85638888888889],[-123.26444444444445,42.85638888888889],[-123.26444444444445,42.85638888888889],[-123.26444444444445,42.85638888888889],[-123.25416666666666,42.60333333333333],[-123.25416666666666,42.60333333333333],[-123.25416666666666,42.60333333333333],[-123.25416666666666,42.60333333333333],[-123.24305555555556,42.283055555555556],[-123.24305555555556,42.283055555555556],[-123.24305555555556,42.283055555555556],[-123.22833333333334,41.88916666666667],[-123.22444444444444,41.775],[-123.22444444444444,41.775],[-123.22444444444444,41.775],[-123.22194444444445,41.70666666666667],[-123.22027777777778,41.660555555555554],[-123.22027777777778,41.660555555555554],[-123.22027777777778,41.660555555555554],[-123.21805555555555,41.590833333333336],[-123.21805555555555,41.590833333333336],[-123.21805555555555,41.590833333333336],[-123.2125,41.433055555555555],[-123.2125,41.433055555555555],[-123.2125,41.433055555555555],[-123.20833333333334,41.316944444444445],[-123.20833333333334,41.316944444444445],[-123.20583333333333,41.214444444444446],[-123.20583333333333,41.214444444444446],[-123.20444444444445,41.14472222222222],[-123.20444444444445,41.14472222222222],[-123.19972222222222,40.97833333333333],[-123.19972222222222,40.97833333333333],[-123.19972222222222,40.97833333333333],[-123.19972222222222,40.97833333333333],[-123.19972222222222,40.97833333333333],[-123.1888888888889,40.55],[-123.1888888888889,40.55],[-123.1888888888889,40.55],[-123.1888888888889,40.55],[-123.1888888888889,40.55],[-123.18333333333334,40.31083333333333],[-123.18333333333334,40.31083333333333],[-123.18333333333334,40.31083333333333],[-123.18333333333334,40.31083333333333],[-123.17888888888889,40.128055555555555],[-123.17888888888889,40.128055555555555],[-123.17888888888889,40.128055555555555],[-123.17194444444445,39.89361111111111],[-123.17194444444445,39.89361111111111],[-123.17194444444445,39.89361111111111],[-123.17194444444445,39.89361111111111],[-123.16333333333334,39.72083333333334],[-123.16333333333334,39.72083333333334],[-123.16333333333334,39.72083333333334],[-123.15527777777778,39.540277777777774],[-123.15527777777778,39.540277777777774],[-123.1525,39.48111111111111],[-123.1525,39.48111111111111],[-123.1525,39.48111111111111],[-123.15027777777779,39.43138888888889],[-123.15027777777779,39.43138888888889],[-123.15027777777779,39.43138888888889],[-123.13,39.20416666666667],[-123.13,39.20416666666667],[-123.13,39.20416666666667],[-122.99666666666667,39.13722222222222],[-122.81555555555555,39.11194444444445],[-122.81555555555555,39.11194444444445],[-122.69972222222222,39.04194444444444],[-122.69972222222222,39.04194444444444],[-122.69972222222222,39.04194444444444],[-122.69972222222222,39.04194444444444],[-122.69972222222222,39.04194444444444],[-122.69972222222222,39.04194444444444],[-122.69972222222222,39.04194444444444],[-122.69083333333333,38.94138888888889],[-122.69083333333333,38.94138888888889],[-122.69083333333333,38.94138888888889],[-122.7088888888889,38.76],[-122.7088888888889,38.76],[-122.73916666666666,38.48444444444444],[-122.73916666666666,38.48444444444444],[-122.73916666666666,38.48444444444444],[-122.73916666666666,38.48444444444444],[-122.73916666666666,38.48444444444444],[-122.73916666666666,38.48444444444444],[-122.76361111111112,38.21472222222223],[-122.76361111111112,38.21472222222223],[-122.76361111111112,38.21472222222223],[-122.76361111111112,38.21472222222223],[-122.73833333333333,38.12361111111111],[-122.73833333333333,38.12361111111111],[-122.73833333333333,38.12361111111111],[-122.73833333333333,38.12361111111111],[-122.38333333333334,37.61666666666667],[-122.38333333333334,37.61666666666667],[-122.38333333333334,37.61666666666667],[-122.38333333333334,37.61666666666667],[-122.38333333333334,37.61666666666667],[-122.33333333333333,37.55],[-122.33333333333333,37.55],[-122.33333333333333,37.55],[-122.15527777777778,37.52861111111111],[-122.15527777777778,37.52861111111111],[-122.18333333333334,37.55],[-122.18333333333334,37.55],[-122.18333333333334,37.55],[-122.18333333333334,37.55],[-122.18333333333334,37.55],[-122.18333333333334,37.55],[-122.18333333333334,37.55]],"type":"LineString"}
}
