{
  "id": 1981790063,
  "type": "Feature",
  "properties": {
    "geom:area": 0,
    "geom:bbox": "-122.126667,32.395000,-80.957500,38.515000",
    "geom:latitude": 35.359780808529585,
    "geom:longitude": -101.27064314682897,
    "src:alt_label": "swim-path",
    "src:geom": "swim",
    "swim:altitudes": [
      "084",
      "084",
      "084",
      "084",
      "084",
      "115",
      "115",
      "115",
      "115",
      "206",
      "206",
      "206",
      "206",
      "206",
      "217",
      "230",
      "230",
      "230",
      "230",
      "255",
      "255",
      "255",
      "255",
      "255",
      "262",
      "281",
      "281",
      "281",
      "310",
      "310",
      "310",
      "316",
      "316",
      "330C",
      "330C",
      "330C",
      "330C",
      "330C",
      "330C",
      "330C",
      "330C",
      "330C",
      "330C",
      "330C",
      "330C",
      "330C",
      "330C",
      "330C",
      "330C",
      "330C",
      "330C",
      "330C",
      "330C",
      "330C",
      "330C",
      "330C",
      "330C",
      "330C",
      "330C",
      "330C",
      "330C",
      "330C",
      "330C",
      "330C",
      "330C",
      "330C",
      "330C",
      "330C",
      "330C",
      "330C",
      "330C",
      "330C",
      "330C",
      "330C",
      "330C",
      "330C",
      "330C",
      "330C",
      "330C",
      "330C",
      "330C",
      "330C",
      "330C",
      "330C",
      "330C",
      "330C",
      "330C",
      "330C",
      "330C",
      "330C",
      "330C",
      "330C",
      "330C",
      "330C",
      "330C",
      "330C",
      "330C",
      "330C",
      "330C",
      "331C",
      "331C",
      "331C",
      "331C",
      "331C",
      "330C",
      "330C",
      "330C",
      "330C",
      "330C",
      "330C",
      "330C",
      "330C",
      "330C",
      "330C",
      "330C",
      "330C",
      "330C",
      "330C",
      "330C",
      "330C",
      "330C",
      "330C",
      "330C",
      "330C",
      "330C",
      "330C",
      "330C",
      "330C",
      "330C",
      "330C",
      "330C",
      "330C",
      "330C",
      "330C",
      "330C",
      "330C",
      "330C",
      "330C",
      "330C",
      "330C",
      "330C",
      "330C",
      "330C",
      "330C",
      "330C",
      "330C",
      "330C",
      "330C",
      "330C",
      "330C",
      "330C",
      "330C",
      "330",
      "330",
      "330",
      "330",
      "330",
      "320",
      "320",
      "320",
      "320",
      "320",
      "320",
      "320",
      "320",
      "320",
      "320",
      "327",
      "327",
      "327",
      "327",
      "327",
      "327",
      "327",
      "327",
      "330C",
      "330C",
      "330C",
      "330C",
      "330C",
      "330C",
      "330C",
      "330C",
      "330C",
      "330C",
      "330C",
      "330C",
      "330C",
      "330C",
      "330C",
      "330C",
      "330C",
      "330C",
      "330C",
      "330C",
      "330C",
      "330C",
      "330C",
      "330C",
      "330C",
      "330C",
      "330C",
      "330C",
      "330C",
      "330C",
      "330C",
      "330C",
      "330C",
      "330C",
      "330C",
      "330C",
      "330C",
      "330C",
      "330C",
      "330C",
      "330C",
      "330C",
      "330C",
      "330C",
      "330C",
      "330C",
      "330C",
      "330C",
      "330C",
      "330C",
      "330C",
      "330C",
      "330C",
      "330C",
      "330C",
      "330C",
      "330C",
      "330C",
      "330C",
      "330C",
      "330C",
      "330C",
      "330C",
      "330C",
      "330C",
      "330C",
      "330C",
      "330C",
      "330C",
      "330C",
      "330C",
      "330C",
      "330C",
      "330C",
      "330C",
      "330C",
      "330C",
      "330C",
      "330C",
      "330C",
      "309",
      "309",
      "309",
      "309",
      "270C",
      "270C",
      "270C",
      "270C",
      "270C",
      "270C",
      "270C",
      "270C",
      "270C",
      "270C",
      "270C",
      "270C",
      "270C",
      "270C",
      "270C",
      "270C",
      "270C",
      "270C",
      "270C",
      "270C",
      "270C",
      "270C",
      "270C",
      "270C",
      "270C",
      "270C",
      "270C",
      "270C",
      "270C",
      "270C",
      "270C",
      "270C",
      "270C",
      "270C",
      "208",
      "208",
      "208",
      "208",
      "208",
      "208",
      "208",
      "208",
      "142",
      "142",
      "142",
      "093",
      "093",
      "093",
      "093",
      "093",
      "060",
      "060",
      "060",
      "055",
      "055",
      "055",
      "055",
      "055",
      "055",
      "026",
      "026",
      "015",
      "015",
      "015",
      "008",
      "008",
      "008",
      "008",
      "008",
      "008"
    ],
    "swim:geom": "path",
    "swim:speeds": [
      278,
      278,
      278,
      278,
      278,
      299,
      299,
      299,
      299,
      421,
      421,
      421,
      421,
      421,
      427,
      434,
      434,
      434,
      434,
      453,
      453,
      453,
      453,
      453,
      457,
      483,
      483,
      483,
      483,
      483,
      483,
      486,
      486,
      487,
      487,
      487,
      487,
      487,
      487,
      490,
      490,
      490,
      497,
      497,
      497,
      497,
      497,
      497,
      499,
      499,
      499,
      499,
      500,
      500,
      500,
      500,
      500,
      508,
      508,
      508,
      509,
      509,
      509,
      509,
      513,
      513,
      513,
      512,
      512,
      512,
      513,
      513,
      513,
      513,
      514,
      514,
      514,
      514,
      517,
      517,
      517,
      517,
      516,
      516,
      516,
      516,
      511,
      511,
      511,
      511,
      511,
      521,
      521,
      521,
      521,
      521,
      521,
      521,
      521,
      525,
      525,
      526,
      526,
      526,
      525,
      525,
      526,
      526,
      530,
      530,
      530,
      530,
      531,
      531,
      531,
      531,
      532,
      538,
      538,
      538,
      538,
      538,
      538,
      541,
      541,
      541,
      541,
      541,
      541,
      541,
      541,
      548,
      548,
      548,
      548,
      549,
      549,
      549,
      551,
      551,
      551,
      551,
      551,
      551,
      550,
      550,
      550,
      550,
      550,
      550,
      551,
      551,
      550,
      550,
      550,
      550,
      550,
      542,
      542,
      542,
      542,
      542,
      542,
      542,
      542,
      542,
      542,
      543,
      543,
      543,
      543,
      543,
      543,
      543,
      543,
      547,
      547,
      547,
      547,
      547,
      547,
      547,
      547,
      545,
      545,
      545,
      545,
      545,
      545,
      543,
      543,
      543,
      543,
      543,
      543,
      543,
      536,
      536,
      536,
      535,
      535,
      535,
      535,
      535,
      535,
      535,
      534,
      534,
      534,
      534,
      533,
      533,
      533,
      533,
      533,
      533,
      535,
      536,
      536,
      536,
      536,
      536,
      537,
      537,
      537,
      537,
      537,
      537,
      537,
      537,
      537,
      537,
      534,
      534,
      534,
      534,
      534,
      531,
      531,
      531,
      531,
      525,
      525,
      525,
      515,
      515,
      515,
      515,
      512,
      512,
      512,
      513,
      513,
      511,
      511,
      502,
      502,
      502,
      502,
      481,
      481,
      481,
      481,
      481,
      481,
      474,
      474,
      474,
      464,
      464,
      464,
      464,
      460,
      460,
      460,
      460,
      460,
      460,
      460,
      462,
      512,
      510,
      510,
      501,
      501,
      501,
      501,
      501,
      501,
      495,
      495,
      495,
      495,
      461,
      461,
      461,
      461,
      461,
      461,
      461,
      461,
      369,
      369,
      369,
      273,
      273,
      273,
      273,
      273,
      199,
      199,
      199,
      199,
      199,
      199,
      199,
      199,
      199,
      147,
      147,
      142,
      142,
      142,
      140,
      140,
      140,
      140,
      140,
      140
    ],
    "swim:timestamps": [
      1761661474,
      1761661474,
      1761661474,
      1761661474,
      1761661474,
      1761661562,
      1761661562,
      1761661562,
      1761661562,
      1761662014,
      1761662014,
      1761662014,
      1761662014,
      1761662014,
      1761662074,
      1761662255,
      1761662255,
      1761662255,
      1761662255,
      1761662429,
      1761662429,
      1761662429,
      1761662429,
      1761662429,
      1761662489,
      1761662675,
      1761662675,
      1761662675,
      1761662915,
      1761662915,
      1761662915,
      1761662970,
      1761662970,
      1761663150,
      1761663150,
      1761663150,
      1761663156,
      1761663156,
      1761663156,
      1761663456,
      1761663456,
      1761663456,
      1761663816,
      1761663816,
      1761663816,
      1761663816,
      1761663816,
      1761663816,
      1761664112,
      1761664112,
      1761664112,
      1761664112,
      1761664172,
      1761664172,
      1761664292,
      1761664292,
      1761664292,
      1761664713,
      1761664713,
      1761664713,
      1761664773,
      1761664773,
      1761664773,
      1761664773,
      1761664917,
      1761664917,
      1761664917,
      1761664953,
      1761664953,
      1761664953,
      1761665374,
      1761665374,
      1761665374,
      1761665374,
      1761665518,
      1761665518,
      1761665518,
      1761665518,
      1761665674,
      1761665674,
      1761665674,
      1761665674,
      1761665818,
      1761665818,
      1761665818,
      1761665818,
      1761665939,
      1761665939,
      1761665939,
      1761665939,
      1761665939,
      1761666299,
      1761666299,
      1761666299,
      1761666539,
      1761666539,
      1761666539,
      1761666539,
      1761666539,
      1761666599,
      1761666599,
      1761666640,
      1761666640,
      1761666640,
      1761666900,
      1761666900,
      1761666941,
      1761666941,
      1761667121,
      1761667121,
      1761667121,
      1761667121,
      1761667181,
      1761667181,
      1761667181,
      1761667181,
      1761667361,
      1761667421,
      1761667421,
      1761667421,
      1761667421,
      1761667421,
      1761667421,
      1761667481,
      1761667722,
      1761667722,
      1761667722,
      1761667722,
      1761667722,
      1761667722,
      1761667722,
      1761668323,
      1761668323,
      1761668323,
      1761668323,
      1761668442,
      1761668442,
      1761668442,
      1761668502,
      1761668502,
      1761668502,
      1761668502,
      1761668502,
      1761668502,
      1761668682,
      1761668682,
      1761668682,
      1761668682,
      1761668743,
      1761668743,
      1761668862,
      1761668862,
      1761668924,
      1761668924,
      1761668924,
      1761668924,
      1761668924,
      1761669464,
      1761669464,
      1761669464,
      1761669464,
      1761669523,
      1761669523,
      1761669523,
      1761669523,
      1761669523,
      1761669523,
      1761669643,
      1761669643,
      1761669643,
      1761669643,
      1761669643,
      1761669643,
      1761669643,
      1761669643,
      1761670184,
      1761670184,
      1761670184,
      1761670184,
      1761670184,
      1761670184,
      1761670184,
      1761670184,
      1761670424,
      1761670424,
      1761670424,
      1761670424,
      1761670424,
      1761670424,
      1761670845,
      1761670845,
      1761670845,
      1761670845,
      1761670845,
      1761670845,
      1761670845,
      1761671326,
      1761671326,
      1761671326,
      1761671566,
      1761671566,
      1761671566,
      1761671566,
      1761671566,
      1761671566,
      1761671566,
      1761671686,
      1761671686,
      1761671686,
      1761671686,
      1761671866,
      1761671866,
      1761671866,
      1761671866,
      1761671866,
      1761671866,
      1761672407,
      1761672467,
      1761672467,
      1761672467,
      1761672467,
      1761672467,
      1761672527,
      1761672527,
      1761672527,
      1761672527,
      1761672527,
      1761672527,
      1761672648,
      1761672648,
      1761672648,
      1761672708,
      1761673013,
      1761673013,
      1761673013,
      1761673013,
      1761673013,
      1761673133,
      1761673133,
      1761673133,
      1761673133,
      1761673253,
      1761673253,
      1761673253,
      1761673313,
      1761673313,
      1761673313,
      1761673313,
      1761673434,
      1761673434,
      1761673434,
      1761673554,
      1761673554,
      1761673626,
      1761673626,
      1761673794,
      1761673794,
      1761673794,
      1761673794,
      1761673987,
      1761673987,
      1761673987,
      1761673987,
      1761673987,
      1761673987,
      1761674167,
      1761674167,
      1761674167,
      1761674407,
      1761674407,
      1761674407,
      1761674407,
      1761674527,
      1761674527,
      1761674527,
      1761674527,
      1761674527,
      1761674527,
      1761674527,
      1761674708,
      1761675248,
      1761675309,
      1761675309,
      1761675369,
      1761675369,
      1761675369,
      1761675369,
      1761675369,
      1761675369,
      1761675429,
      1761675429,
      1761675429,
      1761675429,
      1761675909,
      1761675909,
      1761675909,
      1761675909,
      1761675909,
      1761675909,
      1761675909,
      1761675909,
      1761676150,
      1761676150,
      1761676150,
      1761676350,
      1761676350,
      1761676350,
      1761676350,
      1761676350,
      1761676630,
      1761676630,
      1761676630,
      1761676690,
      1761676690,
      1761676690,
      1761676690,
      1761676690,
      1761676690,
      1761676959,
      1761676959,
      1761677051,
      1761677051,
      1761677051,
      1761677111,
      1761677111,
      1761677111,
      1761677111,
      1761677111,
      1761677111
    ],
    "wof:geomhash": "ed817bae976f8d9884984e05832eadd6",
    "wof:id": 1981790063,
    "wof:repo": "sfomuseum-data-flights-2025-10"
  },
  "bbox": [
    -122.12666666666667,
    32.394999999999996,
    -80.9575,
    38.515
  ],
  "geometry": {"coordinates":[[-122.12666666666667,37.822500000000005],[-122.12666666666667,37.822500000000005],[-122.12666666666667,37.822500000000005],[-122.12666666666667,37.822500000000005],[-122.12666666666667,37.822500000000005],[-121.96666666666667,37.85],[-121.96666666666667,37.85],[-121.96666666666667,37.85],[-121.96666666666667,37.85],[-121.03916666666666,38.00111111111111],[-121.03916666666666,38.00111111111111],[-121.03916666666666,38.00111111111111],[-121.03916666666666,38.00111111111111],[-121.03916666666666,38.00111111111111],[-120.8913888888889,38.02388888888889],[-120.44250000000001,38.091944444444444],[-120.44250000000001,38.091944444444444],[-120.44250000000001,38.091944444444444],[-120.44250000000001,38.091944444444444],[-120.01222222222222,38.15611111111111],[-120.01222222222222,38.15611111111111],[-120.01222222222222,38.15611111111111],[-120.01222222222222,38.15611111111111],[-120.01222222222222,38.15611111111111],[-119.85249999999999,38.178888888888885],[-119.32138888888889,38.255],[-119.32138888888889,38.255],[-119.32138888888889,38.255],[-118.65555555555557,38.38166666666667],[-118.65555555555557,38.38166666666667],[-118.65555555555557,38.38166666666667],[-118.48777777777778,38.39944444444444],[-118.48777777777778,38.39944444444444],[-117.97111111111111,38.45305555555556],[-117.97111111111111,38.45305555555556],[-117.97111111111111,38.45305555555556],[-117.96972222222223,38.45333333333333],[-117.96972222222223,38.45333333333333],[-117.96972222222223,38.45333333333333],[-117.10138888888888,38.515],[-117.10138888888888,38.515],[-117.10138888888888,38.515],[-116.04166666666667,38.47888888888889],[-116.04166666666667,38.47888888888889],[-116.04166666666667,38.47888888888889],[-116.04166666666667,38.47888888888889],[-116.04166666666667,38.47888888888889],[-116.04166666666667,38.47888888888889],[-115.18472222222222,38.442499999999995],[-115.18472222222222,38.442499999999995],[-115.18472222222222,38.442499999999995],[-115.18472222222222,38.442499999999995],[-115.00722222222223,38.43416666666666],[-115.00722222222223,38.43416666666666],[-114.6538888888889,38.416666666666664],[-114.6538888888889,38.416666666666664],[-114.6538888888889,38.416666666666664],[-113.44194444444445,38.18805555555555],[-113.44194444444445,38.18805555555555],[-113.44194444444445,38.18805555555555],[-113.27027777777778,38.146388888888886],[-113.27027777777778,38.146388888888886],[-113.27027777777778,38.146388888888886],[-113.27027777777778,38.146388888888886],[-112.86666666666666,38.04666666666667],[-112.86666666666666,38.04666666666667],[-112.86666666666666,38.04666666666667],[-112.75194444444445,38.01833333333333],[-112.75194444444445,38.01833333333333],[-112.75194444444445,38.01833333333333],[-111.5586111111111,37.7275],[-111.5586111111111,37.7275],[-111.5586111111111,37.7275],[-111.5586111111111,37.7275],[-111.11333333333333,37.62416666666667],[-111.11333333333333,37.62416666666667],[-111.11333333333333,37.62416666666667],[-111.11333333333333,37.62416666666667],[-110.69944444444445,37.51833333333333],[-110.69944444444445,37.51833333333333],[-110.69944444444445,37.51833333333333],[-110.69944444444445,37.51833333333333],[-110.25777777777778,37.3925],[-110.25777777777778,37.3925],[-110.25777777777778,37.3925],[-110.25777777777778,37.3925],[-109.93388888888889,37.29888888888889],[-109.93388888888889,37.29888888888889],[-109.93388888888889,37.29888888888889],[-109.93388888888889,37.29888888888889],[-109.93388888888889,37.29888888888889],[-108.91777777777779,36.99861111111111],[-108.91777777777779,36.99861111111111],[-108.91777777777779,36.99861111111111],[-108.24,36.79194444444444],[-108.24,36.79194444444444],[-108.24,36.79194444444444],[-108.24,36.79194444444444],[-108.24,36.79194444444444],[-108.07027777777778,36.73833333333334],[-108.07027777777778,36.73833333333334],[-107.96888888888888,36.7025],[-107.96888888888888,36.7025],[-107.96888888888888,36.7025],[-107.235,36.44083333333333],[-107.235,36.44083333333333],[-107.13555555555556,36.405],[-107.13555555555556,36.405],[-106.63472222222222,36.22222222222222],[-106.63472222222222,36.22222222222222],[-106.63472222222222,36.22222222222222],[-106.63472222222222,36.22222222222222],[-106.45361111111112,36.15555555555555],[-106.45361111111112,36.15555555555555],[-106.45361111111112,36.15555555555555],[-106.45361111111112,36.15555555555555],[-105.95555555555556,35.969722222222224],[-105.78583333333333,35.90555555555555],[-105.78583333333333,35.90555555555555],[-105.78583333333333,35.90555555555555],[-105.78583333333333,35.90555555555555],[-105.78583333333333,35.90555555555555],[-105.78583333333333,35.90555555555555],[-105.62888888888888,35.84638888888889],[-104.94833333333334,35.60111111111111],[-104.94833333333334,35.60111111111111],[-104.94833333333334,35.60111111111111],[-104.94833333333334,35.60111111111111],[-104.94833333333334,35.60111111111111],[-104.94833333333334,35.60111111111111],[-104.94833333333334,35.60111111111111],[-103.2038888888889,35.09638888888889],[-103.2038888888889,35.09638888888889],[-103.2038888888889,35.09638888888889],[-103.2038888888889,35.09638888888889],[-102.8461111111111,35.01722222222222],[-102.8461111111111,35.01722222222222],[-102.8461111111111,35.01722222222222],[-102.66666666666667,34.9775],[-102.66666666666667,34.9775],[-102.66666666666667,34.9775],[-102.66666666666667,34.9775],[-102.66666666666667,34.9775],[-102.66666666666667,34.9775],[-102.13416666666667,34.85722222222223],[-102.13416666666667,34.85722222222223],[-102.13416666666667,34.85722222222223],[-102.13416666666667,34.85722222222223],[-101.95333333333333,34.81527777777777],[-101.95333333333333,34.81527777777777],[-101.60277777777777,34.73388888888889],[-101.60277777777777,34.73388888888889],[-101.4213888888889,34.69166666666666],[-101.4213888888889,34.69166666666666],[-101.4213888888889,34.69166666666666],[-101.4213888888889,34.69166666666666],[-101.4213888888889,34.69166666666666],[-99.82,34.338055555555556],[-99.82,34.338055555555556],[-99.82,34.338055555555556],[-99.82,34.338055555555556],[-99.63055555555555,34.325833333333335],[-99.63055555555555,34.325833333333335],[-99.63055555555555,34.325833333333335],[-99.63055555555555,34.325833333333335],[-99.63055555555555,34.325833333333335],[-99.63055555555555,34.325833333333335],[-99.26583333333333,34.29694444444444],[-99.26583333333333,34.29694444444444],[-99.26583333333333,34.29694444444444],[-99.26583333333333,34.29694444444444],[-99.26583333333333,34.29694444444444],[-99.26583333333333,34.29694444444444],[-99.26583333333333,34.29694444444444],[-99.26583333333333,34.29694444444444],[-97.64972222222222,34.06333333333333],[-97.64972222222222,34.06333333333333],[-97.64972222222222,34.06333333333333],[-97.64972222222222,34.06333333333333],[-97.64972222222222,34.06333333333333],[-97.64972222222222,34.06333333333333],[-97.64972222222222,34.06333333333333],[-97.64972222222222,34.06333333333333],[-96.93111111111112,33.95194444444445],[-96.93111111111112,33.95194444444445],[-96.93111111111112,33.95194444444445],[-96.93111111111112,33.95194444444445],[-96.93111111111112,33.95194444444445],[-96.93111111111112,33.95194444444445],[-95.68416666666667,33.74805555555556],[-95.68416666666667,33.74805555555556],[-95.68416666666667,33.74805555555556],[-95.68416666666667,33.74805555555556],[-95.68416666666667,33.74805555555556],[-95.68416666666667,33.74805555555556],[-95.68416666666667,33.74805555555556],[-94.33777777777777,33.35861111111111],[-94.33777777777777,33.35861111111111],[-94.33777777777777,33.35861111111111],[-93.69194444444445,33.13972222222222],[-93.69194444444445,33.13972222222222],[-93.69194444444445,33.13972222222222],[-93.69194444444445,33.13972222222222],[-93.69194444444445,33.13972222222222],[-93.69194444444445,33.13972222222222],[-93.69194444444445,33.13972222222222],[-93.36722222222221,33.029444444444444],[-93.36722222222221,33.029444444444444],[-93.36722222222221,33.029444444444444],[-93.36722222222221,33.029444444444444],[-92.83083333333333,32.89083333333333],[-92.83083333333333,32.89083333333333],[-92.83083333333333,32.89083333333333],[-92.83083333333333,32.89083333333333],[-92.83083333333333,32.89083333333333],[-92.83083333333333,32.89083333333333],[-91.25527777777778,32.70611111111111],[-91.07944444444443,32.68416666666666],[-91.07944444444443,32.68416666666666],[-91.07944444444443,32.68416666666666],[-91.07944444444443,32.68416666666666],[-91.07944444444443,32.68416666666666],[-90.90916666666668,32.66277777777778],[-90.90916666666668,32.66277777777778],[-90.90916666666668,32.66277777777778],[-90.90916666666668,32.66277777777778],[-90.90916666666668,32.66277777777778],[-90.90916666666668,32.66277777777778],[-90.55833333333334,32.61805555555556],[-90.55833333333334,32.61805555555556],[-90.55833333333334,32.61805555555556],[-90.41916666666667,32.6],[-89.51805555555555,32.47888888888889],[-89.51805555555555,32.47888888888889],[-89.51805555555555,32.47888888888889],[-89.51805555555555,32.47888888888889],[-89.51805555555555,32.47888888888889],[-89.17694444444444,32.43138888888889],[-89.17694444444444,32.43138888888889],[-89.17694444444444,32.43138888888889],[-89.17694444444444,32.43138888888889],[-88.83749999999999,32.394999999999996],[-88.83749999999999,32.394999999999996],[-88.83749999999999,32.394999999999996],[-88.67111111111112,32.415277777777774],[-88.67111111111112,32.415277777777774],[-88.67111111111112,32.415277777777774],[-88.67111111111112,32.415277777777774],[-88.35138888888888,32.499722222222225],[-88.35138888888888,32.499722222222225],[-88.35138888888888,32.499722222222225],[-88.03083333333333,32.58444444444444],[-88.03083333333333,32.58444444444444],[-87.82888888888888,32.6375],[-87.82888888888888,32.6375],[-87.38805555555557,32.75138888888889],[-87.38805555555557,32.75138888888889],[-87.38805555555557,32.75138888888889],[-87.38805555555557,32.75138888888889],[-86.89305555555556,32.8775],[-86.89305555555556,32.8775],[-86.89305555555556,32.8775],[-86.89305555555556,32.8775],[-86.89305555555556,32.8775],[-86.89305555555556,32.8775],[-86.44388888888889,32.98972222222222],[-86.44388888888889,32.98972222222222],[-86.44388888888889,32.98972222222222],[-85.85027777777778,33.13527777777778],[-85.85027777777778,33.13527777777778],[-85.85027777777778,33.13527777777778],[-85.85027777777778,33.13527777777778],[-85.55749999999999,33.20583333333334],[-85.55749999999999,33.20583333333334],[-85.55749999999999,33.20583333333334],[-85.55749999999999,33.20583333333334],[-85.55749999999999,33.20583333333334],[-85.55749999999999,33.20583333333334],[-85.55749999999999,33.20583333333334],[-85.11527777777778,33.31083333333333],[-83.66472222222222,33.647777777777776],[-83.51,33.70305555555556],[-83.51,33.70305555555556],[-83.36722222222221,33.7725],[-83.36722222222221,33.7725],[-83.36722222222221,33.7725],[-83.36722222222221,33.7725],[-83.36722222222221,33.7725],[-83.36722222222221,33.7725],[-83.22611111111111,33.84138888888889],[-83.22611111111111,33.84138888888889],[-83.22611111111111,33.84138888888889],[-83.22611111111111,33.84138888888889],[-82.14861111111112,34.420833333333334],[-82.14861111111112,34.420833333333334],[-82.14861111111112,34.420833333333334],[-82.14861111111112,34.420833333333334],[-82.14861111111112,34.420833333333334],[-82.14861111111112,34.420833333333334],[-82.14861111111112,34.420833333333334],[-82.14861111111112,34.420833333333334],[-81.68333333333334,34.665277777777774],[-81.68333333333334,34.665277777777774],[-81.68333333333334,34.665277777777774],[-81.37055555555555,34.799166666666665],[-81.37055555555555,34.799166666666665],[-81.37055555555555,34.799166666666665],[-81.37055555555555,34.799166666666665],[-81.37055555555555,34.799166666666665],[-81.02388888888889,34.86833333333333],[-81.02388888888889,34.86833333333333],[-81.02388888888889,34.86833333333333],[-80.95861111111111,34.878055555555555],[-80.95861111111111,34.878055555555555],[-80.95861111111111,34.878055555555555],[-80.95861111111111,34.878055555555555],[-80.95861111111111,34.878055555555555],[-80.95861111111111,34.878055555555555],[-80.9575,35.11055555555556],[-80.9575,35.11055555555556],[-80.96222222222222,35.16416666666667],[-80.96222222222222,35.16416666666667],[-80.96222222222222,35.16416666666667],[-80.96527777777779,35.200833333333335],[-80.96527777777779,35.200833333333335],[-80.96527777777779,35.200833333333335],[-80.96527777777779,35.200833333333335],[-80.96527777777779,35.200833333333335],[-80.96527777777779,35.200833333333335]],"type":"LineString"}
}
