{
  "id": 1981750133,
  "type": "Feature",
  "properties": {
    "geom:area": 0,
    "geom:bbox": "-122.498889,32.700000,-116.933333,37.690833",
    "geom:latitude": 34.94619533800264,
    "geom:longitude": -119.93502325041301,
    "src:alt_label": "swim-path",
    "src:geom": "swim",
    "swim:altitudes": [
      "056",
      "056",
      "056",
      "148",
      "148",
      "148",
      "148",
      "148",
      "256",
      "277",
      "277",
      "299",
      "299",
      "299",
      "358",
      "358",
      "358",
      "385",
      "385",
      "385",
      "385",
      "390C",
      "390C",
      "390C",
      "390C",
      "390C",
      "390C",
      "390C",
      "390C",
      "390C",
      "390C",
      "390C",
      "390C",
      "390C",
      "390C",
      "390C",
      "390C",
      "390C",
      "390C",
      "390C",
      "390C",
      "390C",
      "390C",
      "390C",
      "390C",
      "390C",
      "390C",
      "390C",
      "390C",
      "390C",
      "390C",
      "358",
      "358",
      "358",
      "358",
      "358",
      "326",
      "316",
      "316",
      "310",
      "310",
      "310",
      "299",
      "299",
      "258",
      "258",
      "258",
      "237",
      "157",
      "157",
      "138",
      "138",
      "119",
      "080",
      "080",
      "080",
      "059",
      "059",
      "051",
      "040",
      "015",
      "015",
      "015",
      "006",
      "006",
      "006",
      "006"
    ],
    "swim:geom": "path",
    "swim:speeds": [
      272,
      272,
      272,
      341,
      341,
      341,
      341,
      341,
      446,
      458,
      458,
      474,
      474,
      474,
      472,
      472,
      472,
      469,
      469,
      469,
      469,
      468,
      467,
      467,
      467,
      464,
      464,
      464,
      464,
      459,
      459,
      459,
      459,
      457,
      457,
      457,
      457,
      459,
      459,
      459,
      459,
      459,
      459,
      454,
      454,
      454,
      454,
      454,
      454,
      455,
      455,
      462,
      462,
      462,
      462,
      462,
      463,
      465,
      465,
      476,
      476,
      476,
      472,
      472,
      442,
      442,
      442,
      428,
      385,
      385,
      372,
      372,
      360,
      257,
      257,
      257,
      243,
      243,
      221,
      215,
      156,
      156,
      156,
      132,
      132,
      132,
      132
    ],
    "swim:timestamps": [
      1761271584,
      1761271584,
      1761271584,
      1761271820,
      1761271820,
      1761271820,
      1761271820,
      1761271820,
      1761272060,
      1761272120,
      1761272120,
      1761272185,
      1761272185,
      1761272185,
      1761272365,
      1761272365,
      1761272365,
      1761272481,
      1761272481,
      1761272481,
      1761272481,
      1761272546,
      1761272661,
      1761272661,
      1761272661,
      1761272781,
      1761272781,
      1761272781,
      1761272781,
      1761272961,
      1761272961,
      1761272961,
      1761272961,
      1761273142,
      1761273142,
      1761273142,
      1761273142,
      1761273322,
      1761273322,
      1761273322,
      1761273322,
      1761273322,
      1761273322,
      1761273622,
      1761273622,
      1761273622,
      1761273622,
      1761273622,
      1761273622,
      1761273682,
      1761273682,
      1761273863,
      1761273863,
      1761273863,
      1761273863,
      1761273863,
      1761274043,
      1761274103,
      1761274103,
      1761274163,
      1761274163,
      1761274163,
      1761274223,
      1761274223,
      1761274343,
      1761274343,
      1761274343,
      1761274404,
      1761274644,
      1761274644,
      1761274704,
      1761274704,
      1761274764,
      1761274967,
      1761274967,
      1761274967,
      1761275087,
      1761275087,
      1761275141,
      1761275261,
      1761275447,
      1761275447,
      1761275447,
      1761275507,
      1761275507,
      1761275507,
      1761275507
    ],
    "wof:geomhash": "9bdae320123b088a6102da98d544edb6",
    "wof:id": 1981750133,
    "wof:repo": "sfomuseum-data-flights-2025-10"
  },
  "bbox": [
    -122.49888888888889,
    32.7,
    -116.93333333333334,
    37.69083333333333
  ],
  "geometry": {"coordinates":[[-122.43861111111111,37.69083333333333],[-122.43861111111111,37.69083333333333],[-122.43861111111111,37.69083333333333],[-122.49888888888889,37.349722222222226],[-122.49888888888889,37.349722222222226],[-122.49888888888889,37.349722222222226],[-122.49888888888889,37.349722222222226],[-122.49888888888889,37.349722222222226],[-122.47527777777778,36.91111111111111],[-122.37555555555555,36.81388888888888],[-122.37555555555555,36.81388888888888],[-122.25055555555555,36.69194444444444],[-122.25055555555555,36.69194444444444],[-122.25055555555555,36.69194444444444],[-121.93972222222223,36.38777777777778],[-121.93972222222223,36.38777777777778],[-121.93972222222223,36.38777777777778],[-121.75305555555556,36.20277777777778],[-121.75305555555556,36.20277777777778],[-121.75305555555556,36.20277777777778],[-121.75305555555556,36.20277777777778],[-121.6325,36.08277777777778],[-121.45166666666667,35.90222222222222],[-121.45166666666667,35.90222222222222],[-121.45166666666667,35.90222222222222],[-121.23333333333333,35.68277777777777],[-121.23333333333333,35.68277777777777],[-121.23333333333333,35.68277777777777],[-121.23333333333333,35.68277777777777],[-120.91166666666668,35.425],[-120.91166666666668,35.425],[-120.91166666666668,35.425],[-120.91166666666668,35.425],[-120.53083333333333,35.2025],[-120.53083333333333,35.2025],[-120.53083333333333,35.2025],[-120.53083333333333,35.2025],[-120.15138888888889,34.97833333333333],[-120.15138888888889,34.97833333333333],[-120.15138888888889,34.97833333333333],[-120.15138888888889,34.97833333333333],[-120.15138888888889,34.97833333333333],[-120.15138888888889,34.97833333333333],[-119.52472222222222,34.60333333333333],[-119.52472222222222,34.60333333333333],[-119.52472222222222,34.60333333333333],[-119.52472222222222,34.60333333333333],[-119.52472222222222,34.60333333333333],[-119.52472222222222,34.60333333333333],[-119.40194444444445,34.52916666666667],[-119.40194444444445,34.52916666666667],[-119.02694444444444,34.301111111111105],[-119.02694444444444,34.301111111111105],[-119.02694444444444,34.301111111111105],[-119.02694444444444,34.301111111111105],[-119.02694444444444,34.301111111111105],[-118.65194444444445,34.069722222222225],[-118.5261111111111,33.99166666666667],[-118.5261111111111,33.99166666666667],[-118.40055555555556,33.90861111111111],[-118.40055555555556,33.90861111111111],[-118.40055555555556,33.90861111111111],[-118.28194444444445,33.816944444444445],[-118.28194444444445,33.816944444444445],[-118.05583333333333,33.64416666666666],[-118.05583333333333,33.64416666666666],[-118.05583333333333,33.64416666666666],[-117.94972222222222,33.56305555555555],[-117.58749999999999,33.23555555555556],[-117.58749999999999,33.23555555555556],[-117.50527777777778,33.158055555555556],[-117.50527777777778,33.158055555555556],[-117.43416666666667,33.077222222222225],[-117.23333333333333,32.85],[-117.23333333333333,32.85],[-117.23333333333333,32.85],[-117.1,32.766666666666666],[-117.1,32.766666666666666],[-117.03333333333333,32.75],[-116.93333333333334,32.7],[-117.11666666666666,32.71666666666667],[-117.11666666666666,32.71666666666667],[-117.11666666666666,32.71666666666667],[-117.15,32.733333333333334],[-117.15,32.733333333333334],[-117.15,32.733333333333334],[-117.15,32.733333333333334]],"type":"LineString"}
}
