{
  "id": 1981771811,
  "type": "Feature",
  "properties": {
    "geom:area": 0,
    "geom:bbox": "-122.446000,36.726660,-121.882010,37.610820",
    "geom:latitude": 37.223894813334965,
    "geom:longitude": -122.17140006367171,
    "src:alt_label": "swim-approach",
    "src:geom": "swim",
    "swim:elevations": [
      5359,
      5228,
      5194,
      4868,
      4716,
      4464,
      4295,
      4027,
      3936,
      3563,
      3539,
      3383,
      3179,
      3170,
      2880,
      2813,
      2704,
      2506,
      2367,
      2201,
      2120,
      1887,
      1834,
      1824,
      1829,
      1829,
      1830,
      1859,
      1831,
      1832,
      1829,
      1853,
      1828,
      1829,
      1829,
      1829,
      1829,
      1771,
      1219,
      1190,
      1074,
      746,
      697,
      670,
      609,
      522,
      519,
      351,
      151,
      23
    ],
    "swim:geom": "approach",
    "swim:timestamps": [
      1761511386,
      1761511405,
      1761511414,
      1761511460,
      1761511483,
      1761511519,
      1761511541,
      1761511581,
      1761511595,
      1761511647,
      1761511650,
      1761511689,
      1761511736,
      1761511740,
      1761511774,
      1761511792,
      1761511819,
      1761511846,
      1761511864,
      1761511882,
      1761511893,
      1761511932,
      1761511945,
      1761511977,
      1761512008,
      1761512033,
      1761512057,
      1761512084,
      1761512102,
      1761512124,
      1761512136,
      1761512176,
      1761512196,
      1761512259,
      1761512299,
      1761512308,
      1761512326,
      1761512353,
      1761512470,
      1761512488,
      1761512517,
      1761512648,
      1761512664,
      1761512673,
      1761512691,
      1761512722,
      1761512732,
      1761512763,
      1761512809,
      1761512839
    ],
    "wof:geomhash": "c3f6e3a165b87a43e65275f952299b16",
    "wof:id": 1981771811,
    "wof:repo": "sfomuseum-data-flights-2025-10"
  },
  "bbox": [
    -122.446,
    36.72666,
    -121.88201,
    37.61082
  ],
  "geometry": {"coordinates":[[-121.88201,36.72666],[-121.89551,36.75047],[-121.89984,36.76243],[-121.91729,36.82399],[-121.92539,36.8538],[-121.93809,36.89995],[-121.94618,36.92855],[-121.963,36.978],[-121.96954,36.99469],[-121.99509,37.0602],[-121.99658,37.06399],[-122.01515,37.11185],[-122.03518,37.16266],[-122.03687,37.16692],[-122.05975,37.1947],[-122.08142,37.197],[-122.11407,37.1922],[-122.14611,37.18645],[-122.16758,37.18232],[-122.19024,37.17758],[-122.20351,37.17487],[-122.25275,37.16655],[-122.2681,37.16526],[-122.29786,37.18279],[-122.31843,37.20868],[-122.33454,37.22885],[-122.35075,37.24838],[-122.37398,37.26566],[-122.39523,37.26983],[-122.42149,37.27376],[-122.4347,37.27784],[-122.446,37.31426],[-122.42914,37.3305],[-122.34713,37.33065],[-122.29874,37.33826],[-122.28796,37.34006],[-122.26644,37.34365],[-122.2395,37.35572],[-122.16437,37.43798],[-122.15875,37.45226],[-122.15447,37.47575],[-122.21844,37.5548],[-122.23171,37.55991],[-122.23805,37.56265],[-122.25144,37.56708],[-122.27216,37.57565],[-122.27866,37.57884],[-122.30107,37.5883],[-122.33467,37.60179],[-122.35633,37.61082]],"type":"LineString"}
}
