{
  "id": 1981676325,
  "type": "Feature",
  "properties": {
    "geom:area": 0,
    "geom:bbox": "-122.321670,37.493940,-121.260100,37.598590",
    "geom:latitude": 37.540257426015444,
    "geom:longitude": -121.79711608673274,
    "src:alt_label": "swim-approach",
    "src:geom": "swim",
    "swim:elevations": [
      4675,
      4363,
      4080,
      3960,
      3537,
      3239,
      3168,
      3075,
      2824,
      2615,
      2528,
      2247,
      2208,
      1907,
      1767,
      1613,
      1512,
      1299,
      1188,
      607,
      361,
      213
    ],
    "swim:geom": "approach",
    "swim:timestamps": [
      1760574769,
      1760574803,
      1760574830,
      1760574842,
      1760574884,
      1760574923,
      1760574947,
      1760574974,
      1760575013,
      1760575043,
      1760575058,
      1760575105,
      1760575115,
      1760575166,
      1760575193,
      1760575223,
      1760575244,
      1760575283,
      1760575307,
      1760575421,
      1760575478,
      1760575514
    ],
    "wof:geomhash": "620b43c316e92826c101ab7a507eaae0",
    "wof:id": 1981676325,
    "wof:repo": "sfomuseum-data-flights-2025-10"
  },
  "bbox": [
    -122.32167,
    37.49394,
    -121.2601,
    37.59859
  ],
  "geometry": {"coordinates":[[-121.2601,37.59297],[-121.32972,37.58472],[-121.38333,37.57919],[-121.40704,37.57665],[-121.48864,37.56687],[-121.56047,37.55816],[-121.60217,37.5534],[-121.64658,37.54565],[-121.70871,37.53083],[-121.75516,37.51958],[-121.77846,37.51391],[-121.84923,37.49719],[-121.86329,37.49394],[-121.93862,37.49464],[-121.97585,37.49675],[-122.01827,37.499],[-122.0477,37.5007],[-122.10218,37.50656],[-122.13072,37.51783],[-122.24694,37.56722],[-122.2941,37.58707],[-122.32167,37.59859]],"type":"LineString"}
}
