{
  "id": 1981571867,
  "type": "Feature",
  "properties": {
    "geom:area": 0,
    "geom:bbox": "-122.360390,36.738990,-121.889300,37.614250",
    "geom:latitude": 37.222457105602224,
    "geom:longitude": -122.07424414662921,
    "src:alt_label": "swim-approach",
    "src:geom": "swim",
    "swim:elevations": [
      5577,
      5535,
      5475,
      5327,
      5038,
      4884,
      4515,
      4151,
      4036,
      3796,
      3705,
      3313,
      3138,
      3074,
      2921,
      2653,
      2482,
      2408,
      2000,
      1822,
      1735,
      1480,
      1338,
      1232,
      1035,
      971,
      824,
      696,
      517,
      455,
      265,
      154,
      102,
      185
    ],
    "swim:geom": "approach",
    "swim:timestamps": [
      1759476894,
      1759476898,
      1759476904,
      1759476924,
      1759476954,
      1759476969,
      1759477006,
      1759477044,
      1759477056,
      1759477078,
      1759477090,
      1759477133,
      1759477167,
      1759477182,
      1759477221,
      1759477257,
      1759477280,
      1759477292,
      1759477347,
      1759477375,
      1759477391,
      1759477437,
      1759477464,
      1759477484,
      1759477527,
      1759477539,
      1759477571,
      1759477601,
      1759477642,
      1759477654,
      1759477707,
      1759477733,
      1759477749,
      1759477779
    ],
    "wof:geomhash": "f2d247193edaa0dd2b463802413df9bb",
    "wof:id": 1981571867,
    "wof:repo": "sfomuseum-data-flights-2025-10"
  },
  "bbox": [
    -122.36039,
    36.73899,
    -121.8893,
    37.61425
  ],
  "geometry": {"coordinates":[[-121.8893,36.73899],[-121.89204,36.74416],[-121.89608,36.7531],[-121.90561,36.78308],[-121.91887,36.82974],[-121.92529,36.85275],[-121.94088,36.90907],[-121.95873,36.96587],[-121.96513,36.98231],[-121.9775,37.01442],[-121.98404,37.03139],[-122.00744,37.09157],[-122.02553,37.13779],[-122.03322,37.15741],[-122.0514,37.20375],[-122.06801,37.24581],[-122.07847,37.27276],[-122.08382,37.28641],[-122.10831,37.34866],[-122.12018,37.37885],[-122.12647,37.39689],[-122.1427,37.44432],[-122.15126,37.47007],[-122.15714,37.48835],[-122.17017,37.52724],[-122.17591,37.5359],[-122.20464,37.54917],[-122.23034,37.56027],[-122.26403,37.57441],[-122.27308,37.57818],[-122.3098,37.59369],[-122.32811,37.60159],[-122.33931,37.60613],[-122.36039,37.61425]],"type":"LineString"}
}
