{
  "id": 1981789511,
  "type": "Feature",
  "properties": {
    "geom:area": 0,
    "geom:bbox": "-122.380000,29.960000,-95.340000,37.700000",
    "geom:latitude": 33.61910158773792,
    "geom:longitude": -109.00951816069565,
    "src:alt_label": "swim-route",
    "src:geom": "swim",
    "swim:geom": "route",
    "wof:geomhash": "9e6a90aab44e28f398f1563e6091570e",
    "wof:id": 1981789511,
    "wof:repo": "sfomuseum-data-flights-2025-10"
  },
  "bbox": [
    -122.38,
    29.96,
    -95.34,
    37.7
  ],
  "geometry": {"coordinates":[[-95.34,29.98],[-95.45,29.96],[-95.5,29.96],[-95.53,29.96],[-95.57,29.97],[-95.6,29.97],[-95.63,29.98],[-95.64,29.98],[-95.81,30.02],[-95.84,30.16],[-95.86,30.16],[-95.92,30.17],[-96.39,30.25],[-96.69,30.3],[-96.86,30.33],[-97.12,30.37],[-98.02,30.51],[-99.53,30.73],[-100.43,30.86],[-101.43,31.04],[-102.18,31.18],[-103.44,31.39],[-106.23,31.81],[-106.28,31.82],[-106.69,32.01],[-107.1,32.21],[-107.92,32.6],[-108.58,32.9],[-110.14,33.61],[-110.53,33.78],[-110.92,33.94],[-111.38,34.14],[-112.76,34.71],[-113.12,34.85],[-113.49,34.98],[-113.71,35.06],[-113.98,35.16],[-114.8,35.45],[-114.87,35.49],[-115.84,36.07],[-116.22,36.29],[-116.61,36.61],[-116.75,36.78],[-117.17,37.28],[-117.17,37.28],[-117.27,37.38],[-117.52,37.49],[-119.05,37.61],[-119.24,37.62],[-119.8,37.66],[-119.98,37.67],[-120.04,37.68],[-120.26,37.69],[-120.28,37.69],[-120.38,37.7],[-120.4,37.7],[-120.75,37.66],[-120.78,37.66],[-120.83,37.65],[-120.96,37.63],[-121,37.63],[-121.08,37.62],[-121.18,37.6],[-121.26,37.59],[-121.39,37.58],[-121.41,37.58],[-121.6,37.55],[-121.61,37.55],[-121.62,37.55],[-121.7,37.53],[-121.8,37.51],[-121.83,37.5],[-121.88,37.49],[-122.08,37.54],[-122.14,37.56],[-122.18,37.57],[-122.28,37.59],[-122.33,37.61],[-122.36,37.61],[-122.38,37.62]],"type":"LineString"}
}
