{
  "id": 1981664281,
  "type": "Feature",
  "properties": {
    "geom:area": 0,
    "geom:bbox": "-122.526090,37.634430,-122.195520,38.514800",
    "geom:latitude": 38.031933356381145,
    "geom:longitude": -122.33561476541934,
    "src:alt_label": "swim-takeoff",
    "src:geom": "swim",
    "swim:elevations": [
      320,
      403,
      643,
      1140,
      1401,
      1726,
      1765,
      2132,
      2512,
      2639,
      3172,
      3348,
      3430,
      3880,
      4030,
      4519,
      4892,
      5018,
      5655,
      6181,
      6333,
      6490,
      6819,
      7191,
      7389,
      7571
    ],
    "swim:geom": "takeoff",
    "swim:timestamps": [
      1760367202,
      1760367210,
      1760367249,
      1760367295,
      1760367328,
      1760367357,
      1760367360,
      1760367387,
      1760367417,
      1760367426,
      1760367473,
      1760367507,
      1760367513,
      1760367549,
      1760367561,
      1760367597,
      1760367624,
      1760367633,
      1760367674,
      1760367716,
      1760367733,
      1760367748,
      1760367776,
      1760367807,
      1760367825,
      1760367842
    ],
    "wof:geomhash": "cb841727dd4e983ba7998bfbef2c4de3",
    "wof:id": 1981664281,
    "wof:repo": "sfomuseum-data-flights-2025-10"
  },
  "bbox": [
    -122.52609,
    37.63443,
    -122.19552,
    38.5148
  ],
  "geometry": {"coordinates":[[-122.40489,37.63443],[-122.41181,37.6377],[-122.45275,37.65367],[-122.50465,37.67598],[-122.52491,37.71241],[-122.52587,37.75045],[-122.52609,37.75449],[-122.52168,37.79077],[-122.48503,37.81974],[-122.46951,37.82493],[-122.41164,37.87286],[-122.3806,37.92104],[-122.37504,37.9297],[-122.3392,37.98547],[-122.32698,38.00448],[-122.28991,38.06216],[-122.26084,38.10744],[-122.2512,38.12235],[-122.20671,38.19104],[-122.19552,38.26938],[-122.19747,38.30252],[-122.19966,38.33155],[-122.20348,38.38506],[-122.20773,38.44541],[-122.21005,38.48093],[-122.2028,38.5148]],"type":"LineString"}
}
