{
  "id": 1981785125,
  "type": "Feature",
  "properties": {
    "geom:area": 0,
    "geom:bbox": "-122.368860,37.624670,-122.065090,38.512420",
    "geom:latitude": 38.038869052519885,
    "geom:longitude": -122.1737129660084,
    "src:alt_label": "swim-takeoff",
    "src:geom": "swim",
    "swim:elevations": [
      122,
      399,
      697,
      1018,
      1036,
      1269,
      1432,
      2357,
      3016,
      3246,
      3372,
      3596,
      4195,
      4426,
      4761,
      4871,
      5017,
      5241,
      5591,
      5694,
      5789,
      6072,
      6243,
      6494,
      6693,
      6883
    ],
    "swim:geom": "takeoff",
    "swim:timestamps": [
      1761558961,
      1761558981,
      1761559005,
      1761559033,
      1761559036,
      1761559077,
      1761559092,
      1761559158,
      1761559197,
      1761559218,
      1761559246,
      1761559273,
      1761559313,
      1761559338,
      1761559366,
      1761559376,
      1761559394,
      1761559416,
      1761559466,
      1761559476,
      1761559486,
      1761559517,
      1761559532,
      1761559549,
      1761559587,
      1761559613
    ],
    "wof:geomhash": "fdb087b8e6df21d8436641f74e4bbb47",
    "wof:id": 1981785125,
    "wof:repo": "sfomuseum-data-flights-2025-10"
  },
  "bbox": [
    -122.36886,
    37.62467,
    -122.06509,
    38.51242
  ],
  "geometry": {"coordinates":[[-122.36886,37.62467],[-122.35828,37.63479],[-122.34267,37.64489],[-122.32415,37.65635],[-122.32206,37.65758],[-122.28672,37.67908],[-122.27103,37.68828],[-122.21019,37.74498],[-122.20257,37.79347],[-122.19789,37.82084],[-122.19132,37.86134],[-122.18414,37.90438],[-122.17334,37.96893],[-122.16654,38.01083],[-122.15869,38.05819],[-122.15594,38.07461],[-122.15084,38.10566],[-122.14454,38.14392],[-122.12939,38.23507],[-122.12628,38.25399],[-122.12319,38.27251],[-122.11339,38.33018],[-122.10648,38.35864],[-122.09774,38.39065],[-122.07895,38.46107],[-122.06509,38.51242]],"type":"LineString"}
}
