{
  "id": 1981782949,
  "type": "Feature",
  "properties": {
    "geom:area": 0,
    "geom:bbox": "-122.500520,37.272550,-121.250110,37.723580",
    "geom:latitude": 37.47956222808423,
    "geom:longitude": -121.97384551300141,
    "src:alt_label": "swim-takeoff",
    "src:geom": "swim",
    "swim:elevations": [
      213,
      476,
      736,
      1208,
      1437,
      1946,
      2391,
      2612,
      3209,
      3562,
      3930,
      4101,
      4427,
      4691,
      5117,
      5495,
      5951,
      6065,
      6406,
      6519,
      6837,
      7132,
      7344,
      7506,
      7942,
      7978,
      8221
    ],
    "swim:geom": "takeoff",
    "swim:timestamps": [
      1761575685,
      1761575709,
      1761575754,
      1761575781,
      1761575799,
      1761575842,
      1761575868,
      1761575883,
      1761575928,
      1761575962,
      1761575998,
      1761576015,
      1761576038,
      1761576063,
      1761576097,
      1761576133,
      1761576175,
      1761576188,
      1761576228,
      1761576243,
      1761576283,
      1761576314,
      1761576341,
      1761576362,
      1761576418,
      1761576422,
      1761576451
    ],
    "wof:geomhash": "aeeb47d048366ac585305fe30affbfdf",
    "wof:id": 1981782949,
    "wof:repo": "sfomuseum-data-flights-2025-10"
  },
  "bbox": [
    -122.50052,
    37.27255,
    -121.25011,
    37.72358
  ],
  "geometry": {"coordinates":[[-122.36781,37.63072],[-122.36397,37.64907],[-122.36318,37.69256],[-122.38526,37.71733],[-122.41087,37.72358],[-122.46517,37.69278],[-122.48751,37.66482],[-122.50052,37.64573],[-122.47907,37.58821],[-122.41561,37.5715],[-122.34446,37.55843],[-122.30724,37.5492],[-122.25833,37.53625],[-122.20327,37.52225],[-122.12772,37.50256],[-122.04676,37.48118],[-121.95074,37.45638],[-121.91979,37.44837],[-121.82478,37.42367],[-121.78751,37.41407],[-121.68756,37.38799],[-121.60973,37.36753],[-121.53915,37.34889],[-121.48699,37.33514],[-121.33833,37.29515],[-121.32931,37.29272],[-121.25011,37.27255]],"type":"LineString"}
}
