{
  "id": 1981737293,
  "type": "Feature",
  "properties": {
    "geom:area": 0,
    "geom:bbox": "-122.357778,37.500000,-75.283333,43.034444",
    "geom:latitude": 40.9152204343782,
    "geom:longitude": -98.7414087535341,
    "src:alt_label": "swim-path",
    "src:geom": "swim",
    "swim:altitudes": [
      "007",
      "007",
      "007",
      "021",
      "021",
      "068",
      "068",
      "104",
      "104",
      "104",
      "122",
      "170",
      "170",
      "171",
      "171",
      "171",
      "185",
      "223",
      "223",
      "223",
      "223",
      "251",
      "274",
      "274",
      "274",
      "274",
      "291",
      "291",
      "300C",
      "300C",
      "300C",
      "300C",
      "300C",
      "300C",
      "300C",
      "300C",
      "300C",
      "300C",
      "300C",
      "300C",
      "300C",
      "300C",
      "300C",
      "300C",
      "300C",
      "300C",
      "300C",
      "300C",
      "300C",
      "300C",
      "300C",
      "300C",
      "300C",
      "300C",
      "300C",
      "300C",
      "300C",
      "300C",
      "300C",
      "300C",
      "300C",
      "300C",
      "300C",
      "300C",
      "300C",
      "300C",
      "300C",
      "300C",
      "300C",
      "300C",
      "300C",
      "300C",
      "300C",
      "300C",
      "300C",
      "300C",
      "300C",
      "300C",
      "300C",
      "300C",
      "300C",
      "300C",
      "300C",
      "300C",
      "300C",
      "300C",
      "300C",
      "300C",
      "300C",
      "300C",
      "300C",
      "300C",
      "300C",
      "300C",
      "300C",
      "300C",
      "300C",
      "300C",
      "300C",
      "300C",
      "300C",
      "300C",
      "300C",
      "300C",
      "300C",
      "300C",
      "300C",
      "300C",
      "300C",
      "300C",
      "300C",
      "300C",
      "300C",
      "300C",
      "300C",
      "300C",
      "300C",
      "300C",
      "300C",
      "300C",
      "300C",
      "300C",
      "300C",
      "300C",
      "300C",
      "300C",
      "300C",
      "300C",
      "300C",
      "300C",
      "300C",
      "300C",
      "300C",
      "300C",
      "300C",
      "300C",
      "300C",
      "300C",
      "280C",
      "280C",
      "280C",
      "280C",
      "280C",
      "280C",
      "280C",
      "280C",
      "280C",
      "280C",
      "280C",
      "280C",
      "280C",
      "280C",
      "280",
      "281",
      "288",
      "304",
      "304",
      "334",
      "336",
      "336",
      "336",
      "336",
      "350",
      "360C",
      "360C",
      "360C",
      "360C",
      "360C",
      "360C",
      "360C",
      "360C",
      "360C",
      "360C",
      "360C",
      "360C",
      "360C",
      "360C",
      "360C",
      "360C",
      "360C",
      "360C",
      "360C",
      "360C",
      "360C",
      "360C",
      "360C",
      "360C",
      "360C",
      "360C",
      "360C",
      "360C",
      "360C",
      "360C",
      "360C",
      "360C",
      "360C",
      "360C",
      "360C",
      "360C",
      "360C",
      "369",
      "374",
      "374",
      "380C",
      "380C",
      "380C",
      "380C",
      "380C",
      "380C",
      "380C",
      "380C",
      "380C",
      "380C",
      "380C",
      "380C",
      "380C",
      "380C",
      "380C",
      "380C",
      "380C",
      "380C",
      "380C",
      "380C",
      "380C",
      "380C",
      "380C",
      "380C",
      "380C",
      "380C",
      "380C",
      "380C",
      "380C",
      "380C",
      "380C",
      "380C",
      "380C",
      "380C",
      "380C",
      "380C",
      "380C",
      "380C",
      "380C",
      "380C",
      "380C",
      "380C",
      "380C",
      "380C",
      "380C",
      "380C",
      "380C",
      "380C",
      "380C",
      "380C",
      "380C",
      "380C",
      "380C",
      "380C",
      "380C",
      "380C",
      "380C",
      "380C",
      "380C",
      "380C",
      "380C",
      "380C",
      "380C",
      "380C",
      "380C",
      "380C",
      "380C",
      "380C",
      "380C",
      "380C",
      "380C",
      "380C",
      "380C",
      "380C",
      "380C",
      "380C",
      "380C",
      "380C",
      "380C",
      "380C",
      "380C",
      "380C",
      "380C",
      "380C",
      "380C",
      "380C",
      "380C",
      "380C",
      "380C",
      "380C",
      "380C",
      "380C",
      "380C",
      "380C",
      "380C",
      "380C",
      "380C",
      "380C",
      "380C",
      "380C",
      "380C",
      "380",
      "380",
      "372",
      "372",
      "362C",
      "362C",
      "360C",
      "360C",
      "340C",
      "340C",
      "340C",
      "340C",
      "340",
      "340",
      "308",
      "308",
      "308",
      "271",
      "268",
      "268",
      "246",
      "226",
      "226",
      "188",
      "187",
      "163",
      "144",
      "142",
      "130",
      "130",
      "101",
      "090",
      "090",
      "079",
      "079",
      "079",
      "079",
      "052",
      "052",
      "032",
      "032",
      "025",
      "025",
      "017",
      "017",
      "016",
      "008",
      "002",
      "002",
      "001",
      "001"
    ],
    "swim:geom": "path",
    "swim:speeds": [
      183,
      183,
      183,
      210,
      210,
      280,
      280,
      281,
      281,
      281,
      306,
      344,
      344,
      346,
      346,
      346,
      344,
      377,
      377,
      377,
      377,
      391,
      403,
      403,
      403,
      403,
      417,
      417,
      422,
      422,
      422,
      422,
      422,
      422,
      418,
      418,
      421,
      421,
      421,
      421,
      421,
      420,
      420,
      419,
      419,
      419,
      414,
      414,
      414,
      414,
      415,
      415,
      415,
      415,
      414,
      414,
      414,
      414,
      415,
      415,
      416,
      418,
      418,
      418,
      416,
      416,
      416,
      418,
      416,
      416,
      416,
      416,
      422,
      422,
      422,
      422,
      422,
      423,
      426,
      427,
      427,
      427,
      427,
      427,
      428,
      433,
      433,
      434,
      434,
      436,
      438,
      441,
      441,
      439,
      437,
      437,
      437,
      434,
      434,
      434,
      432,
      429,
      426,
      426,
      426,
      424,
      419,
      419,
      416,
      416,
      408,
      405,
      405,
      405,
      403,
      398,
      398,
      398,
      392,
      388,
      388,
      388,
      383,
      383,
      381,
      376,
      376,
      376,
      376,
      376,
      393,
      393,
      393,
      393,
      395,
      395,
      395,
      395,
      408,
      408,
      409,
      409,
      414,
      414,
      417,
      423,
      423,
      424,
      424,
      424,
      425,
      425,
      425,
      424,
      426,
      425,
      425,
      412,
      410,
      410,
      410,
      410,
      395,
      390,
      390,
      390,
      390,
      390,
      390,
      390,
      391,
      391,
      391,
      391,
      391,
      389,
      389,
      388,
      388,
      388,
      386,
      386,
      385,
      385,
      386,
      381,
      381,
      381,
      381,
      381,
      381,
      381,
      380,
      380,
      378,
      377,
      377,
      377,
      377,
      377,
      380,
      380,
      380,
      384,
      384,
      384,
      384,
      384,
      384,
      386,
      386,
      386,
      386,
      391,
      391,
      394,
      394,
      394,
      395,
      396,
      397,
      397,
      389,
      389,
      389,
      390,
      390,
      393,
      393,
      395,
      395,
      395,
      400,
      400,
      401,
      401,
      396,
      396,
      396,
      395,
      395,
      394,
      394,
      394,
      394,
      401,
      401,
      401,
      401,
      401,
      400,
      401,
      401,
      401,
      406,
      406,
      406,
      414,
      416,
      417,
      425,
      425,
      425,
      435,
      433,
      431,
      432,
      432,
      432,
      430,
      430,
      430,
      429,
      429,
      431,
      431,
      429,
      430,
      430,
      430,
      430,
      430,
      430,
      430,
      430,
      430,
      430,
      431,
      432,
      432,
      426,
      426,
      425,
      425,
      425,
      425,
      426,
      426,
      425,
      423,
      423,
      423,
      423,
      429,
      432,
      432,
      425,
      425,
      426,
      426,
      433,
      433,
      436,
      436,
      436,
      436,
      434,
      434,
      431,
      431,
      431,
      418,
      419,
      419,
      407,
      393,
      393,
      386,
      387,
      383,
      375,
      380,
      350,
      350,
      292,
      281,
      275,
      249,
      249,
      249,
      249,
      195,
      195,
      155,
      155,
      159,
      159,
      157,
      157,
      158,
      144,
      138,
      138,
      141,
      141
    ],
    "swim:timestamps": [
      1761173653,
      1761173653,
      1761173653,
      1761173695,
      1761173695,
      1761173809,
      1761173809,
      1761173891,
      1761173891,
      1761173891,
      1761173951,
      1761174366,
      1761174366,
      1761174372,
      1761174372,
      1761174372,
      1761174426,
      1761174606,
      1761174606,
      1761174606,
      1761174606,
      1761174726,
      1761174846,
      1761174846,
      1761174846,
      1761174846,
      1761174973,
      1761174973,
      1761175093,
      1761175147,
      1761175147,
      1761175153,
      1761175153,
      1761175153,
      1761175274,
      1761175274,
      1761175574,
      1761175574,
      1761175574,
      1761175748,
      1761175748,
      1761175868,
      1761175868,
      1761175928,
      1761175928,
      1761175928,
      1761176529,
      1761176529,
      1761176529,
      1761176529,
      1761176889,
      1761176889,
      1761176889,
      1761176889,
      1761176949,
      1761176949,
      1761177130,
      1761177130,
      1761177232,
      1761177232,
      1761177250,
      1761177292,
      1761177292,
      1761177292,
      1761177310,
      1761177370,
      1761177370,
      1761177412,
      1761177532,
      1761177532,
      1761177532,
      1761177592,
      1761178073,
      1761178073,
      1761178073,
      1761178133,
      1761178210,
      1761178313,
      1761178510,
      1761178674,
      1761178674,
      1761178674,
      1761178674,
      1761178811,
      1761178931,
      1761179034,
      1761179034,
      1761179051,
      1761179051,
      1761179155,
      1761179231,
      1761179351,
      1761179351,
      1761179532,
      1761179575,
      1761179575,
      1761179575,
      1761179695,
      1761179695,
      1761179695,
      1761179755,
      1761179936,
      1761180072,
      1761180072,
      1761180072,
      1761180356,
      1761180476,
      1761180476,
      1761180536,
      1761180536,
      1761180717,
      1761180793,
      1761180793,
      1761180793,
      1761180897,
      1761181137,
      1761181137,
      1761181137,
      1761181318,
      1761181498,
      1761181498,
      1761181498,
      1761181646,
      1761181646,
      1761181706,
      1761181827,
      1761182067,
      1761182067,
      1761182067,
      1761182067,
      1761182608,
      1761182608,
      1761182608,
      1761182608,
      1761182788,
      1761182788,
      1761182788,
      1761182788,
      1761183071,
      1761183071,
      1761183191,
      1761183191,
      1761183329,
      1761183329,
      1761183372,
      1761183552,
      1761183552,
      1761183569,
      1761183569,
      1761183569,
      1761183612,
      1761183612,
      1761183672,
      1761183689,
      1761183732,
      1761183792,
      1761183792,
      1761183912,
      1761183929,
      1761183929,
      1761183929,
      1761183929,
      1761183973,
      1761184170,
      1761184170,
      1761184170,
      1761184393,
      1761184393,
      1761184453,
      1761184453,
      1761184513,
      1761184513,
      1761184633,
      1761184633,
      1761184633,
      1761184814,
      1761184814,
      1761184874,
      1761184874,
      1761184874,
      1761184934,
      1761184934,
      1761185174,
      1761185174,
      1761185360,
      1761185415,
      1761185415,
      1761185475,
      1761185475,
      1761185535,
      1761185535,
      1761185535,
      1761185595,
      1761185595,
      1761185715,
      1761185895,
      1761185895,
      1761186015,
      1761186015,
      1761186015,
      1761186196,
      1761186256,
      1761186256,
      1761186496,
      1761186496,
      1761186556,
      1761186616,
      1761186616,
      1761186616,
      1761186796,
      1761186796,
      1761187037,
      1761187037,
      1761187163,
      1761187163,
      1761187283,
      1761187283,
      1761187283,
      1761187337,
      1761187397,
      1761187403,
      1761187403,
      1761187761,
      1761187761,
      1761187878,
      1761187938,
      1761187938,
      1761188058,
      1761188058,
      1761188118,
      1761188118,
      1761188118,
      1761188238,
      1761188238,
      1761188299,
      1761188299,
      1761188723,
      1761188723,
      1761188723,
      1761188783,
      1761188783,
      1761188903,
      1761188963,
      1761189023,
      1761189023,
      1761189203,
      1761189203,
      1761189203,
      1761189203,
      1761189264,
      1761189324,
      1761189444,
      1761189444,
      1761189444,
      1761189564,
      1761189564,
      1761189564,
      1761189744,
      1761189805,
      1761189865,
      1761189925,
      1761189925,
      1761189925,
      1761189985,
      1761190045,
      1761190105,
      1761190165,
      1761190165,
      1761190165,
      1761190346,
      1761190346,
      1761190346,
      1761190460,
      1761190460,
      1761190466,
      1761190526,
      1761190581,
      1761190641,
      1761190701,
      1761190701,
      1761190701,
      1761190701,
      1761191001,
      1761191001,
      1761191001,
      1761191061,
      1761191067,
      1761191121,
      1761191187,
      1761191187,
      1761191248,
      1761191248,
      1761191308,
      1761191361,
      1761191428,
      1761191428,
      1761191481,
      1761191481,
      1761191488,
      1761191608,
      1761191608,
      1761191662,
      1761191662,
      1761191728,
      1761191782,
      1761191788,
      1761191848,
      1761191848,
      1761191902,
      1761191902,
      1761191962,
      1761191962,
      1761192262,
      1761192262,
      1761192262,
      1761192262,
      1761192442,
      1761192442,
      1761192623,
      1761192623,
      1761192623,
      1761192725,
      1761192743,
      1761192743,
      1761192803,
      1761192863,
      1761192863,
      1761192965,
      1761192983,
      1761193043,
      1761193091,
      1761193103,
      1761193145,
      1761193145,
      1761193283,
      1761193326,
      1761193343,
      1761193386,
      1761193386,
      1761193386,
      1761193386,
      1761193583,
      1761193583,
      1761193704,
      1761193704,
      1761193751,
      1761193751,
      1761193811,
      1761193811,
      1761193824,
      1761193884,
      1761193926,
      1761193926,
      1761193944,
      1761193944
    ],
    "wof:geomhash": "46d73867705a5dd58e5a77d2601343a4",
    "wof:id": 1981737293,
    "wof:repo": "sfomuseum-data-flights-2025-10"
  },
  "bbox": [
    -122.35777777777777,
    37.5,
    -75.28333333333333,
    43.03444444444444
  ],
  "geometry": {"coordinates":[[-75.28333333333333,39.86666666666667],[-75.28333333333333,39.86666666666667],[-75.28333333333333,39.86666666666667],[-75.33333333333333,39.85],[-75.33333333333333,39.85],[-75.45,39.9],[-75.45,39.9],[-75.4775,39.99583333333334],[-75.4775,39.99583333333334],[-75.4775,39.99583333333334],[-75.50694444444444,40.07527777777778],[-76.1211111111111,40.477222222222224],[-76.1211111111111,40.477222222222224],[-76.14722222222223,40.481388888888894],[-76.14722222222223,40.481388888888894],[-76.14722222222223,40.481388888888894],[-76.24388888888889,40.49722222222222],[-76.64861111111112,40.56666666666667],[-76.64861111111112,40.56666666666667],[-76.64861111111112,40.56666666666667],[-76.64861111111112,40.56666666666667],[-76.91722222222222,40.63777777777778],[-77.19638888888889,40.71138888888889],[-77.19638888888889,40.71138888888889],[-77.19638888888889,40.71138888888889],[-77.19638888888889,40.71138888888889],[-77.48277777777778,40.785555555555554],[-77.48277777777778,40.785555555555554],[-77.775,40.86138888888889],[-77.92500000000001,40.89944444444444],[-77.92500000000001,40.89944444444444],[-77.92222222222223,40.89888888888889],[-77.92222222222223,40.89888888888889],[-77.92222222222223,40.89888888888889],[-78.22027777777778,40.94444444444444],[-78.22027777777778,40.94444444444444],[-78.98055555555555,41.03527777777778],[-78.98055555555555,41.03527777777778],[-78.98055555555555,41.03527777777778],[-79.44500000000001,41.088055555555556],[-79.44500000000001,41.088055555555556],[-79.7475,41.12111111111111],[-79.7475,41.12111111111111],[-79.88472222222222,41.13638888888889],[-79.88472222222222,41.13638888888889],[-79.88472222222222,41.13638888888889],[-81.38333333333334,41.35],[-81.38333333333334,41.35],[-81.38333333333334,41.35],[-81.38333333333334,41.35],[-82.25111111111111,41.621944444444445],[-82.25111111111111,41.621944444444445],[-82.25111111111111,41.621944444444445],[-82.25111111111111,41.621944444444445],[-82.38555555555556,41.66305555555555],[-82.38555555555556,41.66305555555555],[-82.8125,41.793055555555554],[-82.8125,41.793055555555554],[-83.05749999999999,41.86555555555556],[-83.05749999999999,41.86555555555556],[-83.09972222222221,41.87916666666667],[-83.19305555555556,41.90861111111111],[-83.19305555555556,41.90861111111111],[-83.19305555555556,41.90861111111111],[-83.25055555555555,41.924166666666665],[-83.39500000000001,41.96666666666667],[-83.39500000000001,41.96666666666667],[-83.48083333333334,41.992222222222225],[-83.76833333333333,42.07611111111112],[-83.76833333333333,42.07611111111112],[-83.76833333333333,42.07611111111112],[-83.91222222222223,42.117777777777775],[-85.09138888888889,42.45138888888889],[-85.09138888888889,42.45138888888889],[-85.09138888888889,42.45138888888889],[-85.24138888888889,42.4925],[-85.45055555555555,42.54944444444444],[-85.68916666666667,42.614444444444445],[-86.19444444444444,42.74888888888889],[-86.60694444444444,42.856944444444444],[-86.60694444444444,42.856944444444444],[-86.60694444444444,42.856944444444444],[-86.60694444444444,42.856944444444444],[-86.9725,42.95111111111111],[-87.28027777777778,43.028888888888886],[-87.53722222222223,43.03444444444444],[-87.53722222222223,43.03444444444444],[-87.60805555555555,43.03194444444444],[-87.60805555555555,43.03194444444444],[-87.86944444444444,43.0225],[-88.10666666666665,43.013333333333335],[-88.4375,42.99916666666667],[-88.4375,42.99916666666667],[-88.90361111111112,42.978611111111114],[-89.03583333333333,42.972500000000004],[-89.03583333333333,42.972500000000004],[-89.03583333333333,42.972500000000004],[-89.365,42.95638888888889],[-89.365,42.95638888888889],[-89.365,42.95638888888889],[-89.52777777777777,42.94777777777777],[-90.0275,42.92055555555555],[-90.38333333333334,42.89972222222222],[-90.38333333333334,42.89972222222222],[-90.38333333333334,42.89972222222222],[-91.14944444444446,42.85138888888889],[-91.46277777777777,42.82972222222222],[-91.46277777777777,42.82972222222222],[-91.61083333333333,42.819722222222225],[-91.61083333333333,42.819722222222225],[-92.06222222222222,42.786944444444444],[-92.27388888888889,42.77055555555555],[-92.27388888888889,42.77055555555555],[-92.27388888888889,42.77055555555555],[-92.51583333333333,42.75194444444445],[-93.11333333333333,42.70305555555556],[-93.11333333333333,42.70305555555556],[-93.11333333333333,42.70305555555556],[-93.55277777777778,42.665277777777774],[-93.98694444444445,42.62638888888889],[-93.98694444444445,42.62638888888889],[-93.98694444444445,42.62638888888889],[-94.3586111111111,42.59138888888889],[-94.3586111111111,42.59138888888889],[-94.49972222222222,42.57777777777778],[-94.77111111111111,42.55138888888889],[-95.32666666666667,42.49472222222222],[-95.32666666666667,42.49472222222222],[-95.32666666666667,42.49472222222222],[-95.32666666666667,42.49472222222222],[-96.61944444444444,42.3525],[-96.61944444444444,42.3525],[-96.61944444444444,42.3525],[-96.61944444444444,42.3525],[-97.05555555555556,42.301111111111105],[-97.05555555555556,42.301111111111105],[-97.05555555555556,42.301111111111105],[-97.05555555555556,42.301111111111105],[-97.77777777777777,42.21222222222222],[-97.77777777777777,42.21222222222222],[-98.08027777777778,42.17333333333333],[-98.08027777777778,42.17333333333333],[-98.41666666666667,42.129444444444445],[-98.41666666666667,42.129444444444445],[-98.54166666666667,42.11277777777778],[-99.00555555555556,42.04972222222222],[-99.00555555555556,42.04972222222222],[-99.03777777777778,42.04527777777778],[-99.03777777777778,42.04527777777778],[-99.03777777777778,42.04527777777778],[-99.15916666666668,42.02833333333333],[-99.15916666666668,42.02833333333333],[-99.31472222222222,42.00666666666667],[-99.34833333333333,42.00194444444445],[-99.47027777777778,41.98444444444444],[-99.625,41.962500000000006],[-99.625,41.962500000000006],[-99.93972222222223,41.91694444444444],[-99.95916666666668,41.913888888888884],[-99.95916666666668,41.913888888888884],[-99.95916666666668,41.913888888888884],[-99.95916666666668,41.913888888888884],[-100.08472222222221,41.89527777777778],[-100.52194444444444,41.82944444444445],[-100.52194444444444,41.82944444444445],[-100.52194444444444,41.82944444444445],[-101.07194444444444,41.74472222222222],[-101.07194444444444,41.74472222222222],[-101.21361111111112,41.72222222222222],[-101.21361111111112,41.72222222222222],[-101.35472222222222,41.69972222222222],[-101.35472222222222,41.69972222222222],[-101.63611111111112,41.654444444444444],[-101.63611111111112,41.654444444444444],[-101.63611111111112,41.654444444444444],[-102.05833333333334,41.585],[-102.05833333333334,41.585],[-102.19805555555556,41.561388888888885],[-102.19805555555556,41.561388888888885],[-102.19805555555556,41.561388888888885],[-102.33583333333333,41.53805555555555],[-102.33583333333333,41.53805555555555],[-102.88444444444445,41.44361111111111],[-102.88444444444445,41.44361111111111],[-103.29777777777778,41.36972222222222],[-103.43333333333334,41.34666666666667],[-103.43333333333334,41.34666666666667],[-103.57027777777778,41.32166666666667],[-103.57027777777778,41.32166666666667],[-103.70666666666666,41.29694444444444],[-103.70666666666666,41.29694444444444],[-103.70666666666666,41.29694444444444],[-103.84222222222222,41.27222222222222],[-103.84222222222222,41.27222222222222],[-104.11194444444443,41.22222222222222],[-104.51777777777778,41.14555555555555],[-104.51777777777778,41.14555555555555],[-104.78666666666666,41.09388888888889],[-104.78666666666666,41.09388888888889],[-104.78666666666666,41.09388888888889],[-105.19416666666667,41.01444444444444],[-105.32333333333332,40.98916666666667],[-105.32333333333332,40.98916666666667],[-105.86583333333333,40.87972222222222],[-105.86583333333333,40.87972222222222],[-106.00138888888888,40.852222222222224],[-106.13694444444445,40.82416666666667],[-106.13694444444445,40.82416666666667],[-106.13694444444445,40.82416666666667],[-106.56944444444444,40.73416666666667],[-106.56944444444444,40.73416666666667],[-107.11083333333333,40.61833333333333],[-107.11083333333333,40.61833333333333],[-107.36638888888888,40.56166666666666],[-107.36638888888888,40.56166666666666],[-107.67083333333333,40.495555555555555],[-107.67083333333333,40.495555555555555],[-107.67083333333333,40.495555555555555],[-107.77916666666667,40.47138888888889],[-107.91972222222223,40.44027777777777],[-107.95111111111112,40.433055555555555],[-107.95111111111112,40.433055555555555],[-108.76194444444444,40.2475],[-108.76194444444444,40.2475],[-109.03027777777778,40.18472222222222],[-109.16472222222222,40.15277777777778],[-109.16472222222222,40.15277777777778],[-109.43611111111112,40.088055555555556],[-109.43611111111112,40.088055555555556],[-109.57277777777777,40.055],[-109.57277777777777,40.055],[-109.57277777777777,40.055],[-109.84888888888888,39.988055555555555],[-109.84888888888888,39.988055555555555],[-109.9875,39.95416666666667],[-109.9875,39.95416666666667],[-110.94472222222223,39.71416666666667],[-110.94472222222223,39.71416666666667],[-110.94472222222223,39.71416666666667],[-111.07694444444444,39.680277777777775],[-111.07694444444444,39.680277777777775],[-111.33805555555556,39.613055555555555],[-111.4725,39.57777777777778],[-111.6086111111111,39.54194444444444],[-111.6086111111111,39.54194444444444],[-112.01722222222222,39.43388888888889],[-112.01722222222222,39.43388888888889],[-112.01722222222222,39.43388888888889],[-112.01722222222222,39.43388888888889],[-112.15361111111112,39.3975],[-112.28972222222222,39.36083333333333],[-112.56194444444444,39.28972222222222],[-112.56194444444444,39.28972222222222],[-112.56194444444444,39.28972222222222],[-112.84972222222221,39.224444444444444],[-112.84972222222221,39.224444444444444],[-112.84972222222221,39.224444444444444],[-113.27527777777777,39.126666666666665],[-113.41861111111112,39.093611111111116],[-113.56027777777777,39.06055555555555],[-113.70583333333333,39.04],[-113.70583333333333,39.04],[-113.70583333333333,39.04],[-113.85722222222222,39.07361111111111],[-114.00916666666667,39.087500000000006],[-114.15444444444445,39.05333333333333],[-114.30305555555556,39.01916666666666],[-114.30305555555556,39.01916666666666],[-114.30305555555556,39.01916666666666],[-114.74361111111111,38.9175],[-114.74361111111111,38.9175],[-114.74361111111111,38.9175],[-115.035,38.85055555555556],[-115.035,38.85055555555556],[-115.03555555555555,38.848888888888894],[-115.18388888888889,38.81361111111111],[-115.32944444444443,38.77972222222222],[-115.48777777777778,38.73972222222222],[-115.63416666666667,38.705555555555556],[-115.63416666666667,38.705555555555556],[-115.63416666666667,38.705555555555556],[-115.63416666666667,38.705555555555556],[-116.33611111111111,38.532777777777774],[-116.33611111111111,38.532777777777774],[-116.33611111111111,38.532777777777774],[-116.48027777777779,38.49666666666667],[-116.50972222222222,38.489444444444445],[-116.62555555555555,38.46],[-116.79972222222221,38.41583333333333],[-116.79972222222221,38.41583333333333],[-116.94305555555556,38.379444444444445],[-116.94305555555556,38.379444444444445],[-117.08444444444444,38.34305555555556],[-117.21944444444445,38.308055555555555],[-117.36416666666666,38.27055555555555],[-117.36416666666666,38.27055555555555],[-117.50666666666666,38.233333333333334],[-117.50666666666666,38.233333333333334],[-117.50666666666666,38.233333333333334],[-117.7875,38.159444444444446],[-117.7875,38.159444444444446],[-117.92972222222222,38.12138888888889],[-117.92972222222222,38.12138888888889],[-118.04138888888889,38.04555555555555],[-118.12249999999999,37.942499999999995],[-118.12138888888889,37.94305555555555],[-118.26,37.910555555555554],[-118.26,37.910555555555554],[-118.40944444444445,37.89666666666667],[-118.40944444444445,37.89666666666667],[-118.56333333333333,37.882222222222225],[-118.56333333333333,37.882222222222225],[-119.33055555555555,37.80972222222222],[-119.33055555555555,37.80972222222222],[-119.33055555555555,37.80972222222222],[-119.33055555555555,37.80972222222222],[-119.78527777777778,37.76416666666667],[-119.78527777777778,37.76416666666667],[-120.23583333333333,37.717222222222226],[-120.23583333333333,37.717222222222226],[-120.23583333333333,37.717222222222226],[-120.48333333333333,37.68333333333333],[-120.50055555555555,37.687777777777775],[-120.50055555555555,37.687777777777775],[-120.64083333333333,37.67166666666667],[-120.77833333333334,37.655277777777776],[-120.77833333333334,37.655277777777776],[-121.03333333333333,37.61666666666667],[-121.045,37.621944444444445],[-121.18916666666667,37.60277777777778],[-121.3,37.583333333333336],[-121.31777777777778,37.586111111111116],[-121.41666666666667,37.583333333333336],[-121.41666666666667,37.583333333333336],[-121.65138888888889,37.544444444444444],[-121.73333333333333,37.53333333333333],[-121.74666666666667,37.52166666666667],[-121.81666666666666,37.5],[-121.81666666666666,37.5],[-121.81666666666666,37.5],[-121.81666666666666,37.5],[-122.05666666666666,37.51694444444444],[-122.05666666666666,37.51694444444444],[-122.16361111111112,37.55138888888889],[-122.16361111111112,37.55138888888889],[-122.21666666666667,37.56666666666667],[-122.21666666666667,37.56666666666667],[-122.26666666666667,37.583333333333336],[-122.26666666666667,37.583333333333336],[-122.26611111111112,37.58444444444444],[-122.31388888888888,37.598333333333336],[-122.35,37.61666666666667],[-122.35,37.61666666666667],[-122.35777777777777,37.61388888888889],[-122.35777777777777,37.61388888888889]],"type":"LineString"}
}
