{
  "id": 1981637139,
  "type": "Feature",
  "properties": {
    "geom:area": 0,
    "geom:bbox": "-123.492690,37.032920,-122.502730,37.670290",
    "geom:latitude": 37.35468165301083,
    "geom:longitude": -122.99914683069565,
    "src:alt_label": "swim-takeoff",
    "src:geom": "swim",
    "swim:elevations": [
      1281,
      1459,
      1680,
      2003,
      2706,
      3088,
      3323,
      3422,
      3733,
      3880,
      4436,
      4719,
      4946,
      5258,
      5622,
      5812,
      5967,
      6203,
      6498,
      6756,
      6922,
      6981,
      7285
    ],
    "swim:geom": "takeoff",
    "swim:timestamps": [
      1760116882,
      1760116905,
      1760116929,
      1760116950,
      1760116999,
      1760117023,
      1760117053,
      1760117074,
      1760117125,
      1760117135,
      1760117187,
      1760117214,
      1760117234,
      1760117270,
      1760117304,
      1760117329,
      1760117346,
      1760117381,
      1760117424,
      1760117455,
      1760117479,
      1760117494,
      1760117528
    ],
    "wof:geomhash": "313fc573e68f879bea1a04981f90b591",
    "wof:id": 1981637139,
    "wof:repo": "sfomuseum-data-flights-2025-10"
  },
  "bbox": [
    -123.49269,
    37.03292,
    -122.50273,
    37.67029
  ],
  "geometry": {"coordinates":[[-122.50273,37.67029],[-122.53103,37.66072],[-122.55741,37.64268],[-122.58081,37.62595],[-122.63901,37.58741],[-122.66751,37.56945],[-122.70331,37.5463],[-122.73173,37.52799],[-122.80464,37.48123],[-122.82094,37.47066],[-122.90333,37.41777],[-122.94634,37.3898],[-122.97944,37.36813],[-123.03757,37.33033],[-123.09473,37.29324],[-123.13586,37.26649],[-123.16624,37.24666],[-123.22568,37.20778],[-123.30236,37.15765],[-123.35894,37.12057],[-123.40244,37.09205],[-123.42047,37.0802],[-123.49269,37.03292]],"type":"LineString"}
}
