{
  "id": 1981707591,
  "type": "Feature",
  "properties": {
    "geom:area": 0,
    "geom:bbox": "-122.346040,36.733160,-121.886320,37.606510",
    "geom:latitude": 37.226088034447145,
    "geom:longitude": -122.1363392608127,
    "src:alt_label": "swim-approach",
    "src:geom": "swim",
    "swim:elevations": [
      5489,
      5096,
      4933,
      4816,
      4626,
      4396,
      4150,
      4090,
      3806,
      3342,
      3104,
      3048,
      3048,
      2980,
      2926,
      2712,
      2535,
      2318,
      2185,
      1915,
      1829,
      1829,
      1780,
      1565,
      1486,
      1223,
      1218,
      1219,
      1219,
      1219,
      1219,
      1096,
      1003,
      936,
      856,
      676,
      566,
      489,
      337,
      254,
      202,
      87,
      82
    ],
    "swim:geom": "approach",
    "swim:timestamps": [
      1760903204,
      1760903247,
      1760903265,
      1760903278,
      1760903306,
      1760903335,
      1760903366,
      1760903373,
      1760903403,
      1760903455,
      1760903483,
      1760903518,
      1760903534,
      1760903578,
      1760903585,
      1760903623,
      1760903660,
      1760903691,
      1760903707,
      1760903754,
      1760903787,
      1760903811,
      1760903831,
      1760903869,
      1760903884,
      1760903930,
      1760903945,
      1760903963,
      1760903978,
      1760904009,
      1760904035,
      1760904085,
      1760904103,
      1760904117,
      1760904135,
      1760904178,
      1760904201,
      1760904224,
      1760904261,
      1760904285,
      1760904301,
      1760904326,
      1760904332
    ],
    "wof:geomhash": "7e93fd517c4e4c1642964a32c90f5c4c",
    "wof:id": 1981707591,
    "wof:repo": "sfomuseum-data-flights-2025-10"
  },
  "bbox": [
    -122.34604,
    36.73316,
    -121.88632,
    37.60651
  ],
  "geometry": {"coordinates":[[-121.88632,36.73316],[-121.90985,36.79774],[-121.9253,36.82281],[-121.94307,36.83649],[-121.98268,36.86558],[-122.02219,36.89479],[-122.04319,36.93619],[-122.04643,36.94563],[-122.0609,36.98928],[-122.0843,37.06328],[-122.10511,37.10018],[-122.14794,37.1334],[-122.16563,37.1471],[-122.20923,37.1811],[-122.21692,37.18713],[-122.25132,37.21801],[-122.26416,37.25672],[-122.27439,37.28881],[-122.2797,37.30496],[-122.29349,37.35313],[-122.26187,37.37575],[-122.23254,37.3821],[-122.20934,37.38708],[-122.16577,37.39641],[-122.14892,37.4001],[-122.09999,37.41356],[-122.09199,37.42538],[-122.08374,37.43993],[-122.07683,37.45207],[-122.08468,37.47659],[-122.10151,37.49509],[-122.14398,37.52167],[-122.16181,37.52901],[-122.17517,37.5346],[-122.19265,37.54213],[-122.22987,37.55759],[-122.248,37.56541],[-122.2656,37.57276],[-122.2936,37.58456],[-122.31149,37.59204],[-122.32298,37.59687],[-122.34153,37.60464],[-122.34604,37.60651]],"type":"LineString"}
}
