{
  "id": 1997541471,
  "type": "Feature",
  "properties": {
    "geom:area": 0,
    "geom:bbox": "-122.352980,37.491690,-121.247320,37.611750",
    "geom:latitude": 37.54268439635823,
    "geom:longitude": -121.80713392994413,
    "src:alt_label": "swim-approach",
    "src:geom": "swim",
    "swim:elevations": [
      4510,
      4403,
      3987,
      3690,
      3562,
      3352,
      3353,
      3249,
      3200,
      3153,
      3074,
      2818,
      2616,
      2441,
      2439,
      2418,
      2239,
      2109,
      1977,
      1918,
      1645,
      1368,
      1194,
      1051,
      1032,
      789,
      659,
      614,
      587,
      456,
      335,
      246,
      124,
      55
    ],
    "swim:geom": "approach",
    "swim:timestamps": [
      1761903058,
      1761903072,
      1761903117,
      1761903148,
      1761903165,
      1761903207,
      1761903229,
      1761903256,
      1761903266,
      1761903272,
      1761903284,
      1761903318,
      1761903339,
      1761903365,
      1761903408,
      1761903427,
      1761903455,
      1761903491,
      1761903534,
      1761903545,
      1761903593,
      1761903625,
      1761903650,
      1761903687,
      1761903691,
      1761903740,
      1761903764,
      1761903776,
      1761903783,
      1761903809,
      1761903832,
      1761903858,
      1761903892,
      1761903912
    ],
    "wof:geomhash": "218c51cd6ac3941d0945a4ba22b14970",
    "wof:id": 1997541471,
    "wof:repo": "sfomuseum-data-flights-2025-10"
  },
  "bbox": [
    -122.35298,
    37.49169,
    -121.24732,
    37.61175
  ],
  "geometry": {"coordinates":[[-121.24732,37.59471],[-121.27563,37.59087],[-121.36675,37.58066],[-121.43013,37.57359],[-121.46218,37.56994],[-121.54124,37.5606],[-121.57883,37.55614],[-121.6191,37.55108],[-121.63417,37.54829],[-121.64271,37.54645],[-121.65967,37.54253],[-121.70541,37.53156],[-121.73386,37.52477],[-121.76913,37.51625],[-121.82799,37.50221],[-121.85271,37.49627],[-121.89179,37.49169],[-121.93885,37.49426],[-121.99088,37.49754],[-122.00368,37.49832],[-122.05775,37.50139],[-122.09376,37.50406],[-122.11981,37.51354],[-122.15658,37.52905],[-122.16061,37.53074],[-122.21051,37.55185],[-122.23455,37.56191],[-122.24655,37.5671],[-122.25324,37.57],[-122.27692,37.57984],[-122.29612,37.58786],[-122.31448,37.59563],[-122.33887,37.60583],[-122.35298,37.61175]],"type":"LineString"}
}
