{
  "id": 1981784973,
  "type": "Feature",
  "properties": {
    "geom:area": 0,
    "geom:bbox": "-122.380000,37.620000,-70.930000,43.140000",
    "geom:latitude": 41.77950853825946,
    "geom:longitude": -96.80027328593867,
    "src:alt_label": "swim-route",
    "src:geom": "swim",
    "swim:geom": "route",
    "wof:geomhash": "26938e10b0295ea88d173f5f66742c69",
    "wof:id": 1981784973,
    "wof:repo": "sfomuseum-data-flights-2025-10"
  },
  "bbox": [
    -122.38,
    37.62,
    -70.93,
    43.14
  ],
  "geometry": {"coordinates":[[-122.38,37.62],[-122.27,37.69],[-122.26,37.69],[-122.26,37.69],[-122.21,37.72],[-122.2,37.73],[-122.2,37.73],[-122.18,37.75],[-122.14,37.8],[-122.13,37.81],[-122.07,37.88],[-122.01,37.92],[-121.85,38.02],[-121.85,38.03],[-121.77,38.08],[-121.74,38.1],[-121.7,38.13],[-121.59,38.2],[-121.54,38.23],[-121.54,38.24],[-121.53,38.25],[-121.39,38.34],[-121.38,38.35],[-121.26,38.41],[-121.24,38.43],[-121.17,38.47],[-120.92,38.63],[-120.85,38.67],[-120.83,38.68],[-120.75,38.73],[-120.66,38.78],[-120.41,38.93],[-120.18,39.08],[-120.08,39.13],[-119.82,39.29],[-118.8,39.88],[-118.41,40.04],[-118.06,40.18],[-118.02,40.2],[-117.93,40.22],[-116.4,40.57],[-115.76,40.62],[-114.5,40.7],[-114.45,40.7],[-113.93,40.72],[-113.76,40.73],[-112.9,40.8],[-112.1,40.87],[-111.89,40.89],[-111.21,40.94],[-111.08,40.94],[-109.72,41.03],[-108.73,41.08],[-108.44,41.1],[-106.31,41.18],[-104.77,41.21],[-104.55,41.24],[-102.24,41.48],[-102.24,41.48],[-102,41.5],[-101.3,41.56],[-99.13,41.74],[-99.02,41.75],[-97.65,41.83],[-97.61,41.84],[-97.32,41.87],[-96.35,41.97],[-96,42],[-93.21,42.54],[-93.12,42.56],[-93.1,42.56],[-92.28,42.68],[-91.94,42.73],[-91.68,42.77],[-90,43],[-89.93,42.96],[-89.55,42.98],[-87,43.09],[-85,43.13],[-82.35,43.14],[-79.04,43.06],[-76.7,42.95],[-74.54,42.81],[-74.36,42.79],[-73.81,42.75],[-73.76,42.75],[-73.51,42.74],[-73.11,42.74],[-72.94,42.72],[-72.63,42.68],[-72.38,42.65],[-72.32,42.65],[-72.16,42.63],[-72.04,42.61],[-71.84,42.59],[-71.82,42.59],[-71.72,42.57],[-71.71,42.57],[-71.61,42.55],[-71.59,42.55],[-71.37,42.5],[-71.35,42.5],[-71.25,42.48],[-71.16,42.46],[-71.16,42.46],[-71.06,42.45],[-71.03,42.45],[-70.99,42.39],[-70.96,42.35],[-70.95,42.34],[-70.93,42.31],[-70.95,42.27],[-70.97,42.24],[-70.98,42.21],[-70.99,42.18],[-70.99,42.2],[-71,42.28],[-71.01,42.35],[-71.01,42.36]],"type":"LineString"}
}
