{
  "id": 1981785011,
  "type": "Feature",
  "properties": {
    "geom:area": 0,
    "geom:bbox": "-122.262520,36.730960,-121.313670,37.353720",
    "geom:latitude": 37.043312267575466,
    "geom:longitude": -121.7874545924347,
    "src:alt_label": "swim-takeoff",
    "src:geom": "swim",
    "swim:elevations": [
      4878,
      5050,
      5438,
      5515,
      5518,
      5693,
      5937,
      6189,
      6346,
      6529,
      6735,
      6930,
      7103,
      7362,
      7567,
      7822,
      8051,
      8496
    ],
    "swim:geom": "takeoff",
    "swim:timestamps": [
      1761584097,
      1761584112,
      1761584152,
      1761584163,
      1761584167,
      1761584207,
      1761584231,
      1761584269,
      1761584292,
      1761584318,
      1761584347,
      1761584371,
      1761584407,
      1761584454,
      1761584487,
      1761584514,
      1761584535,
      1761584574
    ],
    "wof:geomhash": "2c753b10401f583bfcd7efe30e625c66",
    "wof:id": 1981785011,
    "wof:repo": "sfomuseum-data-flights-2025-10"
  },
  "bbox": [
    -122.26252,
    36.73096,
    -121.31367,
    37.35372
  ],
  "geometry": {"coordinates":[[-122.26252,37.35372],[-122.23812,37.33777],[-122.16907,37.29292],[-122.14929,37.28003],[-122.14247,37.27562],[-122.06805,37.2272],[-122.02194,37.1972],[-121.9486,37.14915],[-121.90281,37.11942],[-121.84948,37.08467],[-121.79205,37.04699],[-121.74272,37.01469],[-121.66839,36.96585],[-121.56745,36.89929],[-121.49772,36.85323],[-121.44008,36.81559],[-121.39508,36.78544],[-121.31367,36.73096]],"type":"LineString"}
}
