{
  "id": 1981735853,
  "type": "Feature",
  "properties": {
    "geom:area": 0,
    "geom:bbox": "-122.350140,37.491160,-121.305560,37.610790",
    "geom:latitude": 37.54381058458154,
    "geom:longitude": -121.83239447550505,
    "src:alt_label": "swim-approach",
    "src:geom": "swim",
    "swim:elevations": [
      4938,
      4718,
      4185,
      3861,
      3649,
      3154,
      3047,
      3048,
      2974,
      2664,
      2485,
      2251,
      2100,
      2012,
      1911,
      1736,
      1601,
      1426,
      1188,
      964,
      843,
      701,
      575,
      501,
      406,
      258,
      146,
      62
    ],
    "swim:geom": "approach",
    "swim:timestamps": [
      1761154406,
      1761154427,
      1761154463,
      1761154490,
      1761154506,
      1761154553,
      1761154572,
      1761154586,
      1761154614,
      1761154644,
      1761154662,
      1761154697,
      1761154723,
      1761154745,
      1761154776,
      1761154807,
      1761154832,
      1761154860,
      1761154906,
      1761154946,
      1761154974,
      1761155006,
      1761155038,
      1761155058,
      1761155081,
      1761155118,
      1761155152,
      1761155171
    ],
    "wof:geomhash": "6f6140c5d188e20eec172cd6dc65a186",
    "wof:id": 1981735853,
    "wof:repo": "sfomuseum-data-flights-2025-10"
  },
  "bbox": [
    -122.35014,
    37.49116,
    -121.30556,
    37.61079
  ],
  "geometry": {"coordinates":[[-121.30556,37.58702],[-121.35109,37.5823],[-121.4271,37.57398],[-121.48365,37.56747],[-121.51636,37.56352],[-121.61521,37.55187],[-121.64962,37.54474],[-121.67668,37.53835],[-121.72212,37.52741],[-121.76977,37.51609],[-121.79691,37.50959],[-121.85019,37.49627],[-121.88958,37.49116],[-121.92051,37.49188],[-121.96396,37.49275],[-122.00513,37.49987],[-122.03545,37.51001],[-122.07076,37.52123],[-122.12335,37.53884],[-122.16528,37.55182],[-122.1926,37.56069],[-122.22035,37.57001],[-122.24738,37.57874],[-122.26349,37.5838],[-122.28093,37.58869],[-122.30974,37.59744],[-122.33573,37.60552],[-122.35014,37.61079]],"type":"LineString"}
}
