{
  "id": 1981733873,
  "type": "Feature",
  "properties": {
    "geom:area": 0,
    "geom:bbox": "-122.390000,37.620000,-114.020000,51.140000",
    "geom:latitude": 45.036597314565455,
    "geom:longitude": -119.23466537704147,
    "src:alt_label": "swim-route",
    "src:geom": "swim",
    "swim:geom": "route",
    "wof:geomhash": "a8dd1e6851efe6e084c5084d2d768e02",
    "wof:id": 1981733873,
    "wof:repo": "sfomuseum-data-flights-2025-10"
  },
  "bbox": [
    -122.39,
    37.62,
    -114.02,
    51.14
  ],
  "geometry": {"coordinates":[[-122.38,37.62],[-122.3,37.68],[-122.31,37.7],[-122.31,37.7],[-122.34,37.75],[-122.34,37.76],[-122.35,37.76],[-122.36,37.79],[-122.38,37.83],[-122.39,37.85],[-122.39,37.85],[-122.38,37.94],[-122.35,37.99],[-122.29,38.08],[-122.25,38.14],[-122.11,38.34],[-122.11,38.36],[-122.1,38.44],[-122.08,38.57],[-122.08,38.63],[-122.05,38.84],[-122.04,38.91],[-122.03,38.99],[-122.02,39.03],[-122.02,39.07],[-122,39.24],[-121.94,39.71],[-121.91,39.95],[-121.84,40.43],[-121.81,40.67],[-121.75,41.14],[-121.5,42.88],[-121.45,43.24],[-121.32,44.14],[-121.3,44.25],[-121.29,44.27],[-120.48,45.04],[-119.65,45.8],[-118.76,46.59],[-118.35,46.95],[-117.94,47.3],[-117.63,47.56],[-116.27,48.95],[-116.22,49],[-116.2,49.01],[-115.86,49.35],[-115.77,49.45],[-115.57,49.68],[-115.52,49.75],[-115.4,49.88],[-115.29,50],[-115.29,50.01],[-115.2,50.11],[-115.19,50.12],[-115.06,50.26],[-114.76,50.59],[-114.67,50.69],[-114.67,50.7],[-114.66,50.71],[-114.57,50.76],[-114.56,50.77],[-114.5,50.81],[-114.48,50.82],[-114.33,50.92],[-114.29,50.99],[-114.23,51.09],[-114.28,51.11],[-114.31,51.12],[-114.36,51.14],[-114.33,51.14],[-114.28,51.13],[-114.15,51.12],[-114.02,51.11]],"type":"LineString"}
}
