{
  "id": 1997542879,
  "type": "Feature",
  "properties": {
    "geom:area": 0,
    "geom:bbox": "-122.752260,37.548590,-122.096230,38.172750",
    "geom:latitude": 37.757391829808334,
    "geom:longitude": -122.42661935351632,
    "src:alt_label": "swim-approach",
    "src:geom": "swim",
    "swim:elevations": [
      6012,
      5815,
      5160,
      4614,
      3978,
      3725,
      3582,
      3509,
      3170,
      2853,
      2139,
      2038,
      1842,
      1734,
      1681,
      1257,
      1113,
      922,
      757,
      644,
      547,
      454,
      317,
      245,
      119,
      0
    ],
    "swim:geom": "approach",
    "swim:timestamps": [
      1761930526,
      1761930546,
      1761930611,
      1761930665,
      1761930728,
      1761930764,
      1761930785,
      1761930801,
      1761930902,
      1761930943,
      1761931017,
      1761931028,
      1761931050,
      1761931108,
      1761931114,
      1761931164,
      1761931183,
      1761931213,
      1761931247,
      1761931280,
      1761931312,
      1761931333,
      1761931368,
      1761931387,
      1761931415,
      1761931443
    ],
    "wof:geomhash": "297a758010128a0f2019cbfff192e817",
    "wof:id": 1997542879,
    "wof:repo": "sfomuseum-data-flights-2025-10"
  },
  "bbox": [
    -122.75226,
    37.54859,
    -122.09623,
    38.17275
  ],
  "geometry": {"coordinates":[[-122.75226,38.17275],[-122.74233,38.13815],[-122.71014,38.02673],[-122.6845,37.93821],[-122.61822,37.84769],[-122.57174,37.80356],[-122.54662,37.77989],[-122.52684,37.76158],[-122.38997,37.70028],[-122.33669,37.67949],[-122.24502,37.64387],[-122.23071,37.63898],[-122.20212,37.63007],[-122.12937,37.60721],[-122.12229,37.60504],[-122.09623,37.56162],[-122.11581,37.54859],[-122.15278,37.55181],[-122.18957,37.56028],[-122.22203,37.57062],[-122.25162,37.58015],[-122.27036,37.58584],[-122.30018,37.59441],[-122.31668,37.59934],[-122.33973,37.6065],[-122.3611,37.61476]],"type":"LineString"}
}
