{
  "id": 1981789287,
  "type": "Feature",
  "properties": {
    "geom:area": 0,
    "geom:bbox": "-123.216667,37.571944,-122.184444,47.381944",
    "geom:latitude": 42.55930088986708,
    "geom:longitude": -122.97934756072955,
    "src:alt_label": "swim-path",
    "src:geom": "swim",
    "swim:altitudes": [
      "039",
      "039",
      "039",
      "039",
      "070",
      "070",
      "070",
      "077",
      "077",
      "077",
      "109",
      "202",
      "202",
      "202",
      "202",
      "202",
      "245",
      "245",
      "245",
      "245",
      "294",
      "294",
      "294",
      "294",
      "294",
      "294",
      "294",
      "294",
      "340",
      "356",
      "356",
      "356",
      "371",
      "371",
      "371",
      "390C",
      "390C",
      "390C",
      "390C",
      "390C",
      "390C",
      "390C",
      "390C",
      "390C",
      "390C",
      "390C",
      "390C",
      "390C",
      "390C",
      "390C",
      "390C",
      "390C",
      "390C",
      "390C",
      "390C",
      "390C",
      "390C",
      "390C",
      "390C",
      "390C",
      "390C",
      "390C",
      "390C",
      "390C",
      "390C",
      "390C",
      "390C",
      "390C",
      "390C",
      "390C",
      "390C",
      "390C",
      "390C",
      "390C",
      "390C",
      "390C",
      "390C",
      "390C",
      "390C",
      "390C",
      "390C",
      "390C",
      "390C",
      "390C",
      "390C",
      "390C",
      "390C",
      "390C",
      "390C",
      "390C",
      "390C",
      "390C",
      "390C",
      "390C",
      "390C",
      "390C",
      "390C",
      "390C",
      "390C",
      "390C",
      "390C",
      "390C",
      "390C",
      "390",
      "390",
      "390",
      "388",
      "388",
      "388",
      "388",
      "378",
      "378",
      "378",
      "279",
      "279",
      "279",
      "279",
      "279",
      "279",
      "166",
      "166",
      "166",
      "166",
      "166",
      "138",
      "138",
      "129",
      "113",
      "113",
      "113",
      "113",
      "110C",
      "110C",
      "107",
      "086",
      "077",
      "077",
      "058",
      "058",
      "058",
      "058",
      "034",
      "013",
      "013",
      "013",
      "006",
      "002",
      "002",
      "002",
      "002",
      "002",
      "002",
      "002"
    ],
    "swim:geom": "path",
    "swim:speeds": [
      191,
      191,
      191,
      191,
      248,
      248,
      248,
      248,
      248,
      248,
      250,
      343,
      343,
      343,
      343,
      343,
      381,
      381,
      381,
      381,
      409,
      409,
      409,
      409,
      409,
      409,
      409,
      409,
      413,
      413,
      413,
      413,
      405,
      405,
      405,
      400,
      400,
      400,
      400,
      397,
      397,
      397,
      397,
      397,
      397,
      397,
      397,
      397,
      398,
      398,
      398,
      398,
      399,
      399,
      399,
      399,
      399,
      399,
      415,
      415,
      415,
      415,
      415,
      415,
      416,
      416,
      417,
      417,
      418,
      418,
      418,
      416,
      416,
      416,
      416,
      415,
      415,
      415,
      415,
      415,
      411,
      411,
      411,
      414,
      414,
      415,
      415,
      415,
      417,
      418,
      418,
      418,
      419,
      419,
      419,
      419,
      420,
      421,
      421,
      421,
      421,
      421,
      424,
      427,
      427,
      427,
      428,
      428,
      428,
      428,
      428,
      428,
      428,
      396,
      396,
      396,
      396,
      396,
      396,
      355,
      355,
      355,
      355,
      355,
      349,
      349,
      348,
      304,
      304,
      304,
      304,
      264,
      264,
      253,
      247,
      246,
      246,
      240,
      240,
      240,
      240,
      205,
      175,
      175,
      175,
      155,
      136,
      136,
      136,
      136,
      136,
      136,
      136
    ],
    "swim:timestamps": [
      1761692642,
      1761692642,
      1761692642,
      1761692642,
      1761692771,
      1761692771,
      1761692771,
      1761692831,
      1761692831,
      1761692831,
      1761692891,
      1761693132,
      1761693132,
      1761693132,
      1761693132,
      1761693132,
      1761693252,
      1761693252,
      1761693252,
      1761693252,
      1761693432,
      1761693432,
      1761693432,
      1761693432,
      1761693432,
      1761693432,
      1761693432,
      1761693432,
      1761693612,
      1761693672,
      1761693672,
      1761693672,
      1761693732,
      1761693732,
      1761693732,
      1761693853,
      1761693853,
      1761693853,
      1761693853,
      1761694090,
      1761694090,
      1761694090,
      1761694150,
      1761694150,
      1761694150,
      1761694150,
      1761694150,
      1761694150,
      1761694270,
      1761694270,
      1761694270,
      1761694270,
      1761694571,
      1761694571,
      1761694571,
      1761694571,
      1761694571,
      1761694571,
      1761695320,
      1761695320,
      1761695320,
      1761695320,
      1761695320,
      1761695320,
      1761695352,
      1761695352,
      1761695412,
      1761695412,
      1761695440,
      1761695440,
      1761695440,
      1761695560,
      1761695680,
      1761695680,
      1761695680,
      1761695741,
      1761695741,
      1761695741,
      1761695741,
      1761695741,
      1761696013,
      1761696041,
      1761696041,
      1761696161,
      1761696161,
      1761696221,
      1761696221,
      1761696221,
      1761696313,
      1761696341,
      1761696341,
      1761696341,
      1761696493,
      1761696493,
      1761696493,
      1761696493,
      1761696522,
      1761696762,
      1761696762,
      1761696794,
      1761696794,
      1761696794,
      1761696942,
      1761697062,
      1761697062,
      1761697062,
      1761697094,
      1761697094,
      1761697094,
      1761697094,
      1761697154,
      1761697154,
      1761697154,
      1761697663,
      1761697663,
      1761697663,
      1761697663,
      1761697663,
      1761697663,
      1761697963,
      1761697963,
      1761697963,
      1761697963,
      1761697963,
      1761698083,
      1761698083,
      1761698110,
      1761698203,
      1761698203,
      1761698203,
      1761698203,
      1761698263,
      1761698263,
      1761698290,
      1761698350,
      1761698384,
      1761698384,
      1761698444,
      1761698444,
      1761698444,
      1761698444,
      1761698564,
      1761698644,
      1761698644,
      1761698644,
      1761698684,
      1761698710,
      1761698710,
      1761698710,
      1761698710,
      1761698710,
      1761698710,
      1761698710
    ],
    "wof:geomhash": "7232bc32787b0e640b9d8b9757a89570",
    "wof:id": 1981789287,
    "wof:repo": "sfomuseum-data-flights-2025-10"
  },
  "bbox": [
    -123.21666666666667,
    37.57194444444445,
    -122.18444444444445,
    47.38194444444444
  ],
  "geometry": {"coordinates":[[-122.31027777777777,47.38194444444444],[-122.31027777777777,47.38194444444444],[-122.31027777777777,47.38194444444444],[-122.31027777777777,47.38194444444444],[-122.43166666666667,47.30694444444444],[-122.43166666666667,47.30694444444444],[-122.43166666666667,47.30694444444444],[-122.53388888888888,47.30888888888889],[-122.53388888888888,47.30888888888889],[-122.53388888888888,47.30888888888889],[-122.63555555555556,47.312777777777775],[-123.09888888888888,47.19361111111111],[-123.09888888888888,47.19361111111111],[-123.09888888888888,47.19361111111111],[-123.09888888888888,47.19361111111111],[-123.09888888888888,47.19361111111111],[-123.21666666666667,47.02861111111111],[-123.21666666666667,47.02861111111111],[-123.21666666666667,47.02861111111111],[-123.21666666666667,47.02861111111111],[-123.20583333333333,46.69416666666666],[-123.20583333333333,46.69416666666666],[-123.20583333333333,46.69416666666666],[-123.20583333333333,46.69416666666666],[-123.20583333333333,46.69416666666666],[-123.20583333333333,46.69416666666666],[-123.20583333333333,46.69416666666666],[-123.20583333333333,46.69416666666666],[-123.19388888888889,46.337500000000006],[-123.19027777777778,46.223888888888894],[-123.19027777777778,46.223888888888894],[-123.19027777777778,46.223888888888894],[-123.18666666666667,46.111666666666665],[-123.18666666666667,46.111666666666665],[-123.18666666666667,46.111666666666665],[-123.17972222222222,45.88972222222222],[-123.17972222222222,45.88972222222222],[-123.17972222222222,45.88972222222222],[-123.17972222222222,45.88972222222222],[-123.16555555555556,45.45027777777778],[-123.16555555555556,45.45027777777778],[-123.16555555555556,45.45027777777778],[-123.16222222222223,45.33916666666667],[-123.16222222222223,45.33916666666667],[-123.16222222222223,45.33916666666667],[-123.16222222222223,45.33916666666667],[-123.16222222222223,45.33916666666667],[-123.16222222222223,45.33916666666667],[-123.15527777777778,45.11666666666667],[-123.15527777777778,45.11666666666667],[-123.15527777777778,45.11666666666667],[-123.15527777777778,45.11666666666667],[-123.13777777777779,44.55722222222222],[-123.13777777777779,44.55722222222222],[-123.13777777777779,44.55722222222222],[-123.13777777777779,44.55722222222222],[-123.13777777777779,44.55722222222222],[-123.13777777777779,44.55722222222222],[-123.08583333333333,43.15],[-123.08583333333333,43.15],[-123.08583333333333,43.15],[-123.08583333333333,43.15],[-123.08583333333333,43.15],[-123.08583333333333,43.15],[-123.08638888888889,43.08111111111111],[-123.08638888888889,43.08111111111111],[-123.08222222222221,42.96527777777778],[-123.08222222222221,42.96527777777778],[-123.08111111111111,42.91777777777777],[-123.08111111111111,42.91777777777777],[-123.08111111111111,42.91777777777777],[-123.07249999999999,42.6875],[-123.06333333333333,42.45805555555556],[-123.06333333333333,42.45805555555556],[-123.06333333333333,42.45805555555556],[-123.0611111111111,42.33083333333334],[-123.0611111111111,42.33083333333334],[-123.0611111111111,42.33083333333334],[-123.0611111111111,42.33083333333334],[-123.0611111111111,42.33083333333334],[-123.04444444444444,41.82222222222222],[-123.04305555555555,41.77611111111111],[-123.04305555555555,41.77611111111111],[-123.03583333333333,41.546388888888885],[-123.03583333333333,41.546388888888885],[-123.03166666666667,41.406666666666666],[-123.03166666666667,41.406666666666666],[-123.03166666666667,41.406666666666666],[-123.02638888888889,41.24277777777778],[-123.02472222222222,41.184999999999995],[-123.02472222222222,41.184999999999995],[-123.02472222222222,41.184999999999995],[-123.01583333333333,40.893055555555556],[-123.01583333333333,40.893055555555556],[-123.01583333333333,40.893055555555556],[-123.01583333333333,40.893055555555556],[-123.01444444444445,40.844722222222224],[-123.00027777777778,40.37027777777778],[-123.00027777777778,40.37027777777778],[-122.99805555555555,40.29944444444444],[-122.99805555555555,40.29944444444444],[-122.99805555555555,40.29944444444444],[-122.99,40.01861111111111],[-122.98305555555555,39.782222222222224],[-122.98305555555555,39.782222222222224],[-122.98305555555555,39.782222222222224],[-122.98111111111112,39.71027777777778],[-122.98111111111112,39.71027777777778],[-122.98111111111112,39.71027777777778],[-122.98111111111112,39.71027777777778],[-122.9775,39.59055555555556],[-122.9775,39.59055555555556],[-122.9775,39.59055555555556],[-122.87277777777777,38.58166666666667],[-122.87277777777777,38.58166666666667],[-122.87277777777777,38.58166666666667],[-122.87277777777777,38.58166666666667],[-122.87277777777777,38.58166666666667],[-122.87277777777777,38.58166666666667],[-122.72444444444444,38.07694444444445],[-122.72444444444444,38.07694444444445],[-122.72444444444444,38.07694444444445],[-122.72444444444444,38.07694444444445],[-122.72444444444444,38.07694444444445],[-122.65138888888889,37.87861111111111],[-122.65138888888889,37.87861111111111],[-122.61666666666666,37.85],[-122.50527777777778,37.74055555555556],[-122.50527777777778,37.74055555555556],[-122.50527777777778,37.74055555555556],[-122.50527777777778,37.74055555555556],[-122.42666666666668,37.70194444444445],[-122.42666666666668,37.70194444444445],[-122.38333333333334,37.68333333333333],[-122.3,37.666666666666664],[-122.26222222222222,37.65611111111111],[-122.26222222222222,37.65611111111111],[-122.18444444444445,37.63388888888889],[-122.18444444444445,37.63388888888889],[-122.18444444444445,37.63388888888889],[-122.18444444444445,37.63388888888889],[-122.20833333333334,37.57194444444445],[-122.3,37.6],[-122.3,37.6],[-122.3,37.6],[-122.32777777777777,37.6025],[-122.35,37.61666666666667],[-122.35,37.61666666666667],[-122.35,37.61666666666667],[-122.35,37.61666666666667],[-122.35,37.61666666666667],[-122.35,37.61666666666667],[-122.35,37.61666666666667]],"type":"LineString"}
}
