{
  "id": 1981802447,
  "type": "Feature",
  "properties": {
    "geom:area": 0,
    "geom:bbox": "-122.380000,37.490000,-75.240000,41.890000",
    "geom:latitude": 40.581739840562086,
    "geom:longitude": -98.77838896913576,
    "src:alt_label": "swim-route",
    "src:geom": "swim",
    "swim:geom": "route",
    "wof:geomhash": "31c7ae5de632fb9786a10335c4c42560",
    "wof:id": 1981802447,
    "wof:repo": "sfomuseum-data-flights-2025-10"
  },
  "bbox": [
    -122.38,
    37.49,
    -75.24,
    41.89
  ],
  "geometry": {"coordinates":[[-75.24,39.87],[-75.29,39.93],[-75.32,39.96],[-75.35,39.99],[-75.37,40.02],[-75.4,40.04],[-75.42,40.07],[-75.45,40.1],[-75.46,40.11],[-75.48,40.13],[-75.5,40.15],[-75.5,40.16],[-75.55,40.21],[-75.56,40.22],[-75.57,40.23],[-75.7,40.32],[-75.71,40.32],[-75.73,40.34],[-75.8,40.38],[-75.88,40.43],[-75.89,40.44],[-76.37,40.52],[-76.52,40.54],[-76.6,40.55],[-76.62,40.56],[-76.72,40.59],[-77.28,40.73],[-77.71,40.84],[-77.86,40.88],[-77.99,40.92],[-78.08,40.93],[-78.19,40.94],[-78.43,40.97],[-78.7,41],[-78.9,41.03],[-79.3,41.07],[-79.5,41.09],[-80.16,41.17],[-80.42,41.19],[-80.88,41.24],[-81.58,41.31],[-81.93,41.34],[-82.16,41.36],[-82.75,41.43],[-84.75,41.63],[-85.28,41.68],[-86.09,41.73],[-87,41.77],[-87.73,41.81],[-88.55,41.83],[-88.9,41.85],[-90.47,41.88],[-90.62,41.88],[-90.76,41.88],[-91.63,41.89],[-92.93,41.89],[-93.38,41.89],[-93.94,41.88],[-94.56,41.87],[-96.23,41.83],[-96.33,41.82],[-98.94,41.6],[-99.03,41.59],[-100.48,41.43],[-101.3,41.34],[-102.89,41.14],[-103.42,41.07],[-104.58,40.9],[-104.77,40.87],[-105.32,40.79],[-108.45,40.25],[-109.16,40.12],[-110.56,39.84],[-111.11,39.72],[-112.22,39.48],[-113.32,39.23],[-115.6,38.67],[-116.08,38.57],[-117.28,38.33],[-117.28,38.33],[-118.76,37.9],[-118.86,37.88],[-118.99,37.87],[-119.1,37.86],[-119.38,37.82],[-119.72,37.78],[-119.82,37.77],[-119.92,37.76],[-120.02,37.75],[-120.31,37.71],[-120.4,37.7],[-120.4,37.7],[-120.57,37.68],[-120.69,37.67],[-120.75,37.66],[-120.79,37.65],[-120.8,37.65],[-120.96,37.63],[-121,37.63],[-121.01,37.63],[-121.07,37.62],[-121.17,37.61],[-121.26,37.59],[-121.39,37.58],[-121.41,37.58],[-121.6,37.55],[-121.61,37.55],[-121.62,37.55],[-121.72,37.53],[-121.8,37.51],[-121.88,37.49],[-121.89,37.49],[-122.01,37.53],[-122.08,37.54],[-122.18,37.57],[-122.18,37.57],[-122.28,37.59],[-122.33,37.61],[-122.36,37.61],[-122.38,37.62]],"type":"LineString"}
}
