{
  "id": 1981727417,
  "type": "Feature",
  "properties": {
    "geom:area": 0,
    "geom:bbox": "-122.380000,33.640000,-84.280000,38.330000",
    "geom:latitude": 36.482704063660805,
    "geom:longitude": -103.15270561125253,
    "src:alt_label": "swim-route",
    "src:geom": "swim",
    "swim:geom": "route",
    "wof:geomhash": "727007aa297045d55ede51be8ecb3be8",
    "wof:id": 1981727417,
    "wof:repo": "sfomuseum-data-flights-2025-10"
  },
  "bbox": [
    -122.38,
    33.64,
    -84.28,
    38.33
  ],
  "geometry": {"coordinates":[[-84.43,33.64],[-84.28,33.68],[-84.28,33.81],[-84.53,33.81],[-84.61,33.8],[-84.62,33.8],[-85.22,33.7],[-85.23,33.7],[-85.4,33.7],[-86.04,33.69],[-86.07,33.69],[-86.42,33.72],[-87.48,33.79],[-87.58,33.81],[-88.59,34.02],[-89.1,34.12],[-89.35,34.17],[-90.12,34.31],[-90.43,34.37],[-90.89,34.45],[-91.35,34.54],[-91.75,34.6],[-92.18,34.68],[-92.63,34.83],[-93.08,34.99],[-93.53,35.14],[-94.27,35.39],[-95,35.55],[-96.17,35.79],[-97.75,36.1],[-98.72,36.28],[-99.7,36.45],[-100,36.5],[-101.96,36.76],[-102.14,36.78],[-102.49,36.83],[-103.82,36.98],[-103.91,36.99],[-104,37],[-104.09,37.02],[-105.82,37.35],[-106.24,37.42],[-107.31,37.58],[-107.54,37.61],[-107.77,37.65],[-108.93,37.81],[-109.08,37.82],[-110.55,37.97],[-112.35,38.12],[-114.02,38.23],[-114.39,38.25],[-114.96,38.33],[-116.33,38.33],[-117.27,38.17],[-118.76,37.9],[-119.1,37.86],[-119.99,37.75],[-120.04,37.74],[-120.26,37.72],[-120.28,37.72],[-120.38,37.7],[-120.4,37.7],[-120.75,37.66],[-120.78,37.66],[-120.83,37.65],[-120.96,37.63],[-121,37.63],[-121.08,37.62],[-121.18,37.6],[-121.26,37.59],[-121.39,37.58],[-121.41,37.58],[-121.6,37.55],[-121.61,37.55],[-121.62,37.55],[-121.7,37.53],[-121.8,37.51],[-121.83,37.5],[-121.88,37.49],[-122.08,37.54],[-122.14,37.56],[-122.18,37.57],[-122.28,37.59],[-122.33,37.61],[-122.36,37.61],[-122.38,37.62]],"type":"LineString"}
}
