{
  "id": 1997538929,
  "type": "Feature",
  "properties": {
    "geom:area": 0,
    "geom:bbox": "-158.183333,20.816667,-122.464722,37.657778",
    "geom:latitude": 28.196559436549652,
    "geom:longitude": -140.18525263505794,
    "src:alt_label": "swim-path",
    "src:geom": "swim",
    "swim:altitudes": [
      "030",
      "030",
      "030",
      "030",
      "158",
      "158",
      "158",
      "158",
      "196",
      "196",
      "196",
      "196",
      "213",
      "213",
      "230",
      "230",
      "230",
      "261",
      "261",
      "261",
      "261",
      "350",
      "350",
      "350",
      "360C",
      "360C",
      "360C",
      "360C",
      "360C",
      "360C",
      "360C",
      "360C",
      "360C",
      "360C",
      "360C",
      "360C",
      "360C",
      "360C",
      "360C",
      "360C",
      "360C",
      "360C",
      "360C",
      "380",
      "380",
      "380",
      "380",
      "380",
      "360T",
      "360T",
      "360T",
      "360T",
      "360T",
      "360T",
      "360T",
      "360T",
      "360T",
      "360T",
      "360T",
      "360T",
      "360T",
      "360T",
      "360T",
      "360T",
      "360T",
      "360T",
      "360T",
      "360T",
      "360T",
      "360T",
      "360T",
      "360T",
      "352T",
      "352T",
      "327T",
      "327T",
      "327T",
      "327T",
      "327T",
      "327T",
      "280T",
      "280T",
      "280T",
      "280T",
      "279T",
      "279T",
      "279T",
      "172T",
      "172T",
      "122T",
      "122T",
      "122T",
      "122T",
      "122T",
      "122T",
      "030T",
      "030T",
      "030T",
      "028T",
      "028T",
      "028T",
      "017T",
      "017T",
      "017T",
      "003",
      "003",
      "003",
      "003",
      "003",
      "003"
    ],
    "swim:geom": "path",
    "swim:speeds": [
      184,
      184,
      184,
      184,
      387,
      387,
      387,
      387,
      407,
      407,
      407,
      407,
      414,
      414,
      423,
      423,
      423,
      439,
      439,
      439,
      439,
      461,
      461,
      461,
      457,
      457,
      457,
      457,
      457,
      452,
      452,
      452,
      452,
      452,
      452,
      452,
      451,
      451,
      451,
      451,
      451,
      451,
      451,
      430,
      430,
      430,
      430,
      430,
      420,
      420,
      420,
      420,
      420,
      420,
      420,
      420,
      420,
      420,
      420,
      420,
      420,
      420,
      420,
      420,
      420,
      420,
      420,
      430,
      430,
      430,
      430,
      430,
      430,
      430,
      440,
      440,
      440,
      440,
      440,
      440,
      450,
      450,
      450,
      450,
      440,
      440,
      440,
      420,
      420,
      390,
      390,
      390,
      390,
      390,
      390,
      230,
      230,
      230,
      170,
      170,
      170,
      180,
      180,
      180,
      140,
      140,
      140,
      140,
      140,
      140
    ],
    "swim:timestamps": [
      1761858326,
      1761858326,
      1761858326,
      1761858326,
      1761858747,
      1761858747,
      1761858747,
      1761858747,
      1761858867,
      1761858867,
      1761858867,
      1761858867,
      1761858927,
      1761858927,
      1761858987,
      1761858987,
      1761858987,
      1761859107,
      1761859107,
      1761859107,
      1761859107,
      1761859528,
      1761859528,
      1761859528,
      1761859648,
      1761859648,
      1761859648,
      1761859648,
      1761859648,
      1761859828,
      1761859828,
      1761859828,
      1761859828,
      1761859828,
      1761859828,
      1761859828,
      1761860068,
      1761860068,
      1761860068,
      1761860068,
      1761860068,
      1761860129,
      1761860129,
      1761872829,
      1761872829,
      1761872829,
      1761872829,
      1761872829,
      1761873129,
      1761873129,
      1761873129,
      1761873129,
      1761873310,
      1761873310,
      1761873310,
      1761873310,
      1761873430,
      1761873430,
      1761873430,
      1761873430,
      1761874030,
      1761874030,
      1761874090,
      1761874090,
      1761874090,
      1761874090,
      1761874090,
      1761874390,
      1761874390,
      1761874390,
      1761874390,
      1761874390,
      1761874631,
      1761874631,
      1761874751,
      1761874751,
      1761874751,
      1761874751,
      1761874751,
      1761874751,
      1761875171,
      1761875171,
      1761875171,
      1761875171,
      1761875292,
      1761875292,
      1761875292,
      1761875712,
      1761875712,
      1761875832,
      1761875832,
      1761875832,
      1761875832,
      1761875832,
      1761875832,
      1761876313,
      1761876313,
      1761876313,
      1761876433,
      1761876433,
      1761876433,
      1761876493,
      1761876493,
      1761876493,
      1761876596,
      1761876596,
      1761876596,
      1761876596,
      1761876596,
      1761876596
    ],
    "wof:geomhash": "63eb6ea47ae997793cb69616b2d42c3f",
    "wof:id": 1997538929,
    "wof:repo": "sfomuseum-data-flights-2025-10"
  },
  "bbox": [
    -158.18333333333334,
    20.816666666666666,
    -122.46472222222222,
    37.657777777777774
  ],
  "geometry": {"coordinates":[[-122.46472222222222,37.657777777777774],[-122.46472222222222,37.657777777777774],[-122.46472222222222,37.657777777777774],[-122.46472222222222,37.657777777777774],[-123.08277777777778,37.35611111111111],[-123.08277777777778,37.35611111111111],[-123.08277777777778,37.35611111111111],[-123.08277777777778,37.35611111111111],[-123.3275,37.24277777777778],[-123.3275,37.24277777777778],[-123.3275,37.24277777777778],[-123.3275,37.24277777777778],[-123.45222222222222,37.18472222222222],[-123.45222222222222,37.18472222222222],[-123.57944444444443,37.12555555555556],[-123.57944444444443,37.12555555555556],[-123.57944444444443,37.12555555555556],[-123.84222222222222,37.00222222222222],[-123.84222222222222,37.00222222222222],[-123.84222222222222,37.00222222222222],[-123.84222222222222,37.00222222222222],[-124.79805555555555,36.54527777777778],[-124.79805555555555,36.54527777777778],[-124.79805555555555,36.54527777777778],[-125.06777777777778,36.413888888888884],[-125.06777777777778,36.413888888888884],[-125.06777777777778,36.413888888888884],[-125.06777777777778,36.413888888888884],[-125.06777777777778,36.413888888888884],[-125.46583333333334,36.21805555555556],[-125.46583333333334,36.21805555555556],[-125.46583333333334,36.21805555555556],[-125.46583333333334,36.21805555555556],[-125.46583333333334,36.21805555555556],[-125.46583333333334,36.21805555555556],[-125.46583333333334,36.21805555555556],[-125.99166666666667,35.95611111111111],[-125.99166666666667,35.95611111111111],[-125.99166666666667,35.95611111111111],[-125.99166666666667,35.95611111111111],[-125.99166666666667,35.95611111111111],[-126.12277777777777,35.89],[-126.12277777777777,35.89],[-151.41666666666666,21.583333333333332],[-151.41666666666666,21.583333333333332],[-151.41666666666666,21.583333333333332],[-151.41666666666666,21.583333333333332],[-151.41666666666666,21.583333333333332],[-152.01666666666668,21.45],[-152.01666666666668,21.45],[-152.01666666666668,21.45],[-152.01666666666668,21.45],[-152.4,21.4],[-152.4,21.4],[-152.4,21.4],[-152.4,21.4],[-152.63333333333333,21.366666666666667],[-152.63333333333333,21.366666666666667],[-152.63333333333333,21.366666666666667],[-152.63333333333333,21.366666666666667],[-153.88333333333333,21.2],[-153.88333333333333,21.2],[-154,21.183333333333334],[-154,21.183333333333334],[-154,21.183333333333334],[-154,21.183333333333334],[-154,21.183333333333334],[-154.63333333333333,21.1],[-154.63333333333333,21.1],[-154.63333333333333,21.1],[-154.63333333333333,21.1],[-154.63333333333333,21.1],[-155.13333333333333,21.033333333333335],[-155.13333333333333,21.033333333333335],[-155.38333333333333,20.983333333333334],[-155.38333333333333,20.983333333333334],[-155.38333333333333,20.983333333333334],[-155.38333333333333,20.983333333333334],[-155.38333333333333,20.983333333333334],[-155.38333333333333,20.983333333333334],[-156.31666666666666,20.85],[-156.31666666666666,20.85],[-156.31666666666666,20.85],[-156.31666666666666,20.85],[-156.58333333333334,20.816666666666666],[-156.58333333333334,20.816666666666666],[-156.58333333333334,20.816666666666666],[-157.43333333333334,20.9],[-157.43333333333334,20.9],[-157.65,20.983333333333334],[-157.65,20.983333333333334],[-157.65,20.983333333333334],[-157.65,20.983333333333334],[-157.65,20.983333333333334],[-157.65,20.983333333333334],[-158.18333333333334,21.283333333333335],[-158.18333333333334,21.283333333333335],[-158.18333333333334,21.283333333333335],[-158.08333333333334,21.316666666666666],[-158.08333333333334,21.316666666666666],[-158.08333333333334,21.316666666666666],[-158.03333333333333,21.316666666666666],[-158.03333333333333,21.316666666666666],[-158.03333333333333,21.316666666666666],[-157.95,21.316666666666666],[-157.95,21.316666666666666],[-157.95,21.316666666666666],[-157.95,21.316666666666666],[-157.95,21.316666666666666],[-157.95,21.316666666666666]],"type":"LineString"}
}
