{
  "id": 1981571237,
  "type": "Feature",
  "properties": {
    "geom:area": 0,
    "geom:bbox": "-122.593420,36.740660,-121.891290,37.611650",
    "geom:latitude": 37.20744714375973,
    "geom:longitude": -122.270408334593,
    "src:alt_label": "swim-approach",
    "src:geom": "swim",
    "swim:elevations": [
      6069,
      5846,
      5391,
      5163,
      4944,
      4852,
      4575,
      4564,
      4512,
      4398,
      4142,
      3962,
      3837,
      3688,
      3660,
      3678,
      3632,
      3562,
      3446,
      3244,
      2979,
      2930,
      2875,
      2590,
      2438,
      2415,
      2266,
      2227,
      2086,
      2008,
      1827,
      1829,
      1829,
      1829,
      1829,
      1829,
      1829,
      1829,
      1829,
      1829,
      1829,
      1760,
      1703,
      1437,
      1302,
      1100,
      977,
      934,
      889,
      822,
      823,
      793,
      610,
      488,
      460,
      392,
      363,
      199,
      122,
      65
    ],
    "swim:geom": "approach",
    "swim:timestamps": [
      1759521682,
      1759521704,
      1759521748,
      1759521773,
      1759521798,
      1759521810,
      1759521853,
      1759521867,
      1759521883,
      1759521906,
      1759521940,
      1759521967,
      1759521992,
      1759522031,
      1759522045,
      1759522071,
      1759522105,
      1759522121,
      1759522145,
      1759522174,
      1759522217,
      1759522224,
      1759522235,
      1759522279,
      1759522307,
      1759522346,
      1759522372,
      1759522381,
      1759522407,
      1759522423,
      1759522462,
      1759522494,
      1759522513,
      1759522541,
      1759522555,
      1759522563,
      1759522584,
      1759522605,
      1759522634,
      1759522658,
      1759522697,
      1759522735,
      1759522743,
      1759522792,
      1759522819,
      1759522852,
      1759522887,
      1759522900,
      1759522910,
      1759522942,
      1759522963,
      1759522985,
      1759523035,
      1759523067,
      1759523074,
      1759523092,
      1759523101,
      1759523148,
      1759523174,
      1759523210
    ],
    "wof:geomhash": "27925c00ee84c333c25a15417159002b",
    "wof:id": 1981571237,
    "wof:repo": "sfomuseum-data-flights-2025-10"
  },
  "bbox": [
    -122.59342,
    36.74066,
    -121.89129,
    37.61165
  ],
  "geometry": {"coordinates":[[-121.89129,36.74066],[-121.90086,36.76696],[-121.91599,36.81977],[-121.92443,36.85079],[-121.93338,36.88202],[-121.93723,36.89595],[-121.9679,36.94155],[-121.98795,36.94593],[-122.01151,36.94884],[-122.04358,36.95263],[-122.09081,36.95878],[-122.12872,36.96374],[-122.16334,36.96829],[-122.2152,36.97631],[-122.23057,36.98527],[-122.25546,37.00328],[-122.28899,37.02772],[-122.30432,37.03906],[-122.3277,37.05649],[-122.35611,37.0772],[-122.39858,37.10829],[-122.40594,37.11361],[-122.41682,37.12155],[-122.46064,37.1538],[-122.48885,37.17363],[-122.52763,37.2002],[-122.55331,37.21787],[-122.56279,37.22442],[-122.5878,37.24242],[-122.59342,37.258],[-122.57982,37.29546],[-122.56736,37.32691],[-122.56043,37.34488],[-122.53654,37.3645],[-122.51876,37.36748],[-122.5085,37.36914],[-122.4816,37.37347],[-122.45372,37.3763],[-122.41476,37.37994],[-122.38366,37.38445],[-122.33325,37.39178],[-122.28376,37.39885],[-122.27305,37.40051],[-122.2136,37.4167],[-122.18175,37.42646],[-122.15808,37.45047],[-122.14329,37.47881],[-122.14871,37.48821],[-122.15428,37.49461],[-122.17158,37.51466],[-122.18392,37.52658],[-122.19802,37.53932],[-122.23641,37.56051],[-122.26267,37.57152],[-122.26821,37.57391],[-122.28112,37.57924],[-122.28736,37.5818],[-122.31734,37.59449],[-122.3342,37.60161],[-122.35796,37.61165]],"type":"LineString"}
}
