{
  "id": 1981754887,
  "type": "Feature",
  "properties": {
    "geom:area": 0,
    "geom:bbox": "-159.333333,21.966667,-122.116667,37.612500",
    "geom:latitude": 29.51594127746478,
    "geom:longitude": -140.24610366838388,
    "src:alt_label": "swim-path",
    "src:geom": "swim",
    "swim:altitudes": [
      "001",
      "001",
      "001",
      "001",
      "127C",
      "127C",
      "127C",
      "127C",
      "227C",
      "240C",
      "273C",
      "273C",
      "273C",
      "273C",
      "273C",
      "330C",
      "330C",
      "330C",
      "330C",
      "350",
      "350",
      "350",
      "350",
      "350",
      "350",
      "350",
      "350",
      "350",
      "350",
      "350",
      "350",
      "350",
      "350",
      "350",
      "350",
      "350",
      "350",
      "350",
      "350",
      "350",
      "350",
      "350",
      "350",
      "350",
      "350",
      "350",
      "350",
      "350",
      "350",
      "350",
      "350",
      "350",
      "350C",
      "350C",
      "350C",
      "350",
      "350",
      "350",
      "350",
      "350",
      "350",
      "350",
      "350",
      "243",
      "234C",
      "222",
      "143",
      "118",
      "100C",
      "100C",
      "100C",
      "100",
      "100C",
      "100",
      "094",
      "091",
      "068",
      "065",
      "065",
      "060",
      "060",
      "060",
      "060",
      "060",
      "060",
      "060",
      "058",
      "042",
      "042",
      "038",
      "031",
      "026",
      "024",
      "017",
      "015",
      "100",
      "100"
    ],
    "swim:geom": "path",
    "swim:speeds": [
      80,
      80,
      80,
      80,
      330,
      330,
      330,
      330,
      410,
      410,
      420,
      420,
      420,
      420,
      420,
      410,
      410,
      410,
      410,
      400,
      400,
      400,
      400,
      400,
      400,
      400,
      400,
      400,
      400,
      400,
      400,
      400,
      400,
      400,
      400,
      400,
      400,
      400,
      400,
      400,
      400,
      400,
      400,
      400,
      400,
      400,
      400,
      400,
      400,
      400,
      400,
      400,
      479,
      479,
      479,
      478,
      478,
      478,
      478,
      480,
      485,
      485,
      485,
      475,
      480,
      460,
      406,
      361,
      280,
      280,
      280,
      271,
      269,
      243,
      225,
      226,
      247,
      243,
      243,
      244,
      246,
      249,
      247,
      247,
      247,
      247,
      246,
      216,
      216,
      184,
      183,
      176,
      180,
      162,
      157,
      147,
      147
    ],
    "swim:timestamps": [
      1761346324,
      1761346324,
      1761346324,
      1761346324,
      1761346712,
      1761346712,
      1761346712,
      1761346712,
      1761347132,
      1761347193,
      1761347373,
      1761347373,
      1761347373,
      1761347373,
      1761347373,
      1761347673,
      1761347673,
      1761347673,
      1761347673,
      1761347973,
      1761347973,
      1761347973,
      1761348094,
      1761348094,
      1761348154,
      1761348154,
      1761348274,
      1761348274,
      1761348274,
      1761348514,
      1761348514,
      1761348635,
      1761348635,
      1761348635,
      1761348995,
      1761348995,
      1761348995,
      1761349115,
      1761349115,
      1761349115,
      1761349115,
      1761349295,
      1761349295,
      1761349415,
      1761349415,
      1761349415,
      1761349656,
      1761349656,
      1761349656,
      1761349656,
      1761349716,
      1761349716,
      1761362392,
      1761362392,
      1761362392,
      1761362752,
      1761362752,
      1761362752,
      1761362992,
      1761363052,
      1761363172,
      1761363172,
      1761363172,
      1761363533,
      1761363560,
      1761363593,
      1761363833,
      1761363923,
      1761364073,
      1761364073,
      1761364073,
      1761364223,
      1761364253,
      1761364283,
      1761364349,
      1761364374,
      1761364469,
      1761364494,
      1761364494,
      1761364554,
      1761364589,
      1761364649,
      1761364709,
      1761364763,
      1761364763,
      1761364763,
      1761364794,
      1761364884,
      1761364884,
      1761364974,
      1761365034,
      1761365069,
      1761365094,
      1761365129,
      1761365154,
      1761365274,
      1761365274
    ],
    "wof:geomhash": "bd68ff3fa36f849d18761d5ee5fa3b72",
    "wof:id": 1981754887,
    "wof:repo": "sfomuseum-data-flights-2025-10"
  },
  "bbox": [
    -159.33333333333334,
    21.966666666666665,
    -122.11666666666666,
    37.612500000000004
  ],
  "geometry": {"coordinates":[[-159.33333333333334,21.966666666666665],[-159.33333333333334,21.966666666666665],[-159.33333333333334,21.966666666666665],[-159.33333333333334,21.966666666666665],[-158.93333333333334,22.183333333333334],[-158.93333333333334,22.183333333333334],[-158.93333333333334,22.183333333333334],[-158.93333333333334,22.183333333333334],[-158.15,22.333333333333332],[-158.03333333333333,22.366666666666667],[-157.66666666666666,22.466666666666665],[-157.66666666666666,22.466666666666665],[-157.66666666666666,22.466666666666665],[-157.66666666666666,22.466666666666665],[-157.66666666666666,22.466666666666665],[-157.06666666666666,22.666666666666668],[-157.06666666666666,22.666666666666668],[-157.06666666666666,22.666666666666668],[-157.06666666666666,22.666666666666668],[-156.5,22.833333333333332],[-156.5,22.833333333333332],[-156.5,22.833333333333332],[-156.26666666666668,22.916666666666668],[-156.26666666666668,22.916666666666668],[-156.15,22.95],[-156.15,22.95],[-155.93333333333334,23.016666666666666],[-155.93333333333334,23.016666666666666],[-155.93333333333334,23.016666666666666],[-155.46666666666667,23.15],[-155.46666666666667,23.15],[-155.23333333333332,23.216666666666665],[-155.23333333333332,23.216666666666665],[-155.23333333333332,23.216666666666665],[-154.55,23.433333333333334],[-154.55,23.433333333333334],[-154.55,23.433333333333334],[-154.31666666666666,23.5],[-154.31666666666666,23.5],[-154.31666666666666,23.5],[-154.31666666666666,23.5],[-153.96666666666667,23.6],[-153.96666666666667,23.6],[-153.73333333333332,23.666666666666668],[-153.73333333333332,23.666666666666668],[-153.73333333333332,23.666666666666668],[-153.26666666666668,23.816666666666666],[-153.26666666666668,23.816666666666666],[-153.26666666666668,23.816666666666666],[-153.26666666666668,23.816666666666666],[-153.16666666666666,23.883333333333333],[-153.16666666666666,23.883333333333333],[-126.35694444444444,35.4075],[-126.35694444444444,35.4075],[-126.35694444444444,35.4075],[-125.52888888888889,35.818333333333335],[-125.52888888888889,35.818333333333335],[-125.52888888888889,35.818333333333335],[-124.99055555555556,36.11805555555556],[-124.85472222222222,36.19305555555555],[-124.57638888888889,36.34583333333334],[-124.57638888888889,36.34583333333334],[-124.57638888888889,36.34583333333334],[-123.74194444444444,36.795833333333334],[-123.68333333333334,36.81666666666667],[-123.6086111111111,36.86638888888889],[-123.11527777777778,37.12638888888889],[-122.91666666666667,37.15],[-122.66555555555556,37.0775],[-122.66555555555556,37.0775],[-122.66555555555556,37.0775],[-122.43333333333334,37.016666666666666],[-122.40583333333333,37.029444444444444],[-122.4,37.06666666666667],[-122.48333333333333,37.1],[-122.50166666666667,37.10305555555556],[-122.53333333333333,37.18333333333333],[-122.52833333333334,37.206944444444446],[-122.52833333333334,37.206944444444446],[-122.50416666666666,37.271388888888886],[-122.48333333333333,37.31666666666667],[-122.4,37.333333333333336],[-122.31666666666666,37.35],[-122.23333333333333,37.35],[-122.23333333333333,37.35],[-122.23333333333333,37.35],[-122.20833333333334,37.35916666666667],[-122.11666666666666,37.43333333333333],[-122.11666666666666,37.43333333333333],[-122.11916666666666,37.49472222222222],[-122.16388888888889,37.52972222222222],[-122.2,37.55],[-122.21861111111112,37.55305555555555],[-122.25,37.56666666666667],[-122.27055555555556,37.57472222222223],[-122.36027777777777,37.612500000000004],[-122.36027777777777,37.612500000000004]],"type":"LineString"}
}
