{
  "id": 1981746235,
  "type": "Feature",
  "properties": {
    "geom:area": 0,
    "geom:bbox": "-122.380000,37.490000,-104.670000,39.860000",
    "geom:latitude": 38.70642605009918,
    "geom:longitude": -113.47854176529052,
    "src:alt_label": "swim-route",
    "src:geom": "swim",
    "swim:geom": "route",
    "wof:geomhash": "94fcf1b3c8507d3fe5c0b67cee8ecd26",
    "wof:id": 1981746235,
    "wof:repo": "sfomuseum-data-flights-2025-10"
  },
  "bbox": [
    -122.38,
    37.49,
    -104.67,
    39.86
  ],
  "geometry": {"coordinates":[[-104.67,39.86],[-104.72,39.86],[-104.85,39.85],[-104.91,39.84],[-105.05,39.85],[-105.26,39.85],[-105.27,39.85],[-105.35,39.85],[-105.42,39.85],[-105.46,39.86],[-105.58,39.86],[-105.6,39.86],[-105.61,39.86],[-105.63,39.86],[-105.68,39.86],[-105.71,39.86],[-105.72,39.86],[-105.87,39.85],[-105.94,39.84],[-105.95,39.84],[-106.12,39.83],[-106.21,39.82],[-106.34,39.81],[-106.45,39.8],[-106.53,39.79],[-106.56,39.79],[-106.7,39.77],[-106.79,39.76],[-106.94,39.74],[-106.96,39.74],[-107.22,39.71],[-107.58,39.67],[-107.63,39.68],[-107.87,39.61],[-109.21,39.24],[-109.61,39.12],[-109.95,39.02],[-109.98,39.01],[-110,39],[-111.13,39.32],[-111.19,38.97],[-111.76,38.94],[-111.98,38.88],[-113.41,38.71],[-113.61,38.69],[-113.89,38.64],[-115.49,38.42],[-117.27,38.15],[-118.76,37.9],[-119.1,37.86],[-119.2,37.85],[-119.3,37.83],[-119.66,37.79],[-119.73,37.78],[-119.82,37.77],[-120.15,37.73],[-120.23,37.72],[-120.4,37.7],[-120.56,37.68],[-120.63,37.67],[-120.69,37.67],[-120.75,37.66],[-120.96,37.63],[-120.96,37.63],[-120.97,37.63],[-121,37.63],[-121.09,37.62],[-121.26,37.59],[-121.39,37.58],[-121.41,37.58],[-121.6,37.55],[-121.61,37.55],[-121.62,37.55],[-121.7,37.53],[-121.8,37.51],[-121.82,37.5],[-121.88,37.49],[-122.08,37.54],[-122.12,37.55],[-122.18,37.57],[-122.28,37.59],[-122.33,37.61],[-122.36,37.61],[-122.38,37.62]],"type":"LineString"}
}
