{
  "id": 1981746169,
  "type": "Feature",
  "properties": {
    "geom:area": 0,
    "geom:bbox": "-122.718611,37.440000,-120.984722,44.230833",
    "geom:latitude": 40.75277602852304,
    "geom:longitude": -122.0154354670376,
    "src:alt_label": "swim-path",
    "src:geom": "swim",
    "swim:altitudes": [
      "093",
      "093",
      "093",
      "152",
      "152",
      "152",
      "152",
      "152",
      "152",
      "209",
      "209",
      "209",
      "209",
      "256",
      "256",
      "256",
      "370C",
      "370C",
      "370C",
      "370C",
      "370C",
      "370C",
      "370C",
      "370C",
      "370C",
      "370C",
      "370C",
      "370C",
      "370C",
      "370C",
      "370C",
      "370C",
      "370C",
      "370C",
      "370C",
      "370C",
      "370C",
      "370C",
      "370C",
      "370C",
      "370C",
      "370C",
      "370C",
      "370C",
      "344",
      "344",
      "344",
      "344",
      "344",
      "344",
      "344",
      "344",
      "111",
      "111",
      "111",
      "111",
      "076",
      "076",
      "076",
      "076",
      "017",
      "017",
      "017",
      "017",
      "017",
      "017",
      "017",
      "017"
    ],
    "swim:geom": "path",
    "swim:speeds": [
      281,
      281,
      281,
      349,
      349,
      349,
      349,
      349,
      349,
      385,
      385,
      385,
      385,
      403,
      403,
      403,
      452,
      452,
      452,
      452,
      452,
      452,
      451,
      451,
      451,
      451,
      451,
      451,
      451,
      452,
      452,
      452,
      452,
      452,
      452,
      455,
      455,
      455,
      433,
      433,
      433,
      433,
      433,
      433,
      442,
      442,
      442,
      442,
      442,
      442,
      442,
      442,
      344,
      344,
      344,
      344,
      250,
      250,
      250,
      250,
      190,
      190,
      190,
      190,
      190,
      190,
      190,
      190
    ],
    "swim:timestamps": [
      1761253959,
      1761253959,
      1761253959,
      1761254079,
      1761254079,
      1761254079,
      1761254079,
      1761254079,
      1761254079,
      1761254199,
      1761254199,
      1761254199,
      1761254199,
      1761254319,
      1761254319,
      1761254319,
      1761254798,
      1761254798,
      1761254798,
      1761254798,
      1761254798,
      1761254798,
      1761255339,
      1761255339,
      1761255339,
      1761255339,
      1761255339,
      1761255339,
      1761255339,
      1761255519,
      1761255519,
      1761255519,
      1761255519,
      1761255519,
      1761255519,
      1761255700,
      1761255700,
      1761255700,
      1761256180,
      1761256180,
      1761256180,
      1761256180,
      1761256180,
      1761256180,
      1761256601,
      1761256601,
      1761256601,
      1761256601,
      1761256601,
      1761256601,
      1761256601,
      1761256601,
      1761257360,
      1761257360,
      1761257360,
      1761257360,
      1761257682,
      1761257682,
      1761257682,
      1761257682,
      1761258020,
      1761258020,
      1761258020,
      1761258020,
      1761258020,
      1761258020,
      1761258020,
      1761258020
    ],
    "wof:geomhash": "dc58c69ba14a725f1f671207336b2e07",
    "wof:id": 1981746169,
    "wof:repo": "sfomuseum-data-flights-2025-10"
  },
  "bbox": [
    -122.71861111111112,
    37.44,
    -120.98472222222222,
    44.23083333333334
  ],
  "geometry": {"coordinates":[[-120.98472222222222,44.23083333333334],[-120.98472222222222,44.23083333333334],[-120.98472222222222,44.23083333333334],[-121.04861111111111,44.06777777777778],[-121.04861111111111,44.06777777777778],[-121.04861111111111,44.06777777777778],[-121.04861111111111,44.06777777777778],[-121.04861111111111,44.06777777777778],[-121.04861111111111,44.06777777777778],[-121.11944444444444,43.86888888888889],[-121.11944444444444,43.86888888888889],[-121.11944444444444,43.86888888888889],[-121.11944444444444,43.86888888888889],[-121.20027777777779,43.64527777777778],[-121.20027777777779,43.64527777777778],[-121.20027777777779,43.64527777777778],[-121.53194444444445,42.70888888888889],[-121.53194444444445,42.70888888888889],[-121.53194444444445,42.70888888888889],[-121.53194444444445,42.70888888888889],[-121.53194444444445,42.70888888888889],[-121.53194444444445,42.70888888888889],[-121.86749999999999,41.60111111111111],[-121.86749999999999,41.60111111111111],[-121.86749999999999,41.60111111111111],[-121.86749999999999,41.60111111111111],[-121.86749999999999,41.60111111111111],[-121.86749999999999,41.60111111111111],[-121.86749999999999,41.60111111111111],[-121.95861111111111,41.23583333333333],[-121.95861111111111,41.23583333333333],[-121.95861111111111,41.23583333333333],[-121.95861111111111,41.23583333333333],[-121.95861111111111,41.23583333333333],[-121.95861111111111,41.23583333333333],[-122.05111111111111,40.86194444444445],[-122.05111111111111,40.86194444444445],[-122.05111111111111,40.86194444444445],[-122.29555555555555,39.89361111111111],[-122.29555555555555,39.89361111111111],[-122.29555555555555,39.89361111111111],[-122.29555555555555,39.89361111111111],[-122.29555555555555,39.89361111111111],[-122.29555555555555,39.89361111111111],[-122.71861111111112,39.17638888888889],[-122.71861111111112,39.17638888888889],[-122.71861111111112,39.17638888888889],[-122.71861111111112,39.17638888888889],[-122.71861111111112,39.17638888888889],[-122.71861111111112,39.17638888888889],[-122.71861111111112,39.17638888888889],[-122.71861111111112,39.17638888888889],[-122.53333333333333,37.766666666666666],[-122.53333333333333,37.766666666666666],[-122.53333333333333,37.766666666666666],[-122.53333333333333,37.766666666666666],[-122.26138888888889,37.44],[-122.26138888888889,37.44],[-122.26138888888889,37.44],[-122.26138888888889,37.44],[-122.25,37.56666666666667],[-122.25,37.56666666666667],[-122.25,37.56666666666667],[-122.25,37.56666666666667],[-122.25,37.56666666666667],[-122.25,37.56666666666667],[-122.25,37.56666666666667],[-122.25,37.56666666666667]],"type":"LineString"}
}
