{
  "id": 1981606315,
  "type": "Feature",
  "properties": {
    "geom:area": 0,
    "geom:bbox": "-123.507170,36.930520,-122.118630,37.613450",
    "geom:latitude": 37.28050381740769,
    "geom:longitude": -122.7192038467911,
    "src:alt_label": "swim-approach",
    "src:geom": "swim",
    "swim:elevations": [
      5440,
      5285,
      4918,
      4638,
      4335,
      4020,
      3764,
      3553,
      3403,
      3290,
      3198,
      3108,
      3058,
      3017,
      2956,
      2916,
      2835,
      2803,
      2729,
      2470,
      2438,
      2438,
      2438,
      2438,
      2438,
      2317,
      2239,
      2085,
      1899,
      1735,
      1621,
      1462,
      1199,
      973,
      761,
      609,
      406,
      271,
      178,
      43,
      115
    ],
    "swim:geom": "approach",
    "swim:timestamps": [
      1759896977,
      1759896995,
      1759897031,
      1759897064,
      1759897097,
      1759897130,
      1759897157,
      1759897179,
      1759897200,
      1759897230,
      1759897263,
      1759897303,
      1759897321,
      1759897351,
      1759897384,
      1759897411,
      1759897460,
      1759897478,
      1759897501,
      1759897538,
      1759897565,
      1759897598,
      1759897632,
      1759897670,
      1759897704,
      1759897735,
      1759897750,
      1759897780,
      1759897807,
      1759897837,
      1759897867,
      1759897897,
      1759897927,
      1759897954,
      1759897987,
      1759898018,
      1759898062,
      1759898089,
      1759898119,
      1759898149,
      1759898161
    ],
    "wof:geomhash": "936d56421f483b8a5c59592249cf156e",
    "wof:id": 1981606315,
    "wof:repo": "sfomuseum-data-flights-2025-10"
  },
  "bbox": [
    -123.50717,
    36.93052,
    -122.11863,
    37.61345
  ],
  "geometry": {"coordinates":[[-123.50717,36.93052],[-123.46921,36.94962],[-123.39529,36.98812],[-123.32862,37.02197],[-123.26434,37.05475],[-123.20014,37.08739],[-123.14701,37.11444],[-123.10483,37.13584],[-123.06462,37.15606],[-123.01036,37.18345],[-122.95654,37.21072],[-122.89754,37.24046],[-122.87251,37.25268],[-122.82825,37.26579],[-122.77751,37.27772],[-122.73632,37.28729],[-122.66155,37.30471],[-122.6344,37.31102],[-122.59974,37.31909],[-122.54278,37.33229],[-122.50101,37.34206],[-122.4493,37.35398],[-122.39776,37.36577],[-122.33824,37.37943],[-122.28631,37.39135],[-122.24256,37.4014],[-122.22219,37.40599],[-122.1831,37.41494],[-122.14908,37.42275],[-122.11863,37.44049],[-122.12187,37.46974],[-122.13423,37.49628],[-122.1491,37.52102],[-122.17557,37.53476],[-122.20899,37.5489],[-122.23999,37.56201],[-122.28171,37.57957],[-122.30411,37.58907],[-122.32878,37.59926],[-122.35364,37.60967],[-122.36385,37.61345]],"type":"LineString"}
}
