{
  "id": 1981783405,
  "type": "Feature",
  "properties": {
    "geom:area": 0,
    "geom:bbox": "-122.385556,37.633333,-73.700000,42.500278",
    "geom:latitude": 41.1006178266228,
    "geom:longitude": -97.99920082693947,
    "src:alt_label": "swim-path",
    "src:geom": "swim",
    "swim:altitudes": [
      "006",
      "006",
      "006",
      "006",
      "035",
      "035",
      "035",
      "063",
      "063",
      "063",
      "063",
      "063",
      "114",
      "114",
      "114",
      "114",
      "134",
      "134",
      "162",
      "162",
      "162",
      "185",
      "185",
      "185",
      "185",
      "259",
      "259",
      "259",
      "273",
      "273",
      "273",
      "273",
      "331",
      "331",
      "331",
      "331",
      "331",
      "350C",
      "350C",
      "350C",
      "350C",
      "350C",
      "350C",
      "350C",
      "350C",
      "350C",
      "350C",
      "350C",
      "350C",
      "350C",
      "350C",
      "350C",
      "350C",
      "350C",
      "350C",
      "350C",
      "350C",
      "350C",
      "350C",
      "350C",
      "350C",
      "350C",
      "350C",
      "350C",
      "350C",
      "350C",
      "350C",
      "350C",
      "350C",
      "350C",
      "350C",
      "350C",
      "350C",
      "350C",
      "350C",
      "350C",
      "350C",
      "350C",
      "350C",
      "350C",
      "350C",
      "350C",
      "350C",
      "350C",
      "350C",
      "350C",
      "350C",
      "350C",
      "350C",
      "350C",
      "350C",
      "350C",
      "350C",
      "350C",
      "350C",
      "350C",
      "350C",
      "350C",
      "350C",
      "350C",
      "350C",
      "350C",
      "350C",
      "350C",
      "350C",
      "350C",
      "350C",
      "350C",
      "350C",
      "350C",
      "350C",
      "350C",
      "350C",
      "350C",
      "350C",
      "350C",
      "350C",
      "350C",
      "350C",
      "350C",
      "350C",
      "350C",
      "350C",
      "350C",
      "350C",
      "350C",
      "350C",
      "350C",
      "350C",
      "350C",
      "350C",
      "350C",
      "350C",
      "350C",
      "350C",
      "350C",
      "350C",
      "350C",
      "350C",
      "350C",
      "350C",
      "350C",
      "350C",
      "350C",
      "350C",
      "350C",
      "350C",
      "350C",
      "350C",
      "350C",
      "350C",
      "350C",
      "350C",
      "350C",
      "350C",
      "350C",
      "350C",
      "350C",
      "350C",
      "350C",
      "350C",
      "350C",
      "350C",
      "350",
      "370C",
      "370C",
      "370C",
      "370C",
      "370C",
      "370C",
      "370C",
      "370C",
      "370C",
      "370C",
      "370C",
      "370C",
      "370C",
      "370C",
      "370C",
      "370C",
      "370C",
      "370C",
      "370C",
      "370C",
      "370C",
      "370C",
      "370C",
      "370C",
      "370C",
      "370C",
      "370C",
      "370C",
      "370C",
      "370C",
      "370C",
      "370C",
      "370C",
      "370C",
      "370C",
      "370C",
      "370C",
      "370C",
      "370C",
      "370C",
      "370C",
      "370C",
      "370C",
      "370C",
      "370C",
      "370C",
      "370C",
      "370C",
      "370C",
      "370C",
      "370C",
      "370C",
      "370C",
      "370C",
      "370C",
      "370C",
      "370C",
      "370C",
      "370C",
      "370C",
      "370C",
      "370C",
      "370C",
      "370C",
      "370C",
      "370C",
      "370C",
      "370C",
      "370C",
      "370C",
      "370C",
      "370C",
      "370C",
      "370C",
      "370C",
      "370C",
      "370C",
      "370C",
      "370C",
      "370C",
      "370C",
      "370C",
      "370C",
      "370C",
      "370C",
      "370C",
      "370C",
      "370C",
      "370C",
      "370C",
      "370C",
      "370C",
      "370C",
      "370C",
      "370C",
      "370C",
      "370C",
      "370C",
      "370C",
      "370C",
      "370C",
      "370C",
      "370C",
      "370C",
      "370C",
      "370C",
      "370C",
      "370C",
      "370C",
      "370C",
      "370C",
      "370C",
      "370C",
      "370C",
      "370C",
      "370C",
      "370C",
      "370C",
      "370C",
      "370C",
      "370C",
      "370C",
      "370C",
      "370C",
      "370C",
      "370C",
      "370C",
      "370C",
      "370C",
      "370C",
      "370C",
      "370C",
      "370C",
      "370C",
      "370C",
      "370C",
      "370C",
      "370C",
      "370C",
      "370C",
      "370C",
      "370C",
      "370C",
      "370C",
      "370C",
      "370C",
      "370C",
      "370C",
      "370C",
      "370C",
      "370C",
      "370C",
      "370C",
      "370C",
      "370C",
      "370C",
      "370C",
      "370C",
      "370C",
      "370C",
      "370C",
      "370C",
      "370C",
      "370C",
      "370C",
      "370C",
      "370C",
      "370C",
      "370C",
      "370C",
      "370C",
      "370C",
      "370",
      "369",
      "331",
      "257",
      "257",
      "257",
      "230C",
      "218",
      "200",
      "118",
      "102",
      "102",
      "093",
      "077",
      "077",
      "053",
      "036",
      "020",
      "020",
      "016"
    ],
    "swim:geom": "path",
    "swim:speeds": [
      162,
      162,
      162,
      162,
      212,
      212,
      212,
      252,
      252,
      252,
      252,
      252,
      322,
      322,
      322,
      322,
      380,
      380,
      399,
      399,
      399,
      415,
      415,
      415,
      415,
      488,
      488,
      488,
      506,
      506,
      506,
      506,
      504,
      504,
      504,
      504,
      504,
      503,
      503,
      503,
      507,
      507,
      510,
      510,
      512,
      512,
      512,
      512,
      512,
      511,
      511,
      513,
      511,
      509,
      509,
      509,
      509,
      509,
      510,
      510,
      510,
      510,
      512,
      512,
      512,
      512,
      512,
      512,
      512,
      512,
      512,
      515,
      515,
      515,
      515,
      515,
      515,
      515,
      519,
      519,
      519,
      520,
      520,
      522,
      522,
      522,
      522,
      522,
      524,
      524,
      526,
      526,
      526,
      526,
      526,
      526,
      526,
      526,
      523,
      523,
      523,
      519,
      519,
      519,
      519,
      518,
      518,
      518,
      518,
      520,
      520,
      519,
      521,
      521,
      521,
      522,
      522,
      522,
      522,
      522,
      522,
      522,
      522,
      521,
      520,
      519,
      519,
      519,
      519,
      518,
      518,
      518,
      518,
      518,
      519,
      519,
      519,
      519,
      526,
      526,
      526,
      526,
      526,
      526,
      526,
      531,
      534,
      534,
      534,
      534,
      535,
      535,
      534,
      534,
      533,
      533,
      533,
      533,
      535,
      535,
      536,
      536,
      538,
      537,
      525,
      513,
      513,
      513,
      508,
      508,
      506,
      506,
      506,
      509,
      509,
      509,
      513,
      513,
      513,
      513,
      510,
      510,
      507,
      507,
      504,
      506,
      506,
      509,
      509,
      507,
      507,
      507,
      509,
      509,
      509,
      506,
      508,
      508,
      506,
      504,
      505,
      505,
      505,
      505,
      504,
      504,
      504,
      504,
      504,
      502,
      501,
      501,
      500,
      499,
      498,
      495,
      495,
      495,
      495,
      495,
      495,
      494,
      494,
      489,
      489,
      488,
      488,
      488,
      488,
      482,
      482,
      482,
      479,
      479,
      477,
      477,
      477,
      471,
      471,
      475,
      475,
      475,
      476,
      476,
      476,
      476,
      476,
      478,
      479,
      478,
      478,
      466,
      464,
      471,
      471,
      468,
      462,
      459,
      459,
      459,
      456,
      457,
      458,
      458,
      458,
      453,
      450,
      450,
      449,
      449,
      449,
      449,
      449,
      449,
      450,
      450,
      450,
      451,
      451,
      452,
      452,
      452,
      452,
      452,
      452,
      452,
      453,
      453,
      453,
      453,
      454,
      454,
      454,
      453,
      453,
      452,
      452,
      452,
      452,
      452,
      452,
      455,
      455,
      455,
      455,
      455,
      455,
      456,
      456,
      454,
      453,
      452,
      453,
      453,
      452,
      452,
      452,
      452,
      454,
      453,
      456,
      460,
      460,
      464,
      464,
      464,
      464,
      468,
      468,
      466,
      466,
      462,
      462,
      465,
      465,
      467,
      482,
      483,
      485,
      499,
      499,
      499,
      472,
      464,
      374,
      304,
      287,
      287,
      288,
      264,
      264,
      259,
      233,
      231,
      231,
      170
    ],
    "swim:timestamps": [
      1761631399,
      1761631399,
      1761631399,
      1761631399,
      1761631485,
      1761631485,
      1761631485,
      1761631545,
      1761631545,
      1761631545,
      1761631545,
      1761631545,
      1761631665,
      1761631665,
      1761631665,
      1761631665,
      1761631726,
      1761631726,
      1761631786,
      1761631786,
      1761631786,
      1761631846,
      1761631846,
      1761631846,
      1761631846,
      1761632086,
      1761632086,
      1761632086,
      1761632146,
      1761632146,
      1761632146,
      1761632146,
      1761632326,
      1761632326,
      1761632326,
      1761632326,
      1761632326,
      1761632423,
      1761632423,
      1761632566,
      1761632686,
      1761632686,
      1761632806,
      1761632806,
      1761632842,
      1761632842,
      1761632842,
      1761632926,
      1761632986,
      1761633046,
      1761633046,
      1761633086,
      1761633143,
      1761633166,
      1761633166,
      1761633226,
      1761633286,
      1761633286,
      1761633346,
      1761633385,
      1761633385,
      1761633443,
      1761633647,
      1761633647,
      1761633647,
      1761633744,
      1761633744,
      1761633744,
      1761633767,
      1761633827,
      1761633827,
      1761634043,
      1761634043,
      1761634043,
      1761634043,
      1761634043,
      1761634043,
      1761634043,
      1761634345,
      1761634345,
      1761634345,
      1761634406,
      1761634406,
      1761634464,
      1761634464,
      1761634583,
      1761634583,
      1761634583,
      1761634643,
      1761634643,
      1761634766,
      1761634766,
      1761634766,
      1761634825,
      1761634825,
      1761634885,
      1761634885,
      1761634885,
      1761635067,
      1761635067,
      1761635067,
      1761635126,
      1761635126,
      1761635126,
      1761635126,
      1761635186,
      1761635186,
      1761635246,
      1761635246,
      1761635354,
      1761635354,
      1761635367,
      1761635474,
      1761635474,
      1761635487,
      1761635534,
      1761635534,
      1761635544,
      1761635544,
      1761635544,
      1761635594,
      1761635594,
      1761635594,
      1761635607,
      1761635654,
      1761635714,
      1761635725,
      1761635725,
      1761635725,
      1761635774,
      1761635774,
      1761635774,
      1761635787,
      1761635787,
      1761635894,
      1761635894,
      1761635894,
      1761635894,
      1761636014,
      1761636014,
      1761636014,
      1761636014,
      1761636024,
      1761636024,
      1761636024,
      1761636194,
      1761636327,
      1761636327,
      1761636327,
      1761636327,
      1761636494,
      1761636494,
      1761636505,
      1761636505,
      1761636554,
      1761636567,
      1761636567,
      1761636567,
      1761636685,
      1761636685,
      1761636734,
      1761636734,
      1761636794,
      1761636865,
      1761636975,
      1761637095,
      1761637095,
      1761637095,
      1761637155,
      1761637155,
      1761637275,
      1761637275,
      1761637275,
      1761637395,
      1761637395,
      1761637395,
      1761637695,
      1761637695,
      1761637815,
      1761637815,
      1761637935,
      1761637935,
      1761637995,
      1761637995,
      1761638235,
      1761638355,
      1761638355,
      1761638394,
      1761638394,
      1761638475,
      1761638595,
      1761638595,
      1761638635,
      1761638695,
      1761638695,
      1761638775,
      1761638815,
      1761638815,
      1761638835,
      1761638875,
      1761638955,
      1761638955,
      1761638955,
      1761639015,
      1761639196,
      1761639196,
      1761639196,
      1761639235,
      1761639235,
      1761639355,
      1761639376,
      1761639376,
      1761639415,
      1761639436,
      1761639496,
      1761639595,
      1761639595,
      1761639595,
      1761639595,
      1761639616,
      1761639616,
      1761639655,
      1761639655,
      1761639835,
      1761639835,
      1761639895,
      1761639895,
      1761639895,
      1761639895,
      1761640075,
      1761640075,
      1761640075,
      1761640195,
      1761640195,
      1761640255,
      1761640255,
      1761640255,
      1761640495,
      1761640495,
      1761640735,
      1761640735,
      1761640735,
      1761640795,
      1761640795,
      1761640795,
      1761640795,
      1761640795,
      1761641096,
      1761641128,
      1761641276,
      1761641276,
      1761641336,
      1761641396,
      1761641576,
      1761641696,
      1761641816,
      1761641968,
      1761642056,
      1761642056,
      1761642056,
      1761642296,
      1761642356,
      1761642448,
      1761642448,
      1761642448,
      1761642869,
      1761643049,
      1761643049,
      1761643109,
      1761643169,
      1761643169,
      1761643229,
      1761643229,
      1761643229,
      1761643289,
      1761643289,
      1761643349,
      1761643469,
      1761643469,
      1761643589,
      1761643589,
      1761643983,
      1761644009,
      1761644009,
      1761644009,
      1761644069,
      1761644129,
      1761644129,
      1761644129,
      1761644161,
      1761644309,
      1761644369,
      1761644401,
      1761644429,
      1761644489,
      1761644609,
      1761644609,
      1761644669,
      1761644669,
      1761644669,
      1761644729,
      1761645001,
      1761645001,
      1761645001,
      1761645063,
      1761645063,
      1761645063,
      1761645184,
      1761645184,
      1761645482,
      1761645603,
      1761645663,
      1761645676,
      1761645676,
      1761645723,
      1761645723,
      1761645723,
      1761645723,
      1761645843,
      1761645857,
      1761645903,
      1761646023,
      1761646023,
      1761646097,
      1761646097,
      1761646097,
      1761646097,
      1761646217,
      1761646217,
      1761646277,
      1761646277,
      1761646337,
      1761646337,
      1761646504,
      1761646504,
      1761646564,
      1761647103,
      1761647118,
      1761647283,
      1761647523,
      1761647523,
      1761647523,
      1761647659,
      1761647899,
      1761648199,
      1761648560,
      1761648594,
      1761648594,
      1761648620,
      1761648654,
      1761648654,
      1761648714,
      1761648774,
      1761648894,
      1761648894,
      1761649040
    ],
    "wof:geomhash": "ccc8cf3f738373b60eb913fc7718ffee",
    "wof:id": 1981783405,
    "wof:repo": "sfomuseum-data-flights-2025-10"
  },
  "bbox": [
    -122.38555555555556,
    37.63333333333333,
    -73.7,
    42.500277777777775
  ],
  "geometry": {"coordinates":[[-122.36666666666666,37.63333333333333],[-122.36666666666666,37.63333333333333],[-122.36666666666666,37.63333333333333],[-122.36666666666666,37.63333333333333],[-122.31027777777777,37.681666666666665],[-122.31027777777777,37.681666666666665],[-122.31027777777777,37.681666666666665],[-122.33305555555555,37.74444444444445],[-122.33305555555555,37.74444444444445],[-122.33305555555555,37.74444444444445],[-122.33305555555555,37.74444444444445],[-122.33305555555555,37.74444444444445],[-122.38555555555556,37.89138888888889],[-122.38555555555556,37.89138888888889],[-122.38555555555556,37.89138888888889],[-122.38555555555556,37.89138888888889],[-122.31555555555555,37.970555555555556],[-122.31555555555555,37.970555555555556],[-122.18166666666667,37.99916666666667],[-122.18166666666667,37.99916666666667],[-122.18166666666667,37.99916666666667],[-122.03999999999999,38.024166666666666],[-122.03999999999999,38.024166666666666],[-122.03999999999999,38.024166666666666],[-122.03999999999999,38.024166666666666],[-121.39722222222223,38.141666666666666],[-121.39722222222223,38.141666666666666],[-121.39722222222223,38.141666666666666],[-121.22333333333333,38.1725],[-121.22333333333333,38.1725],[-121.22333333333333,38.1725],[-121.22333333333333,38.1725],[-120.70277777777778,38.25277777777778],[-120.70277777777778,38.25277777777778],[-120.70277777777778,38.25277777777778],[-120.70277777777778,38.25277777777778],[-120.70277777777778,38.25277777777778],[-120.42500000000001,38.29138888888889],[-120.42500000000001,38.29138888888889],[-120.00638888888889,38.34861111111111],[-119.65138888888889,38.39555555555555],[-119.65138888888889,38.39555555555555],[-119.29583333333333,38.44166666666666],[-119.29583333333333,38.44166666666666],[-119.19055555555556,38.45611111111111],[-119.19055555555556,38.45611111111111],[-119.19055555555556,38.45611111111111],[-118.94,38.48638888888889],[-118.76194444444444,38.50861111111111],[-118.58388888888888,38.530277777777776],[-118.58388888888888,38.530277777777776],[-118.47805555555556,38.543055555555554],[-118.28583333333333,38.566111111111105],[-118.22972222222222,38.572500000000005],[-118.22972222222222,38.572500000000005],[-118.02944444444444,38.59638888888889],[-117.85055555555554,38.61694444444444],[-117.85055555555554,38.61694444444444],[-117.66972222222223,38.6375],[-117.56416666666667,38.64944444444444],[-117.56416666666667,38.64944444444444],[-117.3825,38.66972222222222],[-116.80499999999999,38.75333333333333],[-116.80499999999999,38.75333333333333],[-116.80499999999999,38.75333333333333],[-116.51888888888888,38.79472222222222],[-116.51888888888888,38.79472222222222],[-116.51888888888888,38.79472222222222],[-116.44222222222223,38.80583333333333],[-116.26444444444445,38.83111111111111],[-116.26444444444445,38.83111111111111],[-115.61472222222221,38.92166666666667],[-115.61472222222221,38.92166666666667],[-115.61472222222221,38.92166666666667],[-115.61472222222221,38.92166666666667],[-115.61472222222221,38.92166666666667],[-115.61472222222221,38.92166666666667],[-115.61472222222221,38.92166666666667],[-114.67416666666666,39.045833333333334],[-114.67416666666666,39.045833333333334],[-114.67416666666666,39.045833333333334],[-114.51888888888888,39.06583333333333],[-114.51888888888888,39.06583333333333],[-114.33527777777778,39.08888888888889],[-114.33527777777778,39.08888888888889],[-113.94083333333333,39.1375],[-113.94083333333333,39.1375],[-113.94083333333333,39.1375],[-113.75555555555556,39.15972222222222],[-113.75555555555556,39.15972222222222],[-113.385,39.20333333333333],[-113.385,39.20333333333333],[-113.385,39.20333333333333],[-113.2,39.224722222222226],[-113.2,39.224722222222226],[-113.01166666666667,39.24611111111111],[-113.01166666666667,39.24611111111111],[-113.01166666666667,39.24611111111111],[-112.45416666666667,39.32222222222222],[-112.45416666666667,39.32222222222222],[-112.45416666666667,39.32222222222222],[-112.28722222222223,39.382222222222225],[-112.28722222222223,39.382222222222225],[-112.28722222222223,39.382222222222225],[-112.28722222222223,39.382222222222225],[-112.12083333333332,39.44361111111111],[-112.12083333333332,39.44361111111111],[-111.95361111111112,39.505],[-111.95361111111112,39.505],[-111.63944444444445,39.618611111111115],[-111.63944444444445,39.618611111111115],[-111.61749999999999,39.626666666666665],[-111.30138888888888,39.739444444444445],[-111.30138888888888,39.739444444444445],[-111.27472222222222,39.74916666666667],[-111.12944444444443,39.800555555555555],[-111.12944444444443,39.800555555555555],[-111.12694444444443,39.80138888888889],[-111.12694444444443,39.80138888888889],[-111.12694444444443,39.80138888888889],[-110.9563888888889,39.861666666666665],[-110.9563888888889,39.861666666666665],[-110.9563888888889,39.861666666666665],[-110.9563888888889,39.861666666666665],[-110.7875,39.920833333333334],[-110.61583333333333,39.980555555555554],[-110.61583333333333,39.980555555555554],[-110.61583333333333,39.980555555555554],[-110.61583333333333,39.980555555555554],[-110.44666666666667,40.03944444444444],[-110.44666666666667,40.03944444444444],[-110.44666666666667,40.03944444444444],[-110.44361111111111,40.040277777777774],[-110.44361111111111,40.040277777777774],[-110.1,40.155833333333334],[-110.1,40.155833333333334],[-110.1,40.155833333333334],[-110.1,40.155833333333334],[-109.73805555555556,40.25333333333333],[-109.73805555555556,40.25333333333333],[-109.73805555555556,40.25333333333333],[-109.73805555555556,40.25333333333333],[-109.73527777777778,40.25388888888889],[-109.73527777777778,40.25388888888889],[-109.73527777777778,40.25388888888889],[-109.1863888888889,40.39833333333333],[-108.81583333333333,40.494166666666665],[-108.81583333333333,40.494166666666665],[-108.81583333333333,40.494166666666665],[-108.81583333333333,40.494166666666665],[-108.2961111111111,40.62555555555556],[-108.2961111111111,40.62555555555556],[-108.25638888888889,40.635555555555555],[-108.25638888888889,40.635555555555555],[-108.09416666666667,40.67611111111111],[-108.04972222222221,40.68722222222222],[-108.04972222222221,40.68722222222222],[-108.04972222222221,40.68722222222222],[-107.69888888888889,40.77361111111111],[-107.69888888888889,40.77361111111111],[-107.54972222222221,40.80972222222222],[-107.54972222222221,40.80972222222222],[-107.36305555555555,40.855000000000004],[-107.1388888888889,40.90861111111111],[-106.80777777777777,40.98722222222222],[-106.44888888888889,41.07083333333334],[-106.44888888888889,41.07083333333334],[-106.44888888888889,41.07083333333334],[-106.23777777777778,41.11972222222222],[-106.23777777777778,41.11972222222222],[-105.90944444444445,41.19416666666666],[-105.90944444444445,41.19416666666666],[-105.90944444444445,41.19416666666666],[-105.55222222222221,41.274166666666666],[-105.55222222222221,41.274166666666666],[-105.55222222222221,41.274166666666666],[-104.64444444444445,41.47166666666667],[-104.64444444444445,41.47166666666667],[-104.27416666666666,41.527499999999996],[-104.27416666666666,41.527499999999996],[-103.86638888888888,41.5775],[-103.86638888888888,41.5775],[-103.68277777777779,41.59916666666667],[-103.68277777777779,41.59916666666667],[-102.94472222222223,41.68416666666666],[-102.57527777777777,41.725],[-102.57527777777777,41.725],[-102.47361111111111,41.74],[-102.47361111111111,41.74],[-102.20444444444445,41.76444444444444],[-101.85555555555555,41.800555555555555],[-101.85555555555555,41.800555555555555],[-101.72638888888889,41.81583333333333],[-101.53805555555556,41.83833333333334],[-101.53805555555556,41.83833333333334],[-101.29277777777777,41.8575],[-101.16555555555556,41.86972222222222],[-101.16555555555556,41.86972222222222],[-101.10499999999999,41.87583333333333],[-100.98,41.88805555555555],[-100.73,41.91138888888889],[-100.73,41.91138888888889],[-100.73,41.91138888888889],[-100.54388888888889,41.92861111111111],[-99.98388888888888,41.97833333333333],[-99.98388888888888,41.97833333333333],[-99.98388888888888,41.97833333333333],[-99.85222222222221,41.98972222222222],[-99.85222222222221,41.98972222222222],[-99.47777777777777,42.02111111111111],[-99.4063888888889,42.026944444444446],[-99.4063888888889,42.026944444444446],[-99.29055555555556,42.03638888888889],[-99.22027777777778,42.04194444444444],[-99.03444444444445,42.056666666666665],[-98.73694444444445,42.07944444444445],[-98.73694444444445,42.07944444444445],[-98.73694444444445,42.07944444444445],[-98.73694444444445,42.07944444444445],[-98.7038888888889,42.081944444444446],[-98.7038888888889,42.081944444444446],[-98.55499999999999,42.09305555555556],[-98.55499999999999,42.09305555555556],[-98.00527777777778,42.1325],[-98.00527777777778,42.1325],[-97.82666666666667,42.14472222222222],[-97.82666666666667,42.14472222222222],[-97.82666666666667,42.14472222222222],[-97.82666666666667,42.14472222222222],[-97.30222222222221,42.17833333333333],[-97.30222222222221,42.17833333333333],[-97.30222222222221,42.17833333333333],[-96.94500000000001,42.20055555555556],[-96.94500000000001,42.20055555555556],[-96.76666666666667,42.211111111111116],[-96.76666666666667,42.211111111111116],[-96.76666666666667,42.211111111111116],[-96.06194444444444,42.249722222222225],[-96.06194444444444,42.249722222222225],[-95.35,42.28444444444444],[-95.35,42.28444444444444],[-95.35,42.28444444444444],[-95.1738888888889,42.29222222222222],[-95.1738888888889,42.29222222222222],[-95.1738888888889,42.29222222222222],[-95.1738888888889,42.29222222222222],[-95.1738888888889,42.29222222222222],[-94.27805555555555,42.32805555555556],[-94.20166666666667,42.33083333333334],[-93.77111111111111,42.34527777777778],[-93.77111111111111,42.34527777777778],[-93.59472222222222,42.350833333333334],[-93.38777777777779,42.356944444444444],[-92.85972222222222,42.370555555555555],[-92.50944444444444,42.37833333333333],[-92.15833333333335,42.385],[-91.74861111111112,42.39138888888889],[-91.47694444444444,42.394999999999996],[-91.47694444444444,42.394999999999996],[-91.47694444444444,42.394999999999996],[-90.79833333333333,42.40083333333333],[-90.62777777777777,42.4075],[-90.3536111111111,42.41694444444444],[-90.3536111111111,42.41694444444444],[-90.3536111111111,42.41694444444444],[-89.16527777777779,42.46555555555556],[-88.66277777777778,42.481944444444444],[-88.66277777777778,42.481944444444444],[-88.49638888888889,42.486666666666665],[-88.32888888888888,42.49138888888889],[-88.32888888888888,42.49138888888889],[-88.1613888888889,42.49583333333334],[-88.1613888888889,42.49583333333334],[-88.1613888888889,42.49583333333334],[-87.99055555555556,42.500277777777775],[-87.99055555555556,42.500277777777775],[-87.82277777777777,42.5],[-87.47944444444444,42.49861111111111],[-87.47944444444444,42.49861111111111],[-87.13861111111112,42.496944444444445],[-87.13861111111112,42.496944444444445],[-86.04527777777777,42.48388888888889],[-85.94194444444445,42.48222222222223],[-85.94194444444445,42.48222222222223],[-85.94194444444445,42.48222222222223],[-85.775,42.47916666666667],[-85.60638888888889,42.475833333333334],[-85.60638888888889,42.475833333333334],[-85.60638888888889,42.475833333333334],[-85.53805555555556,42.474444444444444],[-85.09583333333333,42.46416666666667],[-84.92666666666668,42.459722222222226],[-84.85972222222222,42.45777777777778],[-84.7575,42.455000000000005],[-84.58666666666666,42.45027777777778],[-84.24972222222222,42.439722222222215],[-84.24972222222222,42.439722222222215],[-84.08083333333333,42.43416666666666],[-84.08083333333333,42.43416666666666],[-84.08083333333333,42.43416666666666],[-83.91166666666668,42.42833333333333],[-83.14305555555556,42.39861111111111],[-83.14305555555556,42.39861111111111],[-83.14305555555556,42.39861111111111],[-82.97027777777778,42.39083333333333],[-82.97027777777778,42.39083333333333],[-82.97027777777778,42.39083333333333],[-82.62833333333333,42.37583333333333],[-82.62833333333333,42.37583333333333],[-81.795,42.34111111111111],[-81.45611111111111,42.32527777777778],[-81.28527777777778,42.31722222222223],[-81.24027777777778,42.31361111111111],[-81.24027777777778,42.31361111111111],[-81.11694444444444,42.30833333333333],[-81.11694444444444,42.30833333333333],[-81.11694444444444,42.30833333333333],[-81.11694444444444,42.30833333333333],[-80.77944444444444,42.269444444444446],[-80.73444444444445,42.26361111111111],[-80.60833333333333,42.24916666666667],[-80.26694444444445,42.20527777777778],[-80.26694444444445,42.20527777777778],[-80.05111111111111,42.17611111111111],[-80.05111111111111,42.17611111111111],[-80.05111111111111,42.17611111111111],[-80.05111111111111,42.17611111111111],[-79.70666666666666,42.13138888888889],[-79.70666666666666,42.13138888888889],[-79.5363888888889,42.10777777777778],[-79.5363888888889,42.10777777777778],[-79.36805555555554,42.08416666666667],[-79.36805555555554,42.08416666666667],[-78.8875,42.01777777777777],[-78.8875,42.01777777777777],[-78.71666666666667,41.99305555555556],[-77.16777777777779,41.683055555555555],[-77.13611111111112,41.67444444444444],[-76.66222222222223,41.54555555555555],[-75.96694444444445,41.35166666666667],[-75.96694444444445,41.35166666666667],[-75.96694444444445,41.35166666666667],[-75.58722222222222,41.23888888888889],[-74.96638888888889,41.02916666666667],[-74.25972222222222,40.971944444444446],[-73.96888888888888,40.531666666666666],[-73.95,40.483333333333334],[-73.95,40.483333333333334],[-73.95,40.450833333333335],[-73.91666666666667,40.416666666666664],[-73.91666666666667,40.416666666666664],[-73.85,40.36666666666667],[-73.76666666666667,40.35],[-73.7,40.46666666666667],[-73.7,40.46666666666667],[-73.70111111111112,40.580000000000005]],"type":"LineString"}
}
