{
  "id": 1981805727,
  "type": "Feature",
  "properties": {
    "geom:area": 0,
    "geom:bbox": "-122.316667,37.396389,-74.108056,41.029444",
    "geom:latitude": 39.91835468040248,
    "geom:longitude": -98.24030860091077,
    "src:alt_label": "swim-path",
    "src:geom": "swim",
    "swim:altitudes": [
      "004",
      "017",
      "017",
      "017",
      "017",
      "036",
      "036",
      "052",
      "052",
      "067",
      "080",
      "156",
      "156",
      "194",
      "194",
      "194",
      "194",
      "194",
      "194",
      "300C",
      "300C",
      "300C",
      "329",
      "329",
      "329",
      "350",
      "350",
      "350",
      "369",
      "369",
      "369",
      "380C",
      "380C",
      "380C",
      "380C",
      "380C",
      "380C",
      "380C",
      "380C",
      "380C",
      "380C",
      "380C",
      "380C",
      "380C",
      "380C",
      "380C",
      "380C",
      "380C",
      "380C",
      "380C",
      "380C",
      "380C",
      "380C",
      "380C",
      "380C",
      "380C",
      "380C",
      "380C",
      "380C",
      "380C",
      "380C",
      "380C",
      "380C",
      "380C",
      "380C",
      "380C",
      "380C",
      "380C",
      "380C",
      "380C",
      "380C",
      "380C",
      "380C",
      "380C",
      "380C",
      "380C",
      "380C",
      "380C",
      "380C",
      "380C",
      "380C",
      "380C",
      "380C",
      "380C",
      "380C",
      "380C",
      "380C",
      "380C",
      "380C",
      "380C",
      "380C",
      "380C",
      "380C",
      "380C",
      "380C",
      "380C",
      "380C",
      "400C",
      "400C",
      "400C",
      "400C",
      "400C",
      "400C",
      "400C",
      "400C",
      "400C",
      "400C",
      "400C",
      "400C",
      "400C",
      "400C",
      "400C",
      "400C",
      "400C",
      "400C",
      "400C",
      "400C",
      "400C",
      "400C",
      "400C",
      "400C",
      "400C",
      "400C",
      "400C",
      "400C",
      "400C",
      "400C",
      "400C",
      "400C",
      "400C",
      "400C",
      "400C",
      "400C",
      "400C",
      "400C",
      "400C",
      "400C",
      "400C",
      "400C",
      "400C",
      "400C",
      "400C",
      "400C",
      "400C",
      "400C",
      "400C",
      "400C",
      "400C",
      "400C",
      "400C",
      "400C",
      "400C",
      "400C",
      "400C",
      "400C",
      "400C",
      "400C",
      "400C",
      "400C",
      "400C",
      "400C",
      "400C",
      "400C",
      "400C",
      "400C",
      "400C",
      "400C",
      "400C",
      "400C",
      "400C",
      "400C",
      "400C",
      "400C",
      "400C",
      "400C",
      "400C",
      "400C",
      "400C",
      "400C",
      "400C",
      "400C",
      "400C",
      "400C",
      "400C",
      "400C",
      "400C",
      "400C",
      "400C",
      "400C",
      "400C",
      "400C",
      "400C",
      "400C",
      "400C",
      "400C",
      "400C",
      "400C",
      "400C",
      "400C",
      "400C",
      "400C",
      "400C",
      "400C",
      "400C",
      "400C",
      "400C",
      "400C",
      "400C",
      "400C",
      "400C",
      "400C",
      "400C",
      "400C",
      "400C",
      "400C",
      "400C",
      "400C",
      "400C",
      "400C",
      "400C",
      "400C",
      "400C",
      "400C",
      "400C",
      "400C",
      "400C",
      "400C",
      "400C",
      "400C",
      "400C",
      "400C",
      "400C",
      "400C",
      "400C",
      "400C",
      "400C",
      "400C",
      "400C",
      "400C",
      "400C",
      "400C",
      "400C",
      "400C",
      "400C",
      "400C",
      "400C",
      "400C",
      "400C",
      "400C",
      "400C",
      "400C",
      "400C",
      "400C",
      "400C",
      "400C",
      "400C",
      "400C",
      "400C",
      "400C",
      "400C",
      "400C",
      "400C",
      "400C",
      "400C",
      "400C",
      "400C",
      "400C",
      "400C",
      "400C",
      "400C",
      "400C",
      "400C",
      "400C",
      "400C",
      "400C",
      "400C",
      "400C",
      "400C",
      "400C",
      "400C",
      "400C",
      "400C",
      "400C",
      "400C",
      "400C",
      "400C",
      "400C",
      "400C",
      "400C",
      "400C",
      "400C",
      "400C",
      "400C",
      "400C",
      "400C",
      "400C",
      "400C",
      "400C",
      "400C",
      "400C",
      "400C",
      "400C",
      "400C",
      "400C",
      "400C",
      "400C",
      "400C",
      "400C",
      "400C",
      "400C",
      "400C",
      "400C",
      "400C",
      "400C",
      "400C",
      "400C",
      "400C",
      "400C",
      "400C",
      "400C",
      "400C",
      "400C",
      "400C",
      "400C",
      "400C",
      "400C",
      "400C",
      "400C",
      "400C",
      "400C",
      "400C",
      "400C",
      "400C",
      "400C",
      "400C",
      "400C",
      "400C",
      "400C",
      "400C",
      "400C",
      "400C",
      "400C",
      "400C",
      "400C",
      "400C",
      "400C",
      "400C",
      "400C",
      "400C",
      "400C",
      "400C",
      "400C",
      "400C",
      "400C",
      "400C",
      "400C",
      "400C",
      "400C",
      "400C",
      "400C",
      "400C",
      "400C",
      "400C",
      "400C",
      "400C",
      "400C",
      "400C",
      "400C",
      "400C",
      "400C",
      "400C",
      "400C",
      "400C",
      "400C",
      "400C",
      "400C",
      "400C",
      "400C",
      "400C",
      "400C",
      "400C",
      "400C",
      "400C",
      "400C",
      "400C",
      "400C",
      "400C",
      "360C",
      "360C",
      "360C",
      "354",
      "354",
      "354",
      "354",
      "354",
      "310",
      "310",
      "310",
      "310",
      "246",
      "246",
      "246",
      "171",
      "171",
      "160",
      "160",
      "160",
      "148",
      "148",
      "137",
      "121",
      "121",
      "121",
      "110",
      "110",
      "099",
      "094",
      "083",
      "080",
      "080",
      "080",
      "080",
      "080",
      "067",
      "059",
      "059",
      "040",
      "040",
      "040",
      "022",
      "022",
      "020",
      "020",
      "020",
      "012",
      "006"
    ],
    "swim:geom": "path",
    "swim:speeds": [
      172,
      172,
      172,
      172,
      172,
      264,
      264,
      285,
      285,
      279,
      279,
      370,
      370,
      398,
      398,
      398,
      398,
      398,
      398,
      458,
      458,
      458,
      494,
      494,
      494,
      494,
      494,
      494,
      487,
      487,
      487,
      476,
      476,
      476,
      476,
      480,
      479,
      479,
      479,
      479,
      479,
      479,
      479,
      481,
      481,
      481,
      481,
      481,
      481,
      484,
      484,
      484,
      484,
      484,
      484,
      484,
      479,
      479,
      479,
      479,
      479,
      469,
      468,
      468,
      469,
      469,
      472,
      472,
      473,
      473,
      469,
      468,
      468,
      468,
      468,
      467,
      467,
      467,
      467,
      467,
      467,
      459,
      459,
      459,
      459,
      459,
      457,
      457,
      457,
      456,
      456,
      456,
      456,
      471,
      471,
      471,
      471,
      466,
      466,
      466,
      465,
      472,
      472,
      472,
      472,
      472,
      472,
      469,
      469,
      469,
      466,
      466,
      466,
      466,
      466,
      468,
      468,
      462,
      462,
      462,
      461,
      461,
      458,
      458,
      455,
      455,
      455,
      451,
      451,
      449,
      449,
      447,
      447,
      447,
      444,
      444,
      444,
      443,
      443,
      442,
      442,
      442,
      442,
      443,
      443,
      443,
      441,
      441,
      441,
      440,
      440,
      441,
      441,
      442,
      442,
      425,
      425,
      425,
      422,
      422,
      423,
      431,
      431,
      431,
      435,
      435,
      435,
      430,
      430,
      430,
      428,
      428,
      428,
      428,
      428,
      428,
      428,
      430,
      430,
      430,
      430,
      426,
      426,
      426,
      426,
      426,
      426,
      427,
      427,
      427,
      428,
      428,
      436,
      436,
      436,
      436,
      438,
      438,
      438,
      438,
      438,
      438,
      438,
      438,
      438,
      437,
      437,
      436,
      436,
      436,
      437,
      437,
      437,
      437,
      437,
      437,
      434,
      433,
      433,
      434,
      434,
      434,
      434,
      440,
      440,
      446,
      446,
      446,
      444,
      444,
      445,
      445,
      445,
      445,
      449,
      449,
      446,
      446,
      446,
      446,
      448,
      448,
      449,
      449,
      449,
      448,
      448,
      449,
      449,
      440,
      440,
      439,
      439,
      439,
      439,
      439,
      439,
      438,
      438,
      438,
      437,
      437,
      437,
      437,
      437,
      437,
      435,
      435,
      435,
      435,
      433,
      433,
      433,
      434,
      436,
      436,
      436,
      436,
      436,
      436,
      438,
      438,
      439,
      439,
      440,
      440,
      440,
      440,
      440,
      440,
      440,
      440,
      440,
      437,
      437,
      437,
      437,
      440,
      442,
      440,
      440,
      440,
      440,
      440,
      440,
      436,
      436,
      436,
      436,
      435,
      435,
      435,
      435,
      435,
      435,
      433,
      433,
      433,
      433,
      434,
      434,
      434,
      436,
      436,
      432,
      432,
      432,
      432,
      432,
      432,
      432,
      432,
      434,
      433,
      433,
      431,
      433,
      433,
      431,
      431,
      431,
      431,
      431,
      431,
      432,
      432,
      432,
      432,
      429,
      429,
      432,
      431,
      431,
      432,
      432,
      431,
      431,
      431,
      433,
      434,
      434,
      434,
      434,
      434,
      434,
      435,
      435,
      435,
      434,
      434,
      434,
      434,
      434,
      434,
      433,
      433,
      433,
      431,
      431,
      432,
      432,
      432,
      432,
      432,
      433,
      433,
      433,
      436,
      436,
      436,
      436,
      436,
      436,
      436,
      436,
      439,
      439,
      439,
      439,
      398,
      398,
      398,
      362,
      362,
      361,
      361,
      361,
      333,
      333,
      283,
      274,
      274,
      274,
      270,
      270,
      257,
      241,
      241,
      243,
      243,
      243,
      243,
      243,
      200,
      199,
      199,
      169,
      169,
      169,
      165,
      165,
      167,
      167,
      167,
      147,
      135
    ],
    "swim:timestamps": [
      1761861774,
      1761861807,
      1761861807,
      1761861807,
      1761861807,
      1761861867,
      1761861867,
      1761861900,
      1761861900,
      1761861927,
      1761861987,
      1761862227,
      1761862227,
      1761862408,
      1761862408,
      1761862408,
      1761862408,
      1761862408,
      1761862408,
      1761862949,
      1761862949,
      1761862949,
      1761863124,
      1761863124,
      1761863124,
      1761863189,
      1761863189,
      1761863189,
      1761863249,
      1761863249,
      1761863249,
      1761863429,
      1761863429,
      1761863429,
      1761863429,
      1761863670,
      1761863905,
      1761863905,
      1761863905,
      1761863905,
      1761863905,
      1761863905,
      1761863905,
      1761864386,
      1761864386,
      1761864386,
      1761864386,
      1761864386,
      1761864386,
      1761864626,
      1761864686,
      1761864686,
      1761864686,
      1761864686,
      1761864686,
      1761864686,
      1761864987,
      1761864987,
      1761864987,
      1761864987,
      1761864987,
      1761865287,
      1761865408,
      1761865408,
      1761865468,
      1761865468,
      1761865708,
      1761865708,
      1761865719,
      1761865719,
      1761865899,
      1761865959,
      1761865959,
      1761865959,
      1761865959,
      1761866079,
      1761866079,
      1761866079,
      1761866079,
      1761866079,
      1761866079,
      1761866620,
      1761866620,
      1761866620,
      1761866620,
      1761866620,
      1761866861,
      1761866861,
      1761866861,
      1761866921,
      1761866921,
      1761866921,
      1761866921,
      1761867101,
      1761867101,
      1761867101,
      1761867101,
      1761867281,
      1761867281,
      1761867281,
      1761867461,
      1761867642,
      1761867642,
      1761867642,
      1761867642,
      1761867642,
      1761867642,
      1761867882,
      1761867882,
      1761867882,
      1761868062,
      1761868062,
      1761868062,
      1761868062,
      1761868062,
      1761868200,
      1761868200,
      1761868242,
      1761868242,
      1761868242,
      1761868303,
      1761868303,
      1761868380,
      1761868380,
      1761868423,
      1761868423,
      1761868423,
      1761868543,
      1761868543,
      1761868663,
      1761868663,
      1761868903,
      1761868903,
      1761868903,
      1761869041,
      1761869041,
      1761869041,
      1761869084,
      1761869084,
      1761869281,
      1761869281,
      1761869281,
      1761869281,
      1761869402,
      1761869402,
      1761869402,
      1761869942,
      1761869942,
      1761869942,
      1761870002,
      1761870002,
      1761870123,
      1761870123,
      1761870183,
      1761870183,
      1761870543,
      1761870543,
      1761870543,
      1761870663,
      1761870663,
      1761870710,
      1761870890,
      1761870890,
      1761870890,
      1761871070,
      1761871070,
      1761871131,
      1761871311,
      1761871311,
      1761871311,
      1761871371,
      1761871371,
      1761871371,
      1761871371,
      1761871504,
      1761871504,
      1761871504,
      1761871791,
      1761871791,
      1761871791,
      1761871791,
      1761872032,
      1761872032,
      1761872032,
      1761872032,
      1761872032,
      1761872032,
      1761872246,
      1761872306,
      1761872306,
      1761872366,
      1761872366,
      1761872512,
      1761872512,
      1761872512,
      1761872512,
      1761872787,
      1761872787,
      1761872787,
      1761872787,
      1761872847,
      1761872847,
      1761872847,
      1761872967,
      1761872967,
      1761873148,
      1761873148,
      1761873233,
      1761873233,
      1761873233,
      1761873268,
      1761873328,
      1761873388,
      1761873388,
      1761873413,
      1761873448,
      1761873474,
      1761873568,
      1761873568,
      1761873594,
      1761873594,
      1761873594,
      1761873594,
      1761873688,
      1761873688,
      1761873929,
      1761873929,
      1761873929,
      1761874049,
      1761874049,
      1761874109,
      1761874109,
      1761874109,
      1761874109,
      1761874134,
      1761874134,
      1761874229,
      1761874255,
      1761874255,
      1761874255,
      1761874315,
      1761874315,
      1761874375,
      1761874375,
      1761874375,
      1761874410,
      1761874410,
      1761874435,
      1761874470,
      1761874555,
      1761874555,
      1761874615,
      1761874615,
      1761874710,
      1761874710,
      1761874735,
      1761874735,
      1761874830,
      1761874830,
      1761874830,
      1761874855,
      1761874855,
      1761874855,
      1761874890,
      1761874915,
      1761874915,
      1761875131,
      1761875131,
      1761875131,
      1761875156,
      1761875191,
      1761875216,
      1761875216,
      1761875251,
      1761875336,
      1761875336,
      1761875336,
      1761875371,
      1761875371,
      1761875371,
      1761875431,
      1761875431,
      1761875551,
      1761875551,
      1761875611,
      1761875611,
      1761875671,
      1761875671,
      1761875732,
      1761875732,
      1761875732,
      1761875732,
      1761875732,
      1761875792,
      1761875852,
      1761875852,
      1761875852,
      1761875912,
      1761875972,
      1761876092,
      1761876092,
      1761876092,
      1761876152,
      1761876152,
      1761876152,
      1761876332,
      1761876332,
      1761876332,
      1761876332,
      1761876393,
      1761876393,
      1761876513,
      1761876513,
      1761876513,
      1761876513,
      1761876633,
      1761876693,
      1761876693,
      1761876693,
      1761876753,
      1761876753,
      1761876753,
      1761876933,
      1761876933,
      1761876993,
      1761876993,
      1761876993,
      1761877054,
      1761877054,
      1761877054,
      1761877054,
      1761877114,
      1761877142,
      1761877202,
      1761877202,
      1761877234,
      1761877262,
      1761877262,
      1761877294,
      1761877294,
      1761877294,
      1761877294,
      1761877354,
      1761877354,
      1761877442,
      1761877442,
      1761877442,
      1761877442,
      1761877534,
      1761877534,
      1761877623,
      1761877654,
      1761877654,
      1761877683,
      1761877683,
      1761877714,
      1761877714,
      1761877714,
      1761877803,
      1761877895,
      1761877895,
      1761877895,
      1761877895,
      1761877895,
      1761878015,
      1761878043,
      1761878043,
      1761878043,
      1761878163,
      1761878163,
      1761878195,
      1761878283,
      1761878283,
      1761878283,
      1761878315,
      1761878315,
      1761878315,
      1761878464,
      1761878464,
      1761878524,
      1761878524,
      1761878524,
      1761878524,
      1761878556,
      1761878584,
      1761878584,
      1761878584,
      1761878944,
      1761878944,
      1761878944,
      1761879004,
      1761879004,
      1761879004,
      1761879004,
      1761879004,
      1761879244,
      1761879244,
      1761879244,
      1761879244,
      1761879425,
      1761879425,
      1761879425,
      1761879665,
      1761879665,
      1761879689,
      1761879689,
      1761879689,
      1761879725,
      1761879725,
      1761879785,
      1761879869,
      1761879869,
      1761879869,
      1761879929,
      1761879929,
      1761880025,
      1761880049,
      1761880109,
      1761880145,
      1761880145,
      1761880145,
      1761880145,
      1761880145,
      1761880295,
      1761880386,
      1761880386,
      1761880481,
      1761880481,
      1761880481,
      1761880601,
      1761880601,
      1761880626,
      1761880626,
      1761880626,
      1761880686,
      1761880721
    ],
    "wof:geomhash": "670167acb2de2c7dd6d50c8aeb4d8a98",
    "wof:id": 1981805727,
    "wof:repo": "sfomuseum-data-flights-2025-10"
  },
  "bbox": [
    -122.31666666666666,
    37.396388888888886,
    -74.10805555555555,
    41.029444444444444
  ],
  "geometry": {"coordinates":[[-74.16666666666667,40.7],[-74.14611111111111,40.723055555555554],[-74.14611111111111,40.723055555555554],[-74.14611111111111,40.723055555555554],[-74.14611111111111,40.723055555555554],[-74.10805555555555,40.78111111111111],[-74.10805555555555,40.78111111111111],[-74.13333333333334,40.81666666666667],[-74.13333333333334,40.81666666666667],[-74.18,40.82666666666667],[-74.28111111111112,40.82972222222222],[-74.7575,40.88666666666666],[-74.7575,40.88666666666666],[-75.20305555555557,40.91361111111111],[-75.20305555555557,40.91361111111111],[-75.20305555555557,40.91361111111111],[-75.20305555555557,40.91361111111111],[-75.20305555555557,40.91361111111111],[-75.20305555555557,40.91361111111111],[-76.50027777777778,40.585],[-76.50027777777778,40.585],[-76.50027777777778,40.585],[-77.00611111111111,40.59],[-77.00611111111111,40.59],[-77.00611111111111,40.59],[-77.21083333333334,40.6075],[-77.21083333333334,40.6075],[-77.21083333333334,40.6075],[-77.39805555555556,40.623333333333335],[-77.39805555555556,40.623333333333335],[-77.39805555555556,40.623333333333335],[-77.91555555555556,40.66583333333333],[-77.91555555555556,40.66583333333333],[-77.91555555555556,40.66583333333333],[-77.91555555555556,40.66583333333333],[-78.61638888888888,40.719166666666666],[-79.28083333333333,40.76583333333333],[-79.28083333333333,40.76583333333333],[-79.28083333333333,40.76583333333333],[-79.28083333333333,40.76583333333333],[-79.28083333333333,40.76583333333333],[-79.28083333333333,40.76583333333333],[-79.28083333333333,40.76583333333333],[-80.69861111111112,40.849444444444444],[-80.69861111111112,40.849444444444444],[-80.69861111111112,40.849444444444444],[-80.69861111111112,40.849444444444444],[-80.69861111111112,40.849444444444444],[-80.69861111111112,40.849444444444444],[-81.40583333333333,40.88611111111111],[-81.58472222222221,40.89472222222222],[-81.58472222222221,40.89472222222222],[-81.58472222222221,40.89472222222222],[-81.58472222222221,40.89472222222222],[-81.58472222222221,40.89472222222222],[-81.58472222222221,40.89472222222222],[-82.47361111111111,40.93444444444444],[-82.47361111111111,40.93444444444444],[-82.47361111111111,40.93444444444444],[-82.47361111111111,40.93444444444444],[-82.47361111111111,40.93444444444444],[-83.335,40.96611111111111],[-83.67472222222223,40.97694444444445],[-83.67472222222223,40.97694444444445],[-83.8475,40.98222222222223],[-83.8475,40.98222222222223],[-84.53166666666667,40.999722222222225],[-84.53166666666667,40.999722222222225],[-84.565,41.00055555555556],[-84.565,41.00055555555556],[-85.08277777777778,41.01111111111111],[-85.255,41.013888888888886],[-85.255,41.013888888888886],[-85.255,41.013888888888886],[-85.255,41.013888888888886],[-85.59916666666666,41.01916666666666],[-85.59916666666666,41.01916666666666],[-85.59916666666666,41.01916666666666],[-85.59916666666666,41.01916666666666],[-85.59916666666666,41.01916666666666],[-85.59916666666666,41.01916666666666],[-87.1525,41.029444444444444],[-87.1525,41.029444444444444],[-87.1525,41.029444444444444],[-87.1525,41.029444444444444],[-87.1525,41.029444444444444],[-87.8275,41.02777777777778],[-87.8275,41.02777777777778],[-87.8275,41.02777777777778],[-87.99722222222222,41.02638888888889],[-87.99722222222222,41.02638888888889],[-87.99722222222222,41.02638888888889],[-87.99722222222222,41.02638888888889],[-88.51666666666667,41.021388888888886],[-88.51666666666667,41.021388888888886],[-88.51666666666667,41.021388888888886],[-88.51666666666667,41.021388888888886],[-89.03416666666666,41.01416666666667],[-89.03416666666666,41.01416666666667],[-89.03416666666666,41.01416666666667],[-89.51888888888888,41.00527777777778],[-90.03138888888888,40.993611111111115],[-90.03138888888888,40.993611111111115],[-90.03138888888888,40.993611111111115],[-90.03138888888888,40.993611111111115],[-90.03138888888888,40.993611111111115],[-90.03138888888888,40.993611111111115],[-90.75,40.97361111111111],[-90.75,40.97361111111111],[-90.75,40.97361111111111],[-91.25833333333334,40.95638888888889],[-91.25833333333334,40.95638888888889],[-91.25833333333334,40.95638888888889],[-91.25833333333334,40.95638888888889],[-91.25833333333334,40.95638888888889],[-91.62416666666665,40.94277777777778],[-91.62416666666665,40.94277777777778],[-91.75805555555556,40.9375],[-91.75805555555556,40.9375],[-91.75805555555556,40.9375],[-91.92805555555556,40.93083333333333],[-91.92805555555556,40.93083333333333],[-92.16444444444446,40.92055555555555],[-92.16444444444446,40.92055555555555],[-92.25833333333334,40.91638888888889],[-92.25833333333334,40.91638888888889],[-92.25833333333334,40.91638888888889],[-92.58916666666666,40.90138888888889],[-92.58916666666666,40.90138888888889],[-92.90805555555556,40.88583333333333],[-92.90805555555556,40.88583333333333],[-93.58944444444444,40.849722222222226],[-93.58944444444444,40.849722222222226],[-93.58944444444444,40.849722222222226],[-93.94638888888889,40.82916666666667],[-93.94638888888889,40.82916666666667],[-93.94638888888889,40.82916666666667],[-94.0736111111111,40.82166666666667],[-94.0736111111111,40.82166666666667],[-94.59027777777777,40.78916666666667],[-94.59027777777777,40.78916666666667],[-94.59027777777777,40.78916666666667],[-94.59027777777777,40.78916666666667],[-94.90805555555556,40.76833333333333],[-94.90805555555556,40.76833333333333],[-94.90805555555556,40.76833333333333],[-96.36861111111111,40.66],[-96.36861111111111,40.66],[-96.36861111111111,40.66],[-96.52888888888889,40.64694444444444],[-96.52888888888889,40.64694444444444],[-96.85166666666666,40.62027777777778],[-96.85166666666666,40.62027777777778],[-97.01277777777777,40.60666666666667],[-97.01277777777777,40.60666666666667],[-97.9263888888889,40.524166666666666],[-97.9263888888889,40.524166666666666],[-97.9263888888889,40.524166666666666],[-98.23333333333333,40.49472222222222],[-98.23333333333333,40.49472222222222],[-98.35638888888889,40.4825],[-98.82555555555555,40.43555555555555],[-98.82555555555555,40.43555555555555],[-98.82555555555555,40.43555555555555],[-99.29916666666666,40.38611111111111],[-99.29916666666666,40.38611111111111],[-99.45444444444445,40.36944444444445],[-99.92777777777778,40.31722222222223],[-99.92777777777778,40.31722222222223],[-99.92777777777778,40.31722222222223],[-100.08166666666666,40.3],[-100.08166666666666,40.3],[-100.08166666666666,40.3],[-100.08166666666666,40.3],[-100.41277777777778,40.261944444444445],[-100.41277777777778,40.261944444444445],[-100.41277777777778,40.261944444444445],[-101.16611111111112,40.171388888888885],[-101.16611111111112,40.171388888888885],[-101.16611111111112,40.171388888888885],[-101.16611111111112,40.171388888888885],[-101.77833333333334,40.094166666666666],[-101.77833333333334,40.094166666666666],[-101.77833333333334,40.094166666666666],[-101.77833333333334,40.094166666666666],[-101.77833333333334,40.094166666666666],[-101.77833333333334,40.094166666666666],[-102.29805555555555,40.025277777777774],[-102.45194444444445,40.004444444444445],[-102.45194444444445,40.004444444444445],[-102.60499999999999,39.98388888888889],[-102.60499999999999,39.98388888888889],[-103.01694444444445,39.92722222222222],[-103.01694444444445,39.92722222222222],[-103.01694444444445,39.92722222222222],[-103.01694444444445,39.92722222222222],[-103.69777777777779,39.828611111111115],[-103.69777777777779,39.828611111111115],[-103.69777777777779,39.828611111111115],[-103.69777777777779,39.828611111111115],[-103.85055555555554,39.80583333333333],[-103.85055555555554,39.80583333333333],[-103.85055555555554,39.80583333333333],[-104.15972222222223,39.76083333333333],[-104.15972222222223,39.76083333333333],[-104.62055555555555,39.689722222222215],[-104.62055555555555,39.689722222222215],[-104.8611111111111,39.66583333333333],[-104.8611111111111,39.66583333333333],[-104.8611111111111,39.66583333333333],[-104.93777777777778,39.6575],[-105.09305555555555,39.64055555555556],[-105.24861111111112,39.624722222222225],[-105.24861111111112,39.624722222222225],[-105.32583333333334,39.617222222222225],[-105.40361111111112,39.608333333333334],[-105.48055555555555,39.600833333333334],[-105.71111111111111,39.57472222222223],[-105.71111111111111,39.57472222222223],[-105.78944444444444,39.56722222222223],[-105.78944444444444,39.56722222222223],[-105.78944444444444,39.56722222222223],[-105.78944444444444,39.56722222222223],[-106.02527777777777,39.540277777777774],[-106.02527777777777,39.540277777777774],[-106.65805555555556,39.46638888888889],[-106.65805555555556,39.46638888888889],[-106.65805555555556,39.46638888888889],[-106.97194444444445,39.425],[-106.97194444444445,39.425],[-107.12805555555555,39.39388888888889],[-107.12805555555555,39.39388888888889],[-107.12805555555555,39.39388888888889],[-107.12805555555555,39.39388888888889],[-107.22083333333333,39.376666666666665],[-107.22083333333333,39.376666666666665],[-107.44055555555556,39.33305555555556],[-107.53333333333333,39.315555555555555],[-107.53333333333333,39.315555555555555],[-107.53333333333333,39.315555555555555],[-107.69111111111111,39.284166666666664],[-107.69111111111111,39.284166666666664],[-107.84583333333333,39.25333333333333],[-107.84583333333333,39.25333333333333],[-107.84583333333333,39.25333333333333],[-107.9088888888889,39.24055555555556],[-107.9088888888889,39.24055555555556],[-108.00305555555556,39.221944444444446],[-108.06416666666667,39.208333333333336],[-108.30916666666667,39.17388888888889],[-108.30916666666667,39.17388888888889],[-108.46805555555555,39.160555555555554],[-108.46805555555555,39.160555555555554],[-108.68666666666667,39.14222222222222],[-108.68666666666667,39.14222222222222],[-108.78083333333333,39.13388888888889],[-108.78083333333333,39.13388888888889],[-108.99888888888889,39.115],[-108.99888888888889,39.115],[-108.99888888888889,39.115],[-109.06277777777777,39.10944444444445],[-109.06277777777777,39.10944444444445],[-109.06277777777777,39.10944444444445],[-109.15444444444445,39.10138888888889],[-109.21694444444445,39.09583333333334],[-109.21694444444445,39.09583333333334],[-109.77333333333333,39.04472222222222],[-109.77333333333333,39.04472222222222],[-109.77333333333333,39.04472222222222],[-109.83361111111111,39.038888888888884],[-109.92750000000001,39.03],[-109.9888888888889,39.024166666666666],[-109.9888888888889,39.024166666666666],[-110.08111111111111,39.015277777777776],[-110.2961111111111,38.994166666666665],[-110.2961111111111,38.994166666666665],[-110.2961111111111,38.994166666666665],[-110.39111111111112,38.984722222222224],[-110.39111111111112,38.984722222222224],[-110.39111111111112,38.984722222222224],[-110.54638888888888,38.969166666666666],[-110.54638888888888,38.969166666666666],[-110.8561111111111,38.93722222222222],[-110.8561111111111,38.93722222222222],[-111.02111111111111,38.919999999999995],[-111.02111111111111,38.919999999999995],[-111.17583333333334,38.90333333333333],[-111.17583333333334,38.90333333333333],[-111.33055555555555,38.886944444444445],[-111.33055555555555,38.886944444444445],[-111.33055555555555,38.886944444444445],[-111.33055555555555,38.886944444444445],[-111.33055555555555,38.886944444444445],[-111.48555555555555,38.87],[-111.63833333333334,38.85333333333333],[-111.63833333333334,38.85333333333333],[-111.63833333333334,38.85333333333333],[-111.79472222222222,38.83555555555556],[-111.95027777777779,38.81805555555556],[-112.2575,38.782777777777774],[-112.2575,38.782777777777774],[-112.2575,38.782777777777774],[-112.41277777777778,38.764722222222225],[-112.41277777777778,38.764722222222225],[-112.41277777777778,38.764722222222225],[-112.8711111111111,38.709722222222226],[-112.8711111111111,38.709722222222226],[-112.8711111111111,38.709722222222226],[-112.8711111111111,38.709722222222226],[-113.02222222222223,38.691111111111105],[-113.02222222222223,38.691111111111105],[-113.3236111111111,38.65333333333333],[-113.3236111111111,38.65333333333333],[-113.3236111111111,38.65333333333333],[-113.3236111111111,38.65333333333333],[-113.62666666666667,38.615],[-113.77638888888889,38.595555555555556],[-113.77638888888889,38.595555555555556],[-113.77638888888889,38.595555555555556],[-113.93083333333334,38.57527777777778],[-113.93083333333334,38.57527777777778],[-113.93083333333334,38.57527777777778],[-114.385,38.51444444444444],[-114.385,38.51444444444444],[-114.53555555555555,38.494166666666665],[-114.53555555555555,38.494166666666665],[-114.53555555555555,38.494166666666665],[-114.6863888888889,38.473333333333336],[-114.6863888888889,38.473333333333336],[-114.6863888888889,38.473333333333336],[-114.6863888888889,38.473333333333336],[-114.83722222222222,38.4525],[-114.91222222222223,38.44277777777778],[-115.06277777777777,38.42305555555555],[-115.06277777777777,38.42305555555555],[-115.1363888888889,38.41027777777778],[-115.21222222222222,38.39972222222222],[-115.21222222222222,38.39972222222222],[-115.285,38.388888888888886],[-115.285,38.388888888888886],[-115.285,38.388888888888886],[-115.285,38.388888888888886],[-115.45194444444445,38.36472222222223],[-115.45194444444445,38.36472222222223],[-115.66166666666668,38.33527777777778],[-115.66166666666668,38.33527777777778],[-115.66166666666668,38.33527777777778],[-115.66166666666668,38.33527777777778],[-115.90027777777779,38.29861111111111],[-115.90027777777779,38.29861111111111],[-116.1125,38.266666666666666],[-116.20083333333334,38.25333333333333],[-116.20083333333334,38.25333333333333],[-116.2625,38.24388888888889],[-116.2625,38.24388888888889],[-116.35055555555554,38.230555555555554],[-116.35055555555554,38.230555555555554],[-116.35055555555554,38.230555555555554],[-116.56305555555555,38.19777777777777],[-116.80277777777778,38.16],[-116.80277777777778,38.16],[-116.80277777777778,38.16],[-116.80277777777778,38.16],[-116.80277777777778,38.16],[-117.10444444444444,38.11222222222222],[-117.16638888888889,38.102222222222224],[-117.16638888888889,38.102222222222224],[-117.16638888888889,38.102222222222224],[-117.47916666666667,38.05138888888889],[-117.47916666666667,38.05138888888889],[-117.5363888888889,38.04194444444444],[-117.77666666666667,38.00333333333333],[-117.77666666666667,38.00333333333333],[-117.77666666666667,38.00333333333333],[-117.83527777777778,37.99638888888889],[-117.83527777777778,37.99638888888889],[-117.83527777777778,37.99638888888889],[-118.2275,37.95472222222222],[-118.2275,37.95472222222222],[-118.37972222222221,37.93833333333333],[-118.37972222222221,37.93833333333333],[-118.37972222222221,37.93833333333333],[-118.37972222222221,37.93833333333333],[-118.4375,37.93194444444444],[-118.53,37.92194444444444],[-118.53,37.92194444444444],[-118.53,37.92194444444444],[-119.43805555555556,37.81805555555556],[-119.43805555555556,37.81805555555556],[-119.43805555555556,37.81805555555556],[-119.58999999999999,37.79972222222222],[-119.58999999999999,37.79972222222222],[-119.58999999999999,37.79972222222222],[-119.58999999999999,37.79972222222222],[-119.58999999999999,37.79972222222222],[-120.20416666666667,37.724444444444444],[-120.20416666666667,37.724444444444444],[-120.20416666666667,37.724444444444444],[-120.20416666666667,37.724444444444444],[-120.63583333333334,37.67222222222222],[-120.63583333333334,37.67222222222222],[-120.63583333333334,37.67222222222222],[-121.125,37.61138888888889],[-121.125,37.61138888888889],[-121.2,37.6],[-121.2,37.6],[-121.2,37.6],[-121.26944444444445,37.591944444444444],[-121.26944444444445,37.591944444444444],[-121.37166666666666,37.58027777777778],[-121.5,37.56666666666667],[-121.5,37.56666666666667],[-121.5,37.56666666666667],[-121.6,37.55],[-121.6,37.55],[-121.7213888888889,37.52472222222222],[-121.75,37.483333333333334],[-121.76666666666667,37.416666666666664],[-121.7675,37.396388888888886],[-121.7675,37.396388888888886],[-121.7675,37.396388888888886],[-121.7675,37.396388888888886],[-121.7675,37.396388888888886],[-121.95,37.43333333333333],[-122.0286111111111,37.474722222222226],[-122.0286111111111,37.474722222222226],[-122.13333333333334,37.516666666666666],[-122.13333333333334,37.516666666666666],[-122.13333333333334,37.516666666666666],[-122.23333333333333,37.56666666666667],[-122.23333333333333,37.56666666666667],[-122.24583333333334,37.56666666666667],[-122.24583333333334,37.56666666666667],[-122.24583333333334,37.56666666666667],[-122.29222222222222,37.586111111111116],[-122.31666666666666,37.6]],"type":"LineString"}
}
