{
  "id": 1981728851,
  "type": "Feature",
  "properties": {
    "geom:area": 0,
    "geom:bbox": "-122.355278,32.816667,-117.350000,37.610278",
    "geom:latitude": 35.076817952682156,
    "geom:longitude": -120.04917071741494,
    "src:alt_label": "swim-path",
    "src:geom": "swim",
    "swim:altitudes": [
      "051",
      "051",
      "051",
      "051",
      "051",
      "051",
      "051",
      "062",
      "062",
      "062",
      "062",
      "062",
      "062",
      "320C",
      "320C",
      "320C",
      "320C",
      "320C",
      "320C",
      "320C",
      "320C",
      "320C",
      "320C",
      "320C",
      "320C",
      "320C",
      "320C",
      "320C",
      "320C",
      "320C",
      "320C",
      "320C",
      "320C",
      "320C",
      "320C",
      "320C",
      "320C",
      "320C",
      "320C",
      "320C",
      "320C",
      "320C",
      "320C",
      "320C",
      "320C",
      "320C",
      "320",
      "320",
      "320",
      "320",
      "227",
      "227",
      "227",
      "227",
      "207",
      "207",
      "207",
      "207",
      "207",
      "207",
      "207",
      "207",
      "150",
      "150",
      "150",
      "150",
      "150",
      "115",
      "115",
      "115",
      "115",
      "075",
      "075",
      "075",
      "050",
      "050",
      "050",
      "042",
      "042",
      "042",
      "042",
      "001",
      "001",
      "001",
      "001",
      "001",
      "001",
      "001"
    ],
    "swim:geom": "path",
    "swim:speeds": [
      274,
      274,
      274,
      274,
      274,
      274,
      274,
      281,
      281,
      281,
      281,
      281,
      281,
      461,
      461,
      463,
      463,
      463,
      463,
      480,
      480,
      463,
      463,
      463,
      466,
      466,
      466,
      465,
      465,
      465,
      465,
      465,
      469,
      470,
      470,
      471,
      472,
      472,
      472,
      472,
      472,
      472,
      472,
      472,
      472,
      472,
      482,
      482,
      482,
      482,
      440,
      440,
      440,
      440,
      424,
      424,
      424,
      424,
      424,
      424,
      424,
      424,
      389,
      389,
      389,
      389,
      389,
      363,
      363,
      363,
      363,
      258,
      258,
      258,
      219,
      219,
      219,
      201,
      201,
      201,
      201,
      142,
      142,
      142,
      142,
      142,
      142,
      142
    ],
    "swim:timestamps": [
      1761081103,
      1761081103,
      1761081103,
      1761081103,
      1761081103,
      1761081103,
      1761081103,
      1761081137,
      1761081137,
      1761081137,
      1761081137,
      1761081137,
      1761081137,
      1761082218,
      1761082218,
      1761082310,
      1761082310,
      1761082310,
      1761082310,
      1761082370,
      1761082370,
      1761082399,
      1761082399,
      1761082399,
      1761082490,
      1761082490,
      1761082490,
      1761082519,
      1761082519,
      1761082519,
      1761082519,
      1761082519,
      1761082670,
      1761082730,
      1761082730,
      1761082759,
      1761082791,
      1761082791,
      1761082791,
      1761082819,
      1761082819,
      1761082819,
      1761082819,
      1761082819,
      1761082819,
      1761082819,
      1761083180,
      1761083180,
      1761083180,
      1761083180,
      1761083572,
      1761083572,
      1761083572,
      1761083572,
      1761083632,
      1761083632,
      1761083632,
      1761083632,
      1761083632,
      1761083632,
      1761083632,
      1761083632,
      1761083812,
      1761083812,
      1761083812,
      1761083812,
      1761083812,
      1761083912,
      1761083912,
      1761083912,
      1761083912,
      1761084158,
      1761084158,
      1761084158,
      1761084292,
      1761084292,
      1761084292,
      1761084353,
      1761084353,
      1761084353,
      1761084353,
      1761084593,
      1761084593,
      1761084593,
      1761084593,
      1761084593,
      1761084593,
      1761084593
    ],
    "wof:geomhash": "c27c93873a52671dcb0b891c509cb9a9",
    "wof:id": 1981728851,
    "wof:repo": "sfomuseum-data-flights-2025-10"
  },
  "bbox": [
    -122.35527777777777,
    32.81666666666667,
    -117.35,
    37.61027777777778
  ],
  "geometry": {"coordinates":[[-117.35,32.81666666666667],[-117.35,32.81666666666667],[-117.35,32.81666666666667],[-117.35,32.81666666666667],[-117.35,32.81666666666667],[-117.35,32.81666666666667],[-117.35,32.81666666666667],[-117.37027777777777,32.83277777777778],[-117.37027777777777,32.83277777777778],[-117.37027777777777,32.83277777777778],[-117.37027777777777,32.83277777777778],[-117.37027777777777,32.83277777777778],[-117.37027777777777,32.83277777777778],[-119.2238888888889,34.29666666666667],[-119.2238888888889,34.29666666666667],[-119.39833333333334,34.42638888888889],[-119.39833333333334,34.42638888888889],[-119.39833333333334,34.42638888888889],[-119.39833333333334,34.42638888888889],[-119.5125,34.51555555555556],[-119.5125,34.51555555555556],[-119.56944444444444,34.558611111111105],[-119.56944444444444,34.558611111111105],[-119.56944444444444,34.558611111111105],[-119.74555555555555,34.69083333333333],[-119.74555555555555,34.69083333333333],[-119.74555555555555,34.69083333333333],[-119.79083333333332,34.724722222222226],[-119.79083333333332,34.724722222222226],[-119.79083333333332,34.724722222222226],[-119.79083333333332,34.724722222222226],[-119.79083333333332,34.724722222222226],[-120.09888888888888,34.95444444444445],[-120.21666666666667,35.04222222222222],[-120.21666666666667,35.04222222222222],[-120.26305555555555,35.07638888888889],[-120.33722222222222,35.13138888888889],[-120.33722222222222,35.13138888888889],[-120.33722222222222,35.13138888888889],[-120.3825,35.16444444444444],[-120.3825,35.16444444444444],[-120.3825,35.16444444444444],[-120.3825,35.16444444444444],[-120.3825,35.16444444444444],[-120.3825,35.16444444444444],[-120.3825,35.16444444444444],[-121.04472222222222,35.757777777777775],[-121.04472222222222,35.757777777777775],[-121.04472222222222,35.757777777777775],[-121.04472222222222,35.757777777777775],[-121.64250000000001,36.43222222222222],[-121.64250000000001,36.43222222222222],[-121.64250000000001,36.43222222222222],[-121.64250000000001,36.43222222222222],[-121.72583333333334,36.529444444444444],[-121.72583333333334,36.529444444444444],[-121.72583333333334,36.529444444444444],[-121.72583333333334,36.529444444444444],[-121.72583333333334,36.529444444444444],[-121.72583333333334,36.529444444444444],[-121.72583333333334,36.529444444444444],[-121.72583333333334,36.529444444444444],[-121.91611111111112,36.82055555555556],[-121.91611111111112,36.82055555555556],[-121.91611111111112,36.82055555555556],[-121.91611111111112,36.82055555555556],[-121.91611111111112,36.82055555555556],[-121.96666666666667,37],[-121.96666666666667,37],[-121.96666666666667,37],[-121.96666666666667,37],[-122.1,37.333333333333336],[-122.1,37.333333333333336],[-122.1,37.333333333333336],[-122.10694444444444,37.472500000000004],[-122.10694444444444,37.472500000000004],[-122.10694444444444,37.472500000000004],[-122.1438888888889,37.52055555555555],[-122.1438888888889,37.52055555555555],[-122.1438888888889,37.52055555555555],[-122.1438888888889,37.52055555555555],[-122.35527777777777,37.61027777777778],[-122.35527777777777,37.61027777777778],[-122.35527777777777,37.61027777777778],[-122.35527777777777,37.61027777777778],[-122.35527777777777,37.61027777777778],[-122.35527777777777,37.61027777777778],[-122.35527777777777,37.61027777777778]],"type":"LineString"}
}
