{
  "id": 1981710263,
  "type": "Feature",
  "properties": {
    "geom:area": 0,
    "geom:bbox": "-122.350100,37.491440,-121.246170,37.610610",
    "geom:latitude": 37.54234898735221,
    "geom:longitude": -121.80502327428853,
    "src:alt_label": "swim-approach",
    "src:geom": "swim",
    "swim:elevations": [
      4508,
      4287,
      3993,
      3884,
      3491,
      3198,
      3105,
      2897,
      2627,
      2436,
      2438,
      2247,
      2127,
      2067,
      1797,
      1646,
      1421,
      1394,
      1186,
      1017,
      765,
      578,
      492,
      356,
      224,
      107,
      56
    ],
    "swim:geom": "approach",
    "swim:timestamps": [
      1760934861,
      1760934885,
      1760934917,
      1760934930,
      1760934975,
      1760935013,
      1760935040,
      1760935074,
      1760935096,
      1760935129,
      1760935147,
      1760935196,
      1760935221,
      1760935234,
      1760935283,
      1760935310,
      1760935348,
      1760935352,
      1760935385,
      1760935418,
      1760935466,
      1760935499,
      1760935526,
      1760935550,
      1760935580,
      1760935613,
      1760935625
    ],
    "wof:geomhash": "574e10d04305d243336e5c60c80f41dd",
    "wof:id": 1981710263,
    "wof:repo": "sfomuseum-data-flights-2025-10"
  },
  "bbox": [
    -122.3501,
    37.49144,
    -121.24617,
    37.61061
  ],
  "geometry": {"coordinates":[[-121.24617,37.59474],[-121.29494,37.58824],[-121.35935,37.58084],[-121.38359,37.57814],[-121.47057,37.56844],[-121.54563,37.56003],[-121.59641,37.55393],[-121.65571,37.54337],[-121.69251,37.53415],[-121.74698,37.52093],[-121.77367,37.51472],[-121.8436,37.4986],[-121.87767,37.49144],[-121.89593,37.49186],[-121.9648,37.49598],[-122.00268,37.49821],[-122.05526,37.50125],[-122.06073,37.50156],[-122.10633,37.50767],[-122.14539,37.52456],[-122.20053,37.5478],[-122.23846,37.56375],[-122.26754,37.57584],[-122.29082,37.58564],[-122.31625,37.59637],[-122.34121,37.60684],[-122.3501,37.61061]],"type":"LineString"}
}
