{
  "id": 1981711235,
  "type": "Feature",
  "properties": {
    "geom:area": 0,
    "geom:bbox": "-122.361250,36.740320,-121.889170,37.613310",
    "geom:latitude": 37.21920447866996,
    "geom:longitude": -122.07462647727293,
    "src:alt_label": "swim-approach",
    "src:geom": "swim",
    "swim:elevations": [
      5753,
      5416,
      4916,
      4769,
      3992,
      3793,
      3454,
      3200,
      3143,
      3106,
      2816,
      2452,
      2308,
      2111,
      1986,
      1690,
      1693,
      1644,
      1293,
      1159,
      911,
      710,
      528,
      396,
      335,
      242,
      99,
      0
    ],
    "swim:geom": "approach",
    "swim:timestamps": [
      1760875822,
      1760875856,
      1760875883,
      1760875896,
      1760875946,
      1760875965,
      1760876005,
      1760876037,
      1760876054,
      1760876072,
      1760876131,
      1760876187,
      1760876208,
      1760876236,
      1760876258,
      1760876300,
      1760876317,
      1760876343,
      1760876392,
      1760876413,
      1760876451,
      1760876481,
      1760876508,
      1760876543,
      1760876559,
      1760876581,
      1760876616,
      1760876642
    ],
    "wof:geomhash": "1ac35a6671d3765aa7769a3906683585",
    "wof:id": 1981711235,
    "wof:repo": "sfomuseum-data-flights-2025-10"
  },
  "bbox": [
    -122.36125,
    36.74032,
    -121.88917,
    37.61331
  ],
  "geometry": {"coordinates":[[-121.88917,36.74032],[-121.91106,36.79351],[-121.92286,36.84034],[-121.92832,36.86152],[-121.95109,36.94432],[-121.96162,36.97442],[-121.98399,37.03222],[-122.00283,37.07976],[-122.01211,37.10349],[-122.0216,37.12758],[-122.05058,37.20161],[-122.07762,37.27038],[-122.08759,37.29577],[-122.10095,37.32968],[-122.11118,37.35578],[-122.12914,37.40104],[-122.13475,37.41838],[-122.14317,37.44594],[-122.16662,37.49371],[-122.1808,37.51332],[-122.20819,37.54513],[-122.23554,37.55948],[-122.26079,37.57049],[-122.28946,37.58266],[-122.30166,37.58781],[-122.31836,37.59473],[-122.3435,37.60544],[-122.36125,37.61331]],"type":"LineString"}
}
