{
  "id": 1997542441,
  "type": "Feature",
  "properties": {
    "geom:area": 0,
    "geom:bbox": "-122.380000,37.490000,-87.750000,42.240000",
    "geom:latitude": 40.68319366605394,
    "geom:longitude": -105.18264134321645,
    "src:alt_label": "swim-route",
    "src:geom": "swim",
    "swim:geom": "route",
    "wof:geomhash": "9a41979146f31b812deaf93b19d386b1",
    "wof:id": 1997542441,
    "wof:repo": "sfomuseum-data-flights-2025-10"
  },
  "bbox": [
    -122.38,
    37.49,
    -87.75,
    42.24
  ],
  "geometry": {"coordinates":[[-87.75,41.79],[-87.84,41.79],[-87.87,41.79],[-87.96,41.79],[-87.96,41.79],[-88.06,41.79],[-88.09,41.79],[-88.29,41.79],[-88.51,41.79],[-88.56,41.79],[-88.6,41.8],[-88.69,41.8],[-88.81,41.8],[-88.96,41.81],[-89.08,41.81],[-89.21,41.82],[-89.48,41.84],[-89.6,41.84],[-89.72,41.85],[-89.75,41.85],[-89.8,41.86],[-89.96,41.89],[-90.1,41.91],[-90.24,41.93],[-90.43,41.96],[-90.62,41.98],[-91.28,42.08],[-92.43,42.09],[-93.3,42.09],[-93.53,42.09],[-95.23,42.06],[-96.33,42.13],[-99.21,42.24],[-102,42],[-102.1,41.99],[-103.48,41.89],[-104.59,41.73],[-106,41.5],[-106.25,41.46],[-106.9,41.3],[-108.29,40.96],[-109.11,40.74],[-109.33,40.68],[-109.56,40.62],[-110,40.5],[-110.43,40.35],[-113.25,39.3],[-113.32,39.28],[-115.6,38.67],[-117.28,38.33],[-117.28,38.33],[-118.76,37.9],[-119.03,37.86],[-119.1,37.86],[-119.38,37.82],[-119.94,37.76],[-120.04,37.75],[-120.22,37.72],[-120.4,37.7],[-120.41,37.7],[-120.48,37.69],[-120.69,37.67],[-120.75,37.66],[-120.77,37.66],[-120.83,37.65],[-120.96,37.63],[-121,37.63],[-121.08,37.62],[-121.17,37.6],[-121.26,37.59],[-121.39,37.58],[-121.41,37.58],[-121.6,37.55],[-121.61,37.55],[-121.62,37.55],[-121.7,37.53],[-121.8,37.51],[-121.83,37.5],[-121.88,37.49],[-122.08,37.54],[-122.14,37.56],[-122.18,37.57],[-122.28,37.59],[-122.33,37.61],[-122.36,37.61],[-122.38,37.62]],"type":"LineString"}
}
