{
  "id": 1981789203,
  "type": "Feature",
  "properties": {
    "geom:area": 0,
    "geom:bbox": "-122.233333,33.917222,-118.435278,37.550000",
    "geom:latitude": 35.486735022957696,
    "geom:longitude": -120.547543791243,
    "src:alt_label": "swim-path",
    "src:geom": "swim",
    "swim:altitudes": [
      "015",
      "015",
      "015",
      "015",
      "015",
      "015",
      "100",
      "124",
      "124",
      "124",
      "124",
      "227",
      "227",
      "279",
      "359C",
      "359C",
      "359C",
      "359C",
      "360C",
      "360C",
      "360C",
      "360C",
      "360C",
      "360",
      "352",
      "352",
      "352",
      "352",
      "291",
      "246",
      "246",
      "180",
      "147",
      "147",
      "147",
      "072",
      "044",
      "044",
      "022",
      "022"
    ],
    "swim:geom": "path",
    "swim:speeds": [
      180,
      180,
      180,
      180,
      180,
      180,
      289,
      327,
      327,
      327,
      327,
      396,
      396,
      425,
      444,
      444,
      444,
      444,
      439,
      439,
      438,
      438,
      437,
      438,
      438,
      438,
      438,
      438,
      453,
      427,
      427,
      373,
      371,
      371,
      371,
      283,
      216,
      216,
      187,
      187
    ],
    "swim:timestamps": [
      1761713988,
      1761713988,
      1761713988,
      1761713988,
      1761713988,
      1761713988,
      1761714168,
      1761714228,
      1761714228,
      1761714228,
      1761714228,
      1761714469,
      1761714469,
      1761714647,
      1761714949,
      1761714949,
      1761714949,
      1761714949,
      1761715129,
      1761715129,
      1761715248,
      1761715248,
      1761715428,
      1761715670,
      1761715728,
      1761715728,
      1761715728,
      1761715728,
      1761715848,
      1761715968,
      1761715968,
      1761716158,
      1761716268,
      1761716268,
      1761716268,
      1761716568,
      1761716704,
      1761716704,
      1761716818,
      1761716818
    ],
    "wof:geomhash": "4f535a9c0045d39306b45b95731249ac",
    "wof:id": 1981789203,
    "wof:repo": "sfomuseum-data-flights-2025-10"
  },
  "bbox": [
    -122.23333333333333,
    33.91722222222222,
    -118.43527777777778,
    37.55
  ],
  "geometry": {"coordinates":[[-118.43527777777778,33.93444444444444],[-118.43527777777778,33.93444444444444],[-118.43527777777778,33.93444444444444],[-118.43527777777778,33.93444444444444],[-118.43527777777778,33.93444444444444],[-118.43527777777778,33.93444444444444],[-118.6913888888889,33.9175],[-118.79555555555555,33.91722222222222],[-118.79555555555555,33.91722222222222],[-118.79555555555555,33.91722222222222],[-118.79555555555555,33.91722222222222],[-119.18277777777779,34.13527777777778],[-119.18277777777779,34.13527777777778],[-119.46472222222222,34.39055555555556],[-119.97222222222223,34.849722222222226],[-119.97222222222223,34.849722222222226],[-119.97222222222223,34.849722222222226],[-119.97222222222223,34.849722222222226],[-120.27583333333334,35.12],[-120.27583333333334,35.12],[-120.47694444444444,35.297777777777775],[-120.47694444444444,35.297777777777775],[-120.77,35.58527777777778],[-121.15027777777779,35.961111111111116],[-121.24722222222222,36.05611111111111],[-121.24722222222222,36.05611111111111],[-121.24722222222222,36.05611111111111],[-121.24722222222222,36.05611111111111],[-121.44194444444445,36.24583333333334],[-121.6325,36.43138888888889],[-121.6325,36.43138888888889],[-121.88333333333334,36.733333333333334],[-121.93694444444445,36.89472222222222],[-121.93694444444445,36.89472222222222],[-121.93694444444445,36.89472222222222],[-122.09583333333333,37.31666666666667],[-122.15,37.483333333333334],[-122.15,37.483333333333334],[-122.23333333333333,37.55],[-122.23333333333333,37.55]],"type":"LineString"}
}
