{
  "id": 1981674661,
  "type": "Feature",
  "properties": {
    "geom:area": 0,
    "geom:bbox": "-122.346860,37.397760,-121.495060,37.609180",
    "geom:latitude": 37.50872770425401,
    "geom:longitude": -121.90860861642555,
    "src:alt_label": "swim-approach",
    "src:geom": "swim",
    "swim:elevations": [
      3755,
      3713,
      3658,
      3589,
      3507,
      3343,
      3300,
      3188,
      2975,
      2881,
      2712,
      2648,
      2557,
      2467,
      2435,
      2376,
      2254,
      2223,
      2112,
      1975,
      1861,
      1731,
      1673,
      1558,
      1428,
      1196,
      1035,
      824,
      628,
      395,
      354,
      158,
      83
    ],
    "swim:geom": "approach",
    "swim:timestamps": [
      1760548100,
      1760548118,
      1760548143,
      1760548163,
      1760548179,
      1760548213,
      1760548220,
      1760548236,
      1760548275,
      1760548293,
      1760548347,
      1760548373,
      1760548396,
      1760548435,
      1760548446,
      1760548474,
      1760548521,
      1760548532,
      1760548562,
      1760548598,
      1760548623,
      1760548652,
      1760548663,
      1760548687,
      1760548712,
      1760548745,
      1760548773,
      1760548805,
      1760548840,
      1760548883,
      1760548895,
      1760548940,
      1760548961
    ],
    "wof:geomhash": "827452a4f844f2922930fd79486dccc6",
    "wof:id": 1981674661,
    "wof:repo": "sfomuseum-data-flights-2025-10"
  },
  "bbox": [
    -122.34686,
    37.39776,
    -121.49506,
    37.60918
  ],
  "geometry": {"coordinates":[[-121.49506,37.56599],[-121.52473,37.56242],[-121.56268,37.55795],[-121.5933,37.55678],[-121.6164,37.55671],[-121.66443,37.55639],[-121.67428,37.55623],[-121.69536,37.55586],[-121.75007,37.55505],[-121.77481,37.5546],[-121.80198,37.50738],[-121.7897,37.47673],[-121.77942,37.45108],[-121.78245,37.40821],[-121.79502,37.40225],[-121.83184,37.39776],[-121.88976,37.41493],[-121.90178,37.42013],[-121.93546,37.43563],[-121.97497,37.45229],[-122.00367,37.46427],[-122.03548,37.47785],[-122.04712,37.48274],[-122.07402,37.49419],[-122.10162,37.50583],[-122.14024,37.52218],[-122.17154,37.53537],[-122.20722,37.55046],[-122.24366,37.56586],[-122.28488,37.58317],[-122.29505,37.58748],[-122.33012,37.60213],[-122.34686,37.60918]],"type":"LineString"}
}
