{
  "id": 1981766269,
  "type": "Feature",
  "properties": {
    "geom:area": 0,
    "geom:bbox": "-122.366667,37.633333,-111.983056,40.876944",
    "geom:latitude": 39.666699460896446,
    "geom:longitude": -117.2627111457592,
    "src:alt_label": "swim-path",
    "src:geom": "swim",
    "swim:altitudes": [
      "006",
      "006",
      "027",
      "027",
      "027",
      "027",
      "027",
      "110",
      "110",
      "173",
      "173",
      "173",
      "173",
      "209",
      "209",
      "209",
      "209",
      "226",
      "237",
      "237",
      "237",
      "249C",
      "249C",
      "249C",
      "250C",
      "250C",
      "250C",
      "250C",
      "250C",
      "250C",
      "250C",
      "250C",
      "250C",
      "250C",
      "250C",
      "250C",
      "250C",
      "250C",
      "249C",
      "249C",
      "250C",
      "251C",
      "250C",
      "250C",
      "250C",
      "250C",
      "250C",
      "250C",
      "250C",
      "250C",
      "250C",
      "250C",
      "250C",
      "250C",
      "250C",
      "250C",
      "250C",
      "250C",
      "250C",
      "250C",
      "250C",
      "251C",
      "250C",
      "250C",
      "250C",
      "250C",
      "250C",
      "250C",
      "250C",
      "250C",
      "250C",
      "250C",
      "250C",
      "250C",
      "250C",
      "250C",
      "250C",
      "250C",
      "250C",
      "250C",
      "250C",
      "250C",
      "250C",
      "250C",
      "250",
      "250",
      "250",
      "250",
      "250",
      "250",
      "250",
      "250",
      "250",
      "248",
      "248",
      "248",
      "248",
      "191",
      "191",
      "170C",
      "170C",
      "170C",
      "161",
      "161",
      "125",
      "125",
      "125",
      "125",
      "117",
      "117",
      "093",
      "093",
      "056",
      "056",
      "049",
      "049"
    ],
    "swim:geom": "path",
    "swim:speeds": [
      170,
      170,
      176,
      176,
      176,
      176,
      176,
      316,
      316,
      414,
      414,
      414,
      414,
      442,
      442,
      442,
      442,
      458,
      476,
      476,
      476,
      491,
      491,
      491,
      495,
      495,
      495,
      501,
      501,
      502,
      502,
      503,
      503,
      503,
      503,
      511,
      511,
      508,
      500,
      500,
      498,
      493,
      492,
      492,
      492,
      492,
      492,
      492,
      492,
      492,
      492,
      493,
      494,
      494,
      498,
      498,
      494,
      494,
      494,
      494,
      494,
      501,
      502,
      502,
      489,
      489,
      489,
      489,
      490,
      490,
      490,
      487,
      487,
      487,
      487,
      488,
      488,
      488,
      483,
      483,
      483,
      483,
      483,
      483,
      484,
      484,
      482,
      482,
      482,
      484,
      484,
      484,
      484,
      482,
      482,
      482,
      482,
      433,
      433,
      384,
      384,
      384,
      364,
      364,
      329,
      329,
      329,
      329,
      329,
      329,
      237,
      237,
      173,
      173,
      132,
      132
    ],
    "swim:timestamps": [
      1761427417,
      1761427417,
      1761427460,
      1761427460,
      1761427460,
      1761427460,
      1761427460,
      1761427696,
      1761427696,
      1761427876,
      1761427876,
      1761427876,
      1761427876,
      1761427996,
      1761427996,
      1761427996,
      1761427996,
      1761428056,
      1761428117,
      1761428117,
      1761428117,
      1761428177,
      1761428177,
      1761428177,
      1761428237,
      1761428237,
      1761428237,
      1761428477,
      1761428477,
      1761428513,
      1761428513,
      1761428573,
      1761428573,
      1761428573,
      1761428573,
      1761428597,
      1761428597,
      1761428633,
      1761428717,
      1761428717,
      1761428753,
      1761428777,
      1761428874,
      1761428874,
      1761428874,
      1761428874,
      1761428874,
      1761429054,
      1761429054,
      1761429054,
      1761429054,
      1761429138,
      1761429198,
      1761429198,
      1761429234,
      1761429234,
      1761429294,
      1761429294,
      1761429294,
      1761429294,
      1761429294,
      1761429474,
      1761429498,
      1761429498,
      1761429678,
      1761429678,
      1761429678,
      1761429678,
      1761429798,
      1761429798,
      1761429798,
      1761429955,
      1761429955,
      1761429955,
      1761429955,
      1761430196,
      1761430196,
      1761430196,
      1761430316,
      1761430316,
      1761430316,
      1761430316,
      1761430376,
      1761430376,
      1761430674,
      1761430674,
      1761430735,
      1761430735,
      1761430735,
      1761430795,
      1761430795,
      1761430795,
      1761430855,
      1761430915,
      1761430915,
      1761430915,
      1761430915,
      1761431110,
      1761431110,
      1761431217,
      1761431217,
      1761431217,
      1761431277,
      1761431277,
      1761431510,
      1761431510,
      1761431510,
      1761431510,
      1761431576,
      1761431576,
      1761431694,
      1761431694,
      1761431876,
      1761431876,
      1761431936,
      1761431936
    ],
    "wof:geomhash": "03a21e55328029ca413d35bb42f14324",
    "wof:id": 1981766269,
    "wof:repo": "sfomuseum-data-flights-2025-10"
  },
  "bbox": [
    -122.36666666666666,
    37.63333333333333,
    -111.98305555555555,
    40.87694444444445
  ],
  "geometry": {"coordinates":[[-122.36666666666666,37.63333333333333],[-122.36666666666666,37.63333333333333],[-122.33333333333333,37.65],[-122.33333333333333,37.65],[-122.33333333333333,37.65],[-122.33333333333333,37.65],[-122.33333333333333,37.65],[-122.09222222222222,37.85333333333333],[-122.09222222222222,37.85333333333333],[-121.77722222222222,38.07666666666667],[-121.77722222222222,38.07666666666667],[-121.77722222222222,38.07666666666667],[-121.77722222222222,38.07666666666667],[-121.54194444444444,38.23444444444444],[-121.54194444444444,38.23444444444444],[-121.54194444444444,38.23444444444444],[-121.54194444444444,38.23444444444444],[-121.41944444444445,38.31638888888889],[-121.29166666666667,38.39722222222222],[-121.29166666666667,38.39722222222222],[-121.29166666666667,38.39722222222222],[-121.15861111111111,38.47944444444445],[-121.15861111111111,38.47944444444445],[-121.15861111111111,38.47944444444445],[-121.02333333333333,38.5625],[-121.02333333333333,38.5625],[-121.02333333333333,38.5625],[-120.46194444444444,38.905],[-120.46194444444444,38.905],[-120.38666666666667,38.947222222222216],[-120.38666666666667,38.947222222222216],[-120.2275,39.013888888888886],[-120.2275,39.013888888888886],[-120.2275,39.013888888888886],[-120.2275,39.013888888888886],[-120.14555555555556,39.03638888888889],[-120.14555555555556,39.03638888888889],[-120.05583333333333,39.06166666666666],[-119.82444444444444,39.13194444444444],[-119.82444444444444,39.13194444444444],[-119.72527777777778,39.159444444444446],[-119.66000000000001,39.180277777777775],[-119.39750000000001,39.255833333333335],[-119.39750000000001,39.255833333333335],[-119.39750000000001,39.255833333333335],[-119.39750000000001,39.255833333333335],[-119.39750000000001,39.255833333333335],[-118.90083333333334,39.4],[-118.90083333333334,39.4],[-118.90083333333334,39.4],[-118.90083333333334,39.4],[-118.66444444444446,39.466944444444444],[-118.48472222222222,39.51777777777777],[-118.48472222222222,39.51777777777777],[-118.3863888888889,39.54527777777778],[-118.3863888888889,39.54527777777778],[-118.21944444444445,39.591944444444444],[-118.21944444444445,39.591944444444444],[-118.21944444444445,39.591944444444444],[-118.21944444444445,39.591944444444444],[-118.21944444444445,39.591944444444444],[-117.71277777777777,39.73111111111111],[-117.63916666666667,39.75111111111111],[-117.63916666666667,39.75111111111111],[-117.13111111111111,39.88777777777778],[-117.13111111111111,39.88777777777778],[-117.13111111111111,39.88777777777778],[-117.13111111111111,39.88777777777778],[-116.80138888888888,39.975],[-116.80138888888888,39.975],[-116.80138888888888,39.975],[-116.36666666666666,40.07222222222222],[-116.36666666666666,40.07222222222222],[-116.36666666666666,40.07222222222222],[-116.36666666666666,40.07222222222222],[-115.68472222222222,40.20805555555556],[-115.68472222222222,40.20805555555556],[-115.68472222222222,40.20805555555556],[-115.34555555555555,40.27388888888889],[-115.34555555555555,40.27388888888889],[-115.34555555555555,40.27388888888889],[-115.34555555555555,40.27388888888889],[-115.17666666666668,40.30638888888888],[-115.17666666666668,40.30638888888888],[-114.32083333333333,40.465833333333336],[-114.32083333333333,40.465833333333336],[-114.14916666666667,40.49722222222222],[-114.14916666666667,40.49722222222222],[-114.14916666666667,40.49722222222222],[-113.97833333333334,40.528055555555554],[-113.97833333333334,40.528055555555554],[-113.97833333333334,40.528055555555554],[-113.80555555555556,40.558611111111105],[-113.6375,40.58833333333334],[-113.6375,40.58833333333334],[-113.6375,40.58833333333334],[-113.6375,40.58833333333334],[-113.10972222222222,40.6875],[-113.10972222222222,40.6875],[-112.86166666666666,40.72138888888889],[-112.86166666666666,40.72138888888889],[-112.86166666666666,40.72138888888889],[-112.72972222222222,40.721111111111114],[-112.72972222222222,40.721111111111114],[-112.235,40.69499999999999],[-112.235,40.69499999999999],[-112.235,40.69499999999999],[-112.235,40.69499999999999],[-112.1261111111111,40.725],[-112.1261111111111,40.725],[-112.0925,40.87388888888889],[-112.0925,40.87388888888889],[-111.98666666666666,40.87694444444445],[-111.98666666666666,40.87694444444445],[-111.98305555555555,40.837500000000006],[-111.98305555555555,40.837500000000006]],"type":"LineString"}
}
