{
  "id": 1981571677,
  "type": "Feature",
  "properties": {
    "geom:area": 0,
    "geom:bbox": "-122.463190,36.732410,-121.885890,37.613050",
    "geom:latitude": 37.17024954438321,
    "geom:longitude": -122.25546331598726,
    "src:alt_label": "swim-approach",
    "src:geom": "swim",
    "swim:elevations": [
      5866,
      5505,
      5417,
      5218,
      4890,
      4503,
      4379,
      4272,
      4267,
      4242,
      4131,
      3956,
      3742,
      3692,
      3657,
      3685,
      3688,
      3656,
      3657,
      3689,
      3634,
      3444,
      3172,
      2940,
      2609,
      2531,
      2439,
      2438,
      2438,
      2438,
      2438,
      2438,
      2426,
      2258,
      2185,
      2135,
      2134,
      1978,
      1830,
      1829,
      1829,
      1829,
      1829,
      1503,
      1379,
      1216,
      1219,
      1219,
      1219,
      1006,
      934,
      887,
      824,
      685,
      585,
      415,
      340,
      242,
      84,
      107
    ],
    "swim:geom": "approach",
    "swim:timestamps": [
      1759526393,
      1759526428,
      1759526441,
      1759526460,
      1759526491,
      1759526539,
      1759526557,
      1759526592,
      1759526634,
      1759526661,
      1759526676,
      1759526697,
      1759526719,
      1759526728,
      1759526740,
      1759526783,
      1759526815,
      1759526842,
      1759526856,
      1759526869,
      1759526891,
      1759526912,
      1759526950,
      1759526980,
      1759527023,
      1759527035,
      1759527057,
      1759527066,
      1759527087,
      1759527112,
      1759527131,
      1759527171,
      1759527181,
      1759527200,
      1759527214,
      1759527229,
      1759527259,
      1759527296,
      1759527319,
      1759527358,
      1759527385,
      1759527397,
      1759527427,
      1759527477,
      1759527492,
      1759527527,
      1759527563,
      1759527575,
      1759527608,
      1759527658,
      1759527683,
      1759527696,
      1759527714,
      1759527746,
      1759527765,
      1759527806,
      1759527819,
      1759527843,
      1759527882,
      1759527902
    ],
    "wof:geomhash": "8baeef16798c8ac4f66167efd743daa9",
    "wof:id": 1981571677,
    "wof:repo": "sfomuseum-data-flights-2025-10"
  },
  "bbox": [
    -122.46319,
    36.73241,
    -121.88589,
    37.61305
  ],
  "geometry": {"coordinates":[[-121.88589,36.73241],[-121.90475,36.78053],[-121.90975,36.79814],[-121.91742,36.82494],[-121.93372,36.86632],[-122.01221,36.89329],[-122.044,36.89685],[-122.10013,36.90274],[-122.16423,36.90933],[-122.20392,36.91315],[-122.22474,36.91512],[-122.25483,36.91828],[-122.28549,36.92191],[-122.29682,36.92325],[-122.31451,36.92537],[-122.37307,36.93233],[-122.4167,36.94018],[-122.43606,36.96431],[-122.4413,36.97873],[-122.44611,36.99226],[-122.45419,37.0146],[-122.46181,37.03607],[-122.46319,37.07678],[-122.46046,37.10783],[-122.45658,37.15211],[-122.45573,37.16446],[-122.45446,37.18607],[-122.45397,37.19574],[-122.45299,37.21597],[-122.4517,37.24121],[-122.45077,37.26022],[-122.44882,37.29987],[-122.44827,37.30997],[-122.44718,37.32873],[-122.44633,37.34269],[-122.44514,37.3581],[-122.42212,37.37931],[-122.3788,37.39305],[-122.34923,37.39592],[-122.31905,37.3613],[-122.30071,37.33465],[-122.28587,37.3292],[-122.25057,37.33685],[-122.20289,37.36962],[-122.18976,37.38094],[-122.17018,37.4117],[-122.15037,37.44357],[-122.14411,37.45352],[-122.13722,37.48023],[-122.16753,37.5126],[-122.18395,37.52771],[-122.1931,37.53604],[-122.20629,37.54672],[-122.23504,37.55965],[-122.253,37.56742],[-122.28778,37.58207],[-122.29694,37.58595],[-122.31601,37.59363],[-122.34554,37.60629],[-122.36092,37.61305]],"type":"LineString"}
}
