{
  "id": 1981783371,
  "type": "Feature",
  "properties": {
    "geom:area": 0,
    "geom:bbox": "-122.396667,33.966389,-118.167500,37.431667",
    "geom:latitude": 35.63923983724218,
    "geom:longitude": -120.2388918100985,
    "src:alt_label": "swim-path",
    "src:geom": "swim",
    "swim:altitudes": [
      "139",
      "139",
      "139",
      "139",
      "139",
      "139",
      "139",
      "139",
      "139",
      "139",
      "139",
      "139",
      "139",
      "250C",
      "250C",
      "250C",
      "250C",
      "250C",
      "250C",
      "250C",
      "250C",
      "250C",
      "250C",
      "250C",
      "250C",
      "250C",
      "250C",
      "250C",
      "250C",
      "250C",
      "250",
      "250",
      "250",
      "250",
      "250",
      "250",
      "250",
      "250",
      "250",
      "250",
      "250",
      "250",
      "250",
      "250",
      "250",
      "155",
      "155",
      "155",
      "155",
      "155",
      "155",
      "155",
      "155",
      "076",
      "076",
      "076",
      "076",
      "076",
      "076",
      "076",
      "076",
      "076",
      "024",
      "024",
      "024",
      "024",
      "024",
      "024",
      "024",
      "024",
      "022",
      "022",
      "022",
      "022",
      "022",
      "022",
      "022"
    ],
    "swim:geom": "path",
    "swim:speeds": [
      380,
      380,
      380,
      380,
      380,
      380,
      380,
      380,
      380,
      380,
      380,
      380,
      380,
      445,
      445,
      445,
      445,
      445,
      445,
      445,
      445,
      445,
      439,
      439,
      439,
      439,
      439,
      439,
      439,
      439,
      439,
      439,
      439,
      439,
      439,
      439,
      445,
      445,
      445,
      445,
      445,
      445,
      445,
      445,
      445,
      377,
      377,
      377,
      377,
      377,
      377,
      377,
      377,
      265,
      265,
      265,
      265,
      265,
      265,
      265,
      265,
      265,
      181,
      181,
      181,
      181,
      181,
      181,
      181,
      181,
      167,
      167,
      167,
      167,
      167,
      167,
      167
    ],
    "swim:timestamps": [
      1761580328,
      1761580328,
      1761580328,
      1761580328,
      1761580328,
      1761580328,
      1761580328,
      1761580328,
      1761580328,
      1761580328,
      1761580328,
      1761580328,
      1761580328,
      1761581108,
      1761581108,
      1761581108,
      1761581108,
      1761581108,
      1761581108,
      1761581108,
      1761581108,
      1761581108,
      1761581589,
      1761581589,
      1761581649,
      1761581649,
      1761581649,
      1761581649,
      1761581649,
      1761581649,
      1761581769,
      1761581769,
      1761581769,
      1761581769,
      1761581769,
      1761581769,
      1761582070,
      1761582070,
      1761582070,
      1761582070,
      1761582070,
      1761582070,
      1761582070,
      1761582070,
      1761582070,
      1761582376,
      1761582376,
      1761582376,
      1761582376,
      1761582376,
      1761582376,
      1761582376,
      1761582376,
      1761582742,
      1761582742,
      1761582742,
      1761582742,
      1761582742,
      1761582742,
      1761582742,
      1761582742,
      1761582742,
      1761583031,
      1761583031,
      1761583031,
      1761583031,
      1761583031,
      1761583031,
      1761583031,
      1761583031,
      1761583151,
      1761583151,
      1761583151,
      1761583151,
      1761583151,
      1761583151,
      1761583151
    ],
    "wof:geomhash": "b0ed676910d5bcf89590b6f28e8ee0d8",
    "wof:id": 1981783371,
    "wof:repo": "sfomuseum-data-flights-2025-10"
  },
  "bbox": [
    -122.39666666666668,
    33.96638888888889,
    -118.1675,
    37.431666666666665
  ],
  "geometry": {"coordinates":[[-122.39666666666668,37.431666666666665],[-122.39666666666668,37.431666666666665],[-122.39666666666668,37.431666666666665],[-122.39666666666668,37.431666666666665],[-122.39666666666668,37.431666666666665],[-122.39666666666668,37.431666666666665],[-122.39666666666668,37.431666666666665],[-122.39666666666668,37.431666666666665],[-122.39666666666668,37.431666666666665],[-122.39666666666668,37.431666666666665],[-122.39666666666668,37.431666666666665],[-122.39666666666668,37.431666666666665],[-122.39666666666668,37.431666666666665],[-120.91083333333334,36.32638888888889],[-120.91083333333334,36.32638888888889],[-120.91083333333334,36.32638888888889],[-120.91083333333334,36.32638888888889],[-120.91083333333334,36.32638888888889],[-120.91083333333334,36.32638888888889],[-120.91083333333334,36.32638888888889],[-120.91083333333334,36.32638888888889],[-120.91083333333334,36.32638888888889],[-120.07194444444444,35.61833333333333],[-120.07194444444444,35.61833333333333],[-119.9925,35.51361111111111],[-119.9925,35.51361111111111],[-119.9925,35.51361111111111],[-119.9925,35.51361111111111],[-119.9925,35.51361111111111],[-119.9925,35.51361111111111],[-119.83611111111111,35.30444444444444],[-119.83611111111111,35.30444444444444],[-119.83611111111111,35.30444444444444],[-119.83611111111111,35.30444444444444],[-119.83611111111111,35.30444444444444],[-119.83611111111111,35.30444444444444],[-119.38111111111111,34.80888888888889],[-119.38111111111111,34.80888888888889],[-119.38111111111111,34.80888888888889],[-119.38111111111111,34.80888888888889],[-119.38111111111111,34.80888888888889],[-119.38111111111111,34.80888888888889],[-119.38111111111111,34.80888888888889],[-119.38111111111111,34.80888888888889],[-119.38111111111111,34.80888888888889],[-118.96666666666667,34.35],[-118.96666666666667,34.35],[-118.96666666666667,34.35],[-118.96666666666667,34.35],[-118.96666666666667,34.35],[-118.96666666666667,34.35],[-118.96666666666667,34.35],[-118.96666666666667,34.35],[-118.5,34.016666666666666],[-118.5,34.016666666666666],[-118.5,34.016666666666666],[-118.5,34.016666666666666],[-118.5,34.016666666666666],[-118.5,34.016666666666666],[-118.5,34.016666666666666],[-118.5,34.016666666666666],[-118.5,34.016666666666666],[-118.1675,34.005],[-118.1675,34.005],[-118.1675,34.005],[-118.1675,34.005],[-118.1675,34.005],[-118.1675,34.005],[-118.1675,34.005],[-118.1675,34.005],[-118.26138888888889,33.96638888888889],[-118.26138888888889,33.96638888888889],[-118.26138888888889,33.96638888888889],[-118.26138888888889,33.96638888888889],[-118.26138888888889,33.96638888888889],[-118.26138888888889,33.96638888888889],[-118.26138888888889,33.96638888888889]],"type":"LineString"}
}
