{
  "id": 1981732317,
  "type": "Feature",
  "properties": {
    "geom:area": 0,
    "geom:bbox": "-123.506200,37.630730,-122.403480,37.732420",
    "geom:latitude": 37.699199577941116,
    "geom:longitude": -122.95083764085803,
    "src:alt_label": "swim-takeoff",
    "src:geom": "swim",
    "swim:elevations": [
      304,
      711,
      994,
      1108,
      1128,
      1490,
      1966,
      2245,
      2427,
      2839,
      2920,
      3343,
      3442,
      3756,
      4154,
      4590,
      4910,
      5055,
      5397,
      5776,
      5808
    ],
    "swim:geom": "takeoff",
    "swim:timestamps": [
      1761094525,
      1761094558,
      1761094588,
      1761094615,
      1761094621,
      1761094667,
      1761094707,
      1761094737,
      1761094756,
      1761094795,
      1761094801,
      1761094852,
      1761094865,
      1761094907,
      1761094940,
      1761094976,
      1761095005,
      1761095017,
      1761095053,
      1761095095,
      1761095098
    ],
    "wof:geomhash": "03736396c871c529286ed10290aeae1d",
    "wof:id": 1981732317,
    "wof:repo": "sfomuseum-data-flights-2025-10"
  },
  "bbox": [
    -123.5062,
    37.63073,
    -122.40348,
    37.73242
  ],
  "geometry": {"coordinates":[[-122.40348,37.63073],[-122.43599,37.64508],[-122.46668,37.65855],[-122.4973,37.67179],[-122.5054,37.67403],[-122.57613,37.67942],[-122.6434,37.68331],[-122.69661,37.68633],[-122.72976,37.68842],[-122.80414,37.69296],[-122.81581,37.69365],[-122.91988,37.69963],[-122.94794,37.70122],[-123.04431,37.70676],[-123.12241,37.71136],[-123.20843,37.71623],[-123.27674,37.72004],[-123.30578,37.72163],[-123.3939,37.72649],[-123.49866,37.73203],[-123.5062,37.73242]],"type":"LineString"}
}
