{
  "id": 1981732317,
  "type": "Feature",
  "properties": {
    "geom:area": 0,
    "geom:bbox": "-126.442222,37.700000,-123.063889,37.866944",
    "geom:latitude": 37.788865110110756,
    "geom:longitude": -124.75186393923295,
    "src:alt_label": "swim-path",
    "src:geom": "swim",
    "swim:altitudes": [
      "127",
      "129C",
      "129C",
      "129C",
      "151",
      "172",
      "264",
      "264",
      "297",
      "300C",
      "300C",
      "300C",
      "300C",
      "300C",
      "300C",
      "300C"
    ],
    "swim:geom": "path",
    "swim:speeds": [
      400,
      400,
      400,
      400,
      407,
      414,
      477,
      477,
      499,
      517,
      511,
      507,
      498,
      498,
      498,
      498
    ],
    "swim:timestamps": [
      1761120121,
      1761120133,
      1761120133,
      1761120133,
      1761120181,
      1761120241,
      1761120601,
      1761120601,
      1761120781,
      1761120961,
      1761121081,
      1761121141,
      1761121321,
      1761121321,
      1761121321,
      1761121321
    ],
    "wof:geomhash": "a7361ec823dce620518527275f7e90ca",
    "wof:id": 1981732317,
    "wof:repo": "sfomuseum-data-flights-2025-10"
  },
  "bbox": [
    -126.44222222222223,
    37.7,
    -123.06388888888888,
    37.86694444444444
  ],
  "geometry": {"coordinates":[[-123.06388888888888,37.70777777777778],[-123.08333333333333,37.7],[-123.08333333333333,37.7],[-123.08333333333333,37.7],[-123.20805555555556,37.71611111111111],[-123.35194444444444,37.72416666666667],[-124.31055555555555,37.7725],[-124.31055555555555,37.7725],[-124.83027777777778,37.79555555555555],[-125.37444444444444,37.816944444444445],[-125.73333333333333,37.82972222222222],[-125.90833333333335,37.836666666666666],[-126.44222222222223,37.86694444444444],[-126.44222222222223,37.86694444444444],[-126.44222222222223,37.86694444444444],[-126.44222222222223,37.86694444444444]],"type":"LineString"}
}
