{
  "id": 1981609539,
  "type": "Feature",
  "properties": {
    "geom:area": 0,
    "geom:bbox": "-122.364170,37.631970,-121.246380,37.975480",
    "geom:latitude": 37.873271684302736,
    "geom:longitude": -121.83749708696116,
    "src:alt_label": "swim-takeoff",
    "src:geom": "swim",
    "swim:elevations": [
      213,
      686,
      759,
      894,
      1132,
      1341,
      1722,
      1898,
      2365,
      2896,
      3111,
      3337,
      3482,
      3826,
      3985,
      4333,
      4612,
      4871,
      5005,
      5295,
      5706,
      5816,
      5957,
      6220
    ],
    "swim:geom": "takeoff",
    "swim:timestamps": [
      1759824635,
      1759824680,
      1759824694,
      1759824721,
      1759824745,
      1759824762,
      1759824795,
      1759824812,
      1759824851,
      1759824892,
      1759824906,
      1759824939,
      1759824968,
      1759825019,
      1759825034,
      1759825066,
      1759825101,
      1759825129,
      1759825143,
      1759825171,
      1759825221,
      1759825236,
      1759825260,
      1759825296
    ],
    "wof:geomhash": "01cc679aa7fa8a8d3ec2daac11416869",
    "wof:id": 1981609539,
    "wof:repo": "sfomuseum-data-flights-2025-10"
  },
  "bbox": [
    -122.36417,
    37.63197,
    -121.24638,
    37.97548
  ],
  "geometry": {"coordinates":[[-122.36417,37.63197],[-122.32939,37.65642],[-122.31549,37.66383],[-122.28482,37.68028],[-122.25849,37.69965],[-122.2446,37.71678],[-122.21705,37.75137],[-122.20185,37.77052],[-122.1662,37.81535],[-122.12272,37.85944],[-122.10245,37.8682],[-122.04707,37.88248],[-121.99077,37.88904],[-121.88614,37.90227],[-121.85349,37.9062],[-121.7825,37.91448],[-121.70351,37.92357],[-121.64076,37.93076],[-121.60726,37.93458],[-121.54244,37.9422],[-121.42623,37.9554],[-121.39228,37.95923],[-121.33481,37.96562],[-121.24638,37.97548]],"type":"LineString"}
}
