{
  "id": 1981725573,
  "type": "Feature",
  "properties": {
    "geom:area": 0,
    "geom:bbox": "-122.271111,32.997778,-97.107500,38.225000",
    "geom:latitude": 36.35025531458672,
    "geom:longitude": -109.56005948446287,
    "src:alt_label": "swim-path",
    "src:geom": "swim",
    "swim:altitudes": [
      "056",
      "056",
      "056",
      "056",
      "083",
      "091",
      "091",
      "160",
      "160",
      "175",
      "175",
      "191",
      "191",
      "206",
      "206",
      "239",
      "239",
      "239",
      "239",
      "239",
      "239",
      "286",
      "300C",
      "300C",
      "300C",
      "300C",
      "300C",
      "300C",
      "300C",
      "300C",
      "300C",
      "300C",
      "300C",
      "300C",
      "300C",
      "300C",
      "300C",
      "300C",
      "300C",
      "300C",
      "300C",
      "300C",
      "300C",
      "300C",
      "300C",
      "300C",
      "300C",
      "300C",
      "300C",
      "300C",
      "300C",
      "300C",
      "300C",
      "300C",
      "300C",
      "300C",
      "300C",
      "300C",
      "300",
      "300",
      "300",
      "300",
      "320",
      "340C",
      "340C",
      "340C",
      "340C",
      "340C",
      "340C",
      "340C",
      "340C",
      "340C",
      "340C",
      "340C",
      "340C",
      "340C",
      "340C",
      "340C",
      "340C",
      "340C",
      "340C",
      "340C",
      "340C",
      "340C",
      "340C",
      "340C",
      "340C",
      "340C",
      "340C",
      "340C",
      "340C",
      "340C",
      "340C",
      "340C",
      "340C",
      "340C",
      "340C",
      "340C",
      "340C",
      "340C",
      "340C",
      "340C",
      "340C",
      "340C",
      "340C",
      "340C",
      "340C",
      "340C",
      "340C",
      "340C",
      "340C",
      "340",
      "340",
      "340",
      "340",
      "340",
      "340",
      "340",
      "340",
      "344",
      "344",
      "344",
      "344",
      "358C",
      "358C",
      "358C",
      "360C",
      "360C",
      "360C",
      "360C",
      "360C",
      "360C",
      "360C",
      "360C",
      "360C",
      "360C",
      "360",
      "360",
      "360",
      "360",
      "360",
      "360C",
      "360C",
      "360C",
      "360C",
      "360C",
      "360C",
      "360C",
      "360C",
      "360C",
      "360C",
      "360C",
      "360C",
      "360C",
      "360C",
      "360C",
      "360C",
      "360C",
      "360C",
      "360C",
      "360C",
      "360C",
      "360C",
      "360C",
      "360C",
      "360C",
      "360C",
      "360C",
      "360C",
      "360C",
      "360C",
      "360C",
      "360C",
      "360C",
      "360C",
      "360C",
      "360C",
      "360C",
      "360C",
      "360C",
      "360C",
      "360C",
      "360C",
      "360C",
      "360C",
      "360C",
      "360C",
      "360C",
      "360C",
      "360C",
      "360C",
      "360C",
      "360C",
      "360C",
      "360C",
      "360C",
      "360C",
      "360C",
      "360C",
      "360C",
      "360C",
      "360C",
      "360C",
      "360C",
      "360C",
      "360C",
      "360C",
      "360C",
      "360C",
      "360C",
      "360C",
      "360C",
      "360C",
      "360C",
      "360C",
      "360C",
      "360C",
      "360C",
      "360C",
      "360C",
      "360C",
      "360C",
      "360C",
      "360C",
      "360C",
      "360C",
      "360C",
      "360C",
      "360C",
      "360C",
      "360C",
      "360C",
      "360C",
      "360C",
      "360C",
      "360C",
      "360C",
      "360C",
      "360C",
      "360C",
      "360C",
      "360C",
      "360C",
      "360C",
      "360C",
      "360C",
      "360C",
      "360C",
      "360C",
      "360C",
      "360C",
      "360C",
      "360C",
      "360C",
      "360C",
      "360C",
      "360",
      "360",
      "360",
      "309",
      "309",
      "309",
      "309",
      "309",
      "309",
      "309",
      "243",
      "243",
      "243",
      "243",
      "225",
      "225",
      "225",
      "225",
      "225",
      "170",
      "170",
      "170",
      "170",
      "170",
      "170",
      "170",
      "054",
      "054",
      "039",
      "039",
      "039",
      "039",
      "039",
      "039",
      "039",
      "039",
      "015",
      "015",
      "015",
      "015",
      "015",
      "015"
    ],
    "swim:geom": "path",
    "swim:speeds": [
      282,
      282,
      282,
      282,
      262,
      264,
      264,
      392,
      392,
      409,
      409,
      413,
      413,
      422,
      422,
      444,
      444,
      444,
      444,
      444,
      444,
      450,
      444,
      444,
      444,
      444,
      443,
      443,
      443,
      443,
      443,
      443,
      443,
      442,
      442,
      442,
      443,
      443,
      443,
      443,
      443,
      444,
      444,
      444,
      444,
      444,
      444,
      444,
      444,
      444,
      444,
      444,
      444,
      445,
      445,
      446,
      446,
      446,
      446,
      446,
      446,
      446,
      441,
      410,
      410,
      410,
      411,
      411,
      411,
      411,
      411,
      410,
      410,
      410,
      410,
      410,
      410,
      410,
      410,
      410,
      410,
      415,
      415,
      415,
      415,
      415,
      416,
      415,
      416,
      416,
      418,
      418,
      418,
      418,
      418,
      418,
      418,
      418,
      418,
      417,
      417,
      417,
      417,
      417,
      417,
      417,
      417,
      417,
      417,
      417,
      417,
      417,
      417,
      417,
      417,
      417,
      417,
      417,
      417,
      417,
      417,
      417,
      417,
      422,
      422,
      422,
      410,
      410,
      410,
      410,
      410,
      410,
      410,
      410,
      410,
      410,
      411,
      411,
      411,
      411,
      411,
      416,
      416,
      416,
      420,
      420,
      420,
      420,
      420,
      420,
      423,
      423,
      424,
      424,
      424,
      424,
      424,
      424,
      425,
      425,
      425,
      427,
      427,
      427,
      427,
      426,
      426,
      426,
      426,
      426,
      426,
      426,
      426,
      428,
      428,
      428,
      428,
      428,
      428,
      431,
      431,
      431,
      431,
      431,
      431,
      431,
      431,
      431,
      455,
      455,
      431,
      431,
      431,
      430,
      430,
      430,
      430,
      430,
      432,
      433,
      433,
      433,
      433,
      434,
      434,
      434,
      434,
      445,
      440,
      440,
      440,
      440,
      438,
      437,
      437,
      437,
      437,
      437,
      437,
      438,
      438,
      438,
      438,
      438,
      438,
      438,
      438,
      438,
      439,
      439,
      440,
      440,
      440,
      440,
      441,
      441,
      441,
      441,
      441,
      441,
      444,
      444,
      444,
      444,
      444,
      444,
      444,
      444,
      446,
      446,
      446,
      445,
      445,
      445,
      445,
      445,
      444,
      444,
      444,
      453,
      453,
      453,
      453,
      453,
      453,
      453,
      427,
      427,
      427,
      427,
      405,
      405,
      405,
      405,
      405,
      359,
      359,
      359,
      359,
      359,
      359,
      359,
      234,
      234,
      226,
      226,
      226,
      226,
      226,
      226,
      226,
      226,
      159,
      159,
      159,
      159,
      159,
      159
    ],
    "swim:timestamps": [
      1761048542,
      1761048542,
      1761048542,
      1761048542,
      1761048578,
      1761048602,
      1761048602,
      1761048842,
      1761048842,
      1761048902,
      1761048902,
      1761048962,
      1761048962,
      1761049022,
      1761049022,
      1761049203,
      1761049203,
      1761049203,
      1761049203,
      1761049203,
      1761049203,
      1761049443,
      1761049864,
      1761049864,
      1761049864,
      1761049924,
      1761049984,
      1761049984,
      1761049984,
      1761050044,
      1761050054,
      1761050104,
      1761050104,
      1761050224,
      1761050224,
      1761050224,
      1761050234,
      1761050234,
      1761050234,
      1761050284,
      1761050354,
      1761050474,
      1761050474,
      1761050525,
      1761050525,
      1761050585,
      1761050585,
      1761050585,
      1761050585,
      1761050594,
      1761050645,
      1761050705,
      1761050705,
      1761050765,
      1761050765,
      1761050825,
      1761050825,
      1761050825,
      1761051125,
      1761051125,
      1761051125,
      1761051125,
      1761051246,
      1761051426,
      1761051426,
      1761051426,
      1761051486,
      1761051486,
      1761051486,
      1761051555,
      1761051555,
      1761051606,
      1761051606,
      1761051606,
      1761051606,
      1761051855,
      1761051855,
      1761051981,
      1761051981,
      1761051981,
      1761051981,
      1761052161,
      1761052161,
      1761052161,
      1761052161,
      1761052161,
      1761052216,
      1761052342,
      1761052396,
      1761052396,
      1761052522,
      1761052522,
      1761052522,
      1761052762,
      1761052762,
      1761052762,
      1761052762,
      1761052762,
      1761052762,
      1761052822,
      1761052822,
      1761052822,
      1761052822,
      1761052877,
      1761052877,
      1761053117,
      1761053117,
      1761053117,
      1761053177,
      1761053177,
      1761053177,
      1761053237,
      1761053237,
      1761053237,
      1761053237,
      1761053237,
      1761053363,
      1761053363,
      1761053363,
      1761053417,
      1761053417,
      1761053417,
      1761053417,
      1761053543,
      1761053543,
      1761053543,
      1761053783,
      1761053783,
      1761053783,
      1761053783,
      1761053783,
      1761053783,
      1761053783,
      1761054261,
      1761054261,
      1761054261,
      1761054324,
      1761054324,
      1761054324,
      1761054324,
      1761054324,
      1761054441,
      1761054441,
      1761054441,
      1761054622,
      1761054622,
      1761054622,
      1761054622,
      1761054622,
      1761054622,
      1761054742,
      1761054742,
      1761054802,
      1761054802,
      1761054802,
      1761054802,
      1761054802,
      1761054802,
      1761054985,
      1761054985,
      1761054985,
      1761055102,
      1761055102,
      1761055102,
      1761055102,
      1761055403,
      1761055403,
      1761055403,
      1761055403,
      1761055403,
      1761055463,
      1761055463,
      1761055463,
      1761055643,
      1761055643,
      1761055643,
      1761055643,
      1761055643,
      1761055643,
      1761055943,
      1761055943,
      1761055943,
      1761055943,
      1761055943,
      1761055943,
      1761055943,
      1761055943,
      1761055943,
      1761056405,
      1761056405,
      1761056525,
      1761056525,
      1761056525,
      1761056544,
      1761056544,
      1761056544,
      1761056544,
      1761056544,
      1761056706,
      1761056766,
      1761056766,
      1761056766,
      1761056766,
      1761056785,
      1761056785,
      1761056785,
      1761056785,
      1761056826,
      1761056886,
      1761056886,
      1761056886,
      1761056886,
      1761056946,
      1761057006,
      1761057006,
      1761057006,
      1761057006,
      1761057006,
      1761057006,
      1761057487,
      1761057487,
      1761057487,
      1761057487,
      1761057487,
      1761057487,
      1761057506,
      1761057506,
      1761057506,
      1761057566,
      1761057566,
      1761057626,
      1761057626,
      1761057626,
      1761057626,
      1761057686,
      1761057686,
      1761057686,
      1761057686,
      1761057686,
      1761057686,
      1761058027,
      1761058027,
      1761058027,
      1761058027,
      1761058027,
      1761058027,
      1761058027,
      1761058027,
      1761058147,
      1761058147,
      1761058147,
      1761058207,
      1761058207,
      1761058207,
      1761058207,
      1761058207,
      1761058327,
      1761058327,
      1761058327,
      1761058508,
      1761058508,
      1761058508,
      1761058508,
      1761058508,
      1761058508,
      1761058508,
      1761058688,
      1761058688,
      1761058688,
      1761058688,
      1761058748,
      1761058748,
      1761058748,
      1761058748,
      1761058748,
      1761058928,
      1761058928,
      1761058928,
      1761058928,
      1761058928,
      1761058928,
      1761058928,
      1761059469,
      1761059469,
      1761059529,
      1761059529,
      1761059529,
      1761059529,
      1761059529,
      1761059529,
      1761059529,
      1761059529,
      1761059709,
      1761059709,
      1761059709,
      1761059709,
      1761059709,
      1761059709
    ],
    "wof:geomhash": "9a2070f8236aecba810af445b2c8fcef",
    "wof:id": 1981725573,
    "wof:repo": "sfomuseum-data-flights-2025-10"
  },
  "bbox": [
    -122.27111111111111,
    32.99777777777778,
    -97.10749999999999,
    38.225
  ],
  "geometry": {"coordinates":[[-97.10749999999999,32.99777777777778],[-97.10749999999999,32.99777777777778],[-97.10749999999999,32.99777777777778],[-97.10749999999999,32.99777777777778],[-97.16666666666667,33],[-97.19555555555556,33.00222222222222],[-97.19555555555556,33.00222222222222],[-97.66638888888889,33.02611111111111],[-97.66638888888889,33.02611111111111],[-97.80305555555556,33.0325],[-97.80305555555556,33.0325],[-97.9388888888889,33.038888888888884],[-97.9388888888889,33.038888888888884],[-98.07833333333333,33.04527777777778],[-98.07833333333333,33.04527777777778],[-98.47611111111111,33.13194444444444],[-98.47611111111111,33.13194444444444],[-98.47611111111111,33.13194444444444],[-98.47611111111111,33.13194444444444],[-98.47611111111111,33.13194444444444],[-98.47611111111111,33.13194444444444],[-99.02527777777777,33.32833333333333],[-99.97361111111111,33.70916666666667],[-99.97361111111111,33.70916666666667],[-99.97361111111111,33.70916666666667],[-100.10694444444444,33.76166666666666],[-100.24,33.814166666666665],[-100.24,33.814166666666665],[-100.24,33.814166666666665],[-100.37305555555555,33.86638888888889],[-100.39916666666667,33.87638888888889],[-100.50583333333333,33.918055555555554],[-100.50583333333333,33.918055555555554],[-100.77472222222222,34.02222222222222],[-100.77472222222222,34.02222222222222],[-100.77472222222222,34.02222222222222],[-100.80111111111111,34.032222222222224],[-100.80111111111111,34.032222222222224],[-100.80111111111111,34.032222222222224],[-100.90861111111111,34.07361111111111],[-101.07166666666666,34.13611111111111],[-101.3425,34.23916666666667],[-101.3425,34.23916666666667],[-101.44833333333334,34.279444444444444],[-101.44833333333334,34.279444444444444],[-101.58555555555554,34.331388888888895],[-101.58555555555554,34.331388888888895],[-101.58555555555554,34.331388888888895],[-101.58555555555554,34.331388888888895],[-101.61333333333333,34.34166666666667],[-101.72222222222223,34.382777777777775],[-101.8586111111111,34.433611111111105],[-101.8586111111111,34.433611111111105],[-101.99666666666667,34.485],[-101.99666666666667,34.485],[-102.13305555555554,34.535555555555554],[-102.13305555555554,34.535555555555554],[-102.13305555555554,34.535555555555554],[-102.82416666666666,34.78861111111111],[-102.82416666666666,34.78861111111111],[-102.82416666666666,34.78861111111111],[-102.82416666666666,34.78861111111111],[-103.0975,34.88722222222222],[-103.48361111111112,35.025277777777774],[-103.48361111111112,35.025277777777774],[-103.48361111111112,35.025277777777774],[-103.61055555555555,35.07],[-103.61055555555555,35.07],[-103.61055555555555,35.07],[-103.75888888888889,35.1225],[-103.75888888888889,35.1225],[-103.86638888888888,35.16027777777778],[-103.86638888888888,35.16027777777778],[-103.86638888888888,35.16027777777778],[-103.86638888888888,35.16027777777778],[-104.39083333333333,35.3425],[-104.39083333333333,35.3425],[-104.66361111111112,35.43388888888889],[-104.66361111111112,35.43388888888889],[-104.66361111111112,35.43388888888889],[-104.66361111111112,35.43388888888889],[-105.06166666666667,35.56944444444445],[-105.06166666666667,35.56944444444445],[-105.06166666666667,35.56944444444445],[-105.06166666666667,35.56944444444445],[-105.06166666666667,35.56944444444445],[-105.1675,35.606944444444444],[-105.45027777777779,35.700833333333335],[-105.56194444444444,35.73833333333334],[-105.56194444444444,35.73833333333334],[-105.84583333333333,35.83222222222223],[-105.84583333333333,35.83222222222223],[-105.84583333333333,35.83222222222223],[-106.37333333333332,36.00388888888889],[-106.37333333333332,36.00388888888889],[-106.37333333333332,36.00388888888889],[-106.37333333333332,36.00388888888889],[-106.37333333333332,36.00388888888889],[-106.37333333333332,36.00388888888889],[-106.50527777777778,36.046388888888885],[-106.50527777777778,36.046388888888885],[-106.50527777777778,36.046388888888885],[-106.50527777777778,36.046388888888885],[-106.63861111111112,36.08916666666667],[-106.63861111111112,36.08916666666667],[-107.16916666666667,36.257222222222225],[-107.16916666666667,36.257222222222225],[-107.16916666666667,36.257222222222225],[-107.30194444444444,36.29888888888889],[-107.30194444444444,36.29888888888889],[-107.30194444444444,36.29888888888889],[-107.43555555555555,36.34055555555556],[-107.43555555555555,36.34055555555556],[-107.43555555555555,36.34055555555556],[-107.43555555555555,36.34055555555556],[-107.43555555555555,36.34055555555556],[-107.70333333333333,36.42361111111111],[-107.70333333333333,36.42361111111111],[-107.70333333333333,36.42361111111111],[-107.83888888888889,36.46527777777778],[-107.83888888888889,36.46527777777778],[-107.83888888888889,36.46527777777778],[-107.83888888888889,36.46527777777778],[-108.10694444444444,36.54416666666666],[-108.10694444444444,36.54416666666666],[-108.10694444444444,36.54416666666666],[-108.63222222222221,36.70388888888889],[-108.63222222222221,36.70388888888889],[-108.63222222222221,36.70388888888889],[-108.63222222222221,36.70388888888889],[-108.63222222222221,36.70388888888889],[-108.63222222222221,36.70388888888889],[-108.63222222222221,36.70388888888889],[-109.68805555555556,37.014722222222225],[-109.68805555555556,37.014722222222225],[-109.68805555555556,37.014722222222225],[-109.85194444444444,37.06111111111111],[-109.85194444444444,37.06111111111111],[-109.85194444444444,37.06111111111111],[-109.85194444444444,37.06111111111111],[-109.85194444444444,37.06111111111111],[-110.09388888888888,37.12972222222222],[-110.09388888888888,37.12972222222222],[-110.09388888888888,37.12972222222222],[-110.53416666666666,37.25333333333333],[-110.53416666666666,37.25333333333333],[-110.53416666666666,37.25333333333333],[-110.53416666666666,37.25333333333333],[-110.53416666666666,37.25333333333333],[-110.53416666666666,37.25333333333333],[-110.81444444444445,37.33083333333334],[-110.81444444444445,37.33083333333334],[-110.95361111111112,37.369166666666665],[-110.95361111111112,37.369166666666665],[-110.95361111111112,37.369166666666665],[-110.95361111111112,37.369166666666665],[-110.95361111111112,37.369166666666665],[-110.95361111111112,37.369166666666665],[-111.37694444444443,37.48416666666667],[-111.37694444444443,37.48416666666667],[-111.37694444444443,37.48416666666667],[-111.65666666666667,37.55916666666666],[-111.65666666666667,37.55916666666666],[-111.65666666666667,37.55916666666666],[-111.65666666666667,37.55916666666666],[-112.36444444444444,37.74527777777778],[-112.36444444444444,37.74527777777778],[-112.36444444444444,37.74527777777778],[-112.36444444444444,37.74527777777778],[-112.36444444444444,37.74527777777778],[-112.50583333333333,37.781666666666666],[-112.50583333333333,37.781666666666666],[-112.50583333333333,37.781666666666666],[-112.92805555555556,37.88944444444444],[-112.92805555555556,37.88944444444444],[-112.92805555555556,37.88944444444444],[-112.92805555555556,37.88944444444444],[-112.92805555555556,37.88944444444444],[-112.92805555555556,37.88944444444444],[-113.6463888888889,38.06916666666667],[-113.6463888888889,38.06916666666667],[-113.6463888888889,38.06916666666667],[-113.6463888888889,38.06916666666667],[-113.6463888888889,38.06916666666667],[-113.6463888888889,38.06916666666667],[-113.6463888888889,38.06916666666667],[-113.6463888888889,38.06916666666667],[-113.6463888888889,38.06916666666667],[-114.78388888888888,38.225],[-114.78388888888888,38.225],[-115.08611111111111,38.21],[-115.08611111111111,38.21],[-115.08611111111111,38.21],[-115.1286111111111,38.205000000000005],[-115.1286111111111,38.205000000000005],[-115.1286111111111,38.205000000000005],[-115.1286111111111,38.205000000000005],[-115.1286111111111,38.205000000000005],[-115.5425,38.17944444444444],[-115.69555555555556,38.168055555555554],[-115.69555555555556,38.168055555555554],[-115.69555555555556,38.168055555555554],[-115.69555555555556,38.168055555555554],[-115.75805555555556,38.16222222222222],[-115.75805555555556,38.16222222222222],[-115.75805555555556,38.16222222222222],[-115.75805555555556,38.16222222222222],[-115.8536111111111,38.15555555555555],[-116.00638888888889,38.144444444444446],[-116.00638888888889,38.144444444444446],[-116.00638888888889,38.144444444444446],[-116.00638888888889,38.144444444444446],[-116.15805555555556,38.13333333333333],[-116.31277777777777,38.121944444444445],[-116.31277777777777,38.121944444444445],[-116.31277777777777,38.121944444444445],[-116.31277777777777,38.121944444444445],[-116.31277777777777,38.121944444444445],[-116.31277777777777,38.121944444444445],[-117.52333333333333,38.01833333333333],[-117.52333333333333,38.01833333333333],[-117.52333333333333,38.01833333333333],[-117.52333333333333,38.01833333333333],[-117.52333333333333,38.01833333333333],[-117.52333333333333,38.01833333333333],[-117.58333333333333,38.0125],[-117.58333333333333,38.0125],[-117.58333333333333,38.0125],[-117.73694444444445,37.99722222222222],[-117.73694444444445,37.99722222222222],[-117.89166666666668,37.98166666666667],[-117.89166666666668,37.98166666666667],[-117.89166666666668,37.98166666666667],[-117.89166666666668,37.98166666666667],[-118.04694444444445,37.965833333333336],[-118.04694444444445,37.965833333333336],[-118.04694444444445,37.965833333333336],[-118.04694444444445,37.965833333333336],[-118.04694444444445,37.965833333333336],[-118.04694444444445,37.965833333333336],[-118.91277777777778,37.873333333333335],[-118.91277777777778,37.873333333333335],[-118.91277777777778,37.873333333333335],[-118.91277777777778,37.873333333333335],[-118.91277777777778,37.873333333333335],[-118.91277777777778,37.873333333333335],[-118.91277777777778,37.873333333333335],[-118.91277777777778,37.873333333333335],[-119.25,37.83583333333333],[-119.25,37.83583333333333],[-119.25,37.83583333333333],[-119.40333333333334,37.818333333333335],[-119.40333333333334,37.818333333333335],[-119.40333333333334,37.818333333333335],[-119.40333333333334,37.818333333333335],[-119.40333333333334,37.818333333333335],[-119.71138888888889,37.7825],[-119.71138888888889,37.7825],[-119.71138888888889,37.7825],[-120.18111111111112,37.72638888888889],[-120.18111111111112,37.72638888888889],[-120.18111111111112,37.72638888888889],[-120.18111111111112,37.72638888888889],[-120.18111111111112,37.72638888888889],[-120.18111111111112,37.72638888888889],[-120.18111111111112,37.72638888888889],[-120.60444444444444,37.67583333333333],[-120.60444444444444,37.67583333333333],[-120.60444444444444,37.67583333333333],[-120.60444444444444,37.67583333333333],[-120.74861111111112,37.65888888888889],[-120.74861111111112,37.65888888888889],[-120.74861111111112,37.65888888888889],[-120.74861111111112,37.65888888888889],[-120.74861111111112,37.65888888888889],[-121.13527777777779,37.609722222222224],[-121.13527777777779,37.609722222222224],[-121.13527777777779,37.609722222222224],[-121.13527777777779,37.609722222222224],[-121.13527777777779,37.609722222222224],[-121.13527777777779,37.609722222222224],[-121.13527777777779,37.609722222222224],[-122.01277777777777,37.50277777777778],[-122.01277777777777,37.50277777777778],[-122.08555555555554,37.52638888888889],[-122.08555555555554,37.52638888888889],[-122.08555555555554,37.52638888888889],[-122.08555555555554,37.52638888888889],[-122.08555555555554,37.52638888888889],[-122.08555555555554,37.52638888888889],[-122.08555555555554,37.52638888888889],[-122.08555555555554,37.52638888888889],[-122.27111111111111,37.58583333333333],[-122.27111111111111,37.58583333333333],[-122.27111111111111,37.58583333333333],[-122.27111111111111,37.58583333333333],[-122.27111111111111,37.58583333333333],[-122.27111111111111,37.58583333333333]],"type":"LineString"}
}
