{
  "id": 1981765637,
  "type": "Feature",
  "properties": {
    "geom:area": 0,
    "geom:bbox": "-122.362860,37.632640,-121.243310,38.427010",
    "geom:latitude": 38.06840766216087,
    "geom:longitude": -121.83695233531064,
    "src:alt_label": "swim-takeoff",
    "src:geom": "swim",
    "swim:elevations": [
      213,
      427,
      646,
      1234,
      2404,
      2903,
      3347,
      3407,
      3863,
      4000,
      4139,
      4545,
      4713,
      4988,
      5371,
      5791,
      5916,
      6542,
      6848,
      7112,
      7178,
      7387,
      7462
    ],
    "swim:geom": "takeoff",
    "swim:timestamps": [
      1761402501,
      1761402518,
      1761402548,
      1761402600,
      1761402678,
      1761402714,
      1761402743,
      1761402759,
      1761402802,
      1761402811,
      1761402823,
      1761402860,
      1761402879,
      1761402904,
      1761402938,
      1761403007,
      1761403036,
      1761403096,
      1761403129,
      1761403163,
      1761403173,
      1761403215,
      1761403232
    ],
    "wof:geomhash": "45405a50be2552c8a32915cd6f1e3125",
    "wof:id": 1981765637,
    "wof:repo": "sfomuseum-data-flights-2025-10"
  },
  "bbox": [
    -122.36286,
    37.63264,
    -121.24331,
    38.42701
  ],
  "geometry": {"coordinates":[[-122.36286,37.63264],[-122.35024,37.64214],[-122.32227,37.6574],[-122.26885,37.69446],[-122.21239,37.77961],[-122.18354,37.8228],[-122.15907,37.85788],[-122.14477,37.8779],[-122.10354,37.93665],[-122.09451,37.94938],[-122.08223,37.96663],[-122.02589,38.0126],[-121.98882,38.03106],[-121.94052,38.05556],[-121.87079,38.09125],[-121.72905,38.164],[-121.66692,38.19564],[-121.5397,38.26022],[-121.46739,38.29686],[-121.39129,38.33576],[-121.3698,38.34864],[-121.28052,38.40396],[-121.24331,38.42701]],"type":"LineString"}
}
