{
  "id": 1997541003,
  "type": "Feature",
  "properties": {
    "geom:area": 0,
    "geom:bbox": "-122.316667,35.882500,-115.276111,37.690833",
    "geom:latitude": 37.15842167439873,
    "geom:longitude": -118.63269544082499,
    "src:alt_label": "swim-path",
    "src:geom": "swim",
    "swim:altitudes": [
      "071",
      "071",
      "071",
      "071",
      "108",
      "108",
      "183",
      "183",
      "183",
      "314",
      "314",
      "314",
      "314",
      "340C",
      "340C",
      "340C",
      "340C",
      "340C",
      "340C",
      "340C",
      "340C",
      "340C",
      "340C",
      "340C",
      "340C",
      "340C",
      "340C",
      "340C",
      "340C",
      "340C",
      "340C",
      "340C",
      "340C",
      "340C",
      "340C",
      "340C",
      "255",
      "255",
      "255",
      "217",
      "196",
      "162",
      "162",
      "162",
      "162",
      "100",
      "100",
      "078C",
      "078C",
      "058",
      "058",
      "035",
      "035",
      "035",
      "035",
      "025",
      "025",
      "007",
      "007",
      "007",
      "007",
      "007"
    ],
    "swim:geom": "path",
    "swim:speeds": [
      275,
      275,
      275,
      275,
      323,
      323,
      399,
      399,
      399,
      420,
      420,
      420,
      420,
      433,
      433,
      433,
      431,
      431,
      427,
      427,
      427,
      427,
      427,
      464,
      464,
      465,
      466,
      466,
      466,
      466,
      466,
      466,
      465,
      465,
      465,
      465,
      448,
      448,
      448,
      405,
      395,
      367,
      367,
      367,
      367,
      297,
      297,
      268,
      268,
      236,
      236,
      214,
      214,
      214,
      214,
      198,
      198,
      146,
      146,
      146,
      146,
      146
    ],
    "swim:timestamps": [
      1761939006,
      1761939006,
      1761939006,
      1761939006,
      1761939087,
      1761939087,
      1761939306,
      1761939306,
      1761939306,
      1761939727,
      1761939727,
      1761939727,
      1761939727,
      1761939963,
      1761939963,
      1761939963,
      1761940023,
      1761940023,
      1761940148,
      1761940148,
      1761940148,
      1761940148,
      1761940148,
      1761940508,
      1761940508,
      1761940623,
      1761940744,
      1761940744,
      1761940744,
      1761940744,
      1761940744,
      1761940744,
      1761941164,
      1761941164,
      1761941164,
      1761941164,
      1761941525,
      1761941525,
      1761941525,
      1761941636,
      1761941696,
      1761941815,
      1761941815,
      1761941815,
      1761941815,
      1761942056,
      1761942056,
      1761942186,
      1761942186,
      1761942306,
      1761942306,
      1761942421,
      1761942421,
      1761942421,
      1761942421,
      1761942486,
      1761942486,
      1761942596,
      1761942596,
      1761942596,
      1761942596,
      1761942596
    ],
    "wof:geomhash": "949a70f54ef2ddd89daa952efeff5104",
    "wof:id": 1997541003,
    "wof:repo": "sfomuseum-data-flights-2025-10"
  },
  "bbox": [
    -122.31666666666666,
    35.8825,
    -115.2761111111111,
    37.69083333333333
  ],
  "geometry": {"coordinates":[[-115.2761111111111,36.10777777777778],[-115.2761111111111,36.10777777777778],[-115.2761111111111,36.10777777777778],[-115.2761111111111,36.10777777777778],[-115.33833333333332,36.00944444444445],[-115.33833333333332,36.00944444444445],[-115.7063888888889,35.8825],[-115.7063888888889,35.8825],[-115.7063888888889,35.8825],[-116.4863888888889,36.33916666666667],[-116.4863888888889,36.33916666666667],[-116.4863888888889,36.33916666666667],[-116.4863888888889,36.33916666666667],[-116.88777777777779,36.6875],[-116.88777777777779,36.6875],[-116.88777777777779,36.6875],[-116.97555555555556,36.785],[-116.97555555555556,36.785],[-117.11138888888888,36.99444444444445],[-117.11138888888888,36.99444444444445],[-117.11138888888888,36.99444444444445],[-117.11138888888888,36.99444444444445],[-117.11138888888888,36.99444444444445],[-117.73666666666666,37.45388888888889],[-117.73666666666666,37.45388888888889],[-118.02833333333334,37.48388888888889],[-118.35249999999999,37.51638888888889],[-118.35249999999999,37.51638888888889],[-118.35249999999999,37.51638888888889],[-118.35249999999999,37.51638888888889],[-118.35249999999999,37.51638888888889],[-118.35249999999999,37.51638888888889],[-119.50055555555555,37.623333333333335],[-119.50055555555555,37.623333333333335],[-119.50055555555555,37.623333333333335],[-119.50055555555555,37.623333333333335],[-120.47805555555556,37.69083333333333],[-120.47805555555556,37.69083333333333],[-120.47805555555556,37.69083333333333],[-120.76666666666667,37.65],[-120.9,37.63333333333333],[-121.16666666666667,37.6],[-121.16666666666667,37.6],[-121.16666666666667,37.6],[-121.16666666666667,37.6],[-121.63333333333334,37.55],[-121.63333333333334,37.55],[-121.81777777777778,37.50472222222222],[-121.81777777777778,37.50472222222222],[-121.99388888888889,37.49666666666667],[-121.99388888888889,37.49666666666667],[-122.15,37.55],[-122.15,37.55],[-122.15,37.55],[-122.15,37.55],[-122.20472222222223,37.56472222222222],[-122.20472222222223,37.56472222222222],[-122.31666666666666,37.6],[-122.31666666666666,37.6],[-122.31666666666666,37.6],[-122.31666666666666,37.6],[-122.31666666666666,37.6]],"type":"LineString"}
}
