{
  "id": 1981714249,
  "type": "Feature",
  "properties": {
    "geom:area": 0,
    "geom:bbox": "-122.458940,36.803260,-121.276830,37.725650",
    "geom:latitude": 37.268831507684006,
    "geom:longitude": -121.95991035171305,
    "src:alt_label": "swim-takeoff",
    "src:geom": "swim",
    "swim:elevations": [
      244,
      362,
      771,
      907,
      1324,
      1430,
      1800,
      2166,
      2315,
      2556,
      2799,
      3246,
      3379,
      3441,
      3873,
      3952,
      4163,
      4362,
      4607,
      4967,
      5050,
      5294,
      5494,
      5614,
      5798,
      5932,
      6219,
      6412,
      6759,
      6821,
      7215,
      7349,
      7517,
      7659,
      8007,
      8110
    ],
    "swim:geom": "takeoff",
    "swim:timestamps": [
      1760916470,
      1760916482,
      1760916538,
      1760916563,
      1760916597,
      1760916603,
      1760916627,
      1760916652,
      1760916661,
      1760916679,
      1760916701,
      1760916746,
      1760916770,
      1760916787,
      1760916828,
      1760916834,
      1760916849,
      1760916877,
      1760916907,
      1760916949,
      1760916958,
      1760916988,
      1760917015,
      1760917028,
      1760917046,
      1760917062,
      1760917098,
      1760917122,
      1760917168,
      1760917174,
      1760917223,
      1760917245,
      1760917266,
      1760917290,
      1760917335,
      1760917353
    ],
    "wof:geomhash": "c84aa4d71ea0eba16ef6452f59af397a",
    "wof:id": 1981714249,
    "wof:repo": "sfomuseum-data-flights-2025-10"
  },
  "bbox": [
    -122.45894,
    36.80326,
    -121.27683,
    37.72565
  ],
  "geometry": {"coordinates":[[-122.36728,37.63206],[-122.36586,37.63982],[-122.36246,37.68523],[-122.36912,37.70968],[-122.41267,37.72565],[-122.42145,37.72341],[-122.4459,37.7021],[-122.45234,37.66972],[-122.45398,37.65822],[-122.45696,37.63502],[-122.45894,37.60652],[-122.41186,37.55719],[-122.37681,37.53291],[-122.35103,37.51472],[-122.28542,37.46737],[-122.2757,37.46033],[-122.25143,37.44289],[-122.20489,37.40952],[-122.1535,37.37254],[-122.08024,37.3197],[-122.06414,37.30813],[-122.01005,37.26904],[-121.9584,37.23586],[-121.93235,37.22007],[-121.89693,37.19859],[-121.86692,37.18014],[-121.79468,37.13476],[-121.74764,37.10475],[-121.65511,37.04576],[-121.64307,37.03802],[-121.54385,36.97481],[-121.50066,36.94715],[-121.45766,36.91965],[-121.4083,36.8881],[-121.31412,36.82771],[-121.27683,36.80326]],"type":"LineString"}
}
