{
  "id": 1981697549,
  "type": "Feature",
  "properties": {
    "geom:area": 0,
    "geom:bbox": "-122.358520,37.638520,-121.249320,37.938720",
    "geom:latitude": 37.75434850497499,
    "geom:longitude": -121.79928370041875,
    "src:alt_label": "swim-takeoff",
    "src:geom": "swim",
    "swim:elevations": [
      439,
      656,
      907,
      1060,
      1373,
      1559,
      1972,
      2434,
      2604,
      3108,
      3276,
      3430,
      3603,
      3871,
      4037,
      4493,
      4569,
      5024,
      5088,
      5422,
      5646,
      5941
    ],
    "swim:geom": "takeoff",
    "swim:timestamps": [
      1760768067,
      1760768091,
      1760768127,
      1760768154,
      1760768183,
      1760768198,
      1760768228,
      1760768272,
      1760768286,
      1760768329,
      1760768357,
      1760768386,
      1760768424,
      1760768453,
      1760768471,
      1760768514,
      1760768523,
      1760768575,
      1760768581,
      1760768629,
      1760768659,
      1760768694
    ],
    "wof:geomhash": "7d85275b40bee871b56b4e7e850b0f77",
    "wof:id": 1981697549,
    "wof:repo": "sfomuseum-data-flights-2025-10"
  },
  "bbox": [
    -122.35852,
    37.63852,
    -121.24932,
    37.93872
  ],
  "geometry": {"coordinates":[[-122.35852,37.63898],[-122.33822,37.6494],[-122.29857,37.65434],[-122.26186,37.65124],[-122.21859,37.6476],[-122.19539,37.64569],[-122.14885,37.64222],[-122.07631,37.63852],[-122.05429,37.64454],[-121.98935,37.66988],[-121.94366,37.68783],[-121.89304,37.70617],[-121.8209,37.73265],[-121.7619,37.75433],[-121.72505,37.76776],[-121.63794,37.79929],[-121.61927,37.80604],[-121.50886,37.84576],[-121.49602,37.85037],[-121.39239,37.8876],[-121.32725,37.9109],[-121.24932,37.93872]],"type":"LineString"}
}
