{
  "id": 1981758583,
  "type": "Feature",
  "properties": {
    "date:cessation_lower": "2025-10-24",
    "date:cessation_upper": "2025-10-24",
    "date:inception_lower": "2025-10-24",
    "date:inception_upper": "2025-10-24",
    "edtf:cessation": "2025-10-24T19:37:50Z",
    "edtf:inception": "2025-10-24T00:21:37-07:00",
    "flysfo:actual_timestamp": -1,
    "flysfo:airline": "B6",
    "flysfo:base_airline": "",
    "flysfo:base_flight_number": "7830",
    "flysfo:date": "2025-10-24",
    "flysfo:estimated_timestamp": 1761315000,
    "flysfo:event": "D",
    "flysfo:flight_number": "B6434",
    "flysfo:gate": "",
    "flysfo:journey": "SFO-BOS",
    "flysfo:scheduled_timestamp": 1761315000,
    "flysfo:timestamp": 1761315000,
    "geom:area": 0,
    "geom:bbox": "-122.370943,37.617990,-71.014750,42.362322",
    "geom:latitude": 39.990156,
    "geom:longitude": -96.6928465,
    "iata:airline": "B6",
    "iata:base_airline": "",
    "icao:aircraft": "A321",
    "icao:airline": "JBU",
    "icao:base_airline": "ICE",
    "lbl:latitude": 37.61799,
    "lbl:longitude": -122.370943,
    "sfomuseum:aircraft_id": 1159289411,
    "sfomuseum:airline_id": 1159284583,
    "sfomuseum:arrival_id": 102530741,
    "sfomuseum:base_flight_id": "20251024-D-ICE-7830",
    "sfomuseum:departure_id": 102527513,
    "sfomuseum:flight_id": "20251024-D-JBU-434",
    "sfomuseum:flight_number": [
      "JBU434",
      "B6434"
    ],
    "sfomuseum:placetype": "flight",
    "src:geom": "flysfo",
    "src:geom_alt": [
      "swim-route",
      "swim-path",
      "swim-takeoff"
    ],
    "swim:tail_number": "N983JT",
    "wof:belongsto": [],
    "wof:concordances": {
      "swim:flight_ref": "114139068",
      "swim:gufi": "KO43520600"
    },
    "wof:country": "US",
    "wof:created": 1761408909,
    "wof:geomhash": "92fb504f17f3373e6b03bb6769f65d8a",
    "wof:hierarchy": [
      {
        "custom_id": 1981758583,
        "flight_id": 1981758583
      }
    ],
    "wof:id": 1981758583,
    "wof:involves": [
      1159289411,
      102530741,
      102527513,
      1159284583,
      1159284513
    ],
    "wof:lastmodified": 1761409152,
    "wof:name": "B6434 (SFO-BOS)",
    "wof:parent_id": -1,
    "wof:placetype": "custom",
    "wof:placetype_alt": [
      "flight"
    ],
    "wof:repo": "sfomuseum-data-flights-2025-10",
    "wof:superseded_by": [],
    "wof:supersedes": []
  },
  "bbox": [
    -122.370943,
    37.61799,
    -71.01475,
    42.362322
  ],
  "geometry": {"coordinates":[[-122.370943,37.61799],[-71.01475,42.362322]],"type":"MultiPoint"}
}
