{
  "id": 1981659111,
  "type": "Feature",
  "properties": {
    "geom:area": 0,
    "geom:bbox": "-122.360290,37.464910,-121.269680,37.613240",
    "geom:latitude": 37.53605279057851,
    "geom:longitude": -121.8184357423725,
    "src:alt_label": "swim-approach",
    "src:geom": "swim",
    "swim:elevations": [
      4842,
      4753,
      4325,
      4167,
      3926,
      3761,
      3720,
      3532,
      3234,
      3200,
      3170,
      3131,
      3048,
      3048,
      2926,
      2691,
      2589,
      2468,
      2432,
      2346,
      2135,
      2134,
      2022,
      1849,
      1830,
      1628,
      1218,
      1218,
      1133,
      876,
      734,
      573,
      459,
      328,
      214,
      114,
      0
    ],
    "swim:geom": "approach",
    "swim:timestamps": [
      1760356551,
      1760356577,
      1760356616,
      1760356629,
      1760356653,
      1760356677,
      1760356688,
      1760356717,
      1760356763,
      1760356792,
      1760356805,
      1760356820,
      1760356849,
      1760356866,
      1760356897,
      1760356933,
      1760356953,
      1760356978,
      1760357001,
      1760357015,
      1760357065,
      1760357086,
      1760357121,
      1760357150,
      1760357163,
      1760357197,
      1760357245,
      1760357260,
      1760357298,
      1760357338,
      1760357365,
      1760357398,
      1760357420,
      1760357449,
      1760357476,
      1760357504,
      1760357528
    ],
    "wof:geomhash": "8b2caca74bc464d2d02ad18b1142ffab",
    "wof:id": 1981659111,
    "wof:repo": "sfomuseum-data-flights-2025-10"
  },
  "bbox": [
    -122.36029,
    37.46491,
    -121.26968,
    37.61324
  ],
  "geometry": {"coordinates":[[-121.26968,37.59192],[-121.30512,37.58785],[-121.35625,37.58203],[-121.37231,37.5802],[-121.40457,37.57644],[-121.43696,37.5727],[-121.45172,37.57103],[-121.48993,37.56657],[-121.55188,37.55932],[-121.59101,37.56033],[-121.60898,37.56174],[-121.63025,37.56337],[-121.66929,37.56645],[-121.69363,37.5674],[-121.72454,37.54827],[-121.73544,37.51185],[-121.74077,37.49062],[-121.75628,37.4693],[-121.78501,37.46491],[-121.80439,37.46637],[-121.86912,37.47193],[-121.89518,37.47385],[-121.93974,37.47739],[-121.97676,37.48026],[-121.99322,37.48148],[-122.03569,37.4851],[-122.09079,37.50135],[-122.10807,37.50886],[-122.15093,37.52655],[-122.19655,37.54599],[-122.22406,37.55753],[-122.25577,37.57094],[-122.27654,37.57966],[-122.30173,37.59025],[-122.32107,37.59842],[-122.34209,37.60718],[-122.36029,37.61324]],"type":"LineString"}
}
