{
  "id": 1981722507,
  "type": "Feature",
  "properties": {
    "geom:area": 0,
    "geom:bbox": "-118.235278,37.945833,-77.033333,39.538611",
    "geom:latitude": 38.854546426357444,
    "geom:longitude": -97.60228677327655,
    "src:alt_label": "swim-path",
    "src:geom": "swim",
    "swim:altitudes": [
      "350C",
      "350C",
      "350C",
      "350C",
      "350C",
      "350C",
      "350C",
      "350C",
      "350C",
      "350C",
      "350C",
      "350C",
      "350C",
      "350C",
      "350C",
      "350C",
      "350C",
      "350C",
      "350C",
      "350C",
      "350C",
      "350C",
      "350C",
      "350C",
      "350C",
      "350C",
      "350C",
      "350C",
      "350C",
      "350C",
      "350C",
      "350C",
      "350C",
      "350C",
      "350C",
      "350C",
      "350C",
      "350C",
      "350C",
      "350C",
      "350C",
      "350C",
      "350C",
      "350C",
      "350C",
      "350C",
      "350C",
      "350C",
      "350C",
      "350C",
      "350C",
      "350C",
      "350C",
      "350C",
      "350C",
      "350C",
      "350C",
      "350C",
      "350C",
      "350C",
      "350C",
      "350C",
      "350C",
      "350C",
      "350C",
      "350C",
      "350C",
      "350C",
      "350C",
      "350C",
      "350C",
      "350C",
      "350C",
      "350C",
      "350C",
      "350C",
      "350C",
      "350C",
      "350C",
      "350C",
      "350C",
      "350C",
      "350C",
      "350C",
      "350C",
      "350C",
      "350C",
      "350C",
      "350C",
      "350C",
      "350C",
      "350C",
      "350C",
      "350C",
      "350C",
      "350C",
      "350C",
      "350C",
      "350C",
      "350C",
      "350C",
      "350C",
      "350C",
      "350C",
      "350C",
      "350C",
      "350C",
      "350C",
      "350C",
      "350C",
      "350C",
      "350C",
      "350C",
      "350C",
      "350C",
      "350C",
      "350C",
      "350C",
      "350C",
      "350C",
      "350C",
      "350C",
      "350C",
      "350C",
      "350C",
      "350C",
      "350C",
      "350C",
      "350C",
      "350C",
      "350C",
      "350C",
      "350C",
      "350C",
      "350C",
      "350C",
      "350C",
      "350C",
      "350C",
      "350C",
      "350C",
      "350C",
      "350C",
      "350C",
      "350C",
      "350C",
      "350C",
      "350C",
      "350C",
      "350C",
      "350C",
      "350C",
      "350C",
      "350C",
      "350C",
      "350C",
      "350C",
      "350C",
      "350C",
      "350C",
      "350C",
      "350C",
      "350C",
      "350C",
      "350C",
      "350C",
      "350C",
      "350C",
      "350C",
      "350C",
      "350C",
      "350C",
      "350C",
      "350C",
      "350C",
      "350C",
      "350C",
      "350C",
      "350C",
      "350C",
      "350C",
      "366",
      "366",
      "366",
      "366",
      "366",
      "370C",
      "370C",
      "370C",
      "370C",
      "370C",
      "370C",
      "370C",
      "370C",
      "370C",
      "370C",
      "370C",
      "370C",
      "370C",
      "370C",
      "370C",
      "370C",
      "370C",
      "370C",
      "370C",
      "370C",
      "370C",
      "370C",
      "370C",
      "370C",
      "370C",
      "370C",
      "370C",
      "370C",
      "370C",
      "370C",
      "370C",
      "370C",
      "370C",
      "370C",
      "370C",
      "370C",
      "370C",
      "370C",
      "370C",
      "370C",
      "370C",
      "370C",
      "370C",
      "370C",
      "370C",
      "370C",
      "370C",
      "370C",
      "370C",
      "370C",
      "370C",
      "370C",
      "370C",
      "370C",
      "370C",
      "370C",
      "370C",
      "370C",
      "370C",
      "370C",
      "370C",
      "370C",
      "370C",
      "370C",
      "370C",
      "370C",
      "370C",
      "370C",
      "370C",
      "370C",
      "370C",
      "370C",
      "370C",
      "370C",
      "370C",
      "370C",
      "370C",
      "370C",
      "370C",
      "370C",
      "370C",
      "370C",
      "370C",
      "370C",
      "370C",
      "370C",
      "370C",
      "370C",
      "370C",
      "370C",
      "370C",
      "370C",
      "370C",
      "370C",
      "370C",
      "370C",
      "370C",
      "370C",
      "370C",
      "370C",
      "368",
      "368",
      "368",
      "368",
      "368",
      "368",
      "368",
      "368",
      "368",
      "320",
      "320",
      "320",
      "320",
      "320",
      "320",
      "241",
      "241",
      "241",
      "241",
      "202",
      "202",
      "202",
      "202",
      "202",
      "184",
      "184",
      "184",
      "184",
      "184",
      "160",
      "160",
      "151",
      "151",
      "124",
      "124",
      "119",
      "119",
      "119",
      "119",
      "096",
      "096",
      "054",
      "054",
      "048",
      "048",
      "048",
      "048",
      "048",
      "048",
      "020",
      "020",
      "020",
      "020",
      "020"
    ],
    "swim:geom": "path",
    "swim:speeds": [
      450,
      450,
      450,
      450,
      450,
      450,
      450,
      450,
      450,
      450,
      462,
      462,
      462,
      462,
      462,
      462,
      467,
      467,
      467,
      467,
      467,
      470,
      470,
      470,
      470,
      473,
      473,
      473,
      476,
      476,
      476,
      476,
      477,
      477,
      477,
      477,
      477,
      477,
      477,
      477,
      477,
      477,
      490,
      490,
      490,
      489,
      489,
      492,
      492,
      492,
      492,
      492,
      492,
      492,
      492,
      492,
      492,
      492,
      492,
      508,
      508,
      508,
      508,
      508,
      508,
      508,
      510,
      510,
      510,
      510,
      510,
      510,
      510,
      519,
      519,
      519,
      519,
      519,
      519,
      521,
      521,
      521,
      521,
      522,
      522,
      522,
      521,
      521,
      521,
      521,
      521,
      525,
      525,
      525,
      525,
      525,
      523,
      523,
      523,
      523,
      523,
      523,
      526,
      526,
      526,
      526,
      528,
      528,
      528,
      534,
      534,
      534,
      534,
      534,
      535,
      535,
      535,
      535,
      535,
      547,
      547,
      547,
      547,
      547,
      547,
      547,
      547,
      547,
      547,
      547,
      547,
      546,
      546,
      548,
      548,
      548,
      549,
      549,
      552,
      552,
      552,
      552,
      552,
      552,
      552,
      550,
      550,
      550,
      550,
      550,
      548,
      548,
      548,
      550,
      550,
      550,
      550,
      551,
      551,
      551,
      551,
      551,
      551,
      551,
      551,
      542,
      542,
      542,
      542,
      542,
      542,
      542,
      540,
      540,
      540,
      539,
      539,
      539,
      539,
      537,
      537,
      549,
      549,
      549,
      549,
      549,
      546,
      546,
      546,
      546,
      546,
      545,
      545,
      545,
      545,
      545,
      540,
      540,
      540,
      540,
      540,
      530,
      530,
      530,
      530,
      530,
      530,
      530,
      519,
      519,
      519,
      519,
      519,
      519,
      519,
      516,
      516,
      517,
      517,
      516,
      516,
      516,
      516,
      512,
      512,
      507,
      507,
      507,
      507,
      507,
      507,
      507,
      507,
      504,
      504,
      504,
      504,
      504,
      504,
      502,
      502,
      502,
      504,
      504,
      504,
      504,
      504,
      504,
      505,
      505,
      505,
      505,
      504,
      504,
      502,
      502,
      502,
      500,
      500,
      500,
      500,
      500,
      496,
      496,
      496,
      496,
      496,
      496,
      496,
      496,
      496,
      497,
      497,
      497,
      497,
      497,
      497,
      497,
      496,
      496,
      496,
      496,
      496,
      496,
      496,
      496,
      494,
      494,
      494,
      494,
      494,
      494,
      494,
      494,
      494,
      514,
      514,
      514,
      514,
      514,
      514,
      457,
      457,
      457,
      457,
      423,
      423,
      423,
      423,
      423,
      411,
      411,
      411,
      411,
      411,
      405,
      405,
      398,
      398,
      349,
      349,
      337,
      337,
      337,
      337,
      322,
      322,
      279,
      279,
      279,
      279,
      279,
      279,
      279,
      279,
      209,
      209,
      209,
      209,
      209
    ],
    "swim:timestamps": [
      1760980957,
      1760980957,
      1760980957,
      1760980957,
      1760980957,
      1760980957,
      1760980957,
      1760980957,
      1760980957,
      1760980957,
      1760981557,
      1760981557,
      1760981557,
      1760981557,
      1760981557,
      1760981557,
      1760981857,
      1760981857,
      1760981857,
      1760981857,
      1760981857,
      1760981917,
      1760981917,
      1760981917,
      1760981917,
      1760982338,
      1760982338,
      1760982338,
      1760982638,
      1760982638,
      1760982638,
      1760982638,
      1760982819,
      1760982819,
      1760982819,
      1760982819,
      1760982819,
      1760982819,
      1760982819,
      1760982819,
      1760982819,
      1760982819,
      1760983299,
      1760983299,
      1760983299,
      1760983359,
      1760983359,
      1760983419,
      1760983419,
      1760983419,
      1760983540,
      1760983540,
      1760983540,
      1760983540,
      1760983599,
      1760983599,
      1760983599,
      1760983599,
      1760983599,
      1760984020,
      1760984020,
      1760984020,
      1760984020,
      1760984020,
      1760984020,
      1760984020,
      1760984320,
      1760984320,
      1760984320,
      1760984320,
      1760984320,
      1760984320,
      1760984320,
      1760984621,
      1760984621,
      1760984621,
      1760984621,
      1760984621,
      1760984621,
      1760984681,
      1760984681,
      1760984681,
      1760984681,
      1760984741,
      1760984801,
      1760984801,
      1760984981,
      1760984981,
      1760984981,
      1760984981,
      1760984981,
      1760985161,
      1760985161,
      1760985161,
      1760985161,
      1760985161,
      1760985342,
      1760985342,
      1760985342,
      1760985342,
      1760985342,
      1760985342,
      1760985462,
      1760985462,
      1760985462,
      1760985462,
      1760985522,
      1760985522,
      1760985522,
      1760985882,
      1760985882,
      1760985882,
      1760985882,
      1760985882,
      1760985968,
      1760985968,
      1760985968,
      1760985968,
      1760985968,
      1760986183,
      1760986183,
      1760986243,
      1760986243,
      1760986243,
      1760986243,
      1760986243,
      1760986243,
      1760986243,
      1760986363,
      1760986363,
      1760986363,
      1760986449,
      1760986449,
      1760986663,
      1760986663,
      1760986663,
      1760986749,
      1760986749,
      1760986870,
      1760986870,
      1760986870,
      1760986870,
      1760986870,
      1760986870,
      1760986870,
      1760987144,
      1760987144,
      1760987144,
      1760987144,
      1760987144,
      1760987264,
      1760987264,
      1760987264,
      1760987470,
      1760987470,
      1760987470,
      1760987470,
      1760987531,
      1760987531,
      1760987531,
      1760987591,
      1760987591,
      1760987591,
      1760987591,
      1760987591,
      1760988131,
      1760988131,
      1760988131,
      1760988131,
      1760988131,
      1760988131,
      1760988131,
      1760988252,
      1760988252,
      1760988252,
      1760988312,
      1760988312,
      1760988312,
      1760988312,
      1760988432,
      1760988432,
      1760988732,
      1760988732,
      1760988732,
      1760988732,
      1760988732,
      1760989033,
      1760989033,
      1760989033,
      1760989033,
      1760989033,
      1760989093,
      1760989093,
      1760989093,
      1760989093,
      1760989093,
      1760989330,
      1760989330,
      1760989330,
      1760989330,
      1760989330,
      1760989571,
      1760989571,
      1760989571,
      1760989571,
      1760989571,
      1760989571,
      1760989571,
      1760989991,
      1760989991,
      1760989991,
      1760989991,
      1760989991,
      1760989991,
      1760989991,
      1760990232,
      1760990232,
      1760990292,
      1760990292,
      1760990352,
      1760990352,
      1760990352,
      1760990352,
      1760990544,
      1760990544,
      1760990652,
      1760990652,
      1760990652,
      1760990652,
      1760990652,
      1760990652,
      1760990652,
      1760990652,
      1760990893,
      1760990893,
      1760990893,
      1760990893,
      1760990965,
      1760990965,
      1760991265,
      1760991265,
      1760991265,
      1760991445,
      1760991445,
      1760991445,
      1760991445,
      1760991445,
      1760991445,
      1760991686,
      1760991686,
      1760991686,
      1760991686,
      1760991746,
      1760991746,
      1760991866,
      1760991866,
      1760991866,
      1760992106,
      1760992106,
      1760992106,
      1760992106,
      1760992106,
      1760992407,
      1760992407,
      1760992407,
      1760992407,
      1760992407,
      1760992467,
      1760992467,
      1760992467,
      1760992467,
      1760992587,
      1760992587,
      1760992587,
      1760992587,
      1760992587,
      1760992587,
      1760992587,
      1760993068,
      1760993068,
      1760993068,
      1760993068,
      1760993068,
      1760993068,
      1760993068,
      1760993068,
      1760993308,
      1760993308,
      1760993308,
      1760993308,
      1760993308,
      1760993308,
      1760993308,
      1760993308,
      1760993308,
      1760993609,
      1760993609,
      1760993609,
      1760993609,
      1760993609,
      1760993609,
      1760993969,
      1760993969,
      1760993969,
      1760993969,
      1760994089,
      1760994089,
      1760994089,
      1760994089,
      1760994089,
      1760994150,
      1760994150,
      1760994150,
      1760994150,
      1760994150,
      1760994270,
      1760994270,
      1760994295,
      1760994295,
      1760994415,
      1760994415,
      1760994450,
      1760994450,
      1760994450,
      1760994450,
      1760994570,
      1760994570,
      1760994775,
      1760994775,
      1760994811,
      1760994811,
      1760994811,
      1760994811,
      1760994811,
      1760994811,
      1760995015,
      1760995015,
      1760995015,
      1760995015,
      1760995015
    ],
    "wof:geomhash": "92ae94352416e8618cedf577ca1d1c4b",
    "wof:id": 1981722507,
    "wof:repo": "sfomuseum-data-flights-2025-10"
  },
  "bbox": [
    -118.23527777777778,
    37.94583333333333,
    -77.03333333333333,
    39.53861111111111
  ],
  "geometry": {"coordinates":[[-118.23527777777778,38.401111111111106],[-118.23527777777778,38.401111111111106],[-118.23527777777778,38.401111111111106],[-118.23527777777778,38.401111111111106],[-118.23527777777778,38.401111111111106],[-118.23527777777778,38.401111111111106],[-118.23527777777778,38.401111111111106],[-118.23527777777778,38.401111111111106],[-118.23527777777778,38.401111111111106],[-118.23527777777778,38.401111111111106],[-116.61,38.50555555555555],[-116.61,38.50555555555555],[-116.61,38.50555555555555],[-116.61,38.50555555555555],[-116.61,38.50555555555555],[-116.61,38.50555555555555],[-115.78472222222221,38.481944444444444],[-115.78472222222221,38.481944444444444],[-115.78472222222221,38.481944444444444],[-115.78472222222221,38.481944444444444],[-115.78472222222221,38.481944444444444],[-115.61861111111111,38.47666666666667],[-115.61861111111111,38.47666666666667],[-115.61861111111111,38.47666666666667],[-115.61861111111111,38.47666666666667],[-114.45472222222223,38.43194444444444],[-114.45472222222223,38.43194444444444],[-114.45472222222223,38.43194444444444],[-113.61583333333333,38.3925],[-113.61583333333333,38.3925],[-113.61583333333333,38.3925],[-113.61583333333333,38.3925],[-113.10777777777777,38.36555555555556],[-113.10777777777777,38.36555555555556],[-113.10777777777777,38.36555555555556],[-113.10777777777777,38.36555555555556],[-113.10777777777777,38.36555555555556],[-113.10777777777777,38.36555555555556],[-113.10777777777777,38.36555555555556],[-113.10777777777777,38.36555555555556],[-113.10777777777777,38.36555555555556],[-113.10777777777777,38.36555555555556],[-111.73972222222223,38.21555555555556],[-111.73972222222223,38.21555555555556],[-111.73972222222223,38.21555555555556],[-111.57027777777778,38.195277777777775],[-111.57027777777778,38.195277777777775],[-111.39611111111111,38.17361111111111],[-111.39611111111111,38.17361111111111],[-111.39611111111111,38.17361111111111],[-111.05277777777778,38.13111111111111],[-111.05277777777778,38.13111111111111],[-111.05277777777778,38.13111111111111],[-111.05277777777778,38.13111111111111],[-110.8825,38.10944444444445],[-110.8825,38.10944444444445],[-110.8825,38.10944444444445],[-110.8825,38.10944444444445],[-110.8825,38.10944444444445],[-109.64750000000001,37.94583333333333],[-109.64750000000001,37.94583333333333],[-109.64750000000001,37.94583333333333],[-109.64750000000001,37.94583333333333],[-109.64750000000001,37.94583333333333],[-109.64750000000001,37.94583333333333],[-109.64750000000001,37.94583333333333],[-108.75972222222222,37.97888888888889],[-108.75972222222222,37.97888888888889],[-108.75972222222222,37.97888888888889],[-108.75972222222222,37.97888888888889],[-108.75972222222222,37.97888888888889],[-108.75972222222222,37.97888888888889],[-108.75972222222222,37.97888888888889],[-107.86555555555555,38.09527777777778],[-107.86555555555555,38.09527777777778],[-107.86555555555555,38.09527777777778],[-107.86555555555555,38.09527777777778],[-107.86555555555555,38.09527777777778],[-107.86555555555555,38.09527777777778],[-107.68416666666667,38.117777777777775],[-107.68416666666667,38.117777777777775],[-107.68416666666667,38.117777777777775],[-107.68416666666667,38.117777777777775],[-107.50333333333333,38.140277777777776],[-107.32305555555556,38.1625],[-107.32305555555556,38.1625],[-106.7775,38.227222222222224],[-106.7775,38.227222222222224],[-106.7775,38.227222222222224],[-106.7775,38.227222222222224],[-106.7775,38.227222222222224],[-106.24833333333333,38.2875],[-106.24833333333333,38.2875],[-106.24833333333333,38.2875],[-106.24833333333333,38.2875],[-106.24833333333333,38.2875],[-105.67,38.350833333333334],[-105.67,38.350833333333334],[-105.67,38.350833333333334],[-105.67,38.350833333333334],[-105.67,38.350833333333334],[-105.67,38.350833333333334],[-105.3,38.38944444444444],[-105.3,38.38944444444444],[-105.3,38.38944444444444],[-105.3,38.38944444444444],[-105.11999999999999,38.408055555555556],[-105.11999999999999,38.408055555555556],[-105.11999999999999,38.408055555555556],[-104.01861111111111,38.514722222222225],[-104.01861111111111,38.514722222222225],[-104.01861111111111,38.514722222222225],[-104.01861111111111,38.514722222222225],[-104.01861111111111,38.514722222222225],[-103.75,38.54],[-103.75,38.54],[-103.75,38.54],[-103.75,38.54],[-103.75,38.54],[-103.04694444444445,38.599722222222226],[-103.04694444444445,38.599722222222226],[-102.85444444444444,38.615833333333335],[-102.85444444444444,38.615833333333335],[-102.85444444444444,38.615833333333335],[-102.85444444444444,38.615833333333335],[-102.85444444444444,38.615833333333335],[-102.85444444444444,38.615833333333335],[-102.85444444444444,38.615833333333335],[-102.47611111111111,38.64611111111111],[-102.47611111111111,38.64611111111111],[-102.47611111111111,38.64611111111111],[-102.21055555555556,38.666666666666664],[-102.21055555555556,38.666666666666664],[-101.50777777777778,38.718333333333334],[-101.50777777777778,38.718333333333334],[-101.50777777777778,38.718333333333334],[-101.23472222222222,38.73694444444445],[-101.23472222222222,38.73694444444445],[-100.84138888888889,38.76277777777778],[-100.84138888888889,38.76277777777778],[-100.84138888888889,38.76277777777778],[-100.84138888888889,38.76277777777778],[-100.84138888888889,38.76277777777778],[-100.84138888888889,38.76277777777778],[-100.84138888888889,38.76277777777778],[-99.93861111111111,38.8175],[-99.93861111111111,38.8175],[-99.93861111111111,38.8175],[-99.93861111111111,38.8175],[-99.93861111111111,38.8175],[-99.54888888888888,38.83861111111111],[-99.54888888888888,38.83861111111111],[-99.54888888888888,38.83861111111111],[-98.87888888888888,38.87222222222222],[-98.87888888888888,38.87222222222222],[-98.87888888888888,38.87222222222222],[-98.87888888888888,38.87222222222222],[-98.68388888888889,38.88138888888889],[-98.68388888888889,38.88138888888889],[-98.68388888888889,38.88138888888889],[-98.48555555555555,38.890277777777776],[-98.48555555555555,38.890277777777776],[-98.48555555555555,38.890277777777776],[-98.48555555555555,38.890277777777776],[-98.48555555555555,38.890277777777776],[-96.73472222222222,38.95388888888889],[-96.73472222222222,38.95388888888889],[-96.73472222222222,38.95388888888889],[-96.73472222222222,38.95388888888889],[-96.73472222222222,38.95388888888889],[-96.73472222222222,38.95388888888889],[-96.73472222222222,38.95388888888889],[-96.37555555555555,38.96361111111111],[-96.37555555555555,38.96361111111111],[-96.37555555555555,38.96361111111111],[-96.18527777777778,38.968333333333334],[-96.18527777777778,38.968333333333334],[-96.18527777777778,38.968333333333334],[-96.18527777777778,38.968333333333334],[-95.80472222222222,38.97666666666667],[-95.80472222222222,38.97666666666667],[-94.81666666666666,38.99277777777778],[-94.81666666666666,38.99277777777778],[-94.81666666666666,38.99277777777778],[-94.81666666666666,38.99277777777778],[-94.81666666666666,38.99277777777778],[-93.8461111111111,39.015277777777776],[-93.8461111111111,39.015277777777776],[-93.8461111111111,39.015277777777776],[-93.8461111111111,39.015277777777776],[-93.8461111111111,39.015277777777776],[-93.65333333333334,39.03388888888889],[-93.65333333333334,39.03388888888889],[-93.65333333333334,39.03388888888889],[-93.65333333333334,39.03388888888889],[-93.65333333333334,39.03388888888889],[-92.90611111111112,39.10388888888889],[-92.90611111111112,39.10388888888889],[-92.90611111111112,39.10388888888889],[-92.90611111111112,39.10388888888889],[-92.90611111111112,39.10388888888889],[-92.12527777777777,39.17166666666667],[-92.12527777777777,39.17166666666667],[-92.12527777777777,39.17166666666667],[-92.12527777777777,39.17166666666667],[-92.12527777777777,39.17166666666667],[-92.12527777777777,39.17166666666667],[-92.12527777777777,39.17166666666667],[-90.825,39.27611111111111],[-90.825,39.27611111111111],[-90.825,39.27611111111111],[-90.825,39.27611111111111],[-90.825,39.27611111111111],[-90.825,39.27611111111111],[-90.825,39.27611111111111],[-90.08749999999999,39.34166666666667],[-90.08749999999999,39.34166666666667],[-89.90111111111112,39.35722222222223],[-89.90111111111112,39.35722222222223],[-89.71555555555555,39.37277777777778],[-89.71555555555555,39.37277777777778],[-89.71555555555555,39.37277777777778],[-89.71555555555555,39.37277777777778],[-89.17027777777778,39.41583333333333],[-89.17027777777778,39.41583333333333],[-88.82472222222222,39.44194444444444],[-88.82472222222222,39.44194444444444],[-88.82472222222222,39.44194444444444],[-88.82472222222222,39.44194444444444],[-88.82472222222222,39.44194444444444],[-88.82472222222222,39.44194444444444],[-88.82472222222222,39.44194444444444],[-88.82472222222222,39.44194444444444],[-88.095,39.493611111111115],[-88.095,39.493611111111115],[-88.095,39.493611111111115],[-88.095,39.493611111111115],[-87.89444444444445,39.5025],[-87.89444444444445,39.5025],[-86.97416666666666,39.52194444444444],[-86.97416666666666,39.52194444444444],[-86.97416666666666,39.52194444444444],[-86.43083333333334,39.53],[-86.43083333333334,39.53],[-86.43083333333334,39.53],[-86.43083333333334,39.53],[-86.43083333333334,39.53],[-86.43083333333334,39.53],[-85.71166666666667,39.53666666666666],[-85.71166666666667,39.53666666666666],[-85.71166666666667,39.53666666666666],[-85.71166666666667,39.53666666666666],[-85.52888888888889,39.5375],[-85.52888888888889,39.5375],[-85.165,39.53861111111111],[-85.165,39.53861111111111],[-85.165,39.53861111111111],[-84.44055555555556,39.53722222222222],[-84.44055555555556,39.53722222222222],[-84.44055555555556,39.53722222222222],[-84.44055555555556,39.53722222222222],[-84.44055555555556,39.53722222222222],[-83.5586111111111,39.52972222222222],[-83.5586111111111,39.52972222222222],[-83.5586111111111,39.52972222222222],[-83.5586111111111,39.52972222222222],[-83.5586111111111,39.52972222222222],[-83.38138888888888,39.527499999999996],[-83.38138888888888,39.527499999999996],[-83.38138888888888,39.527499999999996],[-83.38138888888888,39.527499999999996],[-83.01138888888889,39.52166666666667],[-83.01138888888889,39.52166666666667],[-83.01138888888889,39.52166666666667],[-83.01138888888889,39.52166666666667],[-83.01138888888889,39.52166666666667],[-83.01138888888889,39.52166666666667],[-83.01138888888889,39.52166666666667],[-81.57638888888889,39.463055555555556],[-81.57638888888889,39.463055555555556],[-81.57638888888889,39.463055555555556],[-81.57638888888889,39.463055555555556],[-81.57638888888889,39.463055555555556],[-81.57638888888889,39.463055555555556],[-81.57638888888889,39.463055555555556],[-81.57638888888889,39.463055555555556],[-80.87666666666667,39.39888888888889],[-80.87666666666667,39.39888888888889],[-80.87666666666667,39.39888888888889],[-80.87666666666667,39.39888888888889],[-80.87666666666667,39.39888888888889],[-80.87666666666667,39.39888888888889],[-80.87666666666667,39.39888888888889],[-80.87666666666667,39.39888888888889],[-80.87666666666667,39.39888888888889],[-79.97916666666667,39.309999999999995],[-79.97916666666667,39.309999999999995],[-79.97916666666667,39.309999999999995],[-79.97916666666667,39.309999999999995],[-79.97916666666667,39.309999999999995],[-79.97916666666667,39.309999999999995],[-78.93416666666667,39.220555555555556],[-78.93416666666667,39.220555555555556],[-78.93416666666667,39.220555555555556],[-78.93416666666667,39.220555555555556],[-78.62194444444444,39.18944444444444],[-78.62194444444444,39.18944444444444],[-78.62194444444444,39.18944444444444],[-78.62194444444444,39.18944444444444],[-78.62194444444444,39.18944444444444],[-78.47555555555556,39.175],[-78.47555555555556,39.175],[-78.47555555555556,39.175],[-78.47555555555556,39.175],[-78.47555555555556,39.175],[-78.20194444444445,39.12305555555555],[-78.20194444444445,39.12305555555555],[-78.13333333333334,39.1],[-78.13333333333334,39.1],[-77.86666666666666,39.03333333333333],[-77.86666666666666,39.03333333333333],[-77.80944444444444,39.02361111111111],[-77.80944444444444,39.02361111111111],[-77.80944444444444,39.02361111111111],[-77.80944444444444,39.02361111111111],[-77.58833333333332,38.96],[-77.58833333333332,38.96],[-77.26666666666667,38.833333333333336],[-77.26666666666667,38.833333333333336],[-77.22666666666667,38.81305555555555],[-77.22666666666667,38.81305555555555],[-77.22666666666667,38.81305555555555],[-77.22666666666667,38.81305555555555],[-77.22666666666667,38.81305555555555],[-77.22666666666667,38.81305555555555],[-77.03333333333333,38.7],[-77.03333333333333,38.7],[-77.03333333333333,38.7],[-77.03333333333333,38.7],[-77.03333333333333,38.7]],"type":"LineString"}
}
