{
  "id": 1981559949,
  "type": "Feature",
  "properties": {
    "date:inception_lower": "2025-10-02",
    "date:inception_upper": "2025-10-02",
    "edtf:cessation": "",
    "edtf:inception": "2025-10-02",
    "flysfo:actual_timestamp": -1,
    "flysfo:airline": "NH",
    "flysfo:base_airline": "",
    "flysfo:base_flight_number": "7070",
    "flysfo:date": "2025-10-02",
    "flysfo:estimated_timestamp": 1759446360,
    "flysfo:event": "A",
    "flysfo:flight_number": "NH7070",
    "flysfo:gate": "",
    "flysfo:journey": "KIX-SFO",
    "flysfo:scheduled_timestamp": 1759428000,
    "flysfo:timestamp": 1759446360,
    "geom:area": 0,
    "geom:bbox": "-122.370943,34.432475,135.242008,37.617990",
    "geom:latitude": 36.0252325,
    "geom:longitude": 6.435532500000001,
    "iata:airline": "NH",
    "iata:base_airline": "",
    "icao:airline": "ANA",
    "icao:base_airline": "ANA",
    "lbl:latitude": 37.61799,
    "lbl:longitude": -122.370943,
    "sfomuseum:airline_id": 1159283875,
    "sfomuseum:arrival_id": 102527513,
    "sfomuseum:base_flight_id": "20251002-A-ANA-7070",
    "sfomuseum:departure_id": 102541661,
    "sfomuseum:flight_id": "20251002-A-ANA-7070",
    "sfomuseum:flight_number": [
      "ANA7070",
      "NH7070"
    ],
    "sfomuseum:placetype": "flight",
    "src:geom": "flysfo",
    "wof:belongsto": [],
    "wof:country": "US",
    "wof:created": 1759507360,
    "wof:geomhash": "a641cfa97e5d709c9877b45a6ec29f09",
    "wof:hierarchy": [
      {
        "custom_id": 1981559949,
        "flight_id": 1981559949
      }
    ],
    "wof:id": 1981559949,
    "wof:involves": [
      102527513,
      102541661,
      1159283875,
      -1,
      1159283875
    ],
    "wof:lastmodified": 1759507360,
    "wof:name": "NH7070 (KIX-SFO)",
    "wof:parent_id": -1,
    "wof:placetype": "custom",
    "wof:placetype_alt": [
      "flight"
    ],
    "wof:repo": "sfomuseum-data-flights-2025-10",
    "wof:superseded_by": [],
    "wof:supersedes": []
  },
  "bbox": [
    -122.370943,
    34.432475,
    135.242008,
    37.61799
  ],
  "geometry": {"coordinates":[[135.242008,34.432475],[-122.370943,37.61799]],"type":"MultiPoint"}
}
