{
  "id": 1981733105,
  "type": "Feature",
  "properties": {
    "geom:area": 0,
    "geom:bbox": "-122.450140,36.754400,-121.449670,37.716010",
    "geom:latitude": 37.24800253250582,
    "geom:longitude": -122.02769288284212,
    "src:alt_label": "swim-takeoff",
    "src:geom": "swim",
    "swim:elevations": [
      183,
      568,
      670,
      1129,
      1226,
      1315,
      2382,
      2746,
      2993,
      3266,
      3406,
      3918,
      4380,
      4620,
      4846,
      5094,
      5271,
      5548,
      5624,
      6005,
      6023,
      6348,
      6551,
      6838,
      7129,
      7340,
      7360,
      7498,
      7526,
      7651,
      7883,
      8019
    ],
    "swim:geom": "takeoff",
    "swim:timestamps": [
      1761091948,
      1761091973,
      1761091982,
      1761092037,
      1761092058,
      1761092070,
      1761092154,
      1761092178,
      1761092196,
      1761092232,
      1761092253,
      1761092295,
      1761092334,
      1761092361,
      1761092388,
      1761092418,
      1761092440,
      1761092482,
      1761092494,
      1761092548,
      1761092551,
      1761092593,
      1761092625,
      1761092661,
      1761092697,
      1761092727,
      1761092730,
      1761092757,
      1761092766,
      1761092793,
      1761092832,
      1761092853
    ],
    "wof:geomhash": "c2ab02c09027d436d53023c5f54a2c3b",
    "wof:id": 1981733105,
    "wof:repo": "sfomuseum-data-flights-2025-10"
  },
  "bbox": [
    -122.45014,
    36.7544,
    -121.44967,
    37.71601
  ],
  "geometry": {"coordinates":[[-122.36647,37.63278],[-122.36337,37.65261],[-122.36466,37.6606],[-122.37414,37.70637],[-122.39857,37.71601],[-122.41475,37.7149],[-122.45014,37.6263],[-122.4478,37.59624],[-122.4445,37.5742],[-122.41167,37.53706],[-122.38443,37.51519],[-122.32932,37.4716],[-122.27759,37.42992],[-122.24096,37.40011],[-122.20283,37.36922],[-122.15918,37.33408],[-122.12777,37.30847],[-122.06376,37.25657],[-122.04492,37.2413],[-121.95895,37.17146],[-121.9541,37.16756],[-121.88587,37.11233],[-121.83284,37.06884],[-121.77338,37.02048],[-121.71427,36.972],[-121.6647,36.93137],[-121.65971,36.92728],[-121.61482,36.89027],[-121.59973,36.8778],[-121.55378,36.83998],[-121.48621,36.78449],[-121.44967,36.7544]],"type":"LineString"}
}
