{
  "id": 1997538715,
  "type": "Feature",
  "properties": {
    "geom:area": 0,
    "geom:bbox": "-156.333333,20.883333,-122.383333,37.650000",
    "geom:latitude": 30.33805231720377,
    "geom:longitude": -140.18066374324133,
    "src:alt_label": "swim-path",
    "src:geom": "swim",
    "swim:altitudes": [
      "004",
      "004",
      "004",
      "004",
      "004",
      "004",
      "004",
      "031",
      "031",
      "031",
      "031",
      "031",
      "104",
      "104",
      "104",
      "104",
      "104",
      "119",
      "119",
      "119",
      "119",
      "243",
      "243",
      "243",
      "243",
      "243",
      "243",
      "250C",
      "250C",
      "250C",
      "250C",
      "250C",
      "250C",
      "331C",
      "331C",
      "331C",
      "331C",
      "331C",
      "331C",
      "363",
      "363",
      "363",
      "363",
      "380C",
      "380C",
      "380C",
      "380C",
      "380C",
      "380",
      "380",
      "380",
      "380C",
      "380C",
      "380C",
      "380C",
      "380C",
      "380C",
      "380C",
      "380C",
      "380",
      "380",
      "380",
      "380",
      "380",
      "380",
      "380",
      "380",
      "380",
      "",
      "",
      "",
      "",
      "",
      "",
      "",
      "",
      "",
      "",
      "",
      "",
      "",
      "",
      "",
      "262T",
      "262T",
      "262T",
      "262T",
      "262T",
      "262T",
      "262T",
      "262T",
      "199T",
      "199T",
      "199T",
      "199T",
      "096T",
      "096T",
      "096T",
      "096T",
      "096T",
      "096T",
      "058T",
      "058T",
      "058T",
      "058T",
      "058T",
      "058T",
      "058T",
      "058T",
      "058T"
    ],
    "swim:geom": "path",
    "swim:speeds": [
      159,
      159,
      159,
      159,
      159,
      159,
      159,
      186,
      186,
      186,
      186,
      186,
      298,
      298,
      298,
      298,
      298,
      350,
      350,
      350,
      350,
      407,
      407,
      407,
      407,
      407,
      407,
      410,
      410,
      410,
      410,
      410,
      410,
      460,
      460,
      460,
      460,
      460,
      460,
      453,
      453,
      453,
      453,
      445,
      445,
      445,
      445,
      445,
      440,
      440,
      440,
      443,
      443,
      443,
      443,
      443,
      440,
      439,
      439,
      430,
      430,
      430,
      430,
      430,
      430,
      430,
      430,
      430,
      500,
      500,
      500,
      500,
      500,
      500,
      500,
      500,
      500,
      500,
      490,
      490,
      490,
      490,
      490,
      440,
      440,
      440,
      440,
      440,
      440,
      440,
      440,
      400,
      400,
      400,
      400,
      310,
      310,
      310,
      310,
      310,
      310,
      250,
      250,
      250,
      250,
      250,
      250,
      250,
      250,
      250
    ],
    "swim:timestamps": [
      1761843105,
      1761843105,
      1761843105,
      1761843105,
      1761843105,
      1761843105,
      1761843105,
      1761843177,
      1761843177,
      1761843177,
      1761843177,
      1761843177,
      1761843390,
      1761843390,
      1761843390,
      1761843390,
      1761843390,
      1761843450,
      1761843450,
      1761843450,
      1761843450,
      1761843810,
      1761843810,
      1761843810,
      1761843810,
      1761843810,
      1761843810,
      1761843828,
      1761843828,
      1761843828,
      1761843828,
      1761843828,
      1761843828,
      1761844188,
      1761844188,
      1761844188,
      1761844188,
      1761844188,
      1761844188,
      1761844351,
      1761844351,
      1761844351,
      1761844351,
      1761844591,
      1761844591,
      1761844591,
      1761844591,
      1761844591,
      1761844610,
      1761844610,
      1761844610,
      1761844711,
      1761844711,
      1761844711,
      1761844711,
      1761844711,
      1761844952,
      1761845012,
      1761845012,
      1761845029,
      1761845029,
      1761845029,
      1761845029,
      1761845029,
      1761845029,
      1761845029,
      1761845029,
      1761845029,
      1761857055,
      1761857055,
      1761857055,
      1761857055,
      1761857055,
      1761857055,
      1761857175,
      1761857175,
      1761857175,
      1761857175,
      1761857655,
      1761857655,
      1761857655,
      1761857655,
      1761857655,
      1761858136,
      1761858136,
      1761858136,
      1761858136,
      1761858136,
      1761858136,
      1761858136,
      1761858136,
      1761858377,
      1761858377,
      1761858377,
      1761858377,
      1761858857,
      1761858857,
      1761858857,
      1761858857,
      1761858857,
      1761858857,
      1761859218,
      1761859218,
      1761859218,
      1761859218,
      1761859218,
      1761859218,
      1761859218,
      1761859218,
      1761859218
    ],
    "wof:geomhash": "dc8da759fad7ae71ae99d48a85649c90",
    "wof:id": 1997538715,
    "wof:repo": "sfomuseum-data-flights-2025-10"
  },
  "bbox": [
    -156.33333333333334,
    20.883333333333333,
    -122.38333333333334,
    37.65
  ],
  "geometry": {"coordinates":[[-122.38333333333334,37.61666666666667],[-122.38333333333334,37.61666666666667],[-122.38333333333334,37.61666666666667],[-122.38333333333334,37.61666666666667],[-122.38333333333334,37.61666666666667],[-122.38333333333334,37.61666666666667],[-122.38333333333334,37.61666666666667],[-122.45,37.65],[-122.45,37.65],[-122.45,37.65],[-122.45,37.65],[-122.45,37.65],[-122.74444444444444,37.612500000000004],[-122.74444444444444,37.612500000000004],[-122.74444444444444,37.612500000000004],[-122.74444444444444,37.612500000000004],[-122.74444444444444,37.612500000000004],[-122.85777777777777,37.58305555555556],[-122.85777777777777,37.58305555555556],[-122.85777777777777,37.58305555555556],[-122.85777777777777,37.58305555555556],[-123.61833333333333,37.38138888888889],[-123.61833333333333,37.38138888888889],[-123.61833333333333,37.38138888888889],[-123.61833333333333,37.38138888888889],[-123.61833333333333,37.38138888888889],[-123.61833333333333,37.38138888888889],[-123.66666666666667,37.36666666666667],[-123.66666666666667,37.36666666666667],[-123.66666666666667,37.36666666666667],[-123.66666666666667,37.36666666666667],[-123.66666666666667,37.36666666666667],[-123.66666666666667,37.36666666666667],[-124.53333333333333,37.11666666666667],[-124.53333333333333,37.11666666666667],[-124.53333333333333,37.11666666666667],[-124.53333333333333,37.11666666666667],[-124.53333333333333,37.11666666666667],[-124.53333333333333,37.11666666666667],[-124.92166666666667,37.0225],[-124.92166666666667,37.0225],[-124.92166666666667,37.0225],[-124.92166666666667,37.0225],[-125.50805555555556,36.86277777777778],[-125.50805555555556,36.86277777777778],[-125.50805555555556,36.86277777777778],[-125.50805555555556,36.86277777777778],[-125.50805555555556,36.86277777777778],[-125.55,36.833333333333336],[-125.55,36.833333333333336],[-125.55,36.833333333333336],[-125.7961111111111,36.78333333333333],[-125.7961111111111,36.78333333333333],[-125.7961111111111,36.78333333333333],[-125.7961111111111,36.78333333333333],[-125.7961111111111,36.78333333333333],[-126.3711111111111,36.6225],[-126.51361111111112,36.58222222222223],[-126.51361111111112,36.58222222222223],[-126.53333333333333,36.56666666666667],[-126.53333333333333,36.56666666666667],[-126.53333333333333,36.56666666666667],[-126.53333333333333,36.56666666666667],[-126.53333333333333,36.56666666666667],[-126.53333333333333,36.56666666666667],[-126.53333333333333,36.56666666666667],[-126.53333333333333,36.56666666666667],[-126.53333333333333,36.56666666666667],[-154.21666666666667,24.3],[-154.21666666666667,24.3],[-154.21666666666667,24.3],[-154.21666666666667,24.3],[-154.21666666666667,24.3],[-154.21666666666667,24.3],[-154.38333333333333,24.066666666666666],[-154.38333333333333,24.066666666666666],[-154.38333333333333,24.066666666666666],[-154.38333333333333,24.066666666666666],[-154.95,23.116666666666667],[-154.95,23.116666666666667],[-154.95,23.116666666666667],[-154.95,23.116666666666667],[-154.95,23.116666666666667],[-155.15,22.166666666666668],[-155.15,22.166666666666668],[-155.15,22.166666666666668],[-155.15,22.166666666666668],[-155.15,22.166666666666668],[-155.15,22.166666666666668],[-155.15,22.166666666666668],[-155.15,22.166666666666668],[-155.38333333333333,21.816666666666666],[-155.38333333333333,21.816666666666666],[-155.38333333333333,21.816666666666666],[-155.38333333333333,21.816666666666666],[-156.01666666666668,21.266666666666666],[-156.01666666666668,21.266666666666666],[-156.01666666666668,21.266666666666666],[-156.01666666666668,21.266666666666666],[-156.01666666666668,21.266666666666666],[-156.01666666666668,21.266666666666666],[-156.33333333333334,20.883333333333333],[-156.33333333333334,20.883333333333333],[-156.33333333333334,20.883333333333333],[-156.33333333333334,20.883333333333333],[-156.33333333333334,20.883333333333333],[-156.33333333333334,20.883333333333333],[-156.33333333333334,20.883333333333333],[-156.33333333333334,20.883333333333333],[-156.33333333333334,20.883333333333333]],"type":"LineString"}
}
