{
  "id": 1981623679,
  "type": "Feature",
  "properties": {
    "geom:area": 0,
    "geom:bbox": "-122.358650,37.491880,-121.295870,37.614220",
    "geom:latitude": 37.54493648283346,
    "geom:longitude": -121.83197473691301,
    "src:alt_label": "swim-approach",
    "src:geom": "swim",
    "swim:elevations": [
      4645,
      4293,
      4114,
      3834,
      3365,
      3233,
      3122,
      3035,
      2764,
      2561,
      2393,
      2213,
      2041,
      2010,
      1981,
      1881,
      1606,
      1473,
      1323,
      1189,
      1003,
      806,
      628,
      505,
      471,
      321,
      193,
      0
    ],
    "swim:geom": "approach",
    "swim:timestamps": [
      1760039714,
      1760039749,
      1760039767,
      1760039795,
      1760039842,
      1760039878,
      1760039901,
      1760039922,
      1760039961,
      1760039994,
      1760040024,
      1760040053,
      1760040087,
      1760040093,
      1760040103,
      1760040131,
      1760040175,
      1760040198,
      1760040223,
      1760040246,
      1760040277,
      1760040318,
      1760040357,
      1760040385,
      1760040390,
      1760040432,
      1760040458,
      1760040503
    ],
    "wof:geomhash": "8d00a1ddd9cdf66679eb7610ffcf547c",
    "wof:id": 1981623679,
    "wof:repo": "sfomuseum-data-flights-2025-10"
  },
  "bbox": [
    -122.35865,
    37.49188,
    -121.29587,
    37.61422
  ],
  "geometry": {"coordinates":[[-121.29587,37.58867],[-121.3624,37.58137],[-121.39666,37.5774],[-121.44865,37.57139],[-121.53763,37.56105],[-121.60272,37.55335],[-121.64012,37.54712],[-121.67348,37.53916],[-121.73205,37.52508],[-121.77992,37.51374],[-121.82147,37.50377],[-121.86243,37.494],[-121.91163,37.49188],[-121.92063,37.49209],[-121.93503,37.49237],[-121.97429,37.4936],[-122.03353,37.50928],[-122.06329,37.51906],[-122.09514,37.52942],[-122.12413,37.53894],[-122.15962,37.55036],[-122.20201,37.564],[-122.23891,37.57611],[-122.2629,37.58355],[-122.26695,37.58472],[-122.30122,37.59474],[-122.32322,37.60128],[-122.35865,37.61422]],"type":"LineString"}
}
