{
  "id": 1981626625,
  "type": "Feature",
  "properties": {
    "geom:area": 0,
    "geom:bbox": "-122.364220,37.624620,-121.257800,38.117550",
    "geom:latitude": 37.85406703475475,
    "geom:longitude": -121.81135799638977,
    "src:alt_label": "swim-takeoff",
    "src:geom": "swim",
    "swim:elevations": [
      244,
      340,
      604,
      737,
      887,
      1330,
      2176,
      2544,
      2603,
      2896,
      3238,
      3378,
      3788,
      3900,
      4550,
      4727,
      4931,
      5277,
      5331,
      5834,
      5903,
      6198,
      6479,
      6622,
      6790,
      7078,
      213,
      506,
      660,
      882,
      1166,
      1358,
      1857,
      2222,
      2594,
      2956,
      3263,
      3517,
      3702,
      4189,
      4476,
      4744,
      5034,
      5185,
      5584,
      5714,
      5983,
      6365,
      6607
    ],
    "swim:geom": "takeoff",
    "swim:timestamps": [
      1759998956,
      1759998961,
      1759998992,
      1759999010,
      1759999023,
      1759999053,
      1759999107,
      1759999135,
      1759999140,
      1759999160,
      1759999194,
      1759999218,
      1759999252,
      1759999263,
      1759999312,
      1759999325,
      1759999345,
      1759999377,
      1759999382,
      1759999432,
      1759999442,
      1759999472,
      1759999501,
      1759999516,
      1759999533,
      1759999565,
      1760076508,
      1760076529,
      1760076553,
      1760076577,
      1760076601,
      1760076619,
      1760076656,
      1760076676,
      1760076703,
      1760076734,
      1760076764,
      1760076803,
      1760076825,
      1760076866,
      1760076896,
      1760076928,
      1760076956,
      1760076971,
      1760077018,
      1760077030,
      1760077057,
      1760077097,
      1760077127
    ],
    "wof:geomhash": "5324d34df849d04b89fced0943389d11",
    "wof:id": 1981626625,
    "wof:repo": "sfomuseum-data-flights-2025-10"
  },
  "bbox": [
    -122.36422,
    37.62462,
    -121.2578,
    38.11755
  ],
  "geometry": {"coordinates":[[-122.364,37.63183],[-122.36131,37.63536],[-122.3328,37.6529],[-122.31287,37.66404],[-122.29692,37.67299],[-122.25933,37.69428],[-122.18605,37.73237],[-122.14743,37.7522],[-122.14015,37.75588],[-122.11078,37.77098],[-122.05759,37.79918],[-122.01677,37.82003],[-121.95206,37.84649],[-121.93135,37.8545],[-121.83065,37.89456],[-121.80382,37.90524],[-121.763,37.92133],[-121.69455,37.94842],[-121.68398,37.95265],[-121.57399,37.99614],[-121.55333,38.00419],[-121.48227,38.03165],[-121.41589,38.05768],[-121.38111,38.07134],[-121.33996,38.08776],[-121.26319,38.11755],[-122.36422,37.63164],[-122.34777,37.64383],[-122.32208,37.65428],[-122.2902,37.65788],[-122.25651,37.65258],[-122.22838,37.64773],[-122.17102,37.63693],[-122.13757,37.63134],[-122.09366,37.62462],[-122.04045,37.63079],[-121.99437,37.65775],[-121.92846,37.69707],[-121.88784,37.72048],[-121.81024,37.76462],[-121.75255,37.79862],[-121.68926,37.83557],[-121.63159,37.86874],[-121.60013,37.88671],[-121.498,37.94393],[-121.47166,37.95887],[-121.41249,37.99262],[-121.32511,38.04237],[-121.2578,38.08057]],"type":"LineString"}
}
