{
  "id": 1981804335,
  "type": "Feature",
  "properties": {
    "geom:area": 0,
    "geom:bbox": "-122.000000,37.500000,-73.372778,43.194444",
    "geom:latitude": 41.36603436672804,
    "geom:longitude": -97.5200601230772,
    "src:alt_label": "swim-path",
    "src:geom": "swim",
    "swim:altitudes": [
      "035",
      "035",
      "035",
      "035",
      "061",
      "070",
      "070",
      "070",
      "070",
      "071",
      "071",
      "120",
      "120",
      "120",
      "120",
      "165",
      "165",
      "165",
      "165",
      "170",
      "170",
      "170",
      "170",
      "170",
      "170",
      "170",
      "170",
      "170",
      "170",
      "180",
      "180",
      "180",
      "180",
      "225",
      "225",
      "225",
      "225",
      "225",
      "225",
      "240",
      "240",
      "306",
      "306",
      "306",
      "306",
      "306",
      "356",
      "356",
      "356",
      "356",
      "356",
      "356",
      "356",
      "360C",
      "360C",
      "360C",
      "360C",
      "360C",
      "360C",
      "360C",
      "360C",
      "360C",
      "360C",
      "360C",
      "360C",
      "360C",
      "360C",
      "360C",
      "360C",
      "360C",
      "360C",
      "360C",
      "360C",
      "360C",
      "360C",
      "360C",
      "360C",
      "360C",
      "360C",
      "360C",
      "360C",
      "360C",
      "360C",
      "360C",
      "360C",
      "360C",
      "360C",
      "360C",
      "360C",
      "360C",
      "360C",
      "360C",
      "360C",
      "360C",
      "360C",
      "360C",
      "360C",
      "360C",
      "360C",
      "360C",
      "360C",
      "360C",
      "360C",
      "360C",
      "360C",
      "360C",
      "360C",
      "360C",
      "360C",
      "360C",
      "360C",
      "360C",
      "360C",
      "360C",
      "360C",
      "360C",
      "360C",
      "360C",
      "360C",
      "360C",
      "360C",
      "360C",
      "360C",
      "360C",
      "360C",
      "360C",
      "360C",
      "360C",
      "360C",
      "360C",
      "360C",
      "360C",
      "360C",
      "360C",
      "360C",
      "360C",
      "360C",
      "360C",
      "360C",
      "360C",
      "360C",
      "360C",
      "360C",
      "360C",
      "360C",
      "360C",
      "360C",
      "360C",
      "360C",
      "360C",
      "360C",
      "360C",
      "360C",
      "360C",
      "360C",
      "360C",
      "360C",
      "360C",
      "360C",
      "360C",
      "360C",
      "360C",
      "360C",
      "360C",
      "360C",
      "360C",
      "360C",
      "360C",
      "360C",
      "360C",
      "360C",
      "360C",
      "360C",
      "360C",
      "360C",
      "360C",
      "360C",
      "360C",
      "360C",
      "360C",
      "360C",
      "360C",
      "360C",
      "360C",
      "360C",
      "360C",
      "360C",
      "360C",
      "360C",
      "360C",
      "360C",
      "360C",
      "360C",
      "360C",
      "360C",
      "360C",
      "360C",
      "360C",
      "360C",
      "360C",
      "360C",
      "360C",
      "360C",
      "360C",
      "360C",
      "360C",
      "360",
      "360",
      "360",
      "360",
      "360",
      "360",
      "360",
      "380C",
      "380C",
      "380C",
      "380C",
      "380C",
      "380C",
      "380C",
      "380C",
      "380C",
      "380C",
      "380C",
      "380C",
      "380C",
      "380C",
      "380C",
      "380C",
      "380C",
      "380C",
      "380C",
      "380C",
      "380C",
      "380C",
      "380C",
      "380C",
      "380C",
      "380C",
      "380C",
      "380C",
      "380C",
      "380C",
      "380C",
      "380C",
      "380C",
      "380C",
      "380C",
      "380C",
      "380C",
      "380C",
      "380C",
      "380C",
      "380C",
      "380C",
      "380C",
      "380C",
      "380C",
      "380C",
      "380C",
      "380C",
      "380C",
      "380C",
      "380C",
      "380C",
      "380C",
      "380C",
      "380C",
      "380C",
      "380C",
      "380C",
      "380C",
      "380C",
      "380C",
      "380C",
      "380C",
      "380C",
      "380C",
      "380C",
      "380C",
      "380C",
      "380C",
      "380C",
      "380C",
      "380C",
      "380C",
      "380C",
      "380C",
      "380C",
      "380C",
      "380C",
      "380C",
      "380C",
      "380C",
      "380C",
      "380C",
      "380C",
      "380C",
      "380C",
      "380C",
      "380C",
      "380C",
      "380C",
      "380C",
      "380C",
      "380C",
      "380C",
      "380C",
      "380C",
      "380C",
      "380C",
      "380C",
      "380C",
      "380C",
      "380C",
      "380C",
      "380C",
      "380C",
      "380C",
      "380C",
      "380C",
      "380C",
      "380C",
      "380C",
      "380C",
      "380C",
      "380C",
      "380C",
      "380C",
      "380C",
      "380C",
      "380C",
      "380C",
      "380C",
      "380C",
      "380C",
      "380C",
      "380C",
      "380C",
      "380C",
      "380C",
      "380C",
      "380C",
      "380C",
      "380C",
      "380C",
      "380C",
      "380C",
      "380C",
      "380C",
      "380C",
      "380C",
      "380C",
      "380C",
      "380C",
      "380C",
      "380C",
      "380C",
      "380C",
      "380C",
      "380C",
      "380C",
      "380C",
      "380C",
      "380C",
      "380C",
      "380C",
      "380C",
      "380C",
      "380C",
      "380C",
      "380C",
      "380C",
      "380C",
      "380C",
      "380C",
      "380C",
      "380C",
      "380C",
      "380C",
      "380C",
      "380C",
      "380C",
      "380C",
      "380C",
      "380C",
      "380C",
      "380C",
      "380C",
      "380C",
      "380C",
      "380C",
      "380C",
      "380C",
      "380C",
      "380C",
      "380C",
      "380C",
      "380C",
      "380C",
      "380C",
      "380C",
      "380C",
      "380C",
      "380C",
      "380C",
      "380C",
      "380C",
      "380C",
      "380C",
      "380C",
      "380C",
      "380C",
      "380C",
      "380C",
      "380C",
      "380C",
      "380C",
      "380C",
      "380C",
      "380C",
      "380C",
      "380C",
      "380C",
      "380C",
      "380C",
      "380C",
      "380C",
      "380C",
      "380C",
      "380C",
      "380C",
      "380C",
      "380C",
      "380C",
      "380C",
      "380C",
      "380C",
      "380C",
      "380C",
      "380C",
      "380C",
      "380C",
      "380C",
      "380C",
      "380C",
      "380C",
      "380C",
      "380C",
      "380C",
      "380C",
      "380C",
      "380C",
      "380C",
      "380C",
      "380C",
      "380C",
      "380C",
      "380C",
      "380C",
      "380C",
      "380C",
      "380C",
      "380C",
      "380C",
      "380C",
      "380C",
      "380C",
      "380C",
      "380C",
      "380C",
      "380C",
      "380C",
      "380C",
      "380C",
      "380C",
      "380C",
      "380C",
      "306",
      "306",
      "306",
      "273",
      "273",
      "273",
      "273",
      "216",
      "216",
      "216",
      "191",
      "191",
      "140",
      "140",
      "140",
      "140",
      "140",
      "101",
      "101",
      "101",
      "087",
      "087",
      "087",
      "087",
      "060",
      "060",
      "060",
      "060"
    ],
    "swim:geom": "path",
    "swim:speeds": [
      208,
      208,
      208,
      208,
      263,
      277,
      277,
      277,
      277,
      281,
      281,
      339,
      339,
      339,
      339,
      367,
      367,
      367,
      367,
      333,
      333,
      333,
      342,
      360,
      360,
      360,
      360,
      367,
      367,
      352,
      352,
      352,
      352,
      368,
      368,
      368,
      368,
      368,
      368,
      383,
      383,
      418,
      418,
      418,
      418,
      418,
      432,
      432,
      432,
      432,
      432,
      432,
      432,
      457,
      457,
      461,
      461,
      461,
      461,
      461,
      461,
      468,
      468,
      468,
      468,
      468,
      468,
      468,
      468,
      468,
      468,
      481,
      481,
      481,
      481,
      481,
      489,
      489,
      489,
      489,
      489,
      489,
      479,
      479,
      479,
      479,
      479,
      479,
      479,
      479,
      479,
      474,
      474,
      474,
      474,
      474,
      474,
      474,
      475,
      475,
      475,
      475,
      475,
      475,
      475,
      475,
      475,
      476,
      476,
      476,
      477,
      477,
      477,
      477,
      476,
      476,
      476,
      476,
      476,
      476,
      476,
      476,
      476,
      476,
      476,
      476,
      476,
      476,
      476,
      475,
      475,
      475,
      474,
      474,
      474,
      474,
      474,
      474,
      468,
      468,
      468,
      468,
      468,
      468,
      468,
      468,
      468,
      468,
      468,
      468,
      468,
      468,
      468,
      468,
      468,
      457,
      457,
      457,
      457,
      457,
      457,
      457,
      457,
      457,
      457,
      457,
      446,
      446,
      446,
      446,
      446,
      446,
      446,
      446,
      446,
      443,
      443,
      443,
      438,
      438,
      438,
      438,
      438,
      438,
      438,
      436,
      436,
      436,
      436,
      436,
      436,
      436,
      427,
      427,
      427,
      427,
      427,
      427,
      427,
      428,
      428,
      428,
      428,
      428,
      428,
      428,
      429,
      429,
      429,
      429,
      429,
      429,
      429,
      424,
      424,
      424,
      424,
      424,
      424,
      424,
      424,
      424,
      424,
      424,
      424,
      424,
      424,
      429,
      429,
      429,
      429,
      429,
      429,
      429,
      428,
      428,
      428,
      428,
      427,
      427,
      427,
      427,
      427,
      427,
      427,
      427,
      427,
      427,
      427,
      424,
      424,
      424,
      424,
      424,
      424,
      420,
      420,
      420,
      420,
      420,
      420,
      420,
      420,
      420,
      420,
      424,
      424,
      424,
      424,
      420,
      420,
      419,
      419,
      419,
      419,
      419,
      419,
      419,
      419,
      419,
      414,
      414,
      414,
      414,
      405,
      405,
      405,
      405,
      405,
      405,
      407,
      407,
      407,
      407,
      407,
      407,
      407,
      407,
      407,
      409,
      409,
      409,
      407,
      407,
      407,
      410,
      410,
      410,
      410,
      408,
      408,
      408,
      408,
      410,
      409,
      409,
      409,
      409,
      409,
      412,
      412,
      412,
      412,
      412,
      412,
      411,
      411,
      414,
      415,
      415,
      415,
      415,
      415,
      419,
      419,
      419,
      419,
      419,
      427,
      427,
      426,
      426,
      426,
      426,
      426,
      426,
      425,
      425,
      425,
      425,
      425,
      425,
      425,
      424,
      424,
      424,
      424,
      424,
      424,
      424,
      424,
      428,
      428,
      428,
      428,
      430,
      430,
      430,
      430,
      430,
      431,
      431,
      431,
      431,
      431,
      431,
      431,
      431,
      431,
      431,
      431,
      431,
      429,
      429,
      427,
      427,
      427,
      425,
      425,
      425,
      425,
      421,
      421,
      421,
      421,
      421,
      421,
      421,
      421,
      417,
      417,
      417,
      417,
      417,
      417,
      417,
      417,
      417,
      418,
      418,
      418,
      418,
      418,
      418,
      418,
      420,
      420,
      420,
      420,
      418,
      418,
      418,
      418,
      418,
      418,
      418,
      415,
      415,
      415,
      417,
      417,
      417,
      417,
      417,
      417,
      417,
      417,
      418,
      418,
      418,
      418,
      423,
      423,
      423,
      422,
      422,
      422,
      422,
      422,
      422,
      424,
      425,
      426,
      426,
      425,
      425,
      426,
      426,
      426,
      426,
      426,
      426,
      426,
      431,
      431,
      432,
      432,
      432,
      432,
      432,
      432,
      434,
      434,
      434,
      434,
      434,
      434,
      434,
      441,
      441,
      441,
      424,
      424,
      424,
      424,
      371,
      371,
      371,
      360,
      360,
      351,
      351,
      351,
      351,
      351,
      280,
      280,
      280,
      281,
      281,
      281,
      281,
      254,
      254,
      254,
      254
    ],
    "swim:timestamps": [
      1761835101,
      1761835101,
      1761835101,
      1761835101,
      1761835162,
      1761835213,
      1761835213,
      1761835213,
      1761835213,
      1761835222,
      1761835222,
      1761835342,
      1761835342,
      1761835342,
      1761835342,
      1761835462,
      1761835462,
      1761835462,
      1761835462,
      1761835522,
      1761835522,
      1761835522,
      1761835582,
      1761835762,
      1761835762,
      1761835762,
      1761835762,
      1761835883,
      1761835883,
      1761835943,
      1761835943,
      1761835943,
      1761835943,
      1761836063,
      1761836063,
      1761836063,
      1761836063,
      1761836063,
      1761836063,
      1761836123,
      1761836123,
      1761836363,
      1761836363,
      1761836363,
      1761836363,
      1761836363,
      1761836604,
      1761836604,
      1761836604,
      1761836604,
      1761836604,
      1761836604,
      1761836604,
      1761836904,
      1761836904,
      1761836954,
      1761836964,
      1761836964,
      1761836964,
      1761836964,
      1761836964,
      1761837134,
      1761837134,
      1761837134,
      1761837134,
      1761837134,
      1761837134,
      1761837134,
      1761837134,
      1761837134,
      1761837134,
      1761837735,
      1761837735,
      1761837735,
      1761837735,
      1761837735,
      1761837853,
      1761837853,
      1761837853,
      1761837853,
      1761837853,
      1761837853,
      1761838154,
      1761838154,
      1761838154,
      1761838154,
      1761838154,
      1761838154,
      1761838154,
      1761838154,
      1761838154,
      1761838394,
      1761838394,
      1761838394,
      1761838394,
      1761838394,
      1761838394,
      1761838394,
      1761838995,
      1761838995,
      1761838995,
      1761838995,
      1761838995,
      1761838995,
      1761838995,
      1761838995,
      1761838995,
      1761839296,
      1761839296,
      1761839296,
      1761839374,
      1761839374,
      1761839374,
      1761839374,
      1761839416,
      1761839416,
      1761839416,
      1761839494,
      1761839494,
      1761839494,
      1761839494,
      1761839494,
      1761839494,
      1761839554,
      1761839554,
      1761839596,
      1761839596,
      1761839596,
      1761839596,
      1761839716,
      1761839716,
      1761839716,
      1761839836,
      1761839836,
      1761839836,
      1761839836,
      1761839836,
      1761839836,
      1761840137,
      1761840137,
      1761840137,
      1761840137,
      1761840137,
      1761840137,
      1761840137,
      1761840215,
      1761840215,
      1761840215,
      1761840340,
      1761840340,
      1761840340,
      1761840340,
      1761840340,
      1761840340,
      1761840340,
      1761840876,
      1761840876,
      1761840876,
      1761840876,
      1761840876,
      1761840876,
      1761840876,
      1761840876,
      1761840876,
      1761840876,
      1761840876,
      1761841416,
      1761841416,
      1761841416,
      1761841416,
      1761841416,
      1761841416,
      1761841416,
      1761841416,
      1761841416,
      1761841476,
      1761841476,
      1761841476,
      1761841777,
      1761841777,
      1761841777,
      1761841777,
      1761841777,
      1761841777,
      1761841777,
      1761841957,
      1761841957,
      1761841957,
      1761841957,
      1761841957,
      1761841957,
      1761841957,
      1761842318,
      1761842318,
      1761842318,
      1761842318,
      1761842318,
      1761842318,
      1761842318,
      1761842438,
      1761842438,
      1761842438,
      1761842498,
      1761842498,
      1761842498,
      1761842498,
      1761842678,
      1761842678,
      1761842678,
      1761842678,
      1761842678,
      1761842678,
      1761842678,
      1761843219,
      1761843219,
      1761843219,
      1761843219,
      1761843219,
      1761843219,
      1761843219,
      1761843219,
      1761843219,
      1761843219,
      1761843339,
      1761843339,
      1761843339,
      1761843339,
      1761843699,
      1761843699,
      1761843699,
      1761843699,
      1761843699,
      1761843699,
      1761843699,
      1761844000,
      1761844000,
      1761844000,
      1761844000,
      1761844060,
      1761844060,
      1761844060,
      1761844060,
      1761844060,
      1761844240,
      1761844240,
      1761844240,
      1761844240,
      1761844240,
      1761844240,
      1761844420,
      1761844420,
      1761844420,
      1761844420,
      1761844420,
      1761844420,
      1761844961,
      1761844961,
      1761844961,
      1761844961,
      1761844961,
      1761844996,
      1761844996,
      1761844996,
      1761844996,
      1761844996,
      1761845066,
      1761845066,
      1761845066,
      1761845066,
      1761845177,
      1761845177,
      1761845237,
      1761845237,
      1761845237,
      1761845237,
      1761845237,
      1761845261,
      1761845261,
      1761845261,
      1761845261,
      1761845442,
      1761845442,
      1761845442,
      1761845442,
      1761845837,
      1761845837,
      1761845837,
      1761845837,
      1761845837,
      1761845837,
      1761845848,
      1761845848,
      1761845848,
      1761845968,
      1761845968,
      1761845968,
      1761845968,
      1761845968,
      1761845968,
      1761846198,
      1761846198,
      1761846198,
      1761846389,
      1761846389,
      1761846449,
      1761846558,
      1761846558,
      1761846558,
      1761846558,
      1761846689,
      1761846689,
      1761846689,
      1761846689,
      1761846799,
      1761846929,
      1761846929,
      1761846929,
      1761846989,
      1761846989,
      1761847159,
      1761847159,
      1761847159,
      1761847159,
      1761847339,
      1761847339,
      1761847350,
      1761847350,
      1761847400,
      1761847460,
      1761847460,
      1761847460,
      1761847460,
      1761847460,
      1761847640,
      1761847640,
      1761847640,
      1761847640,
      1761847640,
      1761848241,
      1761848241,
      1761848301,
      1761848312,
      1761848312,
      1761848312,
      1761848312,
      1761848312,
      1761848361,
      1761848372,
      1761848372,
      1761848372,
      1761848372,
      1761848372,
      1761848372,
      1761848432,
      1761848541,
      1761848541,
      1761848541,
      1761848612,
      1761848612,
      1761848612,
      1761848612,
      1761848901,
      1761848901,
      1761848901,
      1761848901,
      1761849022,
      1761849022,
      1761849022,
      1761849022,
      1761849022,
      1761849082,
      1761849082,
      1761849082,
      1761849093,
      1761849202,
      1761849202,
      1761849213,
      1761849273,
      1761849273,
      1761849273,
      1761849273,
      1761849273,
      1761849393,
      1761849393,
      1761849514,
      1761849514,
      1761849514,
      1761849634,
      1761849634,
      1761849634,
      1761849634,
      1761849874,
      1761849874,
      1761849874,
      1761849874,
      1761849874,
      1761849874,
      1761849874,
      1761849874,
      1761850235,
      1761850235,
      1761850235,
      1761850235,
      1761850235,
      1761850235,
      1761850295,
      1761850295,
      1761850295,
      1761850355,
      1761850355,
      1761850355,
      1761850355,
      1761850415,
      1761850415,
      1761850415,
      1761850655,
      1761850655,
      1761850655,
      1761850655,
      1761850956,
      1761850956,
      1761850956,
      1761850956,
      1761850956,
      1761850956,
      1761850956,
      1761851136,
      1761851136,
      1761851136,
      1761851317,
      1761851317,
      1761851317,
      1761851317,
      1761851317,
      1761851317,
      1761851317,
      1761851317,
      1761851377,
      1761851377,
      1761851377,
      1761851377,
      1761851525,
      1761851525,
      1761851525,
      1761851677,
      1761851677,
      1761851677,
      1761851677,
      1761851677,
      1761851677,
      1761851917,
      1761851945,
      1761852066,
      1761852066,
      1761852218,
      1761852218,
      1761852338,
      1761852338,
      1761852338,
      1761852338,
      1761852338,
      1761852338,
      1761852338,
      1761852726,
      1761852726,
      1761852787,
      1761852787,
      1761852787,
      1761852787,
      1761852787,
      1761852787,
      1761853087,
      1761853087,
      1761853087,
      1761853087,
      1761853087,
      1761853087,
      1761853087,
      1761853540,
      1761853540,
      1761853540,
      1761853628,
      1761853628,
      1761853628,
      1761853628,
      1761853774,
      1761853774,
      1761853774,
      1761853839,
      1761853839,
      1761853988,
      1761853988,
      1761853988,
      1761853988,
      1761853988,
      1761854134,
      1761854134,
      1761854134,
      1761854194,
      1761854194,
      1761854194,
      1761854194,
      1761854374,
      1761854374,
      1761854374,
      1761854374
    ],
    "wof:geomhash": "9bafc1d12f393ac34acdc83c724159eb",
    "wof:id": 1981804335,
    "wof:repo": "sfomuseum-data-flights-2025-10"
  },
  "bbox": [
    -122,
    37.5,
    -73.37277777777777,
    43.19444444444444
  ],
  "geometry": {"coordinates":[[-73.69555555555556,40.67472222222222],[-73.69555555555556,40.67472222222222],[-73.69555555555556,40.67472222222222],[-73.69555555555556,40.67472222222222],[-73.60388888888889,40.68805555555555],[-73.51666666666667,40.7],[-73.51666666666667,40.7],[-73.51666666666667,40.7],[-73.51666666666667,40.7],[-73.50222222222222,40.70333333333333],[-73.50222222222222,40.70333333333333],[-73.37277777777777,40.809444444444445],[-73.37277777777777,40.809444444444445],[-73.37277777777777,40.809444444444445],[-73.37277777777777,40.809444444444445],[-73.52694444444444,40.96666666666667],[-73.52694444444444,40.96666666666667],[-73.52694444444444,40.96666666666667],[-73.52694444444444,40.96666666666667],[-73.64527777777778,40.99666666666667],[-73.64527777777778,40.99666666666667],[-73.64527777777778,40.99666666666667],[-73.76861111111111,41.01444444444444],[-74.1388888888889,41.12388888888889],[-74.1388888888889,41.12388888888889],[-74.1388888888889,41.12388888888889],[-74.1388888888889,41.12388888888889],[-74.3913888888889,41.19972222222222],[-74.3913888888889,41.19972222222222],[-74.51472222222222,41.230555555555554],[-74.51472222222222,41.230555555555554],[-74.51472222222222,41.230555555555554],[-74.51472222222222,41.230555555555554],[-74.76888888888888,41.29611111111111],[-74.76888888888888,41.29611111111111],[-74.76888888888888,41.29611111111111],[-74.76888888888888,41.29611111111111],[-74.76888888888888,41.29611111111111],[-74.76888888888888,41.29611111111111],[-74.88972222222223,41.32694444444445],[-74.88972222222223,41.32694444444445],[-75.45138888888889,41.46805555555556],[-75.45138888888889,41.46805555555556],[-75.45138888888889,41.46805555555556],[-75.45138888888889,41.46805555555556],[-75.45138888888889,41.46805555555556],[-76.03111111111112,41.6325],[-76.03111111111112,41.6325],[-76.03111111111112,41.6325],[-76.03111111111112,41.6325],[-76.03111111111112,41.6325],[-76.03111111111112,41.6325],[-76.03111111111112,41.6325],[-76.82916666666667,41.85444444444445],[-76.82916666666667,41.85444444444445],[-76.96083333333334,41.890277777777776],[-76.99361111111111,41.899166666666666],[-76.99361111111111,41.899166666666666],[-76.99361111111111,41.899166666666666],[-76.99361111111111,41.899166666666666],[-76.99361111111111,41.899166666666666],[-77.45916666666668,42.02444444444444],[-77.45916666666668,42.02444444444444],[-77.45916666666668,42.02444444444444],[-77.45916666666668,42.02444444444444],[-77.45916666666668,42.02444444444444],[-77.45916666666668,42.02444444444444],[-77.45916666666668,42.02444444444444],[-77.45916666666668,42.02444444444444],[-77.45916666666668,42.02444444444444],[-77.45916666666668,42.02444444444444],[-79.13527777777779,42.45472222222222],[-79.13527777777779,42.45472222222222],[-79.13527777777779,42.45472222222222],[-79.13527777777779,42.45472222222222],[-79.13527777777779,42.45472222222222],[-79.46888888888888,42.535555555555554],[-79.46888888888888,42.535555555555554],[-79.46888888888888,42.535555555555554],[-79.46888888888888,42.535555555555554],[-79.46888888888888,42.535555555555554],[-79.46888888888888,42.535555555555554],[-80.36777777777777,42.63666666666666],[-80.36777777777777,42.63666666666666],[-80.36777777777777,42.63666666666666],[-80.36777777777777,42.63666666666666],[-80.36777777777777,42.63666666666666],[-80.36777777777777,42.63666666666666],[-80.36777777777777,42.63666666666666],[-80.36777777777777,42.63666666666666],[-80.36777777777777,42.63666666666666],[-81.08222222222221,42.66111111111111],[-81.08222222222221,42.66111111111111],[-81.08222222222221,42.66111111111111],[-81.08222222222221,42.66111111111111],[-81.08222222222221,42.66111111111111],[-81.08222222222221,42.66111111111111],[-81.08222222222221,42.66111111111111],[-82.86583333333333,42.852222222222224],[-82.86583333333333,42.852222222222224],[-82.86583333333333,42.852222222222224],[-82.86583333333333,42.852222222222224],[-82.86583333333333,42.852222222222224],[-82.86583333333333,42.852222222222224],[-82.86583333333333,42.852222222222224],[-82.86583333333333,42.852222222222224],[-82.86583333333333,42.852222222222224],[-83.7461111111111,42.948611111111106],[-83.7461111111111,42.948611111111106],[-83.7461111111111,42.948611111111106],[-83.98083333333334,42.968611111111116],[-83.98083333333334,42.968611111111116],[-83.98083333333334,42.968611111111116],[-83.98083333333334,42.968611111111116],[-84.13861111111112,42.98166666666667],[-84.13861111111112,42.98166666666667],[-84.13861111111112,42.98166666666667],[-84.34222222222222,42.998333333333335],[-84.34222222222222,42.998333333333335],[-84.34222222222222,42.998333333333335],[-84.34222222222222,42.998333333333335],[-84.34222222222222,42.998333333333335],[-84.34222222222222,42.998333333333335],[-84.51861111111111,43.01222222222222],[-84.51861111111111,43.01222222222222],[-84.66194444444444,43.025],[-84.66194444444444,43.025],[-84.66194444444444,43.025],[-84.66194444444444,43.025],[-85.01583333333333,43.06638888888889],[-85.01583333333333,43.06638888888889],[-85.01583333333333,43.06638888888889],[-85.36999999999999,43.10472222222222],[-85.36999999999999,43.10472222222222],[-85.36999999999999,43.10472222222222],[-85.36999999999999,43.10472222222222],[-85.36999999999999,43.10472222222222],[-85.36999999999999,43.10472222222222],[-86.23916666666666,43.19444444444444],[-86.23916666666666,43.19444444444444],[-86.23916666666666,43.19444444444444],[-86.23916666666666,43.19444444444444],[-86.23916666666666,43.19444444444444],[-86.23916666666666,43.19444444444444],[-86.23916666666666,43.19444444444444],[-86.48972222222223,43.19166666666666],[-86.48972222222223,43.19166666666666],[-86.48972222222223,43.19166666666666],[-86.8436111111111,43.178888888888885],[-86.8436111111111,43.178888888888885],[-86.8436111111111,43.178888888888885],[-86.8436111111111,43.178888888888885],[-86.8436111111111,43.178888888888885],[-86.8436111111111,43.178888888888885],[-86.8436111111111,43.178888888888885],[-88.41916666666667,43.11833333333333],[-88.41916666666667,43.11833333333333],[-88.41916666666667,43.11833333333333],[-88.41916666666667,43.11833333333333],[-88.41916666666667,43.11833333333333],[-88.41916666666667,43.11833333333333],[-88.41916666666667,43.11833333333333],[-88.41916666666667,43.11833333333333],[-88.41916666666667,43.11833333333333],[-88.41916666666667,43.11833333333333],[-88.41916666666667,43.11833333333333],[-89.98527777777778,43.13444444444444],[-89.98527777777778,43.13444444444444],[-89.98527777777778,43.13444444444444],[-89.98527777777778,43.13444444444444],[-89.98527777777778,43.13444444444444],[-89.98527777777778,43.13444444444444],[-89.98527777777778,43.13444444444444],[-89.98527777777778,43.13444444444444],[-89.98527777777778,43.13444444444444],[-90.15305555555557,43.13472222222222],[-90.15305555555557,43.13472222222222],[-90.15305555555557,43.13472222222222],[-90.97972222222222,43.132777777777775],[-90.97972222222222,43.132777777777775],[-90.97972222222222,43.132777777777775],[-90.97972222222222,43.132777777777775],[-90.97972222222222,43.132777777777775],[-90.97972222222222,43.132777777777775],[-90.97972222222222,43.132777777777775],[-91.47305555555556,43.12888888888889],[-91.47305555555556,43.12888888888889],[-91.47305555555556,43.12888888888889],[-91.47305555555556,43.12888888888889],[-91.47305555555556,43.12888888888889],[-91.47305555555556,43.12888888888889],[-91.47305555555556,43.12888888888889],[-92.44194444444445,43.11472222222223],[-92.44194444444445,43.11472222222223],[-92.44194444444445,43.11472222222223],[-92.44194444444445,43.11472222222223],[-92.44194444444445,43.11472222222223],[-92.44194444444445,43.11472222222223],[-92.44194444444445,43.11472222222223],[-92.76527777777778,43.108333333333334],[-92.76527777777778,43.108333333333334],[-92.76527777777778,43.108333333333334],[-92.92944444444444,43.10472222222222],[-92.92944444444444,43.10472222222222],[-92.92944444444444,43.10472222222222],[-92.92944444444444,43.10472222222222],[-93.41611111111112,43.08694444444445],[-93.41611111111112,43.08694444444445],[-93.41611111111112,43.08694444444445],[-93.41611111111112,43.08694444444445],[-93.41611111111112,43.08694444444445],[-93.41611111111112,43.08694444444445],[-93.41611111111112,43.08694444444445],[-94.85499999999999,42.94361111111111],[-94.85499999999999,42.94361111111111],[-94.85499999999999,42.94361111111111],[-94.85499999999999,42.94361111111111],[-94.85499999999999,42.94361111111111],[-94.85499999999999,42.94361111111111],[-94.85499999999999,42.94361111111111],[-94.85499999999999,42.94361111111111],[-94.85499999999999,42.94361111111111],[-94.85499999999999,42.94361111111111],[-95.17333333333333,42.90972222222222],[-95.17333333333333,42.90972222222222],[-95.17333333333333,42.90972222222222],[-95.17333333333333,42.90972222222222],[-96.135,42.80083333333333],[-96.135,42.80083333333333],[-96.135,42.80083333333333],[-96.135,42.80083333333333],[-96.135,42.80083333333333],[-96.135,42.80083333333333],[-96.135,42.80083333333333],[-96.93277777777779,42.70388888888889],[-96.93277777777779,42.70388888888889],[-96.93277777777779,42.70388888888889],[-96.93277777777779,42.70388888888889],[-97.1036111111111,42.6825],[-97.1036111111111,42.6825],[-97.1036111111111,42.6825],[-97.1036111111111,42.6825],[-97.1036111111111,42.6825],[-97.57694444444444,42.62166666666667],[-97.57694444444444,42.62166666666667],[-97.57694444444444,42.62166666666667],[-97.57694444444444,42.62166666666667],[-97.57694444444444,42.62166666666667],[-97.57694444444444,42.62166666666667],[-98.04305555555555,42.559444444444445],[-98.04305555555555,42.559444444444445],[-98.04305555555555,42.559444444444445],[-98.04305555555555,42.559444444444445],[-98.04305555555555,42.559444444444445],[-98.04305555555555,42.559444444444445],[-99.42305555555556,42.33777777777778],[-99.42305555555556,42.33777777777778],[-99.42305555555556,42.33777777777778],[-99.42305555555556,42.33777777777778],[-99.42305555555556,42.33777777777778],[-99.51083333333334,42.32166666666667],[-99.51083333333334,42.32166666666667],[-99.51083333333334,42.32166666666667],[-99.51083333333334,42.32166666666667],[-99.51083333333334,42.32166666666667],[-99.68472222222222,42.28861111111111],[-99.68472222222222,42.28861111111111],[-99.68472222222222,42.28861111111111],[-99.68472222222222,42.28861111111111],[-99.96805555555555,42.236111111111114],[-99.96805555555555,42.236111111111114],[-100.12083333333332,42.206944444444446],[-100.12083333333332,42.206944444444446],[-100.12083333333332,42.206944444444446],[-100.12083333333332,42.206944444444446],[-100.12083333333332,42.206944444444446],[-100.17972222222222,42.19583333333333],[-100.17972222222222,42.19583333333333],[-100.17972222222222,42.19583333333333],[-100.17972222222222,42.19583333333333],[-100.625,42.109722222222224],[-100.625,42.109722222222224],[-100.625,42.109722222222224],[-100.625,42.109722222222224],[-101.59666666666666,41.914722222222224],[-101.59666666666666,41.914722222222224],[-101.59666666666666,41.914722222222224],[-101.59666666666666,41.914722222222224],[-101.59666666666666,41.914722222222224],[-101.59666666666666,41.914722222222224],[-101.6261111111111,41.908055555555556],[-101.6261111111111,41.908055555555556],[-101.6261111111111,41.908055555555556],[-101.91722222222222,41.849444444444444],[-101.91722222222222,41.849444444444444],[-101.91722222222222,41.849444444444444],[-101.91722222222222,41.849444444444444],[-101.91722222222222,41.849444444444444],[-101.91722222222222,41.849444444444444],[-102.47333333333333,41.73083333333334],[-102.47333333333333,41.73083333333334],[-102.47333333333333,41.73083333333334],[-102.9388888888889,41.63027777777778],[-102.9388888888889,41.63027777777778],[-103.08666666666666,41.597500000000004],[-103.35027777777778,41.538888888888884],[-103.35027777777778,41.538888888888884],[-103.35027777777778,41.538888888888884],[-103.35027777777778,41.538888888888884],[-103.67,41.466944444444444],[-103.67,41.466944444444444],[-103.67,41.466944444444444],[-103.67,41.466944444444444],[-103.93305555555555,41.40694444444444],[-104.25138888888888,41.33277777777778],[-104.25138888888888,41.33277777777778],[-104.25138888888888,41.33277777777778],[-104.39583333333334,41.29944444444444],[-104.39583333333334,41.29944444444444],[-104.8025,41.20583333333334],[-104.8025,41.20583333333334],[-104.8025,41.20583333333334],[-104.8025,41.20583333333334],[-105.2475,41.128055555555555],[-105.2475,41.128055555555555],[-105.27222222222223,41.12277777777778],[-105.27222222222223,41.12277777777778],[-105.39500000000001,41.10194444444445],[-105.54527777777777,41.075],[-105.54527777777777,41.075],[-105.54527777777777,41.075],[-105.54527777777777,41.075],[-105.54527777777777,41.075],[-105.98555555555555,40.995],[-105.98555555555555,40.995],[-105.98555555555555,40.995],[-105.98555555555555,40.995],[-105.98555555555555,40.995],[-107.51166666666667,40.70305555555556],[-107.51166666666667,40.70305555555556],[-107.66388888888889,40.6725],[-107.68861111111111,40.66777777777777],[-107.68861111111111,40.66777777777777],[-107.68861111111111,40.66777777777777],[-107.68861111111111,40.66777777777777],[-107.68861111111111,40.66777777777777],[-107.81805555555555,40.641666666666666],[-107.83666666666666,40.63777777777778],[-107.83666666666666,40.63777777777778],[-107.83666666666666,40.63777777777778],[-107.83666666666666,40.63777777777778],[-107.83666666666666,40.63777777777778],[-107.83666666666666,40.63777777777778],[-107.98694444444445,40.6075],[-108.26805555555555,40.54972222222222],[-108.26805555555555,40.54972222222222],[-108.26805555555555,40.54972222222222],[-108.43555555555555,40.515],[-108.43555555555555,40.515],[-108.43555555555555,40.515],[-108.43555555555555,40.515],[-109.14888888888889,40.36416666666667],[-109.14888888888889,40.36416666666667],[-109.14888888888889,40.36416666666667],[-109.14888888888889,40.36416666666667],[-109.44694444444445,40.29972222222222],[-109.44694444444445,40.29972222222222],[-109.44694444444445,40.29972222222222],[-109.44694444444445,40.29972222222222],[-109.44694444444445,40.29972222222222],[-109.59722222222221,40.26694444444444],[-109.59722222222221,40.26694444444444],[-109.59722222222221,40.26694444444444],[-109.62972222222221,40.25972222222222],[-109.89861111111112,40.20027777777778],[-109.89861111111112,40.20027777777778],[-109.92833333333334,40.19361111111111],[-110.07777777777777,40.16138888888889],[-110.07777777777777,40.16138888888889],[-110.07777777777777,40.16138888888889],[-110.07777777777777,40.16138888888889],[-110.07777777777777,40.16138888888889],[-110.37472222222222,40.096944444444446],[-110.37472222222222,40.096944444444446],[-110.67305555555556,40.03111111111111],[-110.67305555555556,40.03111111111111],[-110.67305555555556,40.03111111111111],[-110.96583333333334,39.965833333333336],[-110.96583333333334,39.965833333333336],[-110.96583333333334,39.965833333333336],[-110.96583333333334,39.965833333333336],[-111.54861111111111,39.83305555555556],[-111.54861111111111,39.83305555555556],[-111.54861111111111,39.83305555555556],[-111.54861111111111,39.83305555555556],[-111.54861111111111,39.83305555555556],[-111.54861111111111,39.83305555555556],[-111.54861111111111,39.83305555555556],[-111.54861111111111,39.83305555555556],[-112.43361111111112,39.625],[-112.43361111111112,39.625],[-112.43361111111112,39.625],[-112.43361111111112,39.625],[-112.43361111111112,39.625],[-112.43361111111112,39.625],[-112.57694444444444,39.59027777777778],[-112.57694444444444,39.59027777777778],[-112.57694444444444,39.59027777777778],[-112.72166666666666,39.555277777777775],[-112.72166666666666,39.555277777777775],[-112.72166666666666,39.555277777777775],[-112.72166666666666,39.555277777777775],[-112.86444444444444,39.52055555555555],[-112.86444444444444,39.52055555555555],[-112.86444444444444,39.52055555555555],[-113.43861111111111,39.37861111111111],[-113.43861111111111,39.37861111111111],[-113.43861111111111,39.37861111111111],[-113.43861111111111,39.37861111111111],[-114.15194444444445,39.1975],[-114.15194444444445,39.1975],[-114.15194444444445,39.1975],[-114.15194444444445,39.1975],[-114.15194444444445,39.1975],[-114.15194444444445,39.1975],[-114.15194444444445,39.1975],[-114.5525,39.093333333333334],[-114.5525,39.093333333333334],[-114.5525,39.093333333333334],[-114.99888888888889,38.97555555555556],[-114.99888888888889,38.97555555555556],[-114.99888888888889,38.97555555555556],[-114.99888888888889,38.97555555555556],[-114.99888888888889,38.97555555555556],[-114.99888888888889,38.97555555555556],[-114.99888888888889,38.97555555555556],[-114.99888888888889,38.97555555555556],[-115.13916666666667,38.93805555555555],[-115.13916666666667,38.93805555555555],[-115.13916666666667,38.93805555555555],[-115.13916666666667,38.93805555555555],[-115.47972222222222,38.846111111111114],[-115.47972222222222,38.846111111111114],[-115.47972222222222,38.846111111111114],[-115.84277777777777,38.746944444444445],[-115.84277777777777,38.746944444444445],[-115.84277777777777,38.746944444444445],[-115.84277777777777,38.746944444444445],[-115.84277777777777,38.746944444444445],[-115.84277777777777,38.746944444444445],[-116.41083333333334,38.58861111111111],[-116.47027777777778,38.57166666666667],[-116.75305555555556,38.49166666666667],[-116.75305555555556,38.49166666666667],[-117.12333333333332,38.40972222222222],[-117.12333333333332,38.40972222222222],[-117.41222222222223,38.34916666666667],[-117.41222222222223,38.34916666666667],[-117.41222222222223,38.34916666666667],[-117.41222222222223,38.34916666666667],[-117.41222222222223,38.34916666666667],[-117.41222222222223,38.34916666666667],[-117.41222222222223,38.34916666666667],[-118.3586111111111,38.15138888888889],[-118.3586111111111,38.15138888888889],[-118.52916666666667,38.11527777777778],[-118.52916666666667,38.11527777777778],[-118.52916666666667,38.11527777777778],[-118.52916666666667,38.11527777777778],[-118.52916666666667,38.11527777777778],[-118.52916666666667,38.11527777777778],[-119.24027777777778,37.961666666666666],[-119.24027777777778,37.961666666666666],[-119.24027777777778,37.961666666666666],[-119.24027777777778,37.961666666666666],[-119.24027777777778,37.961666666666666],[-119.24027777777778,37.961666666666666],[-119.24027777777778,37.961666666666666],[-120.36666666666666,37.7],[-120.36666666666666,37.7],[-120.36666666666666,37.7],[-120.57527777777777,37.678888888888885],[-120.57527777777777,37.678888888888885],[-120.57527777777777,37.678888888888885],[-120.57527777777777,37.678888888888885],[-120.93333333333334,37.63333333333333],[-120.93333333333334,37.63333333333333],[-120.93333333333334,37.63333333333333],[-121.06666666666666,37.61666666666667],[-121.06666666666666,37.61666666666667],[-121.35583333333332,37.581944444444446],[-121.35583333333332,37.581944444444446],[-121.35583333333332,37.581944444444446],[-121.35583333333332,37.581944444444446],[-121.35583333333332,37.581944444444446],[-121.63333333333334,37.55],[-121.63333333333334,37.55],[-121.63333333333334,37.55],[-121.73333333333333,37.53333333333333],[-121.73333333333333,37.53333333333333],[-121.73333333333333,37.53333333333333],[-121.73333333333333,37.53333333333333],[-122,37.5],[-122,37.5],[-122,37.5],[-122,37.5]],"type":"LineString"}
}
