{
  "id": 1981583135,
  "type": "Feature",
  "properties": {
    "geom:area": 0,
    "geom:bbox": "-123.302720,37.630600,-122.404030,38.477250",
    "geom:latitude": 38.013652903008456,
    "geom:longitude": -122.8859037197086,
    "src:alt_label": "swim-takeoff",
    "src:geom": "swim",
    "swim:elevations": [
      318,
      582,
      629,
      770,
      969,
      1232,
      1380,
      2003,
      2355,
      2601,
      2914,
      3128,
      3275,
      3373,
      3470,
      3687,
      4230,
      4376,
      4495,
      4726,
      4833,
      5110,
      5350,
      5643,
      5860,
      6007,
      6279,
      6370
    ],
    "swim:geom": "takeoff",
    "swim:timestamps": [
      1759619696,
      1759619719,
      1759619737,
      1759619770,
      1759619797,
      1759619815,
      1759619829,
      1759619876,
      1759619903,
      1759619934,
      1759619961,
      1759619982,
      1759620020,
      1759620043,
      1759620070,
      1759620094,
      1759620146,
      1759620165,
      1759620180,
      1759620204,
      1759620218,
      1759620252,
      1759620286,
      1759620315,
      1759620353,
      1759620371,
      1759620410,
      1759620420
    ],
    "wof:geomhash": "f804d2ff942b4796e63f704ac1627bd4",
    "wof:id": 1981583135,
    "wof:repo": "sfomuseum-data-flights-2025-10"
  },
  "bbox": [
    -123.30272,
    37.6306,
    -122.40403,
    38.47725
  ],
  "geometry": {"coordinates":[[-122.40403,37.6306],[-122.425,37.63965],[-122.44282,37.64781],[-122.48079,37.66513],[-122.51608,37.68203],[-122.53849,37.69563],[-122.55685,37.70656],[-122.61502,37.74073],[-122.64892,37.76064],[-122.68906,37.78413],[-122.72556,37.80558],[-122.75435,37.82308],[-122.79421,37.86814],[-122.81815,37.89781],[-122.84951,37.93585],[-122.87902,37.97131],[-122.94264,38.04765],[-122.96671,38.07647],[-122.98489,38.09816],[-123.0155,38.13478],[-123.03383,38.1568],[-123.07744,38.20885],[-123.12161,38.26157],[-123.15954,38.3066],[-123.21147,38.36794],[-123.23637,38.39658],[-123.28853,38.46019],[-123.30272,38.47725]],"type":"LineString"}
}
