{
  "id": 1981729065,
  "type": "Feature",
  "properties": {
    "date:inception_lower": "2025-10-21",
    "date:inception_upper": "2025-10-21",
    "edtf:cessation": "",
    "edtf:inception": "2025-10-21",
    "flysfo:actual_timestamp": -1,
    "flysfo:airline": "UA",
    "flysfo:date": "2025-10-21",
    "flysfo:estimated_timestamp": 1761064920,
    "flysfo:event": "A",
    "flysfo:flight_number": "UA3774",
    "flysfo:gate": "F13",
    "flysfo:journey": "IAH-SFO",
    "flysfo:scheduled_timestamp": 1761063300,
    "flysfo:timestamp": 1761064920,
    "geom:area": 0,
    "geom:bbox": "-122.370943,29.977186,-95.338444,37.617990",
    "geom:latitude": 33.797588,
    "geom:longitude": -108.8546935,
    "iata:airline": "UA",
    "icao:airline": "UAL",
    "lbl:latitude": 37.620534,
    "lbl:longitude": -122.388506,
    "sfomuseum:airline_id": 1159285413,
    "sfomuseum:arrival_id": 102527513,
    "sfomuseum:departure_id": 102534097,
    "sfomuseum:flight_id": "20251021-A-UAL-3774",
    "sfomuseum:flight_number": [
      "UAL3774",
      "UA3774"
    ],
    "sfomuseum:placetype": "flight",
    "src:geom": "flysfo",
    "wof:belongsto": [
      1947304067,
      102527513,
      1947304451,
      102191575,
      85633793,
      102087579,
      85922583,
      554784711,
      85688637,
      1947304459,
      1947304447,
      102085387
    ],
    "wof:country": "US",
    "wof:created": 1761149310,
    "wof:geomhash": "25dc9d98eae1cd54f40654c6c4fb6929",
    "wof:hierarchy": [
      {
        "building_id": 1947304067,
        "campus_id": 102527513,
        "concourse_id": 1947304451,
        "continent_id": 102191575,
        "country_id": 85633793,
        "county_id": 102087579,
        "custom_id": 1981729065,
        "flight_id": 1981729065,
        "locality_id": 85922583,
        "postalcode_id": 554784711,
        "region_id": 85688637,
        "venue_id": 1947304459,
        "wing_id": 1947304447
      },
      {
        "building_id": 1947304067,
        "campus_id": 102527513,
        "concourse_id": 1947304451,
        "continent_id": 102191575,
        "country_id": 85633793,
        "county_id": 102085387,
        "custom_id": 1981729065,
        "flight_id": 1981729065,
        "region_id": 85688637,
        "venue_id": 1947304459,
        "wing_id": 1947304447
      }
    ],
    "wof:id": 1981729065,
    "wof:involves": [
      102527513,
      102534097,
      1159285413,
      1947304459
    ],
    "wof:lastmodified": 1761149310,
    "wof:name": "UA3774 (IAH-SFO)",
    "wof:parent_id": 1947304459,
    "wof:placetype": "custom",
    "wof:placetype_alt": [
      "flight"
    ],
    "wof:repo": "sfomuseum-data-flights-2025-10",
    "wof:superseded_by": [],
    "wof:supersedes": []
  },
  "bbox": [
    -122.370943,
    29.977186,
    -95.338444,
    37.61799
  ],
  "geometry": {"coordinates":[[-95.338444,29.977186],[-122.370943,37.61799]],"type":"MultiPoint"}
}
