{
  "id": 1981776245,
  "type": "Feature",
  "properties": {
    "geom:area": 0,
    "geom:bbox": "-122.430220,36.719520,-121.260810,37.705150",
    "geom:latitude": 37.21401216971462,
    "geom:longitude": -121.91796739654993,
    "src:alt_label": "swim-takeoff",
    "src:geom": "swim",
    "swim:elevations": [
      305,
      819,
      1082,
      1573,
      1904,
      2630,
      3395,
      3685,
      4101,
      4417,
      4743,
      5076,
      5457,
      5928,
      6374,
      6467,
      6900,
      7234,
      7566,
      7820,
      8340,
      8730,
      8837,
      8839,
      8839,
      8839,
      8839,
      8839,
      8839,
      8839,
      8839,
      8839,
      8839
    ],
    "swim:geom": "takeoff",
    "swim:timestamps": [
      1761463493,
      1761463526,
      1761463543,
      1761463584,
      1761463598,
      1761463641,
      1761463675,
      1761463694,
      1761463727,
      1761463742,
      1761463761,
      1761463788,
      1761463818,
      1761463852,
      1761463883,
      1761463891,
      1761463925,
      1761463943,
      1761463964,
      1761463985,
      1761464025,
      1761464052,
      1761464078,
      1761464125,
      1761464143,
      1761464174,
      1761464214,
      1761464248,
      1761464274,
      1761464291,
      1761464306,
      1761464329,
      1761464347
    ],
    "wof:geomhash": "71bc379487396e158297201e3a323e1a",
    "wof:id": 1981776245,
    "wof:repo": "sfomuseum-data-flights-2025-10"
  },
  "bbox": [
    -122.43022,
    36.71952,
    -121.26081,
    37.70515
  ],
  "geometry": {"coordinates":[[-122.36447,37.63756],[-122.36292,37.66391],[-122.36204,37.6776],[-122.38769,37.70515],[-122.40512,37.70251],[-122.43022,37.66123],[-122.41734,37.61773],[-122.40938,37.59268],[-122.39054,37.54404],[-122.37175,37.52448],[-122.34119,37.50281],[-122.29655,37.47112],[-122.24537,37.43472],[-122.18258,37.39029],[-122.12555,37.3494],[-122.11041,37.33852],[-122.04615,37.29214],[-122.01202,37.26766],[-121.97205,37.23882],[-121.93366,37.21061],[-121.85877,37.15624],[-121.8078,37.11978],[-121.75786,37.08331],[-121.67148,37.02027],[-121.63679,36.99511],[-121.57927,36.9536],[-121.50418,36.89943],[-121.44344,36.85427],[-121.39459,36.81832],[-121.36392,36.79572],[-121.33594,36.77542],[-121.2936,36.74386],[-121.26081,36.71952]],"type":"LineString"}
}
