{
  "id": 1981763905,
  "type": "Feature",
  "properties": {
    "geom:area": 0,
    "geom:bbox": "-122.347280,36.736600,-121.274470,37.609480",
    "geom:latitude": 37.320632017495655,
    "geom:longitude": -121.95574605958393,
    "src:alt_label": "swim-approach",
    "src:geom": "swim",
    "swim:elevations": [
      4975,
      4852,
      4575,
      4052,
      3860,
      3500,
      3350,
      3199,
      3028,
      2871,
      2612,
      2511,
      2279,
      2190,
      1950,
      1829,
      1825,
      1589,
      1388,
      1268,
      1173,
      1153,
      1037,
      824,
      685,
      547,
      494,
      462,
      376,
      233,
      211,
      61,
      5536,
      5128,
      5107,
      4748,
      4285
    ],
    "swim:geom": "approach",
    "swim:timestamps": [
      1761376373,
      1761376385,
      1761376412,
      1761376466,
      1761376485,
      1761376523,
      1761376551,
      1761376587,
      1761376615,
      1761376637,
      1761376673,
      1761376696,
      1761376733,
      1761376748,
      1761376788,
      1761376826,
      1761376853,
      1761376888,
      1761376912,
      1761376924,
      1761376947,
      1761376953,
      1761376983,
      1761377027,
      1761377054,
      1761377084,
      1761377093,
      1761377102,
      1761377120,
      1761377155,
      1761377160,
      1761377192,
      1761461869,
      1761461908,
      1761461911,
      1761461941,
      1761461989
    ],
    "wof:geomhash": "75255b3ea309d9308248497f8a5c67ad",
    "wof:id": 1981763905,
    "wof:repo": "sfomuseum-data-flights-2025-10"
  },
  "bbox": [
    -122.34728,
    36.7366,
    -121.27447,
    37.60948
  ],
  "geometry": {"coordinates":[[-121.27447,37.59127],[-121.29557,37.58861],[-121.34306,37.58348],[-121.43569,37.57293],[-121.46896,37.569],[-121.53413,37.56139],[-121.58116,37.55585],[-121.64042,37.54708],[-121.68205,37.53708],[-121.71369,37.52955],[-121.76584,37.51719],[-121.79849,37.50926],[-121.8485,37.49719],[-121.86797,37.49279],[-121.92423,37.49357],[-121.97417,37.49644],[-122.00722,37.49847],[-122.05065,37.50097],[-122.08123,37.50272],[-122.09643,37.50448],[-122.12383,37.51552],[-122.13069,37.51844],[-122.16392,37.53213],[-122.20588,37.54993],[-122.23044,37.5602],[-122.25756,37.57171],[-122.26567,37.57511],[-122.27351,37.57842],[-122.28814,37.5846],[-122.3168,37.59659],[-122.32041,37.59811],[-122.34728,37.60948],[-121.88817,36.7366],[-121.91001,36.79777],[-121.91135,36.80262],[-121.92497,36.85192],[-121.94618,36.9275]],"type":"LineString"}
}
