{
  "id": 1981695041,
  "type": "Feature",
  "properties": {
    "geom:area": 0,
    "geom:bbox": "-122.527230,37.626330,-121.274140,37.944390",
    "geom:latitude": 37.846002401595435,
    "geom:longitude": -121.99171753958397,
    "src:alt_label": "swim-takeoff",
    "src:geom": "swim",
    "swim:elevations": [
      152,
      358,
      553,
      829,
      1125,
      1856,
      2278,
      2639,
      2786,
      3027,
      3154,
      3279,
      3418,
      3604,
      4122,
      4541,
      4719,
      5022,
      5396,
      5657,
      6073,
      6376,
      6593,
      6890,
      6974,
      7196,
      7567,
      7883,
      8099,
      8332
    ],
    "swim:geom": "takeoff",
    "swim:timestamps": [
      1760688957,
      1760688978,
      1760689005,
      1760689040,
      1760689062,
      1760689105,
      1760689136,
      1760689167,
      1760689178,
      1760689194,
      1760689204,
      1760689226,
      1760689243,
      1760689265,
      1760689307,
      1760689344,
      1760689362,
      1760689390,
      1760689426,
      1760689450,
      1760689489,
      1760689524,
      1760689551,
      1760689585,
      1760689593,
      1760689620,
      1760689662,
      1760689701,
      1760689729,
      1760689752
    ],
    "wof:geomhash": "1fb4a784a6c5aa08e69068fe8eb45a5e",
    "wof:id": 1981695041,
    "wof:repo": "sfomuseum-data-flights-2025-10"
  },
  "bbox": [
    -122.52723,
    37.62633,
    -121.27414,
    37.94439
  ],
  "geometry": {"coordinates":[[-122.39317,37.62633],[-122.41247,37.63472],[-122.44009,37.64669],[-122.48517,37.66505],[-122.51351,37.68043],[-122.52588,37.72937],[-122.52723,37.76534],[-122.50008,37.79513],[-122.48304,37.80008],[-122.45602,37.80388],[-122.44021,37.80628],[-122.40315,37.81167],[-122.37195,37.81593],[-122.33049,37.8215],[-122.24684,37.83311],[-122.17385,37.84353],[-122.13796,37.84871],[-122.08215,37.85669],[-122.00752,37.86665],[-121.95658,37.87365],[-121.87416,37.88554],[-121.79843,37.89309],[-121.74003,37.8988],[-121.66358,37.90635],[-121.64392,37.90828],[-121.58376,37.91432],[-121.48405,37.9241],[-121.39336,37.93294],[-121.32756,37.93923],[-121.27414,37.94439]],"type":"LineString"}
}
