{
  "id": 1981710257,
  "type": "Feature",
  "properties": {
    "geom:area": 0,
    "geom:bbox": "-122.355880,37.491250,-121.243830,37.613150",
    "geom:latitude": 37.546718754856656,
    "geom:longitude": -121.80479230328056,
    "src:alt_label": "swim-approach",
    "src:geom": "swim",
    "swim:elevations": [
      4530,
      4224,
      3883,
      3732,
      3370,
      3278,
      3082,
      2983,
      2926,
      2520,
      2467,
      2445,
      2439,
      2406,
      2200,
      2102,
      1862,
      1829,
      1829,
      1829,
      1766,
      1552,
      1125,
      1032,
      933,
      824,
      800,
      690,
      547,
      443,
      331,
      213,
      164,
      99,
      26
    ],
    "swim:geom": "approach",
    "swim:timestamps": [
      1760914518,
      1760914552,
      1760914587,
      1760914605,
      1760914646,
      1760914658,
      1760914704,
      1760914731,
      1760914737,
      1760914768,
      1760914777,
      1760914783,
      1760914820,
      1760914841,
      1760914886,
      1760914904,
      1760914938,
      1760914963,
      1760914993,
      1760915002,
      1760915018,
      1760915045,
      1760915090,
      1760915111,
      1760915141,
      1760915184,
      1760915190,
      1760915213,
      1760915243,
      1760915273,
      1760915299,
      1760915330,
      1760915343,
      1760915361,
      1760915375
    ],
    "wof:geomhash": "b819e0646b08548a3a5591cd34d5d59e",
    "wof:id": 1981710257,
    "wof:repo": "sfomuseum-data-flights-2025-10"
  },
  "bbox": [
    -122.35588,
    37.49125,
    -121.24383,
    37.61315
  ],
  "geometry": {"coordinates":[[-121.24383,37.59527],[-121.31125,37.58652],[-121.3818,37.57863],[-121.41515,37.57491],[-121.494,37.56606],[-121.51646,37.56355],[-121.59775,37.55395],[-121.64168,37.54687],[-121.65104,37.5446],[-121.70017,37.53259],[-121.71399,37.52928],[-121.72292,37.52711],[-121.77382,37.51493],[-121.80134,37.50843],[-121.85736,37.49532],[-121.87994,37.49125],[-121.92337,37.49192],[-121.9547,37.4928],[-121.99289,37.49609],[-122.00363,37.49947],[-122.02291,37.50582],[-122.05381,37.51609],[-122.1046,37.53239],[-122.12744,37.5399],[-122.15828,37.54991],[-122.1994,37.56332],[-122.20506,37.56516],[-122.22611,37.57188],[-122.25144,37.58008],[-122.27577,37.58743],[-122.29683,37.5935],[-122.32021,37.60049],[-122.33067,37.60354],[-122.34547,37.60869],[-122.35588,37.61315]],"type":"LineString"}
}
