{
  "id": 1981757833,
  "type": "Feature",
  "properties": {
    "geom:area": 0,
    "geom:bbox": "-122.366667,37.633333,-73.634722,42.541667",
    "geom:latitude": 41.6845400333106,
    "geom:longitude": -98.21363497716874,
    "src:alt_label": "swim-path",
    "src:geom": "swim",
    "swim:altitudes": [
      "005",
      "005",
      "122",
      "122",
      "122",
      "122",
      "122",
      "249",
      "249",
      "249",
      "249",
      "330C",
      "330C",
      "330C",
      "330C",
      "330C",
      "330C",
      "330C",
      "330C",
      "330C",
      "330C",
      "330C",
      "330C",
      "330C",
      "330C",
      "330C",
      "330C",
      "330C",
      "330C",
      "330C",
      "330C",
      "330C",
      "330C",
      "330C",
      "330C",
      "330C",
      "330C",
      "330C",
      "330C",
      "330C",
      "330C",
      "330C",
      "330C",
      "330C",
      "330C",
      "330C",
      "330C",
      "330C",
      "330C",
      "330C",
      "330C",
      "330C",
      "330C",
      "330C",
      "330",
      "330",
      "330",
      "350C",
      "350C",
      "350C",
      "350C",
      "350C",
      "350C",
      "350C",
      "350C",
      "350C",
      "350C",
      "350C",
      "350C",
      "350C",
      "350C",
      "350C",
      "350C",
      "350C",
      "350C",
      "350C",
      "350C",
      "350C",
      "350",
      "350",
      "357",
      "357",
      "370C",
      "370C",
      "370C",
      "370C",
      "370C",
      "370C",
      "370C",
      "370C",
      "370C",
      "370C",
      "370C",
      "370C",
      "370C",
      "370C",
      "370C",
      "370C",
      "370C",
      "370C",
      "370C",
      "370C",
      "370C",
      "370C",
      "370C",
      "370C",
      "370C",
      "370C",
      "370C",
      "370C",
      "370C",
      "370C",
      "370C",
      "370C",
      "370C",
      "370C",
      "370C",
      "370C",
      "370C",
      "370C",
      "370C",
      "370C",
      "370C",
      "370C",
      "370C",
      "370C",
      "370C",
      "370C",
      "370C",
      "370C",
      "370C",
      "370C",
      "370C",
      "370C",
      "370C",
      "370C",
      "370C",
      "370C",
      "370C",
      "388C",
      "388C",
      "390C",
      "390C",
      "390C",
      "390C",
      "390C",
      "390C",
      "390C",
      "390C",
      "390C",
      "390C",
      "390C",
      "390C",
      "390C",
      "390C",
      "390C",
      "390C",
      "390C",
      "390C",
      "390C",
      "390C",
      "390C",
      "390C",
      "390C",
      "390C",
      "390C",
      "390C",
      "390C",
      "390C",
      "390C",
      "390C",
      "390C",
      "390C",
      "390C",
      "390C",
      "390C",
      "390C",
      "390C",
      "390C",
      "390C",
      "390C",
      "390C",
      "390C",
      "390C",
      "390C",
      "390C",
      "390C",
      "390C",
      "390C",
      "390C",
      "390C",
      "390C",
      "390C",
      "390C",
      "390C",
      "390C",
      "390C",
      "390C",
      "390C",
      "390C",
      "390C",
      "390C",
      "390C",
      "390C",
      "390C",
      "390C",
      "390C",
      "390C",
      "390C",
      "390C",
      "390C",
      "390C",
      "390C",
      "390C",
      "390C",
      "390C",
      "390C",
      "390C",
      "390C",
      "390C",
      "390C",
      "390C",
      "390C",
      "390C",
      "390C",
      "390C",
      "207",
      "205",
      "205",
      "198",
      "198",
      "196",
      "196",
      "189C",
      "189C",
      "189C",
      "174",
      "160",
      "160",
      "020",
      "020",
      "020",
      "020",
      "007",
      "007",
      "007",
      "007",
      "007"
    ],
    "swim:geom": "path",
    "swim:speeds": [
      166,
      166,
      389,
      389,
      389,
      389,
      389,
      485,
      485,
      485,
      485,
      498,
      498,
      498,
      498,
      498,
      498,
      491,
      491,
      491,
      491,
      491,
      491,
      491,
      491,
      495,
      497,
      496,
      498,
      498,
      499,
      499,
      499,
      499,
      499,
      499,
      497,
      497,
      497,
      496,
      496,
      492,
      492,
      492,
      492,
      487,
      487,
      487,
      485,
      485,
      485,
      485,
      474,
      474,
      469,
      469,
      469,
      457,
      457,
      457,
      457,
      457,
      457,
      454,
      454,
      454,
      454,
      451,
      451,
      451,
      451,
      449,
      450,
      450,
      450,
      450,
      451,
      451,
      451,
      451,
      452,
      452,
      452,
      452,
      451,
      451,
      451,
      452,
      452,
      452,
      453,
      451,
      451,
      451,
      451,
      451,
      458,
      458,
      458,
      458,
      462,
      462,
      463,
      461,
      461,
      461,
      461,
      461,
      463,
      463,
      466,
      467,
      468,
      472,
      472,
      477,
      477,
      477,
      477,
      498,
      498,
      498,
      502,
      502,
      502,
      502,
      514,
      514,
      516,
      516,
      518,
      518,
      519,
      519,
      519,
      520,
      520,
      521,
      521,
      516,
      516,
      509,
      509,
      509,
      508,
      508,
      508,
      509,
      509,
      509,
      509,
      510,
      510,
      510,
      510,
      513,
      514,
      515,
      515,
      515,
      517,
      517,
      517,
      519,
      519,
      520,
      520,
      521,
      521,
      520,
      520,
      519,
      519,
      519,
      519,
      519,
      520,
      520,
      520,
      520,
      523,
      526,
      524,
      524,
      524,
      524,
      524,
      524,
      513,
      512,
      512,
      510,
      510,
      513,
      513,
      513,
      516,
      516,
      518,
      518,
      520,
      521,
      521,
      520,
      523,
      523,
      523,
      523,
      524,
      524,
      529,
      529,
      533,
      537,
      535,
      535,
      536,
      536,
      536,
      533,
      529,
      529,
      517,
      517,
      517,
      517,
      462,
      455,
      455,
      425,
      425,
      404,
      404,
      381,
      381,
      381,
      344,
      335,
      335,
      183,
      183,
      183,
      183,
      137,
      137,
      137,
      137,
      137
    ],
    "swim:timestamps": [
      1761324501,
      1761324501,
      1761324819,
      1761324819,
      1761324819,
      1761324819,
      1761324819,
      1761325179,
      1761325179,
      1761325179,
      1761325179,
      1761325540,
      1761325540,
      1761325540,
      1761325540,
      1761325540,
      1761325540,
      1761325735,
      1761325735,
      1761325792,
      1761325792,
      1761325792,
      1761325792,
      1761325972,
      1761325972,
      1761326201,
      1761326273,
      1761326321,
      1761326393,
      1761326453,
      1761326561,
      1761326573,
      1761326573,
      1761326621,
      1761326681,
      1761326681,
      1761326874,
      1761326874,
      1761326874,
      1761326934,
      1761326982,
      1761327234,
      1761327234,
      1761327234,
      1761327234,
      1761327475,
      1761327475,
      1761327475,
      1761327595,
      1761327595,
      1761327595,
      1761327655,
      1761328136,
      1761328136,
      1761328436,
      1761328436,
      1761328436,
      1761328677,
      1761328677,
      1761328677,
      1761328677,
      1761329097,
      1761329097,
      1761329487,
      1761329487,
      1761329487,
      1761329487,
      1761329698,
      1761329698,
      1761329698,
      1761329698,
      1761329818,
      1761329967,
      1761329967,
      1761329999,
      1761329999,
      1761330088,
      1761330088,
      1761330239,
      1761330239,
      1761330328,
      1761330328,
      1761330539,
      1761330568,
      1761330628,
      1761330628,
      1761330660,
      1761330900,
      1761330900,
      1761330900,
      1761331049,
      1761331650,
      1761331650,
      1761331650,
      1761331650,
      1761331650,
      1761332112,
      1761332112,
      1761332112,
      1761332112,
      1761332310,
      1761332310,
      1761332491,
      1761332533,
      1761332533,
      1761332593,
      1761332593,
      1761332593,
      1761332653,
      1761332653,
      1761332671,
      1761332731,
      1761332791,
      1761333134,
      1761333134,
      1761333272,
      1761333272,
      1761333272,
      1761333272,
      1761333915,
      1761333915,
      1761333915,
      1761334095,
      1761334095,
      1761334095,
      1761334095,
      1761334636,
      1761334636,
      1761334717,
      1761334717,
      1761334777,
      1761334816,
      1761334876,
      1761334936,
      1761334936,
      1761334957,
      1761334957,
      1761335077,
      1761335077,
      1761335258,
      1761335258,
      1761335477,
      1761335477,
      1761335477,
      1761335618,
      1761335618,
      1761335618,
      1761335678,
      1761335717,
      1761335717,
      1761335738,
      1761335777,
      1761335777,
      1761335958,
      1761335958,
      1761336219,
      1761336339,
      1761336519,
      1761336519,
      1761336519,
      1761336760,
      1761336760,
      1761336760,
      1761336940,
      1761336940,
      1761337000,
      1761337000,
      1761337112,
      1761337112,
      1761337172,
      1761337292,
      1761337360,
      1761337360,
      1761337481,
      1761337541,
      1761337541,
      1761337592,
      1761337592,
      1761337652,
      1761337652,
      1761337773,
      1761337953,
      1761338021,
      1761338021,
      1761338073,
      1761338073,
      1761338073,
      1761338073,
      1761338313,
      1761338373,
      1761338373,
      1761338494,
      1761338494,
      1761338697,
      1761338697,
      1761338757,
      1761338817,
      1761338817,
      1761338877,
      1761338877,
      1761338937,
      1761338974,
      1761338974,
      1761338997,
      1761339034,
      1761339034,
      1761339034,
      1761339057,
      1761339177,
      1761339177,
      1761339275,
      1761339275,
      1761339418,
      1761339538,
      1761339575,
      1761339575,
      1761339755,
      1761339755,
      1761339755,
      1761339815,
      1761339875,
      1761339875,
      1761340139,
      1761340139,
      1761340176,
      1761340176,
      1761341040,
      1761341052,
      1761341052,
      1761341100,
      1761341100,
      1761341112,
      1761341112,
      1761341160,
      1761341160,
      1761341160,
      1761341232,
      1761341292,
      1761341292,
      1761341821,
      1761341821,
      1761341821,
      1761341821,
      1761341941,
      1761341941,
      1761341941,
      1761341941,
      1761341941
    ],
    "wof:geomhash": "da5efcb45c7a532d62851b464f166cbe",
    "wof:id": 1981757833,
    "wof:repo": "sfomuseum-data-flights-2025-10"
  },
  "bbox": [
    -122.36666666666666,
    37.63333333333333,
    -73.63472222222222,
    42.541666666666664
  ],
  "geometry": {"coordinates":[[-122.36666666666666,37.63333333333333],[-122.36666666666666,37.63333333333333],[-122.02,37.91305555555555],[-122.02,37.91305555555555],[-122.02,37.91305555555555],[-122.02,37.91305555555555],[-122.02,37.91305555555555],[-121.29388888888889,38.39611111111111],[-121.29388888888889,38.39611111111111],[-121.29388888888889,38.39611111111111],[-121.29388888888889,38.39611111111111],[-120.4325,38.9225],[-120.4325,38.9225],[-120.4325,38.9225],[-120.4325,38.9225],[-120.4325,38.9225],[-120.4325,38.9225],[-120.00333333333333,39.18111111111111],[-120.00333333333333,39.18111111111111],[-119.86361111111111,39.263333333333335],[-119.86361111111111,39.263333333333335],[-119.86361111111111,39.263333333333335],[-119.86361111111111,39.263333333333335],[-119.44166666666668,39.51166666666666],[-119.44166666666668,39.51166666666666],[-118.89527777777778,39.828611111111115],[-118.71555555555555,39.918055555555554],[-118.58361111111111,39.971944444444446],[-118.39583333333334,40.0475],[-118.2475,40.1075],[-117.93972222222223,40.223055555555554],[-117.92333333333333,40.22805555555556],[-117.92333333333333,40.22805555555556],[-117.78555555555555,40.26972222222222],[-117.61611111111111,40.32],[-117.61611111111111,40.32],[-117.07777777777777,40.47805555555556],[-117.07777777777777,40.47805555555556],[-117.07777777777777,40.47805555555556],[-116.90444444444445,40.52861111111111],[-116.76416666666667,40.56888888888889],[-116.05499999999999,40.769999999999996],[-116.05499999999999,40.769999999999996],[-116.05499999999999,40.769999999999996],[-116.05499999999999,40.769999999999996],[-115.38277777777778,40.95583333333334],[-115.38277777777778,40.95583333333334],[-115.38277777777778,40.95583333333334],[-115.0475,41.046388888888885],[-115.0475,41.046388888888885],[-115.0475,41.046388888888885],[-114.88027777777778,41.09111111111111],[-113.53,41.403055555555554],[-113.53,41.403055555555554],[-112.67166666666667,41.509166666666665],[-112.67166666666667,41.509166666666665],[-112.67166666666667,41.509166666666665],[-111.99555555555555,41.58222222222223],[-111.99555555555555,41.58222222222223],[-111.99555555555555,41.58222222222223],[-111.99555555555555,41.58222222222223],[-110.83333333333333,41.69555555555555],[-110.83333333333333,41.69555555555555],[-109.72194444444445,41.7925],[-109.72194444444445,41.7925],[-109.72194444444445,41.7925],[-109.72194444444445,41.7925],[-109.15194444444445,41.83777777777778],[-109.15194444444445,41.83777777777778],[-109.15194444444445,41.83777777777778],[-109.15194444444445,41.83777777777778],[-108.81694444444445,41.863055555555555],[-108.41694444444445,41.89194444444444],[-108.41694444444445,41.89194444444444],[-108.315,41.899166666666666],[-108.315,41.899166666666666],[-108.08138888888888,41.915],[-108.08138888888888,41.915],[-107.64500000000001,41.94361111111111],[-107.64500000000001,41.94361111111111],[-107.40805555555556,41.95861111111111],[-107.40805555555556,41.95861111111111],[-106.80472222222222,41.994166666666665],[-106.73972222222223,41.99777777777778],[-106.57277777777777,42.00694444444444],[-106.57277777777777,42.00694444444444],[-106.45805555555556,42.01305555555555],[-105.78722222222223,42.04694444444444],[-105.78722222222223,42.04694444444444],[-105.78722222222223,42.04694444444444],[-105.38388888888889,42.06527777777777],[-103.685,42.19777777777777],[-103.685,42.19777777777777],[-103.685,42.19777777777777],[-103.685,42.19777777777777],[-103.685,42.19777777777777],[-102.37444444444444,42.294999999999995],[-102.37444444444444,42.294999999999995],[-102.37444444444444,42.294999999999995],[-102.37444444444444,42.294999999999995],[-101.80805555555555,42.32611111111112],[-101.80805555555555,42.32611111111112],[-101.30888888888889,42.35472222222222],[-101.16444444444446,42.36361111111111],[-101.16444444444446,42.36361111111111],[-100.98972222222223,42.3725],[-100.98972222222223,42.3725],[-100.98972222222223,42.3725],[-100.81222222222222,42.38138888888889],[-100.81222222222222,42.38138888888889],[-100.78472222222221,42.382777777777775],[-100.60833333333333,42.391666666666666],[-100.4325,42.400277777777774],[-99.42750000000001,42.443888888888885],[-99.42750000000001,42.443888888888885],[-98.9961111111111,42.46],[-98.9961111111111,42.46],[-98.9961111111111,42.46],[-98.9961111111111,42.46],[-97.02972222222222,42.53361111111111],[-97.02972222222222,42.53361111111111],[-97.02972222222222,42.53361111111111],[-96.4625,42.541666666666664],[-96.4625,42.541666666666664],[-96.4625,42.541666666666664],[-96.4625,42.541666666666664],[-94.73388888888888,42.53],[-94.73388888888888,42.53],[-94.44972222222222,42.525555555555556],[-94.44972222222222,42.525555555555556],[-94.25722222222223,42.52222222222222],[-94.13972222222223,42.519999999999996],[-93.94250000000001,42.51583333333333],[-93.74861111111112,42.51166666666666],[-93.74861111111112,42.51166666666666],[-93.67,42.51],[-93.67,42.51],[-93.28111111111112,42.5],[-93.28111111111112,42.5],[-92.69611111111111,42.4825],[-92.69611111111111,42.4825],[-92.00888888888889,42.458333333333336],[-92.00888888888889,42.458333333333336],[-92.00888888888889,42.458333333333336],[-91.5611111111111,42.440555555555555],[-91.5611111111111,42.440555555555555],[-91.5611111111111,42.440555555555555],[-91.37333333333332,42.4325],[-91.25777777777778,42.42722222222222],[-91.25777777777778,42.42722222222222],[-91.18083333333334,42.42388888888889],[-91.06777777777778,42.41861111111111],[-91.06777777777778,42.41861111111111],[-90.495,42.41111111111111],[-90.495,42.41111111111111],[-89.62333333333332,42.448611111111106],[-89.23944444444444,42.46277777777778],[-88.66250000000001,42.481944444444444],[-88.66250000000001,42.481944444444444],[-88.66250000000001,42.481944444444444],[-87.89,42.50083333333333],[-87.89,42.50083333333333],[-87.89,42.50083333333333],[-87.29888888888888,42.49777777777778],[-87.29888888888888,42.49777777777778],[-87.10194444444444,42.49666666666667],[-87.10194444444444,42.49666666666667],[-86.775,42.49388888888889],[-86.775,42.49388888888889],[-86.58138888888888,42.49194444444444],[-86.16083333333334,42.48583333333333],[-85.96111111111111,42.4825],[-85.96111111111111,42.4825],[-85.53416666666666,42.47416666666667],[-85.34277777777777,42.47],[-85.34277777777777,42.47],[-85.18583333333333,42.46638888888889],[-85.18583333333333,42.46638888888889],[-84.99138888888889,42.46138888888889],[-84.99138888888889,42.46138888888889],[-84.59222222222222,42.44694444444444],[-83.99944444444445,42.41111111111111],[-83.77694444444444,42.3975],[-83.77694444444444,42.3975],[-83.60722222222222,42.38666666666666],[-83.60722222222222,42.38666666666666],[-83.60722222222222,42.38666666666666],[-83.60722222222222,42.38666666666666],[-82.86527777777778,42.33583333333333],[-82.67555555555556,42.32222222222222],[-82.67555555555556,42.32222222222222],[-82.29583333333333,42.29361111111111],[-82.29583333333333,42.29361111111111],[-81.65222222222222,42.242222222222225],[-81.65222222222222,42.242222222222225],[-81.46055555555556,42.224444444444444],[-81.2675,42.20277777777778],[-81.2675,42.20277777777778],[-81.07444444444444,42.181666666666665],[-81.07444444444444,42.181666666666665],[-80.88111111111111,42.159444444444446],[-80.73611111111111,42.14416666666666],[-80.73611111111111,42.14416666666666],[-80.68777777777778,42.13861111111111],[-80.54416666666667,42.12222222222222],[-80.54416666666667,42.12222222222222],[-80.54416666666667,42.12222222222222],[-80.49388888888889,42.11694444444444],[-80.10555555555555,42.07222222222222],[-80.10555555555555,42.07222222222222],[-79.75416666666666,42.02861111111111],[-79.75416666666666,42.02861111111111],[-79.32027777777778,41.974444444444444],[-78.9238888888889,41.924166666666665],[-78.80638888888889,41.90861111111111],[-78.80638888888889,41.90861111111111],[-78.21388888888889,41.82916666666667],[-78.21388888888889,41.82916666666667],[-78.21388888888889,41.82916666666667],[-78.01777777777778,41.80222222222222],[-77.82638888888889,41.775555555555556],[-77.82638888888889,41.775555555555556],[-77,41.638333333333335],[-77,41.638333333333335],[-76.89027777777778,41.608333333333334],[-76.89027777777778,41.608333333333334],[-74.41611111111112,40.94277777777778],[-74.36666666666666,40.93333333333333],[-74.36666666666666,40.93333333333333],[-74.25555555555556,40.92333333333333],[-74.25555555555556,40.92333333333333],[-74.21666666666667,40.916666666666664],[-74.21666666666667,40.916666666666664],[-74.11611111111111,40.900277777777774],[-74.11611111111111,40.900277777777774],[-74.11611111111111,40.900277777777774],[-74.03333333333333,40.8],[-74,40.7],[-74,40.7],[-73.63472222222222,40.58694444444445],[-73.63472222222222,40.58694444444445],[-73.63472222222222,40.58694444444445],[-73.63472222222222,40.58694444444445],[-73.72777777777777,40.629444444444445],[-73.72777777777777,40.629444444444445],[-73.72777777777777,40.629444444444445],[-73.72777777777777,40.629444444444445],[-73.72777777777777,40.629444444444445]],"type":"LineString"}
}
