{
  "id": 1981759559,
  "type": "Feature",
  "properties": {
    "geom:area": 0,
    "geom:bbox": "-123.351389,37.669722,-122.261111,44.280833",
    "geom:latitude": 41.04652863524201,
    "geom:longitude": -122.72667589061186,
    "src:alt_label": "swim-path",
    "src:geom": "swim",
    "swim:altitudes": [
      "038",
      "086",
      "086",
      "133",
      "133",
      "133",
      "179",
      "221",
      "256",
      "256",
      "292",
      "292",
      "292",
      "300C",
      "300C",
      "300C",
      "300C",
      "300C",
      "300C",
      "300C",
      "300C",
      "300C",
      "300C",
      "300C",
      "300C",
      "300C",
      "300",
      "300",
      "300",
      "300",
      "248",
      "120",
      "120",
      "109",
      "108",
      "100C",
      "100C",
      "080",
      "050",
      "050",
      "050",
      "050",
      "030",
      "030",
      "030"
    ],
    "swim:geom": "path",
    "swim:speeds": [
      190,
      280,
      280,
      349,
      349,
      349,
      379,
      396,
      409,
      409,
      435,
      435,
      435,
      437,
      437,
      437,
      437,
      437,
      450,
      450,
      450,
      448,
      448,
      448,
      448,
      450,
      454,
      454,
      463,
      463,
      474,
      339,
      339,
      336,
      337,
      331,
      331,
      302,
      264,
      236,
      236,
      229,
      184,
      189,
      189
    ],
    "swim:timestamps": [
      1761348311,
      1761348431,
      1761348431,
      1761348552,
      1761348552,
      1761348552,
      1761348672,
      1761348792,
      1761348908,
      1761348908,
      1761349032,
      1761349032,
      1761349032,
      1761349393,
      1761349393,
      1761349393,
      1761349393,
      1761349393,
      1761349933,
      1761349933,
      1761349933,
      1761350234,
      1761350234,
      1761350234,
      1761350234,
      1761350354,
      1761350591,
      1761350591,
      1761350771,
      1761350771,
      1761350951,
      1761351357,
      1761351357,
      1761351417,
      1761351432,
      1761351492,
      1761351492,
      1761351600,
      1761351792,
      1761351843,
      1761351843,
      1761351903,
      1761352084,
      1761352093,
      1761352093
    ],
    "wof:geomhash": "59de05ab48f4e153d071fcc6b0548f7b",
    "wof:id": 1981759559,
    "wof:repo": "sfomuseum-data-flights-2025-10"
  },
  "bbox": [
    -123.35138888888888,
    37.66972222222222,
    -122.2611111111111,
    44.280833333333334
  ],
  "geometry": {"coordinates":[[-122.30166666666666,37.66972222222222],[-122.2611111111111,37.78916666666667],[-122.2611111111111,37.78916666666667],[-122.29416666666667,37.95638888888889],[-122.29416666666667,37.95638888888889],[-122.29416666666667,37.95638888888889],[-122.26305555555555,38.1575],[-122.27888888888889,38.37305555555555],[-122.31055555555555,38.58416666666667],[-122.31055555555555,38.58416666666667],[-122.35138888888888,38.852222222222224],[-122.35138888888888,38.852222222222224],[-122.35138888888888,38.852222222222224],[-122.46194444444444,39.568333333333335],[-122.46194444444444,39.568333333333335],[-122.46194444444444,39.568333333333335],[-122.46194444444444,39.568333333333335],[-122.46194444444444,39.568333333333335],[-122.63472222222222,40.66222222222222],[-122.63472222222222,40.66222222222222],[-122.63472222222222,40.66222222222222],[-122.73583333333333,41.28333333333333],[-122.73583333333333,41.28333333333333],[-122.73583333333333,41.28333333333333],[-122.73583333333333,41.28333333333333],[-122.77833333333334,41.5425],[-122.86277777777777,42.047777777777775],[-122.86277777777777,42.047777777777775],[-122.92305555555556,42.403888888888886],[-122.92305555555556,42.403888888888886],[-122.99194444444444,42.809999999999995],[-123.15833333333335,43.55722222222222],[-123.15833333333335,43.55722222222222],[-123.24722222222222,43.62166666666667],[-123.25222222222222,43.63333333333333],[-123.27,43.727222222222224],[-123.27,43.727222222222224],[-123.29861111111111,43.88805555555555],[-123.33555555555554,44.129444444444445],[-123.34555555555555,44.19222222222222],[-123.34555555555555,44.19222222222222],[-123.35138888888888,44.25805555555556],[-123.22277777777778,44.280833333333334],[-123.2213888888889,44.28],[-123.2213888888889,44.28]],"type":"LineString"}
}
