{
  "id": 1981599863,
  "type": "Feature",
  "properties": {
    "geom:area": 0,
    "geom:bbox": "-122.346900,37.644750,-122.215150,38.500100",
    "geom:latitude": 38.04255348085197,
    "geom:longitude": -122.23517431765538,
    "src:alt_label": "swim-takeoff",
    "src:geom": "swim",
    "swim:elevations": [
      549,
      632,
      1219,
      1636,
      2064,
      2516,
      3146,
      3378,
      3745,
      3971,
      4401,
      4733,
      5122,
      5665,
      5805,
      6357,
      6475,
      7001,
      7140,
      7235
    ],
    "swim:geom": "takeoff",
    "swim:timestamps": [
      1759777767,
      1759777780,
      1759777828,
      1759777854,
      1759777880,
      1759777904,
      1759777943,
      1759777972,
      1759778003,
      1759778026,
      1759778057,
      1759778082,
      1759778118,
      1759778158,
      1759778169,
      1759778215,
      1759778229,
      1759778274,
      1759778294,
      1759778316
    ],
    "wof:geomhash": "95ef4b07ff7708305e049cb283117516",
    "wof:id": 1981599863,
    "wof:repo": "sfomuseum-data-flights-2025-10"
  },
  "bbox": [
    -122.3469,
    37.64475,
    -122.21515,
    38.5001
  ],
  "geometry": {"coordinates":[[-122.3469,37.64475],[-122.33429,37.65165],[-122.27795,37.68372],[-122.24442,37.70223],[-122.2178,37.72835],[-122.21515,37.76007],[-122.21682,37.81338],[-122.21802,37.85651],[-122.21913,37.90608],[-122.21996,37.9448],[-122.22141,38.00062],[-122.22258,38.04534],[-122.22474,38.11109],[-122.22712,38.18797],[-122.22765,38.20872],[-122.23014,38.29784],[-122.23085,38.3242],[-122.23801,38.41359],[-122.24222,38.45484],[-122.24693,38.5001]],"type":"LineString"}
}
