{
  "id": 1981766481,
  "type": "Feature",
  "properties": {
    "geom:area": 0,
    "geom:bbox": "-122.386880,37.632110,-121.258110,38.094090",
    "geom:latitude": 37.91341180652918,
    "geom:longitude": -121.87263803355292,
    "src:alt_label": "swim-takeoff",
    "src:geom": "swim",
    "swim:elevations": [
      3320,
      3565,
      4008,
      4329,
      4441,
      5002,
      5367,
      5637,
      5841,
      6000,
      6296,
      6657,
      6774,
      6970,
      7327,
      244,
      455,
      659,
      920,
      1194,
      1874,
      2297,
      2651,
      2888,
      3300,
      3700,
      4228,
      4596,
      4840,
      5349,
      5652,
      6035,
      6268,
      6580,
      6918,
      7065,
      7318,
      7883,
      7989,
      8086,
      8120
    ],
    "swim:geom": "takeoff",
    "swim:timestamps": [
      1761375640,
      1761375686,
      1761375718,
      1761375743,
      1761375754,
      1761375796,
      1761375835,
      1761375862,
      1761375897,
      1761375915,
      1761375946,
      1761375988,
      1761376000,
      1761376023,
      1761376066,
      1761460767,
      1761460785,
      1761460814,
      1761460847,
      1761460869,
      1761460903,
      1761460927,
      1761460948,
      1761460963,
      1761460992,
      1761461030,
      1761461060,
      1761461087,
      1761461106,
      1761461158,
      1761461182,
      1761461216,
      1761461240,
      1761461273,
      1761461308,
      1761461322,
      1761461341,
      1761461390,
      1761461417,
      1761461457,
      1761461466
    ],
    "wof:geomhash": "6a1e3d14f81ab09df4232b0f9d795070",
    "wof:id": 1981766481,
    "wof:repo": "sfomuseum-data-flights-2025-10"
  },
  "bbox": [
    -122.38688,
    37.63211,
    -121.25811,
    38.09409
  ],
  "geometry": {"coordinates":[[-122.38653,37.88788],[-122.30702,37.93892],[-122.22762,37.94029],[-122.16568,37.93781],[-122.1371,37.93757],[-122.02741,37.94212],[-121.92307,37.94867],[-121.85007,37.9529],[-121.75361,37.95809],[-121.70337,37.96068],[-121.61383,37.96536],[-121.4906,37.97171],[-121.45519,37.97355],[-121.38568,37.97709],[-121.25811,37.9835],[-122.36417,37.63211],[-122.35364,37.64157],[-122.3324,37.65919],[-122.31086,37.6888],[-122.31807,37.71482],[-122.33907,37.75328],[-122.35431,37.78008],[-122.36692,37.80429],[-122.37552,37.82239],[-122.38688,37.86047],[-122.3785,37.91893],[-122.34417,37.9614],[-122.29077,37.98281],[-122.24713,37.98487],[-122.12171,37.98619],[-122.06233,37.99373],[-121.97646,38.00451],[-121.91421,38.0127],[-121.82626,38.02428],[-121.72878,38.03715],[-121.69081,38.04206],[-121.63743,38.04893],[-121.50414,38.0659],[-121.42863,38.07583],[-121.31,38.0909],[-121.28307,38.09409]],"type":"LineString"}
}
