{
  "id": 1981763591,
  "type": "Feature",
  "properties": {
    "geom:area": 0,
    "geom:bbox": "-122.350000,28.900000,-95.174722,38.091111",
    "geom:latitude": 34.717617002382966,
    "geom:longitude": -108.1269984617898,
    "src:alt_label": "swim-path",
    "src:geom": "swim",
    "swim:altitudes": [
      "074",
      "074",
      "074",
      "074",
      "074",
      "074",
      "241",
      "241",
      "241",
      "241",
      "241",
      "268",
      "268",
      "268",
      "279",
      "279",
      "279",
      "279",
      "300C",
      "300C",
      "300C",
      "300C",
      "300C",
      "300C",
      "300C",
      "300C",
      "300C",
      "300C",
      "300C",
      "300C",
      "300C",
      "300C",
      "300C",
      "300C",
      "300C",
      "300C",
      "300C",
      "300C",
      "300C",
      "300C",
      "300C",
      "300C",
      "300C",
      "300C",
      "300C",
      "300C",
      "300C",
      "300C",
      "300C",
      "300C",
      "300C",
      "300C",
      "300C",
      "300C",
      "300C",
      "300C",
      "300C",
      "300C",
      "300C",
      "300C",
      "300C",
      "300C",
      "300C",
      "300C",
      "300C",
      "300C",
      "300C",
      "300C",
      "300C",
      "310",
      "320C",
      "320C",
      "320C",
      "320C",
      "320C",
      "320C",
      "320C",
      "320C",
      "320C",
      "320C",
      "320C",
      "320C",
      "320C",
      "320C",
      "320C",
      "320C",
      "320C",
      "320C",
      "320C",
      "320C",
      "320C",
      "320C",
      "320C",
      "320C",
      "320C",
      "320C",
      "320C",
      "320C",
      "320C",
      "320C",
      "320C",
      "320C",
      "320C",
      "320C",
      "320C",
      "320C",
      "320C",
      "320C",
      "320C",
      "320C",
      "320C",
      "320C",
      "320C",
      "320C",
      "320C",
      "320C",
      "320C",
      "320C",
      "320C",
      "320C",
      "320C",
      "320C",
      "320C",
      "320C",
      "320C",
      "320C",
      "320C",
      "320C",
      "320C",
      "320C",
      "320C",
      "320C",
      "320C",
      "320C",
      "320C",
      "320C",
      "320C",
      "320C",
      "320C",
      "320C",
      "320C",
      "320C",
      "320C",
      "320C",
      "320C",
      "320C",
      "320C",
      "320C",
      "320C",
      "320C",
      "320C",
      "320C",
      "320C",
      "320C",
      "320C",
      "320C",
      "320C",
      "320C",
      "320C",
      "320C",
      "320C",
      "320C",
      "320C",
      "320C",
      "320C",
      "320C",
      "320C",
      "320C",
      "320C",
      "320C",
      "320C",
      "320C",
      "320C",
      "320C",
      "295",
      "295",
      "295",
      "280C",
      "280C",
      "280C",
      "280C",
      "280C",
      "280C",
      "280C",
      "280C",
      "280C",
      "280C",
      "280C",
      "280C",
      "280C",
      "280C",
      "280C",
      "260C",
      "260C",
      "260C",
      "260C",
      "260C",
      "260C",
      "260C",
      "260C",
      "260C",
      "260C",
      "260C",
      "260C",
      "260C",
      "260C",
      "260C",
      "260C",
      "260C",
      "260C",
      "260C",
      "260C",
      "260C",
      "260C",
      "260C",
      "260C",
      "260C",
      "260C",
      "260C",
      "260C",
      "260C",
      "260",
      "260",
      "260",
      "260",
      "260",
      "260",
      "260",
      "260",
      "260",
      "260",
      "258",
      "244",
      "244",
      "222",
      "222",
      "222",
      "216",
      "171",
      "157",
      "135",
      "135",
      "111",
      "111",
      "102",
      "086",
      "086",
      "079",
      "069",
      "069",
      "062",
      "052",
      "052",
      "049",
      "041",
      "038",
      "031",
      "029",
      "029",
      "021",
      "013",
      "013",
      "011",
      "011",
      "005",
      "003"
    ],
    "swim:geom": "path",
    "swim:speeds": [
      253,
      253,
      253,
      253,
      253,
      253,
      389,
      389,
      389,
      389,
      389,
      376,
      376,
      376,
      408,
      408,
      408,
      408,
      416,
      416,
      416,
      416,
      417,
      417,
      417,
      414,
      414,
      414,
      414,
      413,
      413,
      413,
      413,
      413,
      413,
      413,
      422,
      417,
      417,
      417,
      414,
      414,
      413,
      413,
      413,
      399,
      399,
      399,
      399,
      399,
      395,
      395,
      394,
      394,
      394,
      393,
      392,
      392,
      392,
      392,
      392,
      393,
      393,
      393,
      395,
      395,
      397,
      399,
      399,
      403,
      390,
      390,
      398,
      398,
      398,
      398,
      398,
      405,
      405,
      405,
      405,
      405,
      408,
      408,
      409,
      409,
      409,
      407,
      405,
      405,
      407,
      407,
      408,
      408,
      408,
      402,
      402,
      401,
      402,
      405,
      405,
      409,
      415,
      415,
      420,
      420,
      422,
      422,
      422,
      422,
      422,
      424,
      425,
      434,
      436,
      436,
      436,
      436,
      436,
      436,
      439,
      439,
      438,
      437,
      437,
      437,
      437,
      439,
      439,
      440,
      440,
      442,
      444,
      444,
      450,
      449,
      449,
      443,
      443,
      441,
      441,
      441,
      439,
      439,
      441,
      437,
      436,
      436,
      440,
      435,
      435,
      435,
      435,
      434,
      434,
      434,
      434,
      435,
      435,
      435,
      435,
      435,
      435,
      434,
      434,
      434,
      433,
      432,
      432,
      429,
      429,
      424,
      424,
      422,
      428,
      428,
      428,
      429,
      429,
      429,
      433,
      433,
      432,
      432,
      432,
      427,
      426,
      426,
      424,
      424,
      420,
      420,
      410,
      410,
      409,
      403,
      397,
      396,
      396,
      396,
      396,
      390,
      390,
      389,
      388,
      386,
      386,
      386,
      380,
      380,
      382,
      382,
      386,
      386,
      386,
      386,
      386,
      385,
      385,
      385,
      385,
      370,
      370,
      370,
      367,
      361,
      362,
      358,
      358,
      358,
      360,
      346,
      340,
      340,
      336,
      336,
      336,
      330,
      322,
      325,
      323,
      323,
      286,
      286,
      272,
      254,
      254,
      238,
      227,
      227,
      218,
      215,
      215,
      212,
      214,
      207,
      192,
      187,
      187,
      185,
      158,
      158,
      148,
      148,
      151,
      152
    ],
    "swim:timestamps": [
      1761435307,
      1761435307,
      1761435307,
      1761435307,
      1761435307,
      1761435307,
      1761435787,
      1761435787,
      1761435787,
      1761435787,
      1761435787,
      1761435968,
      1761435968,
      1761435968,
      1761436088,
      1761436088,
      1761436088,
      1761436088,
      1761436268,
      1761436268,
      1761436268,
      1761436268,
      1761436328,
      1761436328,
      1761436328,
      1761436568,
      1761436568,
      1761436568,
      1761436568,
      1761436690,
      1761436690,
      1761436690,
      1761436690,
      1761436991,
      1761436991,
      1761436991,
      1761437111,
      1761437411,
      1761437411,
      1761437411,
      1761437591,
      1761437591,
      1761437650,
      1761437650,
      1761437650,
      1761438072,
      1761438072,
      1761438072,
      1761438072,
      1761438072,
      1761438372,
      1761438372,
      1761438493,
      1761438493,
      1761438493,
      1761438613,
      1761438672,
      1761438672,
      1761438672,
      1761438672,
      1761438733,
      1761438913,
      1761438913,
      1761438972,
      1761439032,
      1761439049,
      1761439094,
      1761439154,
      1761439154,
      1761439214,
      1761439274,
      1761439274,
      1761439470,
      1761439470,
      1761439470,
      1761439470,
      1761439470,
      1761439634,
      1761439634,
      1761439634,
      1761439634,
      1761439634,
      1761439891,
      1761439935,
      1761440011,
      1761440011,
      1761440011,
      1761440131,
      1761440235,
      1761440235,
      1761440431,
      1761440475,
      1761440596,
      1761440612,
      1761440716,
      1761440896,
      1761440912,
      1761440956,
      1761440972,
      1761441092,
      1761441092,
      1761441152,
      1761441272,
      1761441272,
      1761441393,
      1761441393,
      1761441453,
      1761441615,
      1761441675,
      1761441735,
      1761441735,
      1761441855,
      1761441873,
      1761442035,
      1761442053,
      1761442113,
      1761442113,
      1761442336,
      1761442336,
      1761442336,
      1761442576,
      1761442576,
      1761442654,
      1761442714,
      1761442756,
      1761442756,
      1761442756,
      1761442936,
      1761442936,
      1761442954,
      1761442954,
      1761443014,
      1761443056,
      1761443056,
      1761443062,
      1761443122,
      1761443122,
      1761443417,
      1761443417,
      1761443483,
      1761443483,
      1761443483,
      1761443537,
      1761443537,
      1761443543,
      1761443597,
      1761443657,
      1761443657,
      1761443663,
      1761443723,
      1761443723,
      1761443783,
      1761443783,
      1761443844,
      1761443904,
      1761444017,
      1761444017,
      1761444078,
      1761444078,
      1761444078,
      1761444138,
      1761444144,
      1761444144,
      1761444198,
      1761444198,
      1761444264,
      1761444318,
      1761444378,
      1761444378,
      1761444498,
      1761444498,
      1761444618,
      1761444618,
      1761444742,
      1761444922,
      1761444922,
      1761444922,
      1761445043,
      1761445043,
      1761445043,
      1761445283,
      1761445283,
      1761445343,
      1761445343,
      1761445343,
      1761445403,
      1761445463,
      1761445463,
      1761445523,
      1761445523,
      1761445583,
      1761445583,
      1761446122,
      1761446122,
      1761446242,
      1761446362,
      1761446423,
      1761446483,
      1761446483,
      1761446483,
      1761446483,
      1761446663,
      1761446663,
      1761446723,
      1761446783,
      1761446843,
      1761446843,
      1761446843,
      1761447083,
      1761447083,
      1761447143,
      1761447143,
      1761447203,
      1761447203,
      1761447383,
      1761447383,
      1761447383,
      1761447503,
      1761447563,
      1761447563,
      1761447563,
      1761447864,
      1761447864,
      1761447864,
      1761448044,
      1761448058,
      1761448104,
      1761448118,
      1761448118,
      1761448118,
      1761448164,
      1761448298,
      1761448344,
      1761448344,
      1761448404,
      1761448404,
      1761448404,
      1761448418,
      1761448544,
      1761448584,
      1761448644,
      1761448644,
      1761448730,
      1761448730,
      1761448778,
      1761448838,
      1761448838,
      1761448885,
      1761448970,
      1761448970,
      1761449005,
      1761449065,
      1761449065,
      1761449078,
      1761449125,
      1761449138,
      1761449185,
      1761449198,
      1761449198,
      1761449245,
      1761449305,
      1761449305,
      1761449318,
      1761449318,
      1761449365,
      1761449378
    ],
    "wof:geomhash": "c48b1101198f908c32cd28a4683c4504",
    "wof:id": 1981763591,
    "wof:repo": "sfomuseum-data-flights-2025-10"
  },
  "bbox": [
    -122.35,
    28.9,
    -95.17472222222223,
    38.09111111111111
  ],
  "geometry": {"coordinates":[[-95.17472222222223,29.82472222222222],[-95.17472222222223,29.82472222222222],[-95.17472222222223,29.82472222222222],[-95.17472222222223,29.82472222222222],[-95.17472222222223,29.82472222222222],[-95.17472222222223,29.82472222222222],[-95.45805555555556,29.18111111111111],[-95.45805555555556,29.18111111111111],[-95.45805555555556,29.18111111111111],[-95.45805555555556,29.18111111111111],[-95.45805555555556,29.18111111111111],[-95.53333333333333,28.9],[-95.53333333333333,28.9],[-95.53333333333333,28.9],[-95.77805555555555,28.960277777777776],[-95.77805555555555,28.960277777777776],[-95.77805555555555,28.960277777777776],[-95.77805555555555,28.960277777777776],[-96.17222222222223,29.065],[-96.17222222222223,29.065],[-96.17222222222223,29.065],[-96.17222222222223,29.065],[-96.29888888888888,29.098333333333333],[-96.29888888888888,29.098333333333333],[-96.29888888888888,29.098333333333333],[-96.80666666666666,29.230277777777776],[-96.80666666666666,29.230277777777776],[-96.80666666666666,29.230277777777776],[-96.80666666666666,29.230277777777776],[-97.04166666666667,29.290000000000003],[-97.04166666666667,29.290000000000003],[-97.04166666666667,29.290000000000003],[-97.04166666666667,29.290000000000003],[-97.65222222222222,29.476388888888888],[-97.65222222222222,29.476388888888888],[-97.65222222222222,29.476388888888888],[-97.86638888888888,29.620833333333334],[-98.39916666666667,29.975555555555555],[-98.39916666666667,29.975555555555555],[-98.39916666666667,29.975555555555555],[-98.73083333333334,30.194166666666668],[-98.73083333333334,30.194166666666668],[-98.8286111111111,30.258333333333333],[-98.8286111111111,30.258333333333333],[-98.8286111111111,30.258333333333333],[-99.55833333333334,30.731666666666666],[-99.55833333333334,30.731666666666666],[-99.55833333333334,30.731666666666666],[-99.55833333333334,30.731666666666666],[-99.55833333333334,30.731666666666666],[-100.06916666666666,31.05777777777778],[-100.06916666666666,31.05777777777778],[-100.27472222222222,31.188333333333333],[-100.27472222222222,31.188333333333333],[-100.27472222222222,31.188333333333333],[-100.47888888888889,31.316666666666666],[-100.58027777777778,31.380555555555556],[-100.58027777777778,31.380555555555556],[-100.58027777777778,31.380555555555556],[-100.58027777777778,31.380555555555556],[-100.69333333333334,31.45111111111111],[-101.00277777777778,31.64361111111111],[-101.00277777777778,31.64361111111111],[-101.08749999999999,31.69611111111111],[-101.19111111111111,31.76],[-101.23444444444445,31.78666666666667],[-101.31888888888888,31.83861111111111],[-101.42444444444445,31.90361111111111],[-101.42444444444445,31.90361111111111],[-101.53194444444445,31.969166666666666],[-101.635,32.032222222222224],[-101.635,32.032222222222224],[-101.96666666666667,32.233333333333334],[-101.96666666666667,32.233333333333334],[-101.96666666666667,32.233333333333334],[-101.96666666666667,32.233333333333334],[-101.96666666666667,32.233333333333334],[-102.27027777777778,32.41611111111111],[-102.27027777777778,32.41611111111111],[-102.27027777777778,32.41611111111111],[-102.27027777777778,32.41611111111111],[-102.27027777777778,32.41611111111111],[-102.735,32.69277777777778],[-102.82833333333333,32.74805555555556],[-102.96333333333334,32.8275],[-102.96333333333334,32.8275],[-102.96333333333334,32.8275],[-103.1825,32.95611111111111],[-103.37916666666666,33.07083333333334],[-103.37916666666666,33.07083333333334],[-103.74277777777777,33.28138888888889],[-103.82333333333332,33.32777777777778],[-104.0475,33.45583333333334],[-104.07638888888889,33.472500000000004],[-104.27194444444444,33.58388888888889],[-104.60416666666666,33.77166666666667],[-104.64111111111112,33.7925],[-104.71527777777779,33.83416666666667],[-104.75194444444445,33.85472222222222],[-104.97666666666667,33.98027777777778],[-104.97666666666667,33.98027777777778],[-105.08166666666666,34.03861111111111],[-105.31305555555555,34.166666666666664],[-105.31305555555555,34.166666666666664],[-105.55138888888888,34.2975],[-105.55138888888888,34.2975],[-105.67,34.362500000000004],[-105.9775,34.56527777777777],[-106.09027777777777,34.64],[-106.19694444444445,34.70805555555556],[-106.19694444444445,34.70805555555556],[-106.42666666666668,34.8575],[-106.46166666666667,34.880833333333335],[-106.76972222222223,35.07944444444445],[-106.80694444444444,35.10305555555556],[-106.92861111111111,35.18138888888889],[-106.92861111111111,35.18138888888889],[-107.35333333333332,35.45111111111111],[-107.35333333333332,35.45111111111111],[-107.35333333333332,35.45111111111111],[-107.83138888888888,35.75111111111111],[-107.83138888888888,35.75111111111111],[-107.97305555555556,35.83916666666667],[-108.09083333333332,35.91222222222222],[-108.18611111111112,35.97083333333334],[-108.18611111111112,35.97083333333334],[-108.18611111111112,35.97083333333334],[-108.54444444444444,36.19083333333333],[-108.54444444444444,36.19083333333333],[-108.56833333333333,36.20527777777778],[-108.56833333333333,36.20527777777778],[-108.71416666666667,36.29416666666666],[-108.78472222222221,36.33694444444445],[-108.78472222222221,36.33694444444445],[-108.79444444444444,36.338055555555556],[-108.91194444444444,36.41277777777778],[-108.91194444444444,36.41277777777778],[-109.53916666666666,36.753055555555555],[-109.53916666666666,36.753055555555555],[-109.68777777777778,36.79972222222222],[-109.68777777777778,36.79972222222222],[-109.68777777777778,36.79972222222222],[-109.81944444444444,36.8425],[-109.81944444444444,36.8425],[-109.82833333333333,36.845],[-109.96000000000001,36.88666666666666],[-110.09916666666666,36.93055555555555],[-110.09916666666666,36.93055555555555],[-110.11333333333333,36.93444444444444],[-110.24888888888889,36.977222222222224],[-110.24888888888889,36.977222222222224],[-110.39,37.021388888888886],[-110.39,37.021388888888886],[-110.52944444444444,37.06444444444444],[-110.67,37.10805555555556],[-110.94277777777778,37.19138888888889],[-110.94277777777778,37.19138888888889],[-111.09416666666667,37.237500000000004],[-111.09416666666667,37.237500000000004],[-111.09416666666667,37.237500000000004],[-111.23611111111111,37.280277777777776],[-111.23611111111111,37.280277777777776],[-111.23611111111111,37.280277777777776],[-111.3775,37.32277777777778],[-111.3775,37.32277777777778],[-111.51944444444445,37.36527777777778],[-111.64861111111112,37.40361111111111],[-111.8,37.448611111111106],[-111.8,37.448611111111106],[-112.06972222222223,37.52777777777778],[-112.06972222222223,37.52777777777778],[-112.34805555555555,37.60888888888889],[-112.34805555555555,37.60888888888889],[-112.65305555555557,37.696666666666665],[-113.07583333333334,37.81666666666667],[-113.07583333333334,37.81666666666667],[-113.07583333333334,37.81666666666667],[-113.35972222222222,37.89611111111111],[-113.35972222222222,37.89611111111111],[-113.35972222222222,37.89611111111111],[-113.93333333333334,38.05416666666667],[-113.93333333333334,38.05416666666667],[-114.07972222222222,38.08916666666667],[-114.07972222222222,38.08916666666667],[-114.07972222222222,38.08916666666667],[-114.22777777777777,38.09111111111111],[-114.37527777777777,38.08972222222222],[-114.37527777777777,38.08972222222222],[-114.52416666666666,38.088055555555556],[-114.52416666666666,38.088055555555556],[-114.67166666666667,38.086111111111116],[-114.67166666666667,38.086111111111116],[-115.94361111111111,38.06194444444444],[-115.94361111111111,38.06194444444444],[-116.23055555555555,38.05472222222222],[-116.52166666666666,38.046388888888885],[-116.66111111111111,38.04222222222222],[-116.8,38.03805555555555],[-116.8,38.03805555555555],[-116.8,38.03805555555555],[-116.8,38.03805555555555],[-117.21805555555555,38.02388888888889],[-117.21805555555555,38.02388888888889],[-117.35805555555555,38.01888888888889],[-117.49472222222222,38.013888888888886],[-117.63027777777778,38.00888888888889],[-117.63027777777778,38.00888888888889],[-117.63027777777778,38.00888888888889],[-118.16444444444446,37.961666666666666],[-118.16444444444446,37.961666666666666],[-118.29944444444445,37.94694444444444],[-118.29944444444445,37.94694444444444],[-118.43583333333333,37.93222222222222],[-118.43583333333333,37.93222222222222],[-118.83999999999999,37.88722222222222],[-118.83999999999999,37.88722222222222],[-118.83999999999999,37.88722222222222],[-119.10027777777778,37.85722222222223],[-119.20722222222223,37.845],[-119.20722222222223,37.845],[-119.20722222222223,37.845],[-119.87833333333333,37.764722222222225],[-119.87833333333333,37.764722222222225],[-119.87833333333333,37.764722222222225],[-120.26083333333334,37.7175],[-120.3,37.71666666666667],[-120.38555555555556,37.70166666666667],[-120.41666666666667,37.7],[-120.41666666666667,37.7],[-120.41666666666667,37.7],[-120.51027777777777,37.68694444444444],[-120.78333333333333,37.65],[-120.8736111111111,37.64388888888889],[-120.8736111111111,37.64388888888889],[-120.98777777777778,37.62972222222222],[-120.98777777777778,37.62972222222222],[-120.98777777777778,37.62972222222222],[-121.01666666666667,37.63333333333333],[-121.25,37.6],[-121.3261111111111,37.58555555555556],[-121.43805555555556,37.572500000000005],[-121.43805555555556,37.572500000000005],[-121.58333333333333,37.55],[-121.58333333333333,37.55],[-121.66666666666667,37.53333333333333],[-121.75,37.516666666666666],[-121.75,37.516666666666666],[-121.81166666666667,37.506388888888885],[-121.93333333333334,37.5],[-121.93333333333334,37.5],[-121.9675,37.49333333333333],[-122.03805555555556,37.51083333333333],[-122.03805555555556,37.51083333333333],[-122.05,37.516666666666666],[-122.10694444444444,37.53333333333333],[-122.11666666666666,37.53333333333333],[-122.17027777777778,37.553888888888885],[-122.18333333333334,37.56666666666667],[-122.18333333333334,37.56666666666667],[-122.23027777777779,37.573055555555555],[-122.28277777777778,37.58916666666667],[-122.28277777777778,37.58916666666667],[-122.3,37.6],[-122.3,37.6],[-122.3325,37.60416666666667],[-122.35,37.6]],"type":"LineString"}
}
