{
  "id": 1981804301,
  "type": "Feature",
  "properties": {
    "geom:area": 0,
    "geom:bbox": "-122.283056,33.918889,-118.433333,37.580000",
    "geom:latitude": 35.48223651370627,
    "geom:longitude": -120.67746211144664,
    "src:alt_label": "swim-path",
    "src:geom": "swim",
    "swim:altitudes": [
      "009",
      "009",
      "024",
      "071",
      "112",
      "112",
      "217",
      "217",
      "236",
      "236",
      "256",
      "300",
      "300",
      "300",
      "317",
      "317",
      "345",
      "345",
      "360C",
      "360C",
      "360C",
      "360C",
      "352",
      "343",
      "343",
      "276",
      "276",
      "220",
      "220",
      "178",
      "161",
      "161",
      "111",
      "098",
      "098",
      "098",
      "098",
      "060",
      "060",
      "060",
      "039",
      "039",
      "039",
      "039",
      "039",
      "013"
    ],
    "swim:geom": "path",
    "swim:speeds": [
      174,
      174,
      208,
      273,
      319,
      319,
      413,
      413,
      422,
      422,
      435,
      422,
      422,
      422,
      417,
      417,
      414,
      414,
      406,
      406,
      406,
      395,
      393,
      392,
      392,
      422,
      422,
      384,
      384,
      355,
      353,
      353,
      243,
      243,
      243,
      243,
      243,
      234,
      234,
      234,
      195,
      195,
      195,
      195,
      195,
      158
    ],
    "swim:timestamps": [
      1761883060,
      1761883060,
      1761883120,
      1761883258,
      1761883379,
      1761883379,
      1761883677,
      1761883677,
      1761883737,
      1761883737,
      1761883797,
      1761884157,
      1761884157,
      1761884157,
      1761884337,
      1761884337,
      1761884458,
      1761884458,
      1761884518,
      1761884518,
      1761884518,
      1761884758,
      1761884818,
      1761884878,
      1761884878,
      1761885118,
      1761885118,
      1761885298,
      1761885298,
      1761885419,
      1761885473,
      1761885473,
      1761885713,
      1761885779,
      1761885779,
      1761885779,
      1761885779,
      1761886133,
      1761886133,
      1761886133,
      1761886319,
      1761886319,
      1761886319,
      1761886319,
      1761886319,
      1761886500
    ],
    "wof:geomhash": "bc015de9472debc07004cefcae600d62",
    "wof:id": 1981804301,
    "wof:repo": "sfomuseum-data-flights-2025-10"
  },
  "bbox": [
    -122.28305555555555,
    33.91888888888889,
    -118.43333333333334,
    37.580000000000005
  ],
  "geometry": {"coordinates":[[-118.43333333333334,33.95],[-118.43333333333334,33.95],[-118.5,33.95],[-118.69166666666668,33.92861111111111],[-118.88833333333334,33.91888888888889],[-118.88833333333334,33.91888888888889],[-119.38777777777779,34.22555555555556],[-119.38777777777779,34.22555555555556],[-119.4863888888889,34.31166666666666],[-119.4863888888889,34.31166666666666],[-119.5886111111111,34.400555555555556],[-120.19861111111112,34.907777777777774],[-120.19861111111112,34.907777777777774],[-120.19861111111112,34.907777777777774],[-120.56916666666666,35.08166666666667],[-120.56916666666666,35.08166666666667],[-120.76027777777777,35.24194444444444],[-120.76027777777777,35.24194444444444],[-120.83111111111111,35.33861111111111],[-120.83111111111111,35.33861111111111],[-120.83111111111111,35.33861111111111],[-121.14361111111111,35.698611111111106],[-121.25222222222222,35.76083333333333],[-121.36166666666666,35.82416666666667],[-121.36166666666666,35.82416666666667],[-121.59527777777777,36.22833333333333],[-121.59527777777777,36.22833333333333],[-121.72083333333333,36.522777777777776],[-121.72083333333333,36.522777777777776],[-121.86666666666666,36.71666666666667],[-121.91666666666667,36.8],[-121.91666666666667,36.8],[-122.1,37.06666666666667],[-122.17861111111111,37.102222222222224],[-122.17861111111111,37.102222222222224],[-122.17861111111111,37.102222222222224],[-122.17861111111111,37.102222222222224],[-122.25,37.36666666666667],[-122.25,37.36666666666667],[-122.25,37.36666666666667],[-122.13527777777779,37.49944444444444],[-122.13527777777779,37.49944444444444],[-122.13527777777779,37.49944444444444],[-122.13527777777779,37.49944444444444],[-122.13527777777779,37.49944444444444],[-122.28305555555555,37.580000000000005]],"type":"LineString"}
}
