{
  "id": 1981745997,
  "type": "Feature",
  "properties": {
    "date:cessation_lower": "2025-10-23",
    "date:cessation_upper": "2025-10-23",
    "date:inception_lower": "2025-10-23",
    "date:inception_upper": "2025-10-23",
    "edtf:cessation": "2025-10-23T15:34:00Z",
    "edtf:inception": "2025-10-23T12:17:00Z",
    "flysfo:actual_timestamp": -1,
    "flysfo:airline": "UA",
    "flysfo:base_airline": "",
    "flysfo:base_flight_number": "3659",
    "flysfo:date": "2025-10-23",
    "flysfo:estimated_timestamp": 1761234360,
    "flysfo:event": "A",
    "flysfo:flight_number": "UA1390",
    "flysfo:gate": "D16",
    "flysfo:journey": "DFW-SFO",
    "flysfo:scheduled_timestamp": 1761234840,
    "flysfo:timestamp": 1761234840,
    "geom:area": 0,
    "geom:bbox": "-122.370943,32.903660,-97.050966,37.617990",
    "geom:latitude": 35.260825,
    "geom:longitude": -109.7109545,
    "iata:airline": "UA",
    "iata:base_airline": "",
    "icao:aircraft": "B39M",
    "icao:airline": "UAL",
    "icao:base_airline": "ACA",
    "lbl:latitude": 37.617532,
    "lbl:longitude": -122.382384,
    "sfomuseum:aircraft_id": 1528104577,
    "sfomuseum:airline_id": 1159285413,
    "sfomuseum:arrival_id": 102527513,
    "sfomuseum:base_flight_id": "20251023-A-ACA-3659",
    "sfomuseum:departure_id": 102528541,
    "sfomuseum:flight_id": "20251023-A-UAL-1390",
    "sfomuseum:flight_number": [
      "UAL1390",
      "UA1390"
    ],
    "sfomuseum:placetype": "flight",
    "src:geom": "flysfo",
    "src:geom_alt": [
      "swim-route",
      "swim-path"
    ],
    "swim:tail_number": "N77598",
    "wof:belongsto": [
      1947304067,
      102527513,
      1947304595,
      102191575,
      85633793,
      102087579,
      85922583,
      554784711,
      85688637,
      1947304619,
      1947304591,
      102085387
    ],
    "wof:concordances": {
      "swim:flight_ref": "114038225",
      "swim:gufi": "KF40416500"
    },
    "wof:country": "US",
    "wof:created": 1761322116,
    "wof:geomhash": "865973335526f09b753756c305bf4946",
    "wof:hierarchy": [
      {
        "building_id": 1947304067,
        "campus_id": 102527513,
        "concourse_id": 1947304595,
        "continent_id": 102191575,
        "country_id": 85633793,
        "county_id": 102087579,
        "custom_id": 1981745997,
        "flight_id": 1981745997,
        "locality_id": 85922583,
        "postalcode_id": 554784711,
        "region_id": 85688637,
        "venue_id": 1947304619,
        "wing_id": 1947304591
      },
      {
        "building_id": 1947304067,
        "campus_id": 102527513,
        "concourse_id": 1947304595,
        "continent_id": 102191575,
        "country_id": 85633793,
        "county_id": 102085387,
        "custom_id": 1981745997,
        "flight_id": 1981745997,
        "region_id": 85688637,
        "venue_id": 1947304619,
        "wing_id": 1947304591
      }
    ],
    "wof:id": 1981745997,
    "wof:involves": [
      102528541,
      1159285413,
      1947304619,
      1159283597,
      1528104577,
      102527513
    ],
    "wof:lastmodified": 1761322768,
    "wof:name": "UA1390 (DFW-SFO)",
    "wof:parent_id": 1947304619,
    "wof:placetype": "custom",
    "wof:placetype_alt": [
      "flight"
    ],
    "wof:repo": "sfomuseum-data-flights-2025-10",
    "wof:superseded_by": [],
    "wof:supersedes": []
  },
  "bbox": [
    -122.370943,
    32.90366,
    -97.050966,
    37.61799
  ],
  "geometry": {"coordinates":[[-97.050966,32.90366],[-122.370943,37.61799]],"type":"MultiPoint"}
}
