{
  "id": 1981759463,
  "type": "Feature",
  "properties": {
    "geom:area": 0,
    "geom:bbox": "-122.843611,37.851667,-122.218333,45.718889",
    "geom:latitude": 42.03013743970307,
    "geom:longitude": -122.53904433350885,
    "src:alt_label": "swim-path",
    "src:geom": "swim",
    "swim:altitudes": [
      "104",
      "104",
      "104",
      "117",
      "117",
      "142",
      "142",
      "164",
      "201",
      "203",
      "203",
      "235",
      "235",
      "273",
      "275",
      "290",
      "305",
      "305",
      "320C",
      "320C",
      "320C",
      "320C",
      "320C",
      "320C",
      "320C",
      "320C",
      "320C",
      "321C",
      "321C",
      "321C",
      "320C",
      "320C",
      "320C",
      "320C",
      "320C",
      "320C",
      "320C",
      "320C",
      "320C",
      "320C",
      "320C",
      "321C",
      "321C",
      "321C",
      "321C",
      "321C",
      "166",
      "166",
      "166",
      "166",
      "095",
      "086",
      "086",
      "086",
      "086",
      "085",
      "034",
      "034",
      "034",
      "030",
      "026",
      "026",
      "026",
      "040",
      "040",
      "040",
      "030",
      "030",
      "030",
      "030",
      "030"
    ],
    "swim:geom": "path",
    "swim:speeds": [
      295,
      295,
      295,
      360,
      360,
      360,
      360,
      381,
      411,
      405,
      405,
      421,
      421,
      456,
      455,
      466,
      460,
      460,
      455,
      455,
      454,
      454,
      454,
      456,
      456,
      454,
      454,
      460,
      460,
      460,
      462,
      462,
      462,
      462,
      462,
      464,
      468,
      468,
      478,
      479,
      477,
      477,
      477,
      477,
      477,
      477,
      397,
      397,
      397,
      397,
      330,
      320,
      320,
      320,
      320,
      319,
      269,
      269,
      269,
      212,
      193,
      193,
      193,
      212,
      212,
      212,
      192,
      194,
      194,
      194,
      194
    ],
    "swim:timestamps": [
      1761337256,
      1761337256,
      1761337256,
      1761337316,
      1761337316,
      1761337389,
      1761337389,
      1761337449,
      1761337557,
      1761337569,
      1761337569,
      1761337689,
      1761337689,
      1761337857,
      1761337867,
      1761337927,
      1761337977,
      1761337977,
      1761338107,
      1761338107,
      1761338278,
      1761338278,
      1761338278,
      1761338288,
      1761338288,
      1761338338,
      1761338338,
      1761338578,
      1761338578,
      1761338578,
      1761338879,
      1761338879,
      1761338948,
      1761338948,
      1761338948,
      1761339009,
      1761339059,
      1761339059,
      1761339299,
      1761339369,
      1761339489,
      1761339549,
      1761339549,
      1761339549,
      1761339549,
      1761339549,
      1761340451,
      1761340451,
      1761340451,
      1761340451,
      1761340811,
      1761340862,
      1761340862,
      1761340862,
      1761340862,
      1761340871,
      1761341112,
      1761341112,
      1761341112,
      1761341166,
      1761341232,
      1761341232,
      1761341232,
      1761341532,
      1761341532,
      1761341532,
      1761341707,
      1761341713,
      1761341713,
      1761341713,
      1761341713
    ],
    "wof:geomhash": "0ffb9908e76ea969ceae12e3bcdc11e6",
    "wof:id": 1981759463,
    "wof:repo": "sfomuseum-data-flights-2025-10"
  },
  "bbox": [
    -122.8436111111111,
    37.85166666666667,
    -122.21833333333333,
    45.71888888888889
  ],
  "geometry": {"coordinates":[[-122.21833333333333,37.85166666666667],[-122.21833333333333,37.85166666666667],[-122.21833333333333,37.85166666666667],[-122.22083333333333,37.94611111111111],[-122.22083333333333,37.94611111111111],[-122.22472222222223,38.05083333333333],[-122.22472222222223,38.05083333333333],[-122.22666666666667,38.15888888888889],[-122.23361111111112,38.37861111111111],[-122.22500000000001,38.38638888888889],[-122.22500000000001,38.38638888888889],[-122.25694444444444,38.62138888888889],[-122.25694444444444,38.62138888888889],[-122.2975,38.98694444444445],[-122.29694444444445,38.995555555555555],[-122.30916666666667,39.126111111111115],[-122.32472222222222,39.24527777777778],[-122.32472222222222,39.24527777777778],[-122.35166666666666,39.50361111111111],[-122.35166666666666,39.50361111111111],[-122.39305555555556,39.882777777777775],[-122.39305555555556,39.882777777777775],[-122.39305555555556,39.882777777777775],[-122.39305555555556,39.882777777777775],[-122.39305555555556,39.882777777777775],[-122.40416666666667,39.984722222222224],[-122.40416666666667,39.984722222222224],[-122.46083333333334,40.50277777777778],[-122.46083333333334,40.50277777777778],[-122.46083333333334,40.50277777777778],[-122.53194444444445,41.14194444444444],[-122.53194444444445,41.14194444444444],[-122.54944444444445,41.297777777777775],[-122.54944444444445,41.297777777777775],[-122.54944444444445,41.297777777777775],[-122.565,41.43555555555555],[-122.57638888888889,41.54],[-122.57638888888889,41.54],[-122.6111111111111,42.07666666666667],[-122.61999999999999,42.211111111111116],[-122.63777777777779,42.47805555555556],[-122.64666666666668,42.61],[-122.64666666666668,42.61],[-122.64666666666668,42.61],[-122.64666666666668,42.61],[-122.64666666666668,42.61],[-122.70833333333334,44.60027777777778],[-122.70833333333334,44.60027777777778],[-122.70833333333334,44.60027777777778],[-122.70833333333334,44.60027777777778],[-122.64777777777779,45.19888888888889],[-122.65916666666668,45.27722222222222],[-122.65916666666668,45.27722222222222],[-122.65916666666668,45.27722222222222],[-122.65916666666668,45.27722222222222],[-122.66305555555556,45.285555555555554],[-122.84305555555555,45.59027777777778],[-122.84305555555555,45.59027777777778],[-122.84305555555555,45.59027777777778],[-122.8436111111111,45.64972222222222],[-122.77222222222223,45.66833333333333],[-122.77222222222223,45.66833333333333],[-122.77222222222223,45.66833333333333],[-122.50277777777778,45.655277777777776],[-122.50277777777778,45.655277777777776],[-122.50277777777778,45.655277777777776],[-122.70861111111111,45.71611111111111],[-122.71333333333334,45.71888888888889],[-122.71333333333334,45.71888888888889],[-122.71333333333334,45.71888888888889],[-122.71333333333334,45.71888888888889]],"type":"LineString"}
}
