{
  "id": 1981775733,
  "type": "Feature",
  "properties": {
    "geom:area": 0,
    "geom:bbox": "-122.503611,35.997778,-114.896667,37.627500",
    "geom:latitude": 37.00064300169868,
    "geom:longitude": -118.57012163173762,
    "src:alt_label": "swim-path",
    "src:geom": "swim",
    "swim:altitudes": [
      "010",
      "010",
      "010",
      "010",
      "010",
      "010",
      "010",
      "110",
      "110",
      "110",
      "110",
      "110",
      "130",
      "130",
      "156",
      "156",
      "156",
      "156",
      "156",
      "290",
      "290",
      "290",
      "290",
      "290",
      "290",
      "290",
      "290",
      "290",
      "310C",
      "310C",
      "310C",
      "310C",
      "310C",
      "310C",
      "310C",
      "310C",
      "310C",
      "310C",
      "310C",
      "310C",
      "310C",
      "310C",
      "310C",
      "310C",
      "310C",
      "192",
      "192",
      "192",
      "192",
      "192",
      "192",
      "192",
      "168",
      "168",
      "128",
      "128",
      "117",
      "117",
      "117",
      "117",
      "114",
      "114",
      "114",
      "114",
      "078",
      "073",
      "073",
      "073",
      "073",
      "072",
      "072",
      "072",
      "072",
      "043",
      "043",
      "043",
      "043",
      "042",
      "025",
      "025",
      "025",
      "025",
      "020",
      "020",
      "020",
      "020",
      "020"
    ],
    "swim:geom": "path",
    "swim:speeds": [
      140,
      140,
      140,
      140,
      140,
      140,
      140,
      343,
      343,
      343,
      343,
      343,
      407,
      407,
      432,
      432,
      432,
      432,
      432,
      547,
      547,
      547,
      547,
      547,
      547,
      547,
      547,
      547,
      544,
      544,
      544,
      544,
      544,
      545,
      545,
      545,
      545,
      484,
      484,
      484,
      484,
      484,
      484,
      484,
      484,
      415,
      415,
      415,
      415,
      415,
      415,
      415,
      378,
      378,
      324,
      324,
      320,
      320,
      320,
      320,
      321,
      321,
      321,
      321,
      243,
      206,
      206,
      206,
      206,
      208,
      208,
      208,
      208,
      185,
      185,
      185,
      185,
      181,
      150,
      150,
      150,
      150,
      139,
      139,
      139,
      139,
      139
    ],
    "swim:timestamps": [
      1761522109,
      1761522109,
      1761522109,
      1761522109,
      1761522109,
      1761522109,
      1761522109,
      1761522350,
      1761522350,
      1761522350,
      1761522350,
      1761522350,
      1761522410,
      1761522410,
      1761522470,
      1761522470,
      1761522470,
      1761522470,
      1761522470,
      1761522950,
      1761522950,
      1761522950,
      1761522950,
      1761522950,
      1761522950,
      1761522950,
      1761522950,
      1761522950,
      1761523191,
      1761523191,
      1761523191,
      1761523191,
      1761523191,
      1761523371,
      1761523371,
      1761523371,
      1761523371,
      1761524092,
      1761524092,
      1761524092,
      1761524092,
      1761524092,
      1761524092,
      1761524092,
      1761524092,
      1761524937,
      1761524937,
      1761524937,
      1761524937,
      1761524937,
      1761524937,
      1761524937,
      1761525057,
      1761525057,
      1761525236,
      1761525236,
      1761525284,
      1761525284,
      1761525284,
      1761525284,
      1761525298,
      1761525298,
      1761525298,
      1761525298,
      1761525538,
      1761525589,
      1761525589,
      1761525589,
      1761525589,
      1761525598,
      1761525598,
      1761525598,
      1761525598,
      1761525772,
      1761525772,
      1761525772,
      1761525772,
      1761525778,
      1761525894,
      1761525894,
      1761525894,
      1761525894,
      1761525958,
      1761525958,
      1761525958,
      1761525958,
      1761525958
    ],
    "wof:geomhash": "200fb58e4b2a0a8813716f9a22dc5674",
    "wof:id": 1981775733,
    "wof:repo": "sfomuseum-data-flights-2025-10"
  },
  "bbox": [
    -122.50361111111111,
    35.99777777777778,
    -114.89666666666668,
    37.6275
  ],
  "geometry": {"coordinates":[[-122.3938888888889,37.6275],[-122.3938888888889,37.6275],[-122.3938888888889,37.6275],[-122.3938888888889,37.6275],[-122.3938888888889,37.6275],[-122.3938888888889,37.6275],[-122.3938888888889,37.6275],[-122.50361111111111,37.54],[-122.50361111111111,37.54],[-122.50361111111111,37.54],[-122.50361111111111,37.54],[-122.50361111111111,37.54],[-122.41944444444445,37.45805555555556],[-122.41944444444445,37.45805555555556],[-122.28861111111111,37.401666666666664],[-122.28861111111111,37.401666666666664],[-122.28861111111111,37.401666666666664],[-122.28861111111111,37.401666666666664],[-122.28861111111111,37.401666666666664],[-120.91305555555556,37.18388888888889],[-120.91305555555556,37.18388888888889],[-120.91305555555556,37.18388888888889],[-120.91305555555556,37.18388888888889],[-120.91305555555556,37.18388888888889],[-120.91305555555556,37.18388888888889],[-120.91305555555556,37.18388888888889],[-120.91305555555556,37.18388888888889],[-120.91305555555556,37.18388888888889],[-120.1575,37.22083333333334],[-120.1575,37.22083333333334],[-120.1575,37.22083333333334],[-120.1575,37.22083333333334],[-120.1575,37.22083333333334],[-119.59222222222222,37.245],[-119.59222222222222,37.245],[-119.59222222222222,37.245],[-119.59222222222222,37.245],[-117.71222222222222,37.46611111111111],[-117.71222222222222,37.46611111111111],[-117.71222222222222,37.46611111111111],[-117.71222222222222,37.46611111111111],[-117.71222222222222,37.46611111111111],[-117.71222222222222,37.46611111111111],[-117.71222222222222,37.46611111111111],[-117.71222222222222,37.46611111111111],[-115.99777777777778,36.30027777777777],[-115.99777777777778,36.30027777777777],[-115.99777777777778,36.30027777777777],[-115.99777777777778,36.30027777777777],[-115.99777777777778,36.30027777777777],[-115.99777777777778,36.30027777777777],[-115.99777777777778,36.30027777777777],[-115.79416666666667,36.16583333333333],[-115.79416666666667,36.16583333333333],[-115.47222222222223,36.05138888888889],[-115.47222222222223,36.05138888888889],[-115.38694444444445,36.025277777777774],[-115.38694444444445,36.025277777777774],[-115.38694444444445,36.025277777777774],[-115.38694444444445,36.025277777777774],[-115.36666666666666,36.02055555555555],[-115.36666666666666,36.02055555555555],[-115.36666666666666,36.02055555555555],[-115.36666666666666,36.02055555555555],[-114.97111111111111,35.99777777777778],[-114.90333333333334,36.00222222222222],[-114.90333333333334,36.00222222222222],[-114.90333333333334,36.00222222222222],[-114.90333333333334,36.00222222222222],[-114.89666666666668,36.00333333333333],[-114.89666666666668,36.00333333333333],[-114.89666666666668,36.00333333333333],[-114.89666666666668,36.00333333333333],[-114.98,36.073888888888895],[-114.98,36.073888888888895],[-114.98,36.073888888888895],[-114.98,36.073888888888895],[-114.98666666666666,36.07361111111111],[-115.09805555555555,36.07361111111111],[-115.09805555555555,36.07361111111111],[-115.09805555555555,36.07361111111111],[-115.09805555555555,36.07361111111111],[-115.14166666666668,36.07361111111111],[-115.14166666666668,36.07361111111111],[-115.14166666666668,36.07361111111111],[-115.14166666666668,36.07361111111111],[-115.14166666666668,36.07361111111111]],"type":"LineString"}
}
