{
  "id": 1981711591,
  "type": "Feature",
  "properties": {
    "geom:area": 0,
    "geom:bbox": "-123.106450,37.558680,-122.102440,38.495260",
    "geom:latitude": 37.9257546451881,
    "geom:longitude": -122.57047590994968,
    "src:alt_label": "swim-approach",
    "src:geom": "swim",
    "swim:elevations": [
      7620,
      7259,
      7176,
      7065,
      6699,
      6389,
      6081,
      5836,
      5588,
      5400,
      5285,
      5035,
      4717,
      4303,
      4136,
      3764,
      3455,
      3355,
      3353,
      3353,
      3260,
      3233,
      2761,
      2716,
      2266,
      1946,
      1786,
      1437,
      1405,
      1133,
      1063,
      915,
      849,
      819,
      647,
      623,
      456,
      328,
      306,
      203,
      90,
      0
    ],
    "swim:geom": "approach",
    "swim:timestamps": [
      1760866390,
      1760866431,
      1760866441,
      1760866453,
      1760866493,
      1760866526,
      1760866558,
      1760866586,
      1760866614,
      1760866638,
      1760866653,
      1760866680,
      1760866718,
      1760866766,
      1760866782,
      1760866819,
      1760866855,
      1760866886,
      1760866910,
      1760866931,
      1760866977,
      1760866982,
      1760867036,
      1760867040,
      1760867075,
      1760867101,
      1760867113,
      1760867156,
      1760867172,
      1760867218,
      1760867232,
      1760867255,
      1760867277,
      1760867290,
      1760867338,
      1760867343,
      1760867383,
      1760867424,
      1760867431,
      1760867457,
      1760867487,
      1760867511
    ],
    "wof:geomhash": "618f4dd1150b1c8351d236e2c921311e",
    "wof:id": 1981711591,
    "wof:repo": "sfomuseum-data-flights-2025-10"
  },
  "bbox": [
    -123.10645,
    37.55868,
    -122.10244,
    38.49526
  ],
  "geometry": {"coordinates":[[-123.10645,38.49526],[-123.02902,38.43312],[-123.01095,38.4187],[-122.98896,38.40122],[-122.91631,38.34359],[-122.85951,38.29828],[-122.80237,38.25247],[-122.76648,38.20866],[-122.74907,38.16146],[-122.7367,38.12003],[-122.72924,38.09377],[-122.71585,38.04701],[-122.69795,37.98441],[-122.67166,37.90613],[-122.65362,37.88145],[-122.60286,37.83277],[-122.55353,37.7865],[-122.5148,37.74997],[-122.485,37.72185],[-122.45733,37.70246],[-122.38234,37.69391],[-122.3749,37.69347],[-122.29814,37.67568],[-122.29306,37.67395],[-122.24611,37.65809],[-122.21203,37.64654],[-122.19675,37.64119],[-122.14626,37.62343],[-122.12969,37.61768],[-122.10244,37.5892],[-122.10874,37.57736],[-122.12832,37.56539],[-122.15301,37.56093],[-122.16692,37.55868],[-122.21763,37.56903],[-122.22262,37.57065],[-122.26158,37.58339],[-122.29603,37.59327],[-122.30157,37.59489],[-122.32205,37.60098],[-122.34459,37.60827],[-122.36069,37.61587]],"type":"LineString"}
}
