{
  "id": 1981668143,
  "type": "Feature",
  "properties": {
    "geom:area": 0,
    "geom:bbox": "-122.760750,37.439480,-122.149240,38.515320",
    "geom:latitude": 37.84885982733036,
    "geom:longitude": -122.50528724091716,
    "src:alt_label": "swim-approach",
    "src:geom": "swim",
    "swim:elevations": [
      7461,
      7314,
      7315,
      7271,
      7230,
      6877,
      6266,
      5967,
      5635,
      5157,
      5009,
      4600,
      4326,
      4162,
      3833,
      3638,
      3418,
      3350,
      3354,
      3353,
      3353,
      3353,
      3240,
      3105,
      2879,
      2638,
      2574,
      2374,
      2019,
      1908,
      1638,
      1599,
      1518,
      1135,
      933,
      760,
      558,
      381,
      312,
      182,
      123,
      0
    ],
    "swim:geom": "approach",
    "swim:timestamps": [
      1760440204,
      1760440237,
      1760440267,
      1760440296,
      1760440299,
      1760440322,
      1760440374,
      1760440399,
      1760440427,
      1760440467,
      1760440483,
      1760440527,
      1760440556,
      1760440572,
      1760440609,
      1760440632,
      1760440677,
      1760440708,
      1760440717,
      1760440747,
      1760440771,
      1760440812,
      1760440835,
      1760440858,
      1760440887,
      1760440917,
      1760440926,
      1760440957,
      1760441004,
      1760441021,
      1760441067,
      1760441076,
      1760441102,
      1760441156,
      1760441176,
      1760441197,
      1760441239,
      1760441278,
      1760441297,
      1760441332,
      1760441353,
      1760441378
    ],
    "wof:geomhash": "9dd7deb69c90ed9c29f319490b06e61c",
    "wof:id": 1981668143,
    "wof:repo": "sfomuseum-data-flights-2025-10"
  },
  "bbox": [
    -122.76075,
    37.43948,
    -122.14924,
    38.51532
  ],
  "geometry": {"coordinates":[[-122.68594,38.51532],[-122.7022,38.45752],[-122.71779,38.40219],[-122.73286,38.34932],[-122.73432,38.34399],[-122.74605,38.30211],[-122.76075,38.20638],[-122.74943,38.16157],[-122.73584,38.11355],[-122.71586,38.04654],[-122.70804,38.02065],[-122.68792,37.95053],[-122.67168,37.90512],[-122.65664,37.88453],[-122.61058,37.84006],[-122.58155,37.81295],[-122.52727,37.76186],[-122.49263,37.7292],[-122.48364,37.72065],[-122.45101,37.68976],[-122.42433,37.66474],[-122.38282,37.62571],[-122.36218,37.60528],[-122.34925,37.57944],[-122.33302,37.54799],[-122.3142,37.51609],[-122.30825,37.50662],[-122.28723,37.47431],[-122.23257,37.44704],[-122.21178,37.43948],[-122.16053,37.456],[-122.15606,37.46441],[-122.14924,37.48875],[-122.17371,37.53192],[-122.19208,37.54235],[-122.21238,37.55001],[-122.25239,37.56716],[-122.28679,37.58164],[-122.30062,37.58747],[-122.32639,37.59832],[-122.34214,37.60488],[-122.36025,37.61255]],"type":"LineString"}
}
