{
  "id": 1981806245,
  "type": "Feature",
  "properties": {
    "geom:area": 0,
    "geom:bbox": "-122.380000,37.490000,-82.890000,42.180000",
    "geom:latitude": 40.58691311719771,
    "geom:longitude": -102.66872739144041,
    "src:alt_label": "swim-route",
    "src:geom": "swim",
    "swim:geom": "route",
    "wof:geomhash": "3e09590d0fbb6925b0498ee1efab72a6",
    "wof:id": 1981806245,
    "wof:repo": "sfomuseum-data-flights-2025-10"
  },
  "bbox": [
    -122.38,
    37.49,
    -82.89,
    42.18
  ],
  "geometry": {"coordinates":[[-82.89,40],[-83.04,40],[-83.12,40.01],[-83.16,40.02],[-83.17,40.02],[-83.2,40.03],[-83.22,40.04],[-83.38,40.09],[-83.56,40.15],[-83.58,40.15],[-83.66,40.18],[-83.74,40.21],[-83.82,40.23],[-83.86,40.24],[-83.9,40.26],[-84.1,40.32],[-84.27,40.37],[-84.36,40.4],[-84.48,40.44],[-84.66,40.5],[-84.76,40.53],[-84.93,40.58],[-84.97,40.59],[-85.33,40.7],[-85.61,40.78],[-85.8,40.83],[-86.42,41.01],[-87,41.22],[-87.01,41.22],[-88.92,41.55],[-90.89,41.85],[-92,42],[-93.33,42],[-93.65,42],[-94,42],[-95.73,42.12],[-96.32,42.15],[-96.84,42.18],[-97.72,42.14],[-99.07,42.06],[-100,42],[-102,42],[-102.1,41.99],[-104.59,41.72],[-105.12,41.66],[-106,41.5],[-106.25,41.46],[-106.8,41.28],[-109.13,40.5],[-109.43,40.4],[-109.74,40.29],[-110.13,40.15],[-111.32,39.73],[-112.51,39.3],[-113.32,39.12],[-117.27,38.12],[-117.27,38.12],[-117.77,38],[-118.76,37.9],[-119.1,37.86],[-119.28,37.84],[-119.41,37.82],[-119.94,37.76],[-119.98,37.75],[-120.03,37.75],[-120.4,37.7],[-120.4,37.7],[-120.47,37.69],[-120.69,37.67],[-120.75,37.66],[-120.76,37.66],[-120.82,37.65],[-120.96,37.63],[-121,37.63],[-121.07,37.62],[-121.17,37.61],[-121.26,37.59],[-121.39,37.58],[-121.41,37.58],[-121.6,37.55],[-121.61,37.55],[-121.62,37.55],[-121.7,37.53],[-121.8,37.51],[-121.82,37.51],[-121.88,37.49],[-122.08,37.54],[-122.11,37.55],[-122.18,37.57],[-122.28,37.59],[-122.33,37.61],[-122.36,37.61],[-122.38,37.62]],"type":"LineString"}
}
