{
  "id": 1981775757,
  "type": "Feature",
  "properties": {
    "geom:area": 0,
    "geom:bbox": "-122.385220,37.626780,-121.265570,38.161550",
    "geom:latitude": 37.98714576064373,
    "geom:longitude": -121.94301193511755,
    "src:alt_label": "swim-takeoff",
    "src:geom": "swim",
    "swim:elevations": [
      122,
      540,
      634,
      1259,
      1695,
      1847,
      2552,
      2990,
      3435,
      3721,
      4081,
      4272,
      4501,
      5014,
      5165,
      5421,
      5762,
      5974,
      6156,
      6639,
      6791,
      6919,
      7120,
      7277,
      7692,
      7821,
      8025
    ],
    "swim:geom": "takeoff",
    "swim:timestamps": [
      1761546249,
      1761546291,
      1761546305,
      1761546345,
      1761546385,
      1761546397,
      1761546436,
      1761546466,
      1761546502,
      1761546538,
      1761546567,
      1761546585,
      1761546608,
      1761546655,
      1761546669,
      1761546700,
      1761546738,
      1761546760,
      1761546781,
      1761546837,
      1761546855,
      1761546870,
      1761546891,
      1761546910,
      1761546956,
      1761546975,
      1761547002
    ],
    "wof:geomhash": "432f0e45775209cc46801a1345f8f88e",
    "wof:id": 1981775757,
    "wof:repo": "sfomuseum-data-flights-2025-10"
  },
  "bbox": [
    -122.38522,
    37.62678,
    -121.26557,
    38.16155
  ],
  "geometry": {"coordinates":[[-122.36736,37.62678],[-122.34122,37.65233],[-122.33024,37.66189],[-122.31097,37.69605],[-122.33024,37.73668],[-122.33831,37.74953],[-122.36028,37.79269],[-122.37682,37.82597],[-122.38522,37.87046],[-122.37182,37.92031],[-122.32792,37.95124],[-122.2906,37.96018],[-122.24143,37.97001],[-122.13856,37.99],[-122.10557,37.99647],[-122.03452,38.01056],[-121.94533,38.02842],[-121.89172,38.03922],[-121.84174,38.04918],[-121.70073,38.07713],[-121.65452,38.08623],[-121.6157,38.09381],[-121.55982,38.10476],[-121.51142,38.1142],[-121.38946,38.13778],[-121.33791,38.14744],[-121.26557,38.16155]],"type":"LineString"}
}
