{
  "id": 1981776219,
  "type": "Feature",
  "properties": {
    "geom:area": 0,
    "geom:bbox": "-122.409910,37.634350,-121.291100,38.104820",
    "geom:latitude": 37.876653485298135,
    "geom:longitude": -121.85887975860791,
    "src:alt_label": "swim-takeoff",
    "src:geom": "swim",
    "swim:elevations": [
      450,
      580,
      1324,
      1649,
      1792,
      2406,
      3082,
      3477,
      3703,
      4014,
      4366,
      4961,
      5075,
      5430,
      6151,
      6309,
      6578,
      6858,
      7205
    ],
    "swim:geom": "takeoff",
    "swim:timestamps": [
      1761482571,
      1761482580,
      1761482629,
      1761482663,
      1761482673,
      1761482707,
      1761482745,
      1761482783,
      1761482808,
      1761482843,
      1761482867,
      1761482908,
      1761482923,
      1761482952,
      1761483020,
      1761483037,
      1761483065,
      1761483096,
      1761483131
    ],
    "wof:geomhash": "b4ef3baccdbc1651737ebcc92c3e2da3",
    "wof:id": 1981776219,
    "wof:repo": "sfomuseum-data-flights-2025-10"
  },
  "bbox": [
    -122.40991,
    37.63435,
    -121.2911,
    38.10482
  ],
  "geometry": {"coordinates":[[-122.40511,37.63435],[-122.40991,37.64161],[-122.37711,37.67563],[-122.32598,37.68873],[-122.31114,37.69344],[-122.25589,37.71556],[-122.19361,37.74081],[-122.12613,37.76846],[-122.07576,37.78899],[-121.9994,37.82042],[-121.94628,37.84229],[-121.85412,37.87884],[-121.81836,37.89333],[-121.74926,37.92129],[-121.58312,37.98847],[-121.54183,38.005],[-121.46801,38.03439],[-121.38561,38.06727],[-121.2911,38.10482]],"type":"LineString"}
}
