{
  "id": 1981637115,
  "type": "Feature",
  "properties": {
    "geom:area": 0,
    "geom:bbox": "-122.571860,37.629810,-121.305930,38.147030",
    "geom:latitude": 37.94776302793153,
    "geom:longitude": -122.05454484261367,
    "src:alt_label": "swim-takeoff",
    "src:geom": "swim",
    "swim:elevations": [
      269,
      417,
      856,
      1275,
      1364,
      1902,
      2142,
      2602,
      2778,
      3073,
      3046,
      3185,
      3471,
      3683,
      4095,
      4368,
      4707,
      4861,
      5258,
      5436,
      5655,
      6025,
      6233,
      6361,
      6588,
      6733,
      6851,
      7134,
      7170,
      7313
    ],
    "swim:geom": "takeoff",
    "swim:timestamps": [
      1760109623,
      1760109635,
      1760109669,
      1760109716,
      1760109729,
      1760109776,
      1760109794,
      1760109833,
      1760109853,
      1760109890,
      1760109918,
      1760109952,
      1760109986,
      1760110009,
      1760110044,
      1760110064,
      1760110103,
      1760110117,
      1760110156,
      1760110180,
      1760110214,
      1760110254,
      1760110275,
      1760110290,
      1760110317,
      1760110338,
      1760110355,
      1760110403,
      1760110413,
      1760110442
    ],
    "wof:geomhash": "17a60c9893cad500b7050fcda64bb1fb",
    "wof:id": 1981637115,
    "wof:repo": "sfomuseum-data-flights-2025-10"
  },
  "bbox": [
    -122.57186,
    37.62981,
    -121.30593,
    38.14703
  ],
  "geometry": {"coordinates":[[-122.40099,37.62981],[-122.41166,37.63436],[-122.44563,37.64859],[-122.49274,37.66888],[-122.50699,37.67492],[-122.56166,37.70294],[-122.5694,37.72264],[-122.57154,37.76981],[-122.57186,37.7959],[-122.56336,37.84691],[-122.52284,37.87407],[-122.45373,37.88971],[-122.38493,37.90536],[-122.33673,37.91649],[-122.26045,37.93418],[-122.21634,37.94409],[-122.12972,37.96349],[-122.09898,37.97042],[-122.0104,37.99044],[-121.95524,38.00274],[-121.87466,38.02098],[-121.77842,38.04264],[-121.72654,38.05422],[-121.68996,38.06234],[-121.62532,38.07662],[-121.57262,38.0884],[-121.5304,38.09777],[-121.40816,38.12466],[-121.38177,38.1304],[-121.30593,38.14703]],"type":"LineString"}
}
