{
  "id": 1981796575,
  "type": "Feature",
  "properties": {
    "geom:area": 0,
    "geom:bbox": "-122.668889,37.416667,-70.813333,44.782778",
    "geom:latitude": 42.54979752312499,
    "geom:longitude": -97.28882455121429,
    "src:alt_label": "swim-path",
    "src:geom": "swim",
    "swim:altitudes": [
      "025",
      "025",
      "025",
      "096",
      "096",
      "096",
      "110",
      "142",
      "142",
      "163",
      "163",
      "178",
      "178",
      "195",
      "210",
      "210",
      "222",
      "222",
      "265",
      "265",
      "265",
      "265",
      "265",
      "278",
      "278",
      "278",
      "292",
      "292",
      "312",
      "340C",
      "340C",
      "340C",
      "340C",
      "340C",
      "340C",
      "340C",
      "340C",
      "340C",
      "340C",
      "340C",
      "340C",
      "340C",
      "340C",
      "340C",
      "340C",
      "340C",
      "340C",
      "340C",
      "340C",
      "340C",
      "340C",
      "340C",
      "340C",
      "340C",
      "340C",
      "340C",
      "340C",
      "340C",
      "340C",
      "340C",
      "340C",
      "340C",
      "340C",
      "340C",
      "340C",
      "340C",
      "340C",
      "340C",
      "340C",
      "340C",
      "340C",
      "340C",
      "340C",
      "340C",
      "340C",
      "340C",
      "340C",
      "340C",
      "340C",
      "340C",
      "340C",
      "340C",
      "340C",
      "340C",
      "340C",
      "340C",
      "340C",
      "340C",
      "340C",
      "340C",
      "340C",
      "340C",
      "340C",
      "340C",
      "340C",
      "340C",
      "340C",
      "340C",
      "340C",
      "340C",
      "340C",
      "340C",
      "340C",
      "340C",
      "340C",
      "340C",
      "340C",
      "340C",
      "340C",
      "340C",
      "340C",
      "340C",
      "340C",
      "340C",
      "340C",
      "340C",
      "340C",
      "340C",
      "340C",
      "340C",
      "340C",
      "340C",
      "340C",
      "340C",
      "340C",
      "340C",
      "340C",
      "340C",
      "340C",
      "340C",
      "340C",
      "340C",
      "340C",
      "340C",
      "340C",
      "340C",
      "340C",
      "340C",
      "340C",
      "340C",
      "340C",
      "340C",
      "340C",
      "340C",
      "340C",
      "340C",
      "340C",
      "340C",
      "340C",
      "340C",
      "340C",
      "340C",
      "340C",
      "340C",
      "340C",
      "340C",
      "340C",
      "340C",
      "340C",
      "340C",
      "340C",
      "340C",
      "340C",
      "340C",
      "340C",
      "340C",
      "340C",
      "340C",
      "340C",
      "340C",
      "340C",
      "340C",
      "340C",
      "340C",
      "340C",
      "340C",
      "340C",
      "340C",
      "340C",
      "340C",
      "340C",
      "340C",
      "340C",
      "340C",
      "340C",
      "340C",
      "340C",
      "340C",
      "340C",
      "340C",
      "340C",
      "340C",
      "340C",
      "340C",
      "340C",
      "340C",
      "340C",
      "340C",
      "340C",
      "340C",
      "340C",
      "340C",
      "340C",
      "340C",
      "340C",
      "340C",
      "340C",
      "340C",
      "340C",
      "340C",
      "340C",
      "340C",
      "340C",
      "340C",
      "340C",
      "340C",
      "340C",
      "340C",
      "340C",
      "340C",
      "340C",
      "340C",
      "340C",
      "340C",
      "340C",
      "340C",
      "340C",
      "340C",
      "340C",
      "340C",
      "340C",
      "340C",
      "340C",
      "340C",
      "340C",
      "340C",
      "340C",
      "340C",
      "340C",
      "340C",
      "340C",
      "340C",
      "340C",
      "340C",
      "340C",
      "340C",
      "340C",
      "340C",
      "340C",
      "340C",
      "340C",
      "340C",
      "340C",
      "340C",
      "340C",
      "340C",
      "340C",
      "340C",
      "340C",
      "340C",
      "340C",
      "340C",
      "340C",
      "340C",
      "340C",
      "340C",
      "340C",
      "340C",
      "340C",
      "340C",
      "340C",
      "340C",
      "340C",
      "340C",
      "360C",
      "360C",
      "360C",
      "360C",
      "360C",
      "360C",
      "360C",
      "360C",
      "360C",
      "360C",
      "360C",
      "360C",
      "360C",
      "360C",
      "360C",
      "360C",
      "360C",
      "360C",
      "360C",
      "360C",
      "360C",
      "360C",
      "360C",
      "360C",
      "360C",
      "360C",
      "360C",
      "360C",
      "360C",
      "360C",
      "360C",
      "360C",
      "360C",
      "360C",
      "360C",
      "360C",
      "360C",
      "360C",
      "360C",
      "360C",
      "360C",
      "360C",
      "360C",
      "360C",
      "360C",
      "360C",
      "360C",
      "360C",
      "360C",
      "360C",
      "360C",
      "360C",
      "360C",
      "360C",
      "360C",
      "360C",
      "360C",
      "360C",
      "360C",
      "360C",
      "360C",
      "360C",
      "360C",
      "360C",
      "360C",
      "360C",
      "360C",
      "360C",
      "360C",
      "360C",
      "360C",
      "360C",
      "360C",
      "360C",
      "360C",
      "360C",
      "360C",
      "360C",
      "360C",
      "360C",
      "360C",
      "360C",
      "360C",
      "360C",
      "360C",
      "360C",
      "360C",
      "360C",
      "360C",
      "360C",
      "288",
      "288",
      "288",
      "288",
      "288",
      "252",
      "252",
      "252",
      "158",
      "158",
      "158",
      "158",
      "126",
      "126",
      "115",
      "115",
      "115",
      "115",
      "115",
      "110",
      "110",
      "110",
      "105",
      "093",
      "093",
      "093",
      "093",
      "091",
      "091",
      "072",
      "068",
      "068",
      "068",
      "068",
      "068"
    ],
    "swim:geom": "path",
    "swim:speeds": [
      200,
      200,
      200,
      284,
      284,
      284,
      334,
      402,
      402,
      405,
      405,
      413,
      413,
      418,
      428,
      428,
      436,
      436,
      449,
      449,
      449,
      449,
      449,
      447,
      447,
      447,
      437,
      437,
      430,
      439,
      439,
      442,
      442,
      442,
      442,
      442,
      442,
      444,
      446,
      446,
      447,
      447,
      447,
      447,
      447,
      447,
      472,
      472,
      472,
      472,
      472,
      475,
      475,
      475,
      475,
      482,
      482,
      482,
      482,
      482,
      482,
      483,
      483,
      483,
      483,
      483,
      483,
      483,
      469,
      469,
      469,
      469,
      469,
      469,
      469,
      469,
      469,
      469,
      468,
      468,
      468,
      468,
      468,
      468,
      468,
      468,
      468,
      468,
      469,
      469,
      469,
      469,
      469,
      471,
      471,
      470,
      470,
      470,
      470,
      470,
      471,
      471,
      471,
      471,
      471,
      471,
      471,
      471,
      471,
      471,
      471,
      465,
      465,
      465,
      465,
      464,
      464,
      464,
      464,
      463,
      463,
      463,
      463,
      463,
      463,
      454,
      454,
      454,
      454,
      454,
      452,
      452,
      452,
      452,
      452,
      452,
      452,
      454,
      454,
      454,
      454,
      454,
      454,
      454,
      458,
      458,
      458,
      458,
      458,
      458,
      439,
      439,
      439,
      439,
      439,
      442,
      442,
      442,
      442,
      442,
      442,
      466,
      466,
      466,
      466,
      471,
      471,
      471,
      471,
      469,
      469,
      469,
      469,
      469,
      448,
      448,
      448,
      448,
      448,
      458,
      458,
      458,
      452,
      452,
      452,
      452,
      452,
      457,
      457,
      457,
      455,
      455,
      454,
      454,
      454,
      454,
      454,
      454,
      454,
      452,
      452,
      452,
      452,
      452,
      452,
      453,
      453,
      453,
      453,
      455,
      455,
      455,
      455,
      455,
      455,
      455,
      455,
      455,
      455,
      434,
      434,
      434,
      434,
      434,
      434,
      434,
      434,
      434,
      434,
      434,
      433,
      433,
      433,
      433,
      433,
      433,
      433,
      433,
      433,
      433,
      433,
      434,
      434,
      434,
      434,
      434,
      434,
      425,
      425,
      425,
      426,
      426,
      426,
      426,
      426,
      426,
      426,
      426,
      426,
      426,
      426,
      426,
      426,
      426,
      426,
      423,
      423,
      423,
      423,
      423,
      423,
      423,
      423,
      423,
      412,
      412,
      412,
      411,
      411,
      411,
      409,
      409,
      409,
      409,
      409,
      409,
      409,
      409,
      409,
      404,
      404,
      404,
      404,
      404,
      404,
      404,
      404,
      404,
      403,
      403,
      403,
      403,
      403,
      403,
      404,
      404,
      404,
      405,
      405,
      405,
      405,
      405,
      407,
      407,
      407,
      407,
      409,
      410,
      410,
      410,
      410,
      410,
      409,
      409,
      409,
      409,
      408,
      408,
      408,
      408,
      412,
      412,
      412,
      412,
      413,
      413,
      413,
      413,
      414,
      414,
      414,
      414,
      414,
      414,
      414,
      414,
      414,
      416,
      416,
      416,
      416,
      416,
      416,
      416,
      416,
      416,
      416,
      416,
      416,
      419,
      419,
      419,
      419,
      419,
      438,
      438,
      438,
      438,
      438,
      410,
      410,
      410,
      370,
      370,
      370,
      370,
      295,
      295,
      280,
      280,
      280,
      280,
      280,
      256,
      256,
      256,
      257,
      253,
      253,
      253,
      253,
      255,
      255,
      208,
      198,
      198,
      198,
      198,
      198
    ],
    "swim:timestamps": [
      1761737225,
      1761737225,
      1761737225,
      1761737405,
      1761737405,
      1761737405,
      1761737465,
      1761737585,
      1761737585,
      1761737645,
      1761737645,
      1761737705,
      1761737705,
      1761737766,
      1761737826,
      1761737826,
      1761737886,
      1761737886,
      1761738126,
      1761738126,
      1761738126,
      1761738126,
      1761738126,
      1761738186,
      1761738186,
      1761738186,
      1761738246,
      1761738246,
      1761738366,
      1761738666,
      1761738666,
      1761738726,
      1761738726,
      1761738726,
      1761738726,
      1761738726,
      1761738726,
      1761738787,
      1761738967,
      1761738967,
      1761739327,
      1761739327,
      1761739327,
      1761739327,
      1761739327,
      1761739327,
      1761741319,
      1761741319,
      1761741319,
      1761741319,
      1761741319,
      1761741499,
      1761741499,
      1761741499,
      1761741499,
      1761741739,
      1761741739,
      1761741739,
      1761741739,
      1761741739,
      1761741739,
      1761741799,
      1761741799,
      1761741980,
      1761741980,
      1761741980,
      1761741980,
      1761741980,
      1761742520,
      1761742520,
      1761742520,
      1761742520,
      1761742520,
      1761742520,
      1761742520,
      1761742520,
      1761742520,
      1761742520,
      1761743421,
      1761743421,
      1761743421,
      1761743421,
      1761743421,
      1761743421,
      1761743602,
      1761743602,
      1761743602,
      1761743602,
      1761743662,
      1761743662,
      1761743662,
      1761743662,
      1761743662,
      1761743902,
      1761743902,
      1761744022,
      1761744022,
      1761744022,
      1761744022,
      1761744022,
      1761744263,
      1761744263,
      1761744323,
      1761744323,
      1761744323,
      1761744323,
      1761744323,
      1761744323,
      1761744323,
      1761744323,
      1761744323,
      1761744863,
      1761744863,
      1761744863,
      1761744863,
      1761744923,
      1761744923,
      1761744923,
      1761744923,
      1761744984,
      1761744984,
      1761744984,
      1761744984,
      1761744984,
      1761744984,
      1761745344,
      1761745344,
      1761745344,
      1761745344,
      1761745344,
      1761745644,
      1761745644,
      1761745644,
      1761745644,
      1761745644,
      1761745644,
      1761745644,
      1761745945,
      1761745945,
      1761745945,
      1761745945,
      1761745945,
      1761745945,
      1761745945,
      1761746125,
      1761746125,
      1761746125,
      1761746125,
      1761746125,
      1761746125,
      1761746245,
      1761746245,
      1761746245,
      1761746245,
      1761746245,
      1761746305,
      1761746305,
      1761746305,
      1761746305,
      1761746305,
      1761746305,
      1761746606,
      1761746606,
      1761746606,
      1761746606,
      1761746666,
      1761746666,
      1761746666,
      1761746666,
      1761746786,
      1761746786,
      1761746786,
      1761746786,
      1761746786,
      1761747245,
      1761747245,
      1761747245,
      1761747245,
      1761747245,
      1761747447,
      1761747447,
      1761747447,
      1761747545,
      1761747545,
      1761747545,
      1761747545,
      1761747545,
      1761747567,
      1761747567,
      1761747567,
      1761747747,
      1761747747,
      1761747807,
      1761747807,
      1761747807,
      1761747905,
      1761747905,
      1761747905,
      1761747905,
      1761748048,
      1761748048,
      1761748048,
      1761748048,
      1761748048,
      1761748048,
      1761748085,
      1761748085,
      1761748085,
      1761748085,
      1761748567,
      1761748567,
      1761748567,
      1761748567,
      1761748567,
      1761748567,
      1761748567,
      1761748567,
      1761748567,
      1761748567,
      1761749344,
      1761749344,
      1761749344,
      1761749344,
      1761749344,
      1761749344,
      1761749344,
      1761749465,
      1761749465,
      1761749465,
      1761749465,
      1761749645,
      1761749645,
      1761749645,
      1761749645,
      1761749645,
      1761749765,
      1761749765,
      1761749765,
      1761749765,
      1761749765,
      1761749765,
      1761749885,
      1761749885,
      1761749885,
      1761749885,
      1761749885,
      1761749885,
      1761750727,
      1761750727,
      1761750727,
      1761750850,
      1761750850,
      1761750850,
      1761750850,
      1761750850,
      1761750850,
      1761751030,
      1761751030,
      1761751030,
      1761751030,
      1761751030,
      1761751030,
      1761751030,
      1761751030,
      1761751030,
      1761751508,
      1761751508,
      1761751508,
      1761751508,
      1761751508,
      1761751508,
      1761751508,
      1761751508,
      1761751508,
      1761751809,
      1761751809,
      1761751809,
      1761751869,
      1761751869,
      1761751869,
      1761751989,
      1761751989,
      1761751989,
      1761751989,
      1761752049,
      1761752049,
      1761752049,
      1761752049,
      1761752049,
      1761752890,
      1761752890,
      1761752890,
      1761752890,
      1761752890,
      1761752890,
      1761752890,
      1761752890,
      1761752890,
      1761753191,
      1761753191,
      1761753191,
      1761753191,
      1761753191,
      1761753191,
      1761753431,
      1761753431,
      1761753431,
      1761753463,
      1761753463,
      1761753463,
      1761753463,
      1761753463,
      1761754032,
      1761754032,
      1761754032,
      1761754032,
      1761754064,
      1761754213,
      1761754213,
      1761754213,
      1761754213,
      1761754273,
      1761754364,
      1761754364,
      1761754364,
      1761754364,
      1761754604,
      1761754604,
      1761754604,
      1761754604,
      1761754874,
      1761754874,
      1761754874,
      1761754874,
      1761754933,
      1761754933,
      1761754933,
      1761754933,
      1761755173,
      1761755234,
      1761755234,
      1761755234,
      1761755234,
      1761755234,
      1761755234,
      1761755234,
      1761755234,
      1761755866,
      1761755866,
      1761755866,
      1761755866,
      1761755926,
      1761755926,
      1761755926,
      1761755926,
      1761755926,
      1761755926,
      1761755926,
      1761755926,
      1761756106,
      1761756106,
      1761756106,
      1761756106,
      1761756106,
      1761756647,
      1761756647,
      1761756647,
      1761756647,
      1761756647,
      1761756767,
      1761756767,
      1761756767,
      1761757007,
      1761757007,
      1761757007,
      1761757007,
      1761757127,
      1761757127,
      1761757168,
      1761757168,
      1761757168,
      1761757168,
      1761757168,
      1761757289,
      1761757289,
      1761757289,
      1761757368,
      1761757408,
      1761757408,
      1761757408,
      1761757408,
      1761757428,
      1761757428,
      1761757528,
      1761757589,
      1761757589,
      1761757589,
      1761757589,
      1761757589
    ],
    "wof:geomhash": "9f21d3defe9784df66b2bd383ba2ebbd",
    "wof:id": 1981796575,
    "wof:repo": "sfomuseum-data-flights-2025-10"
  },
  "bbox": [
    -122.66888888888889,
    37.416666666666664,
    -70.81333333333333,
    44.782777777777774
  ],
  "geometry": {"coordinates":[[-70.98333333333333,42.416666666666664],[-70.98333333333333,42.416666666666664],[-70.98333333333333,42.416666666666664],[-70.81333333333333,42.55444444444444],[-70.81333333333333,42.55444444444444],[-70.81333333333333,42.55444444444444],[-70.89833333333334,42.611666666666665],[-71.14944444444446,42.72527777777778],[-71.14944444444446,42.72527777777778],[-71.28055555555555,42.78194444444444],[-71.28055555555555,42.78194444444444],[-71.43083333333334,42.816944444444445],[-71.43083333333334,42.816944444444445],[-71.58444444444444,42.8525],[-71.73861111111111,42.88777777777778],[-71.73861111111111,42.88777777777778],[-71.89805555555556,42.92388888888889],[-71.89805555555556,42.92388888888889],[-72.53972222222222,43.06666666666667],[-72.53972222222222,43.06666666666667],[-72.53972222222222,43.06666666666667],[-72.53972222222222,43.06666666666667],[-72.53972222222222,43.06666666666667],[-72.67333333333333,43.096111111111114],[-72.67333333333333,43.096111111111114],[-72.67333333333333,43.096111111111114],[-72.83944444444444,43.132222222222225],[-72.83944444444444,43.132222222222225],[-73.16083333333334,43.20166666666667],[-73.95444444444445,43.3675],[-73.95444444444445,43.3675],[-74.12166666666666,43.401944444444446],[-74.12166666666666,43.401944444444446],[-74.12166666666666,43.401944444444446],[-74.12166666666666,43.401944444444446],[-74.12166666666666,43.401944444444446],[-74.12166666666666,43.401944444444446],[-74.28166666666667,43.43416666666666],[-74.77222222222223,43.53194444444444],[-74.77222222222223,43.53194444444444],[-75.78388888888888,43.72666666666667],[-75.78388888888888,43.72666666666667],[-75.78388888888888,43.72666666666667],[-75.78388888888888,43.72666666666667],[-75.78388888888888,43.72666666666667],[-75.78388888888888,43.72666666666667],[-81.54305555555555,44.70888888888889],[-81.54305555555555,44.70888888888889],[-81.54305555555555,44.70888888888889],[-81.54305555555555,44.70888888888889],[-81.54305555555555,44.70888888888889],[-82.07805555555555,44.763888888888886],[-82.07805555555555,44.763888888888886],[-82.07805555555555,44.763888888888886],[-82.07805555555555,44.763888888888886],[-82.82666666666667,44.782777777777774],[-82.82666666666667,44.782777777777774],[-82.82666666666667,44.782777777777774],[-82.82666666666667,44.782777777777774],[-82.82666666666667,44.782777777777774],[-82.82666666666667,44.782777777777774],[-83.01416666666667,44.776944444444446],[-83.01416666666667,44.776944444444446],[-83.57972222222222,44.757222222222225],[-83.57972222222222,44.757222222222225],[-83.57972222222222,44.757222222222225],[-83.57972222222222,44.757222222222225],[-83.57972222222222,44.757222222222225],[-85.23722222222223,44.68472222222222],[-85.23722222222223,44.68472222222222],[-85.23722222222223,44.68472222222222],[-85.23722222222223,44.68472222222222],[-85.23722222222223,44.68472222222222],[-85.23722222222223,44.68472222222222],[-85.23722222222223,44.68472222222222],[-85.23722222222223,44.68472222222222],[-85.23722222222223,44.68472222222222],[-85.23722222222223,44.68472222222222],[-87.95166666666667,44.529444444444444],[-87.95166666666667,44.529444444444444],[-87.95166666666667,44.529444444444444],[-87.95166666666667,44.529444444444444],[-87.95166666666667,44.529444444444444],[-87.95166666666667,44.529444444444444],[-88.49138888888889,44.4925],[-88.49138888888889,44.4925],[-88.49138888888889,44.4925],[-88.49138888888889,44.4925],[-88.67416666666666,44.48027777777778],[-88.67416666666666,44.48027777777778],[-88.67416666666666,44.48027777777778],[-88.67416666666666,44.48027777777778],[-88.67416666666666,44.48027777777778],[-89.40027777777779,44.42861111111111],[-89.40027777777779,44.42861111111111],[-89.76,44.40138888888889],[-89.76,44.40138888888889],[-89.76,44.40138888888889],[-89.76,44.40138888888889],[-89.76,44.40138888888889],[-90.51972222222223,44.336111111111116],[-90.51972222222223,44.336111111111116],[-90.69861111111112,44.31388888888888],[-90.69861111111112,44.31388888888888],[-90.69861111111112,44.31388888888888],[-90.69861111111112,44.31388888888888],[-90.69861111111112,44.31388888888888],[-90.69861111111112,44.31388888888888],[-90.69861111111112,44.31388888888888],[-90.69861111111112,44.31388888888888],[-90.69861111111112,44.31388888888888],[-92.29583333333333,44.1025],[-92.29583333333333,44.1025],[-92.29583333333333,44.1025],[-92.29583333333333,44.1025],[-92.47083333333333,44.07777777777778],[-92.47083333333333,44.07777777777778],[-92.47083333333333,44.07777777777778],[-92.47083333333333,44.07777777777778],[-92.64305555555556,44.05333333333333],[-92.64305555555556,44.05333333333333],[-92.64305555555556,44.05333333333333],[-92.64305555555556,44.05333333333333],[-92.64305555555556,44.05333333333333],[-92.64305555555556,44.05333333333333],[-93.67888888888889,43.9325],[-93.67888888888889,43.9325],[-93.67888888888889,43.9325],[-93.67888888888889,43.9325],[-93.67888888888889,43.9325],[-94.54388888888889,43.862500000000004],[-94.54388888888889,43.862500000000004],[-94.54388888888889,43.862500000000004],[-94.54388888888889,43.862500000000004],[-94.54388888888889,43.862500000000004],[-94.54388888888889,43.862500000000004],[-94.54388888888889,43.862500000000004],[-95.40944444444445,43.78527777777778],[-95.40944444444445,43.78527777777778],[-95.40944444444445,43.78527777777778],[-95.40944444444445,43.78527777777778],[-95.40944444444445,43.78527777777778],[-95.40944444444445,43.78527777777778],[-95.40944444444445,43.78527777777778],[-95.93166666666667,43.73555555555556],[-95.93166666666667,43.73555555555556],[-95.93166666666667,43.73555555555556],[-95.93166666666667,43.73555555555556],[-95.93166666666667,43.73555555555556],[-95.93166666666667,43.73555555555556],[-96.27055555555556,43.702222222222225],[-96.27055555555556,43.702222222222225],[-96.27055555555556,43.702222222222225],[-96.27055555555556,43.702222222222225],[-96.27055555555556,43.702222222222225],[-96.43972222222223,43.68472222222222],[-96.43972222222223,43.68472222222222],[-96.43972222222223,43.68472222222222],[-96.43972222222223,43.68472222222222],[-96.43972222222223,43.68472222222222],[-96.43972222222223,43.68472222222222],[-97.28527777777778,43.53944444444444],[-97.28527777777778,43.53944444444444],[-97.28527777777778,43.53944444444444],[-97.28527777777778,43.53944444444444],[-97.45777777777778,43.50111111111111],[-97.45777777777778,43.50111111111111],[-97.45777777777778,43.50111111111111],[-97.45777777777778,43.50111111111111],[-97.80222222222221,43.424166666666665],[-97.80222222222221,43.424166666666665],[-97.80222222222221,43.424166666666665],[-97.80222222222221,43.424166666666665],[-97.80222222222221,43.424166666666665],[-99.07944444444443,43.1275],[-99.07944444444443,43.1275],[-99.07944444444443,43.1275],[-99.07944444444443,43.1275],[-99.07944444444443,43.1275],[-99.63222222222221,42.99333333333333],[-99.63222222222221,42.99333333333333],[-99.63222222222221,42.99333333333333],[-99.87333333333332,42.9325],[-99.87333333333332,42.9325],[-99.87333333333332,42.9325],[-99.87333333333332,42.9325],[-99.87333333333332,42.9325],[-99.9413888888889,42.91694444444444],[-99.9413888888889,42.91694444444444],[-99.9413888888889,42.91694444444444],[-100.4263888888889,42.79527777777778],[-100.4263888888889,42.79527777777778],[-100.60805555555555,42.74916666666667],[-100.60805555555555,42.74916666666667],[-100.60805555555555,42.74916666666667],[-100.8611111111111,42.68138888888889],[-100.8611111111111,42.68138888888889],[-100.8611111111111,42.68138888888889],[-100.8611111111111,42.68138888888889],[-101.24861111111112,42.58305555555556],[-101.24861111111112,42.58305555555556],[-101.24861111111112,42.58305555555556],[-101.24861111111112,42.58305555555556],[-101.24861111111112,42.58305555555556],[-101.24861111111112,42.58305555555556],[-101.34194444444444,42.556666666666665],[-101.34194444444444,42.556666666666665],[-101.34194444444444,42.556666666666665],[-101.34194444444444,42.556666666666665],[-102.60805555555555,42.17944444444444],[-102.60805555555555,42.17944444444444],[-102.60805555555555,42.17944444444444],[-102.60805555555555,42.17944444444444],[-102.60805555555555,42.17944444444444],[-102.60805555555555,42.17944444444444],[-102.60805555555555,42.17944444444444],[-102.60805555555555,42.17944444444444],[-102.60805555555555,42.17944444444444],[-102.60805555555555,42.17944444444444],[-104.64361111111111,41.71888888888889],[-104.64361111111111,41.71888888888889],[-104.64361111111111,41.71888888888889],[-104.64361111111111,41.71888888888889],[-104.64361111111111,41.71888888888889],[-104.64361111111111,41.71888888888889],[-104.64361111111111,41.71888888888889],[-104.95972222222223,41.66861111111111],[-104.95972222222223,41.66861111111111],[-104.95972222222223,41.66861111111111],[-104.95972222222223,41.66861111111111],[-105.39888888888889,41.59861111111111],[-105.39888888888889,41.59861111111111],[-105.39888888888889,41.59861111111111],[-105.39888888888889,41.59861111111111],[-105.39888888888889,41.59861111111111],[-105.71333333333334,41.54694444444444],[-105.71333333333334,41.54694444444444],[-105.71333333333334,41.54694444444444],[-105.71333333333334,41.54694444444444],[-105.71333333333334,41.54694444444444],[-105.71333333333334,41.54694444444444],[-106.05222222222221,41.49111111111111],[-106.05222222222221,41.49111111111111],[-106.05222222222221,41.49111111111111],[-106.05222222222221,41.49111111111111],[-106.05222222222221,41.49111111111111],[-106.05222222222221,41.49111111111111],[-108.23555555555555,41.28138888888889],[-108.23555555555555,41.28138888888889],[-108.23555555555555,41.28138888888889],[-108.54916666666666,41.25],[-108.54916666666666,41.25],[-108.54916666666666,41.25],[-108.54916666666666,41.25],[-108.54916666666666,41.25],[-108.54916666666666,41.25],[-109.01777777777778,41.20194444444445],[-109.01777777777778,41.20194444444445],[-109.01777777777778,41.20194444444445],[-109.01777777777778,41.20194444444445],[-109.01777777777778,41.20194444444445],[-109.01777777777778,41.20194444444445],[-109.01777777777778,41.20194444444445],[-109.01777777777778,41.20194444444445],[-109.01777777777778,41.20194444444445],[-110.25777777777778,41.06444444444444],[-110.25777777777778,41.06444444444444],[-110.25777777777778,41.06444444444444],[-110.25777777777778,41.06444444444444],[-110.25777777777778,41.06444444444444],[-110.25777777777778,41.06444444444444],[-110.25777777777778,41.06444444444444],[-110.25777777777778,41.06444444444444],[-110.25777777777778,41.06444444444444],[-111.0125,40.973888888888894],[-111.0125,40.973888888888894],[-111.0125,40.973888888888894],[-111.15972222222223,40.95583333333334],[-111.15972222222223,40.95583333333334],[-111.15972222222223,40.95583333333334],[-111.4563888888889,40.91833333333333],[-111.4563888888889,40.91833333333333],[-111.4563888888889,40.91833333333333],[-111.4563888888889,40.91833333333333],[-111.60416666666666,40.89944444444444],[-111.60416666666666,40.89944444444444],[-111.60416666666666,40.89944444444444],[-111.60416666666666,40.89944444444444],[-111.60416666666666,40.89944444444444],[-113.64805555555556,40.73444444444444],[-113.64805555555556,40.73444444444444],[-113.64805555555556,40.73444444444444],[-113.64805555555556,40.73444444444444],[-113.64805555555556,40.73444444444444],[-113.64805555555556,40.73444444444444],[-113.64805555555556,40.73444444444444],[-113.64805555555556,40.73444444444444],[-113.64805555555556,40.73444444444444],[-114.38194444444444,40.70194444444445],[-114.38194444444444,40.70194444444445],[-114.38194444444444,40.70194444444445],[-114.38194444444444,40.70194444444445],[-114.38194444444444,40.70194444444445],[-114.38194444444444,40.70194444444445],[-114.99527777777777,40.675],[-114.99527777777777,40.675],[-114.99527777777777,40.675],[-115.05638888888889,40.67166666666667],[-115.05638888888889,40.67166666666667],[-115.05638888888889,40.67166666666667],[-115.05638888888889,40.67166666666667],[-115.05638888888889,40.67166666666667],[-116.47833333333334,40.59638888888889],[-116.47833333333334,40.59638888888889],[-116.47833333333334,40.59638888888889],[-116.47833333333334,40.59638888888889],[-116.53777777777778,40.59277777777778],[-116.91722222222222,40.56638888888889],[-116.91722222222222,40.56638888888889],[-116.91722222222222,40.56638888888889],[-116.91722222222222,40.56638888888889],[-117.05666666666666,40.53333333333333],[-117.28194444444445,40.475],[-117.28194444444445,40.475],[-117.28194444444445,40.475],[-117.28194444444445,40.475],[-117.84277777777777,40.325833333333335],[-117.84277777777777,40.325833333333335],[-117.84277777777777,40.325833333333335],[-117.84277777777777,40.325833333333335],[-118.46222222222222,40.15694444444444],[-118.46222222222222,40.15694444444444],[-118.46222222222222,40.15694444444444],[-118.46222222222222,40.15694444444444],[-118.61388888888888,40.115],[-118.61388888888888,40.115],[-118.61388888888888,40.115],[-118.61388888888888,40.115],[-119.17083333333333,39.94583333333333],[-119.30805555555555,39.903888888888886],[-119.30805555555555,39.903888888888886],[-119.30805555555555,39.903888888888886],[-119.30805555555555,39.903888888888886],[-119.30805555555555,39.903888888888886],[-119.30805555555555,39.903888888888886],[-119.30805555555555,39.903888888888886],[-119.30805555555555,39.903888888888886],[-120.77916666666667,39.439722222222215],[-120.77916666666667,39.439722222222215],[-120.77916666666667,39.439722222222215],[-120.77916666666667,39.439722222222215],[-120.91805555555555,39.394444444444446],[-120.91805555555555,39.394444444444446],[-120.91805555555555,39.394444444444446],[-120.91805555555555,39.394444444444446],[-120.91805555555555,39.394444444444446],[-120.91805555555555,39.394444444444446],[-120.91805555555555,39.394444444444446],[-120.91805555555555,39.394444444444446],[-121.29888888888888,39.218333333333334],[-121.29888888888888,39.218333333333334],[-121.29888888888888,39.218333333333334],[-121.29888888888888,39.218333333333334],[-121.29888888888888,39.218333333333334],[-122.36916666666666,38.584722222222226],[-122.36916666666666,38.584722222222226],[-122.36916666666666,38.584722222222226],[-122.36916666666666,38.584722222222226],[-122.36916666666666,38.584722222222226],[-122.56805555555555,38.41777777777777],[-122.56805555555555,38.41777777777777],[-122.56805555555555,38.41777777777777],[-122.66888888888889,37.97833333333333],[-122.66888888888889,37.97833333333333],[-122.66888888888889,37.97833333333333],[-122.66888888888889,37.97833333333333],[-122.59861111111111,37.830555555555556],[-122.59861111111111,37.830555555555556],[-122.55,37.78333333333333],[-122.55,37.78333333333333],[-122.55,37.78333333333333],[-122.55,37.78333333333333],[-122.55,37.78333333333333],[-122.43333333333334,37.666666666666664],[-122.43333333333334,37.666666666666664],[-122.43333333333334,37.666666666666664],[-122.36194444444443,37.605555555555554],[-122.33333333333333,37.55],[-122.33333333333333,37.55],[-122.33333333333333,37.55],[-122.33333333333333,37.55],[-122.32666666666667,37.54194444444444],[-122.32666666666667,37.54194444444444],[-122.26666666666667,37.43333333333333],[-122.2,37.416666666666664],[-122.2,37.416666666666664],[-122.2,37.416666666666664],[-122.2,37.416666666666664],[-122.2,37.416666666666664]],"type":"LineString"}
}
