{
  "id": 1981791723,
  "type": "Feature",
  "properties": {
    "geom:area": 0,
    "geom:bbox": "-122.233333,37.716667,-73.715278,42.146111",
    "geom:latitude": 40.20242604340599,
    "geom:longitude": -97.71986613118484,
    "src:alt_label": "swim-path",
    "src:geom": "swim",
    "swim:altitudes": [
      "058",
      "058",
      "058",
      "124",
      "124",
      "124",
      "124",
      "124",
      "178",
      "178",
      "231",
      "231",
      "231",
      "282",
      "297",
      "297",
      "303",
      "303",
      "303",
      "303",
      "330",
      "330",
      "330",
      "330",
      "358",
      "358",
      "370C",
      "370C",
      "370C",
      "370C",
      "370C",
      "370C",
      "370C",
      "370C",
      "370C",
      "370C",
      "370C",
      "370C",
      "370C",
      "370C",
      "370C",
      "370C",
      "370C",
      "370C",
      "370C",
      "370C",
      "370C",
      "370C",
      "370C",
      "370C",
      "370C",
      "370C",
      "370C",
      "370C",
      "370C",
      "370C",
      "370C",
      "370C",
      "370C",
      "370C",
      "370C",
      "370C",
      "370C",
      "370C",
      "370C",
      "370C",
      "370C",
      "370C",
      "370C",
      "370C",
      "370C",
      "370C",
      "370C",
      "370C",
      "370C",
      "370C",
      "350C",
      "350C",
      "350C",
      "350C",
      "350C",
      "350C",
      "350C",
      "350C",
      "350C",
      "350C",
      "350C",
      "350C",
      "350C",
      "350C",
      "350C",
      "350C",
      "350C",
      "350C",
      "350C",
      "350C",
      "350C",
      "350C",
      "350C",
      "350C",
      "350C",
      "350C",
      "350C",
      "350C",
      "350C",
      "350C",
      "350C",
      "350C",
      "350C",
      "350C",
      "350C",
      "350C",
      "350C",
      "350C",
      "350C",
      "350C",
      "350C",
      "350C",
      "350C",
      "350C",
      "350C",
      "350C",
      "350C",
      "350C",
      "350C",
      "350C",
      "350C",
      "350C",
      "350C",
      "350C",
      "350C",
      "350C",
      "350C",
      "350C",
      "350C",
      "350C",
      "350C",
      "390C",
      "390C",
      "390C",
      "390C",
      "390C",
      "390C",
      "390C",
      "390C",
      "390C",
      "390C",
      "390C",
      "390C",
      "390C",
      "390C",
      "390C",
      "390C",
      "390C",
      "390C",
      "390C",
      "390C",
      "390C",
      "390C",
      "390C",
      "390C",
      "390C",
      "390C",
      "390C",
      "390C",
      "390C",
      "390C",
      "390C",
      "390C",
      "390C",
      "390C",
      "390C",
      "390C",
      "390C",
      "390C",
      "390C",
      "390C",
      "390C",
      "390C",
      "390C",
      "390C",
      "390C",
      "390C",
      "390C",
      "390C",
      "390C",
      "390C",
      "390C",
      "390C",
      "390C",
      "390C",
      "390C",
      "390C",
      "390C",
      "390C",
      "390C",
      "390C",
      "390C",
      "390C",
      "390C",
      "390C",
      "390C",
      "390C",
      "390C",
      "390C",
      "390C",
      "390C",
      "390C",
      "390C",
      "390C",
      "390C",
      "390C",
      "390C",
      "390C",
      "390C",
      "390C",
      "390C",
      "390C",
      "390C",
      "390C",
      "390C",
      "390C",
      "390C",
      "390C",
      "390C",
      "390C",
      "390C",
      "390C",
      "390C",
      "390C",
      "390C",
      "390C",
      "390C",
      "390C",
      "390C",
      "390C",
      "390C",
      "390C",
      "390C",
      "390C",
      "390C",
      "390C",
      "390C",
      "390C",
      "390C",
      "390C",
      "390C",
      "390C",
      "390C",
      "390C",
      "390C",
      "390C",
      "390C",
      "390C",
      "390C",
      "390C",
      "390C",
      "390C",
      "390C",
      "390C",
      "390C",
      "390C",
      "390C",
      "390C",
      "390C",
      "390C",
      "390C",
      "390C",
      "390C",
      "390C",
      "390C",
      "390C",
      "390C",
      "390C",
      "390C",
      "390C",
      "390C",
      "390C",
      "390C",
      "390C",
      "390C",
      "390C",
      "380",
      "380",
      "380",
      "230C",
      "230C",
      "230C",
      "230C",
      "230C",
      "230C",
      "203",
      "203",
      "203",
      "191",
      "191",
      "191",
      "191",
      "186",
      "186",
      "175",
      "163",
      "163",
      "163",
      "163",
      "094",
      "094",
      "094",
      "094",
      "094",
      "020",
      "020",
      "020",
      "020",
      "020",
      "020",
      "020",
      "020"
    ],
    "swim:geom": "path",
    "swim:speeds": [
      259,
      259,
      259,
      366,
      366,
      366,
      366,
      366,
      398,
      398,
      420,
      420,
      420,
      471,
      483,
      483,
      500,
      500,
      500,
      500,
      494,
      494,
      494,
      494,
      501,
      501,
      500,
      500,
      500,
      500,
      500,
      500,
      499,
      499,
      500,
      500,
      500,
      500,
      500,
      500,
      501,
      501,
      501,
      501,
      501,
      501,
      501,
      501,
      501,
      501,
      501,
      501,
      501,
      501,
      501,
      505,
      505,
      505,
      505,
      510,
      511,
      517,
      517,
      517,
      517,
      517,
      517,
      517,
      517,
      523,
      523,
      523,
      523,
      523,
      523,
      523,
      526,
      526,
      526,
      526,
      526,
      526,
      523,
      523,
      523,
      523,
      523,
      523,
      523,
      530,
      530,
      530,
      530,
      530,
      534,
      534,
      534,
      534,
      534,
      534,
      539,
      539,
      539,
      539,
      539,
      543,
      543,
      544,
      544,
      544,
      544,
      544,
      544,
      544,
      547,
      547,
      547,
      547,
      546,
      546,
      546,
      546,
      546,
      546,
      546,
      546,
      546,
      501,
      501,
      501,
      501,
      501,
      501,
      501,
      501,
      501,
      501,
      498,
      498,
      498,
      498,
      498,
      498,
      498,
      498,
      498,
      496,
      496,
      496,
      496,
      496,
      496,
      496,
      496,
      494,
      494,
      494,
      494,
      494,
      494,
      494,
      494,
      494,
      494,
      490,
      486,
      486,
      486,
      486,
      483,
      483,
      483,
      477,
      477,
      475,
      475,
      475,
      475,
      475,
      475,
      478,
      478,
      478,
      478,
      478,
      478,
      478,
      478,
      478,
      478,
      478,
      478,
      472,
      472,
      472,
      472,
      468,
      468,
      468,
      464,
      464,
      464,
      464,
      462,
      462,
      462,
      462,
      462,
      462,
      462,
      462,
      462,
      465,
      465,
      465,
      465,
      465,
      465,
      465,
      466,
      466,
      466,
      466,
      466,
      466,
      466,
      466,
      472,
      472,
      472,
      472,
      472,
      472,
      475,
      475,
      475,
      475,
      474,
      473,
      475,
      475,
      475,
      475,
      475,
      483,
      486,
      486,
      486,
      487,
      487,
      487,
      487,
      487,
      487,
      487,
      487,
      487,
      487,
      489,
      489,
      489,
      490,
      491,
      491,
      491,
      491,
      491,
      492,
      492,
      492,
      492,
      493,
      493,
      487,
      487,
      487,
      487,
      486,
      486,
      486,
      486,
      486,
      485,
      485,
      485,
      474,
      474,
      474,
      474,
      474,
      474,
      381,
      381,
      381,
      373,
      373,
      373,
      373,
      363,
      363,
      352,
      329,
      329,
      329,
      329,
      293,
      293,
      293,
      293,
      293,
      145,
      145,
      145,
      145,
      145,
      145,
      145,
      145
    ],
    "swim:timestamps": [
      1761660818,
      1761660818,
      1761660818,
      1761661010,
      1761661010,
      1761661010,
      1761661010,
      1761661010,
      1761661161,
      1761661161,
      1761661342,
      1761661342,
      1761661342,
      1761661582,
      1761661684,
      1761661684,
      1761661822,
      1761661822,
      1761661822,
      1761661822,
      1761661984,
      1761661984,
      1761661984,
      1761661984,
      1761662165,
      1761662165,
      1761662345,
      1761662345,
      1761662345,
      1761662345,
      1761662345,
      1761662465,
      1761662483,
      1761662483,
      1761662603,
      1761662603,
      1761662843,
      1761662843,
      1761662886,
      1761662886,
      1761663023,
      1761663023,
      1761663023,
      1761663023,
      1761663066,
      1761663066,
      1761663066,
      1761663186,
      1761663186,
      1761663487,
      1761663547,
      1761663547,
      1761663547,
      1761663607,
      1761663607,
      1761663787,
      1761663787,
      1761663787,
      1761663787,
      1761663968,
      1761664028,
      1761664448,
      1761664448,
      1761664448,
      1761664448,
      1761664448,
      1761664448,
      1761664448,
      1761664448,
      1761664749,
      1761664749,
      1761664749,
      1761664869,
      1761664869,
      1761664869,
      1761664869,
      1761665109,
      1761665109,
      1761665109,
      1761665109,
      1761665109,
      1761665109,
      1761665410,
      1761665410,
      1761665410,
      1761665518,
      1761665518,
      1761665518,
      1761665518,
      1761665818,
      1761665818,
      1761665818,
      1761665818,
      1761665818,
      1761665939,
      1761665939,
      1761665939,
      1761665939,
      1761665939,
      1761665939,
      1761666299,
      1761666299,
      1761666299,
      1761666299,
      1761666299,
      1761666539,
      1761666539,
      1761666599,
      1761666599,
      1761666599,
      1761666599,
      1761666599,
      1761666599,
      1761666599,
      1761667260,
      1761667260,
      1761667260,
      1761667260,
      1761667346,
      1761667346,
      1761667346,
      1761667346,
      1761667346,
      1761667346,
      1761667346,
      1761667346,
      1761667346,
      1761668314,
      1761668314,
      1761668314,
      1761668314,
      1761668314,
      1761668314,
      1761668314,
      1761668314,
      1761668314,
      1761668314,
      1761669095,
      1761669095,
      1761669095,
      1761669095,
      1761669095,
      1761669095,
      1761669095,
      1761669095,
      1761669095,
      1761669456,
      1761669456,
      1761669456,
      1761669456,
      1761669456,
      1761669456,
      1761669456,
      1761669456,
      1761670260,
      1761670260,
      1761670260,
      1761670260,
      1761670260,
      1761670260,
      1761670260,
      1761670260,
      1761670320,
      1761670320,
      1761670500,
      1761670597,
      1761670597,
      1761670597,
      1761670597,
      1761670657,
      1761670657,
      1761670657,
      1761670838,
      1761670838,
      1761670921,
      1761670921,
      1761670921,
      1761670921,
      1761670958,
      1761670958,
      1761671341,
      1761671341,
      1761671341,
      1761671341,
      1761671341,
      1761671341,
      1761671341,
      1761671341,
      1761671341,
      1761672062,
      1761672062,
      1761672062,
      1761672183,
      1761672183,
      1761672183,
      1761672183,
      1761672303,
      1761672303,
      1761672303,
      1761672423,
      1761672423,
      1761672423,
      1761672423,
      1761672543,
      1761672543,
      1761672543,
      1761672663,
      1761672663,
      1761672663,
      1761672663,
      1761672663,
      1761672663,
      1761673144,
      1761673144,
      1761673144,
      1761673212,
      1761673212,
      1761673212,
      1761673212,
      1761673264,
      1761673264,
      1761673264,
      1761673264,
      1761673264,
      1761673453,
      1761673453,
      1761673453,
      1761674294,
      1761674294,
      1761674294,
      1761674294,
      1761674294,
      1761674294,
      1761674474,
      1761674474,
      1761674474,
      1761674474,
      1761674655,
      1761674775,
      1761674895,
      1761674895,
      1761674895,
      1761674895,
      1761674895,
      1761675075,
      1761675118,
      1761675118,
      1761675118,
      1761675256,
      1761675298,
      1761675298,
      1761675298,
      1761675298,
      1761675298,
      1761675298,
      1761675298,
      1761675358,
      1761675358,
      1761675556,
      1761675556,
      1761675556,
      1761675599,
      1761675659,
      1761675659,
      1761675737,
      1761675737,
      1761675737,
      1761675857,
      1761675857,
      1761675857,
      1761675857,
      1761675917,
      1761675917,
      1761676380,
      1761676380,
      1761676380,
      1761676380,
      1761676458,
      1761676458,
      1761676458,
      1761676458,
      1761676458,
      1761676518,
      1761676518,
      1761676518,
      1761676861,
      1761676861,
      1761676861,
      1761676861,
      1761676861,
      1761676861,
      1761677161,
      1761677161,
      1761677161,
      1761677275,
      1761677275,
      1761677275,
      1761677275,
      1761677341,
      1761677341,
      1761677401,
      1761677461,
      1761677461,
      1761677461,
      1761677461,
      1761677642,
      1761677642,
      1761677642,
      1761677642,
      1761677642,
      1761678055,
      1761678055,
      1761678055,
      1761678055,
      1761678055,
      1761678055,
      1761678055,
      1761678055
    ],
    "wof:geomhash": "d1c03e527237bb6d094d85f516329d5b",
    "wof:id": 1981791723,
    "wof:repo": "sfomuseum-data-flights-2025-10"
  },
  "bbox": [
    -122.23333333333333,
    37.71666666666667,
    -73.71527777777779,
    42.14611111111111
  ],
  "geometry": {"coordinates":[[-122.23333333333333,37.71666666666667],[-122.23333333333333,37.71666666666667],[-122.23333333333333,37.71666666666667],[-121.93333333333334,37.833333333333336],[-121.93333333333334,37.833333333333336],[-121.93333333333334,37.833333333333336],[-121.93333333333334,37.833333333333336],[-121.93333333333334,37.833333333333336],[-121.60527777777777,37.89972222222222],[-121.60527777777777,37.89972222222222],[-121.18333333333334,37.97666666666667],[-121.18333333333334,37.97666666666667],[-121.18333333333334,37.97666666666667],[-120.565,38.07361111111111],[-120.30194444444444,38.11472222222223],[-120.30194444444444,38.11472222222223],[-119.88,38.175],[-119.88,38.175],[-119.88,38.175],[-119.88,38.175],[-119.43972222222223,38.238055555555555],[-119.43972222222223,38.238055555555555],[-119.43972222222223,38.238055555555555],[-119.43972222222223,38.238055555555555],[-118.9175,38.31083333333333],[-118.9175,38.31083333333333],[-118.36166666666666,38.38472222222222],[-118.36166666666666,38.38472222222222],[-118.36166666666666,38.38472222222222],[-118.36166666666666,38.38472222222222],[-118.36166666666666,38.38472222222222],[-118.01333333333334,38.43],[-117.97555555555556,38.43472222222222],[-117.97555555555556,38.43472222222222],[-117.62277777777777,38.47916666666667],[-117.62277777777777,38.47916666666667],[-116.91111111111111,38.53972222222222],[-116.91111111111111,38.53972222222222],[-116.80805555555555,38.544999999999995],[-116.80805555555555,38.544999999999995],[-116.37666666666667,38.565],[-116.37666666666667,38.565],[-116.37666666666667,38.565],[-116.37666666666667,38.565],[-116.27333333333333,38.569722222222225],[-116.27333333333333,38.569722222222225],[-116.27333333333333,38.569722222222225],[-115.91527777777779,38.585],[-115.91527777777779,38.585],[-115.01277777777777,38.618611111111115],[-114.83583333333333,38.62444444444444],[-114.83583333333333,38.62444444444444],[-114.83583333333333,38.62444444444444],[-114.65805555555556,38.63],[-114.65805555555556,38.63],[-114.12055555555555,38.644999999999996],[-114.12055555555555,38.644999999999996],[-114.12055555555555,38.644999999999996],[-114.12055555555555,38.644999999999996],[-113.5761111111111,38.657777777777774],[-113.39527777777778,38.66166666666666],[-112.13194444444444,38.66416666666667],[-112.13194444444444,38.66416666666667],[-112.13194444444444,38.66416666666667],[-112.13194444444444,38.66416666666667],[-112.13194444444444,38.66416666666667],[-112.13194444444444,38.66416666666667],[-112.13194444444444,38.66416666666667],[-112.13194444444444,38.66416666666667],[-111.21111111111111,38.645833333333336],[-111.21111111111111,38.645833333333336],[-111.21111111111111,38.645833333333336],[-110.83027777777778,38.63611111111111],[-110.83027777777778,38.63611111111111],[-110.83027777777778,38.63611111111111],[-110.83027777777778,38.63611111111111],[-110.08972222222222,38.61333333333334],[-110.08972222222222,38.61333333333334],[-110.08972222222222,38.61333333333334],[-110.08972222222222,38.61333333333334],[-110.08972222222222,38.61333333333334],[-110.08972222222222,38.61333333333334],[-109.16722222222222,38.659444444444446],[-109.16722222222222,38.659444444444446],[-109.16722222222222,38.659444444444446],[-108.80388888888889,38.71277777777778],[-108.80388888888889,38.71277777777778],[-108.80388888888889,38.71277777777778],[-108.80388888888889,38.71277777777778],[-107.88583333333334,38.84277777777778],[-107.88583333333334,38.84277777777778],[-107.88583333333334,38.84277777777778],[-107.88583333333334,38.84277777777778],[-107.88583333333334,38.84277777777778],[-107.51222222222222,38.89333333333333],[-107.51222222222222,38.89333333333333],[-107.51222222222222,38.89333333333333],[-107.51222222222222,38.89333333333333],[-107.51222222222222,38.89333333333333],[-107.51222222222222,38.89333333333333],[-106.37916666666666,39.03916666666667],[-106.37916666666666,39.03916666666667],[-106.37916666666666,39.03916666666667],[-106.37916666666666,39.03916666666667],[-106.37916666666666,39.03916666666667],[-105.59694444444445,39.13305555555556],[-105.59694444444445,39.13305555555556],[-105.40666666666667,39.155],[-105.40666666666667,39.155],[-105.40666666666667,39.155],[-105.40666666666667,39.155],[-105.40666666666667,39.155],[-105.40666666666667,39.155],[-105.40666666666667,39.155],[-103.29194444444444,39.373333333333335],[-103.29194444444444,39.373333333333335],[-103.29194444444444,39.373333333333335],[-103.29194444444444,39.373333333333335],[-103.0275,39.39888888888889],[-103.0275,39.39888888888889],[-103.0275,39.39888888888889],[-103.0275,39.39888888888889],[-103.0275,39.39888888888889],[-103.0275,39.39888888888889],[-103.0275,39.39888888888889],[-103.0275,39.39888888888889],[-103.0275,39.39888888888889],[-100.13527777777779,39.92305555555555],[-100.13527777777779,39.92305555555555],[-100.13527777777779,39.92305555555555],[-100.13527777777779,39.92305555555555],[-100.13527777777779,39.92305555555555],[-100.13527777777779,39.92305555555555],[-100.13527777777779,39.92305555555555],[-100.13527777777779,39.92305555555555],[-100.13527777777779,39.92305555555555],[-100.13527777777779,39.92305555555555],[-97.84027777777777,40.36944444444445],[-97.84027777777777,40.36944444444445],[-97.84027777777777,40.36944444444445],[-97.84027777777777,40.36944444444445],[-97.84027777777777,40.36944444444445],[-97.84027777777777,40.36944444444445],[-97.84027777777777,40.36944444444445],[-97.84027777777777,40.36944444444445],[-97.84027777777777,40.36944444444445],[-96.78472222222221,40.55777777777777],[-96.78472222222221,40.55777777777777],[-96.78472222222221,40.55777777777777],[-96.78472222222221,40.55777777777777],[-96.78472222222221,40.55777777777777],[-96.78472222222221,40.55777777777777],[-96.78472222222221,40.55777777777777],[-96.78472222222221,40.55777777777777],[-94.43694444444445,40.93833333333333],[-94.43694444444445,40.93833333333333],[-94.43694444444445,40.93833333333333],[-94.43694444444445,40.93833333333333],[-94.43694444444445,40.93833333333333],[-94.43694444444445,40.93833333333333],[-94.43694444444445,40.93833333333333],[-94.43694444444445,40.93833333333333],[-94.25777777777778,40.96527777777778],[-94.25777777777778,40.96527777777778],[-93.72805555555556,41.043055555555554],[-93.44722222222222,41.08305555555556],[-93.44722222222222,41.08305555555556],[-93.44722222222222,41.08305555555556],[-93.44722222222222,41.08305555555556],[-93.2713888888889,41.10805555555556],[-93.2713888888889,41.10805555555556],[-93.2713888888889,41.10805555555556],[-92.75416666666666,41.17916666666667],[-92.75416666666666,41.17916666666667],[-92.5125,41.211666666666666],[-92.5125,41.211666666666666],[-92.5125,41.211666666666666],[-92.5125,41.211666666666666],[-92.40944444444445,41.22527777777778],[-92.40944444444445,41.22527777777778],[-91.32027777777778,41.36388888888889],[-91.32027777777778,41.36388888888889],[-91.32027777777778,41.36388888888889],[-91.32027777777778,41.36388888888889],[-91.32027777777778,41.36388888888889],[-91.32027777777778,41.36388888888889],[-91.32027777777778,41.36388888888889],[-91.32027777777778,41.36388888888889],[-91.32027777777778,41.36388888888889],[-89.19500000000001,41.60305555555556],[-89.19500000000001,41.60305555555556],[-89.19500000000001,41.60305555555556],[-88.84888888888888,41.63805555555555],[-88.84888888888888,41.63805555555555],[-88.84888888888888,41.63805555555555],[-88.84888888888888,41.63805555555555],[-88.50555555555556,41.67166666666667],[-88.50555555555556,41.67166666666667],[-88.50555555555556,41.67166666666667],[-88.16250000000001,41.70444444444445],[-88.16250000000001,41.70444444444445],[-88.16250000000001,41.70444444444445],[-88.16250000000001,41.70444444444445],[-87.81861111111111,41.736111111111114],[-87.81861111111111,41.736111111111114],[-87.81861111111111,41.736111111111114],[-87.47472222222223,41.76694444444444],[-87.47472222222223,41.76694444444444],[-87.47472222222223,41.76694444444444],[-87.47472222222223,41.76694444444444],[-87.47472222222223,41.76694444444444],[-87.47472222222223,41.76694444444444],[-86.10722222222222,41.87777777777778],[-86.10722222222222,41.87777777777778],[-86.10722222222222,41.87777777777778],[-85.89916666666667,41.89333333333333],[-85.89916666666667,41.89333333333333],[-85.89916666666667,41.89333333333333],[-85.89916666666667,41.89333333333333],[-85.75861111111111,41.90361111111111],[-85.75861111111111,41.90361111111111],[-85.75861111111111,41.90361111111111],[-85.75861111111111,41.90361111111111],[-85.75861111111111,41.90361111111111],[-85.2375,41.94],[-85.2375,41.94],[-85.2375,41.94],[-82.76138888888889,42.08027777777778],[-82.76138888888889,42.08027777777778],[-82.76138888888889,42.08027777777778],[-82.76138888888889,42.08027777777778],[-82.76138888888889,42.08027777777778],[-82.76138888888889,42.08027777777778],[-82.23111111111112,42.10333333333333],[-82.23111111111112,42.10333333333333],[-82.23111111111112,42.10333333333333],[-82.23111111111112,42.10333333333333],[-81.7213888888889,42.12305555555555],[-81.36638888888888,42.135555555555555],[-81.01055555555556,42.14611111111111],[-81.01055555555556,42.14611111111111],[-81.01055555555556,42.14611111111111],[-81.01055555555556,42.14611111111111],[-81.01055555555556,42.14611111111111],[-80.47027777777778,42.094722222222224],[-80.31888888888888,42.07777777777778],[-80.31888888888888,42.07777777777778],[-80.31888888888888,42.07777777777778],[-79.92777777777778,42.03333333333333],[-79.7786111111111,42.01555555555556],[-79.7786111111111,42.01555555555556],[-79.7786111111111,42.01555555555556],[-79.7786111111111,42.01555555555556],[-79.7786111111111,42.01555555555556],[-79.7786111111111,42.01555555555556],[-79.7786111111111,42.01555555555556],[-79.59888888888888,41.994166666666665],[-79.59888888888888,41.994166666666665],[-79.02083333333333,41.92527777777777],[-79.02083333333333,41.92527777777777],[-79.02083333333333,41.92527777777777],[-78.88972222222223,41.909166666666664],[-78.72055555555556,41.88805555555555],[-78.72055555555556,41.88805555555555],[-78.47777777777777,41.856944444444444],[-78.47777777777777,41.856944444444444],[-78.47777777777777,41.856944444444444],[-78.11444444444444,41.80972222222222],[-78.11444444444444,41.80972222222222],[-78.11444444444444,41.80972222222222],[-78.11444444444444,41.80972222222222],[-77.93277777777779,41.78583333333333],[-77.93277777777779,41.78583333333333],[-76.59194444444444,41.52611111111111],[-76.59194444444444,41.52611111111111],[-76.59194444444444,41.52611111111111],[-76.59194444444444,41.52611111111111],[-76.36083333333333,41.46222222222222],[-76.36083333333333,41.46222222222222],[-76.36083333333333,41.46222222222222],[-76.36083333333333,41.46222222222222],[-76.36083333333333,41.46222222222222],[-76.19611111111111,41.41611111111111],[-76.19611111111111,41.41611111111111],[-76.19611111111111,41.41611111111111],[-75.23277777777778,41.11944444444445],[-75.23277777777778,41.11944444444445],[-75.23277777777778,41.11944444444445],[-75.23277777777778,41.11944444444445],[-75.23277777777778,41.11944444444445],[-75.23277777777778,41.11944444444445],[-74.47305555555556,40.94944444444444],[-74.47305555555556,40.94944444444444],[-74.47305555555556,40.94944444444444],[-74.21666666666667,40.916666666666664],[-74.21666666666667,40.916666666666664],[-74.21666666666667,40.916666666666664],[-74.21666666666667,40.916666666666664],[-74.07416666666666,40.884166666666665],[-74.07416666666666,40.884166666666665],[-73.97222222222223,40.83444444444444],[-73.86333333333333,40.780833333333334],[-73.86333333333333,40.780833333333334],[-73.86333333333333,40.780833333333334],[-73.86333333333333,40.780833333333334],[-73.71527777777779,40.57833333333333],[-73.71527777777779,40.57833333333333],[-73.71527777777779,40.57833333333333],[-73.71527777777779,40.57833333333333],[-73.71527777777779,40.57833333333333],[-73.95,40.31666666666667],[-73.95,40.31666666666667],[-73.95,40.31666666666667],[-73.95,40.31666666666667],[-73.95,40.31666666666667],[-73.95,40.31666666666667],[-73.95,40.31666666666667],[-73.95,40.31666666666667]],"type":"LineString"}
}
