{
  "id": 1981759155,
  "type": "Feature",
  "properties": {
    "geom:area": 0,
    "geom:bbox": "-122.530000,37.620000,8.550000,68.010000",
    "geom:latitude": 60.82226735606988,
    "geom:longitude": -60.9092111199161,
    "src:alt_label": "swim-route",
    "src:geom": "swim",
    "swim:geom": "route",
    "wof:geomhash": "3b69129d8c062c1b70931c935e35eb16",
    "wof:id": 1981759155,
    "wof:repo": "sfomuseum-data-flights-2025-10"
  },
  "bbox": [
    -122.53,
    37.62,
    8.55,
    68.01
  ],
  "geometry": {"coordinates":[[-122.38,37.62],[-122.5,37.67],[-122.51,37.67],[-122.52,37.68],[-122.53,37.75],[-122.53,37.75],[-122.53,37.79],[-122.53,37.8],[-122.48,37.82],[-122.46,37.83],[-122.43,37.84],[-122.39,37.91],[-122.29,38.06],[-122.27,38.09],[-122.24,38.14],[-122.19,38.22],[-122.11,38.34],[-122.1,38.37],[-122.1,38.38],[-122.03,38.58],[-121.97,38.74],[-121.94,38.82],[-121.88,38.97],[-121.86,39.03],[-121.83,39.09],[-121.81,39.16],[-121.78,39.25],[-121.74,39.34],[-121.11,41],[-121.06,41.13],[-120.51,42.49],[-120.44,42.68],[-120.37,42.87],[-119.89,44.17],[-119.71,44.65],[-119.34,45.66],[-119.14,46.16],[-118.95,46.66],[-118.78,47.08],[-118.78,47.09],[-118,48.95],[-118,48.96],[-117.97,49],[-117.96,49.02],[-117.45,49.72],[-116.89,50.52],[-116.6,50.91],[-116.6,50.91],[-115.18,52.55],[-114.67,53.21],[-114.55,53.35],[-114.4,53.51],[-114.27,53.65],[-114.06,53.88],[-113.85,53.9],[-113,55],[-113,55],[-112.6,55.1],[-111.45,56.12],[-110.43,56.98],[-109.17,57.98],[-108.33,58.6],[-105.48,60.53],[-105.25,60.82],[-104.52,61.12],[-100,63.88],[-97,65],[-90,66.55],[-88.83,66.76],[-85.21,67.34],[-80,68],[-70,68],[-69.12,68.01],[-66.68,68],[-62.98,67.97],[-60.65,67.85],[-60.61,67.85],[-56.99,67.64],[-55.1,67.48],[-53,67.27],[-50,67],[-40,66],[-34.61,65.55],[-30,65],[-23.17,63.74],[-20,63],[-18.69,62.59],[-14.97,61.28],[-10,59.16],[-8.41,58.38],[-5.36,56.72],[-4.74,56.35],[-3.35,55.5],[-2.59,55.09],[-2.49,55.04],[-1.93,54.72],[-1.55,54.51],[-0.63,53.98],[1,52.98],[2.5,52.13],[4.92,50.66],[6.49,49.2],[6.65,49.05],[6.72,48.99],[6.73,48.98],[6.78,48.94],[6.98,48.77],[7.27,48.54],[7.52,48.33],[7.81,48.09],[7.97,47.96],[8.17,47.79],[8.21,47.75],[8.32,47.66],[8.4,47.59],[8.47,47.52],[8.55,47.46]],"type":"LineString"}
}
