{
  "id": 1981652705,
  "type": "Feature",
  "properties": {
    "geom:area": 0,
    "geom:bbox": "-122.367440,37.626690,-121.265390,38.377480",
    "geom:latitude": 38.02396877717547,
    "geom:longitude": -121.83193822400082,
    "src:alt_label": "swim-takeoff",
    "src:geom": "swim",
    "swim:elevations": [
      122,
      424,
      763,
      1119,
      1386,
      2073,
      2518,
      3076,
      3366,
      3386,
      3405,
      3606,
      3777,
      4001,
      4326,
      4765,
      5164,
      5327,
      5627,
      5943,
      6257,
      6582,
      6699,
      7009,
      7197,
      7516,
      7558
    ],
    "swim:geom": "takeoff",
    "swim:timestamps": [
      1760296857,
      1760296871,
      1760296911,
      1760296939,
      1760296955,
      1760296996,
      1760297025,
      1760297064,
      1760297095,
      1760297098,
      1760297101,
      1760297127,
      1760297142,
      1760297173,
      1760297202,
      1760297241,
      1760297276,
      1760297291,
      1760297315,
      1760297344,
      1760297374,
      1760297411,
      1760297423,
      1760297458,
      1760297479,
      1760297516,
      1760297522
    ],
    "wof:geomhash": "2e0b522b3a8124d60c677f1ce7d1d2a8",
    "wof:id": 1981652705,
    "wof:repo": "sfomuseum-data-flights-2025-10"
  },
  "bbox": [
    -122.36744,
    37.62669,
    -121.26539,
    38.37748
  ],
  "geometry": {"coordinates":[[-122.36744,37.62669],[-122.35934,37.63635],[-122.32107,37.65928],[-122.28656,37.67856],[-122.26701,37.69013],[-122.21309,37.72058],[-122.18494,37.75023],[-122.14709,37.79308],[-122.11295,37.83004],[-122.10953,37.83381],[-122.10606,37.8376],[-122.07416,37.87163],[-122.05242,37.89004],[-121.99789,37.92758],[-121.94628,37.96257],[-121.87318,38.01178],[-121.80444,38.05824],[-121.77546,38.07775],[-121.72576,38.11133],[-121.66721,38.15071],[-121.60515,38.19238],[-121.52962,38.24292],[-121.50371,38.26013],[-121.4251,38.30976],[-121.37331,38.33373],[-121.2808,38.37124],[-121.26539,38.37748]],"type":"LineString"}
}
