{
  "id": 1981728035,
  "type": "Feature",
  "properties": {
    "geom:area": 0,
    "geom:bbox": "-122.380000,37.490000,-71.010000,45.490000",
    "geom:latitude": 42.4176195023199,
    "geom:longitude": -96.59163329758815,
    "src:alt_label": "swim-route",
    "src:geom": "swim",
    "swim:geom": "route",
    "wof:geomhash": "5b06e96827a86ac962c7c48b1baa5d78",
    "wof:id": 1981728035,
    "wof:repo": "sfomuseum-data-flights-2025-10"
  },
  "bbox": [
    -122.38,
    37.49,
    -71.01,
    45.49
  ],
  "geometry": {"coordinates":[[-71.01,42.36],[-71.06,42.52],[-71.06,42.52],[-71.07,42.55],[-71.09,42.6],[-71.09,42.61],[-71.1,42.64],[-71.12,42.67],[-71.13,42.7],[-71.13,42.71],[-71.14,42.73],[-71.18,42.75],[-71.28,42.78],[-71.39,42.81],[-71.42,42.82],[-71.6,42.86],[-71.73,42.89],[-71.9,42.92],[-71.91,42.93],[-71.99,42.94],[-72.28,43.01],[-72.52,43.06],[-72.64,43.09],[-73.09,43.19],[-73.26,43.22],[-73.59,43.29],[-73.76,43.33],[-74.11,43.4],[-74.31,43.44],[-76.6,43.88],[-76.61,43.88],[-77.85,44.37],[-79.16,44.86],[-79.51,44.99],[-79.75,45.08],[-80.19,45.17],[-80.78,45.28],[-80.97,45.28],[-81.57,45.34],[-82.15,45.35],[-82.41,45.38],[-82.62,45.39],[-83.11,45.41],[-83.5,45.42],[-83.8,45.43],[-84.34,45.45],[-84.81,45.46],[-85.27,45.47],[-86.07,45.49],[-86.38,45.44],[-86.55,45.42],[-87.58,45.33],[-87.7,45.33],[-90.48,45.02],[-91.48,44.9],[-92.19,44.76],[-92.98,44.61],[-95.49,44.06],[-97.81,43.51],[-99.83,42.97],[-102.22,42.29],[-103.48,41.89],[-104.58,41.58],[-106.06,41.13],[-106.55,40.97],[-107.04,40.82],[-108,40.5],[-108.95,40.24],[-109.15,40.18],[-109.36,40.13],[-112.51,39.3],[-113.32,39.12],[-117.27,38.14],[-117.77,38],[-118.76,37.9],[-119.1,37.86],[-119.38,37.82],[-119.72,37.78],[-119.82,37.77],[-119.92,37.76],[-120.02,37.75],[-120.31,37.71],[-120.4,37.7],[-120.4,37.7],[-120.57,37.68],[-120.69,37.67],[-120.75,37.66],[-120.79,37.65],[-120.8,37.65],[-120.96,37.63],[-121,37.63],[-121.01,37.63],[-121.07,37.62],[-121.17,37.61],[-121.26,37.59],[-121.39,37.58],[-121.41,37.58],[-121.6,37.55],[-121.61,37.55],[-121.62,37.55],[-121.72,37.53],[-121.8,37.51],[-121.88,37.49],[-121.89,37.49],[-122.01,37.53],[-122.08,37.54],[-122.18,37.57],[-122.18,37.57],[-122.28,37.59],[-122.33,37.61],[-122.36,37.61],[-122.38,37.62]],"type":"LineString"}
}
