{
  "id": 1981793113,
  "type": "Feature",
  "properties": {
    "geom:area": 0,
    "geom:bbox": "-122.092590,36.768120,-121.479720,37.255540",
    "geom:latitude": 37.01235434040659,
    "geom:longitude": -121.7857375919541,
    "src:alt_label": "swim-takeoff",
    "src:geom": "swim",
    "swim:elevations": [
      5482,
      5890,
      6039,
      6551,
      6822,
      6978,
      7328,
      7438,
      7596,
      7936,
      8055,
      8238
    ],
    "swim:geom": "takeoff",
    "swim:timestamps": [
      1761670547,
      1761670579,
      1761670596,
      1761670673,
      1761670708,
      1761670725,
      1761670766,
      1761670793,
      1761670819,
      1761670857,
      1761670873,
      1761670906
    ],
    "wof:geomhash": "ee9b3a6fab43ca1ad33c252b1f1e1b48",
    "wof:id": 1981793113,
    "wof:repo": "sfomuseum-data-flights-2025-10"
  },
  "bbox": [
    -122.09259,
    36.76812,
    -121.47972,
    37.25554
  ],
  "geometry": {"coordinates":[[-122.09259,37.25554],[-122.04295,37.21646],[-122.01508,37.19452],[-121.88734,37.09345],[-121.82805,37.04646],[-121.79919,37.02355],[-121.72812,36.96703],[-121.68133,36.92975],[-121.63562,36.89331],[-121.5672,36.83801],[-121.53913,36.81548],[-121.47972,36.76812]],"type":"LineString"}
}
