{
  "id": 1981740001,
  "type": "Feature",
  "properties": {
    "geom:area": 0,
    "geom:bbox": "-122.385830,37.644850,-121.248480,37.991230",
    "geom:latitude": 37.939817739072474,
    "geom:longitude": -121.93169915902062,
    "src:alt_label": "swim-takeoff",
    "src:geom": "swim",
    "swim:elevations": [
      452,
      535,
      635,
      790,
      1164,
      1592,
      1701,
      2288,
      2737,
      2956,
      3296,
      3407,
      3616,
      3750,
      4171,
      4266,
      4469,
      4572,
      5019,
      5104,
      5498,
      5621,
      5882,
      6180,
      6813,
      7021,
      7099
    ],
    "swim:geom": "takeoff",
    "swim:timestamps": [
      1761175404,
      1761175421,
      1761175436,
      1761175463,
      1761175495,
      1761175522,
      1761175530,
      1761175582,
      1761175616,
      1761175631,
      1761175671,
      1761175693,
      1761175736,
      1761175751,
      1761175797,
      1761175806,
      1761175828,
      1761175838,
      1761175885,
      1761175894,
      1761175942,
      1761175957,
      1761175982,
      1761176013,
      1761176094,
      1761176128,
      1761176143
    ],
    "wof:geomhash": "643e2ced43a3706b25907a22b8efbdb3",
    "wof:id": 1981740001,
    "wof:repo": "sfomuseum-data-flights-2025-10"
  },
  "bbox": [
    -122.38583,
    37.64485,
    -121.24848,
    37.99123
  ],
  "geometry": {"coordinates":[[-122.35186,37.64485],[-122.33942,37.65513],[-122.32704,37.66558],[-122.31229,37.69118],[-122.32476,37.72664],[-122.34147,37.75603],[-122.34603,37.76443],[-122.37557,37.82387],[-122.38583,37.86572],[-122.385,37.885],[-122.36474,37.93471],[-122.33128,37.95089],[-122.24618,37.96816],[-122.21396,37.9747],[-122.11265,37.98802],[-122.09025,37.98816],[-122.04085,37.98859],[-122.01635,37.98878],[-121.90319,37.98944],[-121.88118,37.98959],[-121.76297,37.99013],[-121.7254,37.99035],[-121.66137,37.99056],[-121.58397,37.99082],[-121.37606,37.99123],[-121.28826,37.99123],[-121.24848,37.99122]],"type":"LineString"}
}
