{
  "id": 1981740445,
  "type": "Feature",
  "properties": {
    "geom:area": 0,
    "geom:bbox": "-158.133333,21.250000,-122.366667,37.694722",
    "geom:latitude": 30.155388396467842,
    "geom:longitude": -140.72984017077127,
    "src:alt_label": "swim-path",
    "src:geom": "swim",
    "swim:altitudes": [
      "007",
      "064",
      "106",
      "187C",
      "214C",
      "218",
      "229C",
      "229C",
      "240C",
      "263",
      "263",
      "263",
      "287C",
      "287C",
      "295C",
      "295C",
      "295C",
      "296",
      "301",
      "306C",
      "309",
      "309",
      "319",
      "330",
      "340C",
      "340C",
      "340C",
      "340C",
      "340",
      "340C",
      "340",
      "340",
      "340",
      "340C",
      "340C",
      "340C",
      "340",
      "340",
      "340",
      "340",
      "340",
      "340",
      "340",
      "340",
      "340",
      "340",
      "340",
      "340T",
      "340T",
      "340T",
      "340T",
      "340T",
      "340T",
      "327T",
      "264T",
      "216T",
      "216T",
      "171T",
      "126T",
      "103T",
      "103T",
      "092T",
      "092T",
      "086T",
      "072T",
      "036T",
      "031T",
      "031T",
      "030T",
      "019T",
      "019T",
      "003",
      "003"
    ],
    "swim:geom": "path",
    "swim:speeds": [
      166,
      275,
      292,
      390,
      400,
      409,
      410,
      410,
      420,
      432,
      432,
      432,
      450,
      450,
      450,
      450,
      450,
      452,
      461,
      470,
      467,
      467,
      466,
      460,
      445,
      445,
      457,
      457,
      460,
      458,
      470,
      470,
      470,
      462,
      462,
      462,
      490,
      490,
      480,
      480,
      480,
      490,
      490,
      490,
      490,
      490,
      490,
      500,
      490,
      490,
      480,
      480,
      480,
      480,
      480,
      450,
      450,
      430,
      400,
      340,
      340,
      320,
      320,
      320,
      310,
      300,
      260,
      260,
      210,
      200,
      200,
      130,
      130
    ],
    "swim:timestamps": [
      1761189011,
      1761189199,
      1761189319,
      1761189610,
      1761189730,
      1761189740,
      1761189790,
      1761189790,
      1761189850,
      1761189980,
      1761189980,
      1761189980,
      1761190150,
      1761190150,
      1761190210,
      1761190210,
      1761190210,
      1761190220,
      1761190280,
      1761190330,
      1761190340,
      1761190340,
      1761190400,
      1761190460,
      1761190581,
      1761190581,
      1761190641,
      1761190641,
      1761190691,
      1761190701,
      1761190871,
      1761190871,
      1761190871,
      1761191001,
      1761191001,
      1761191001,
      1761202994,
      1761202994,
      1761203054,
      1761203054,
      1761203054,
      1761203415,
      1761203415,
      1761203475,
      1761203775,
      1761203775,
      1761203775,
      1761203956,
      1761204076,
      1761204076,
      1761204196,
      1761204256,
      1761204256,
      1761204376,
      1761204496,
      1761204616,
      1761204616,
      1761204737,
      1761204857,
      1761204977,
      1761204977,
      1761205157,
      1761205157,
      1761205217,
      1761205277,
      1761205397,
      1761205458,
      1761205458,
      1761205518,
      1761205578,
      1761205578,
      1761205695,
      1761205695
    ],
    "wof:geomhash": "9dd04f25a2b79ef517b985e38ed6ccc0",
    "wof:id": 1981740445,
    "wof:repo": "sfomuseum-data-flights-2025-10"
  },
  "bbox": [
    -158.13333333333333,
    21.25,
    -122.36666666666666,
    37.69472222222222
  ],
  "geometry": {"coordinates":[[-122.36666666666666,37.63333333333333],[-122.50638888888889,37.69472222222222],[-122.68083333333334,37.64833333333333],[-123.25,37.483333333333334],[-123.51666666666667,37.416666666666664],[-123.55499999999999,37.41083333333333],[-123.65,37.36666666666667],[-123.65,37.36666666666667],[-123.8,37.333333333333336],[-124.11472222222221,37.254444444444445],[-124.11472222222221,37.254444444444445],[-124.11472222222221,37.254444444444445],[-124.51666666666667,37.13333333333333],[-124.51666666666667,37.13333333333333],[-124.65,37.083333333333336],[-124.65,37.083333333333336],[-124.65,37.083333333333336],[-124.69638888888889,37.08833333333334],[-124.84666666666666,37.044999999999995],[-124.96666666666667,37],[-125.00027777777778,37.000277777777775],[-125.00027777777778,37.000277777777775],[-125.15194444444445,36.95944444444445],[-125.30305555555556,36.91861111111111],[-125.59888888888888,36.83777777777778],[-125.59888888888888,36.83777777777778],[-125.74722222222222,36.79694444444444],[-125.74722222222222,36.79694444444444],[-125.88333333333334,36.75],[-125.89722222222223,36.75527777777778],[-126.35,36.61666666666667],[-126.35,36.61666666666667],[-126.35,36.61666666666667],[-126.65222222222222,36.54277777777778],[-126.65222222222222,36.54277777777778],[-126.65222222222222,36.54277777777778],[-154.06666666666666,24.4],[-154.06666666666666,24.4],[-154.18333333333334,24.316666666666666],[-154.18333333333334,24.316666666666666],[-154.18333333333334,24.316666666666666],[-154.85,23.766666666666666],[-154.85,23.766666666666666],[-154.95,23.666666666666668],[-155.48333333333332,23.2],[-155.48333333333332,23.2],[-155.48333333333332,23.2],[-155.81666666666666,22.916666666666668],[-156.03333333333333,22.733333333333334],[-156.03333333333333,22.733333333333334],[-156.25,22.55],[-156.35,22.45],[-156.35,22.45],[-156.55,22.266666666666666],[-156.76666666666668,22.083333333333332],[-156.96666666666667,21.9],[-156.96666666666667,21.9],[-157.15,21.733333333333334],[-157.31666666666666,21.566666666666666],[-157.48333333333332,21.433333333333334],[-157.48333333333332,21.433333333333334],[-157.71666666666667,21.3],[-157.71666666666667,21.3],[-157.81666666666666,21.266666666666666],[-157.9,21.266666666666666],[-158.08333333333334,21.25],[-158.13333333333333,21.283333333333335],[-158.13333333333333,21.283333333333335],[-158.1,21.316666666666666],[-158.03333333333333,21.316666666666666],[-158.03333333333333,21.316666666666666],[-157.95,21.316666666666666],[-157.95,21.316666666666666]],"type":"LineString"}
}
