{
  "id": 1981740445,
  "type": "Feature",
  "properties": {
    "date:cessation_lower": "2025-10-23",
    "date:cessation_upper": "2025-10-23",
    "date:inception_lower": "2025-10-23",
    "date:inception_upper": "2025-10-23",
    "edtf:cessation": "2025-10-23T07:48:52Z",
    "edtf:inception": "2025-10-23T03:10:00Z",
    "flysfo:actual_timestamp": -1,
    "flysfo:airline": "HA",
    "flysfo:base_airline": "",
    "flysfo:base_flight_number": "8123",
    "flysfo:date": "2025-10-22",
    "flysfo:estimated_timestamp": 1761187620,
    "flysfo:event": "D",
    "flysfo:flight_number": "HA623",
    "flysfo:gate": "B12",
    "flysfo:journey": "SFO-HNL",
    "flysfo:scheduled_timestamp": 1761187620,
    "flysfo:timestamp": 1761187620,
    "geom:area": 0,
    "geom:bbox": "-157.918416,21.332508,-122.370943,37.617990",
    "geom:latitude": 29.475248999999998,
    "geom:longitude": -140.1446795,
    "iata:airline": "HA",
    "iata:base_airline": "",
    "icao:aircraft": "A21N",
    "icao:airline": "HAL",
    "icao:base_airline": "ASA",
    "lbl:latitude": 37.61799,
    "lbl:longitude": -122.370943,
    "sfomuseum:aircraft_id": 1377564297,
    "sfomuseum:airline_id": 1159284489,
    "sfomuseum:arrival_id": 102533997,
    "sfomuseum:base_flight_id": "20251022-D-ASA-8123",
    "sfomuseum:departure_id": 102527513,
    "sfomuseum:flight_id": "20251022-D-HAL-623",
    "sfomuseum:flight_number": [
      "HAL623",
      "HA623"
    ],
    "sfomuseum:placetype": "flight",
    "src:geom": "flysfo",
    "src:geom_alt": [
      "swim-path",
      "swim-takeoff"
    ],
    "swim:tail_number": "N215HA",
    "wof:belongsto": [
      1947304067,
      102527513,
      1947304261,
      102191575,
      85633793,
      102087579,
      85922583,
      554784711,
      85688637,
      1947304263,
      1947304259,
      102085387
    ],
    "wof:country": "US",
    "wof:created": 1761236049,
    "wof:geomhash": "ff961493fc59fc665836e174da62aa8e",
    "wof:hierarchy": [
      {
        "building_id": 1947304067,
        "campus_id": 102527513,
        "concourse_id": 1947304261,
        "continent_id": 102191575,
        "country_id": 85633793,
        "county_id": 102087579,
        "custom_id": 1981740445,
        "flight_id": 1981740445,
        "locality_id": 85922583,
        "postalcode_id": 554784711,
        "region_id": 85688637,
        "venue_id": 1947304263,
        "wing_id": 1947304259
      },
      {
        "building_id": 1947304067,
        "campus_id": 102527513,
        "concourse_id": 1947304261,
        "continent_id": 102191575,
        "country_id": 85633793,
        "county_id": 102085387,
        "custom_id": 1981740445,
        "flight_id": 1981740445,
        "region_id": 85688637,
        "venue_id": 1947304263,
        "wing_id": 1947304259
      }
    ],
    "wof:id": 1981740445,
    "wof:involves": [
      1377564297,
      102533997,
      102527513,
      1159284489,
      1947304263,
      1159283813
    ],
    "wof:lastmodified": 1761236300,
    "wof:name": "HA623 (SFO-HNL)",
    "wof:parent_id": 1947304263,
    "wof:placetype": "custom",
    "wof:placetype_alt": [
      "flight"
    ],
    "wof:repo": "sfomuseum-data-flights-2025-10",
    "wof:superseded_by": [],
    "wof:supersedes": []
  },
  "bbox": [
    -157.918416,
    21.332508,
    -122.370943,
    37.61799
  ],
  "geometry": {"coordinates":[[-122.370943,37.61799],[-157.918416,21.332508]],"type":"MultiPoint"}
}
