{
  "id": 1981693985,
  "type": "Feature",
  "properties": {
    "geom:area": 0,
    "geom:bbox": "-123.442780,36.991360,-122.114960,37.613560",
    "geom:latitude": 37.299642969243244,
    "geom:longitude": -122.68668711995255,
    "src:alt_label": "swim-approach",
    "src:geom": "swim",
    "swim:elevations": [
      6462,
      6276,
      5878,
      5602,
      5251,
      4872,
      4666,
      4098,
      3818,
      3494,
      3108,
      3048,
      3048,
      3048,
      3048,
      2954,
      2804,
      2712,
      2473,
      2438,
      2438,
      2438,
      2440,
      2348,
      2197,
      1887,
      1684,
      1235,
      1097,
      947,
      916,
      730,
      566,
      463,
      330,
      263,
      84,
      45
    ],
    "swim:geom": "approach",
    "swim:timestamps": [
      1760766597,
      1760766613,
      1760766649,
      1760766673,
      1760766701,
      1760766734,
      1760766754,
      1760766802,
      1760766826,
      1760766853,
      1760766884,
      1760766907,
      1760766943,
      1760766964,
      1760766997,
      1760767039,
      1760767069,
      1760767090,
      1760767137,
      1760767155,
      1760767185,
      1760767203,
      1760767235,
      1760767280,
      1760767299,
      1760767338,
      1760767357,
      1760767401,
      1760767430,
      1760767466,
      1760767481,
      1760767526,
      1760767556,
      1760767580,
      1760767610,
      1760767625,
      1760767667,
      1760767682
    ],
    "wof:geomhash": "d8c2c8e7a9de6d78663c7739002fbd75",
    "wof:id": 1981693985,
    "wof:repo": "sfomuseum-data-flights-2025-10"
  },
  "bbox": [
    -123.44278,
    36.99136,
    -122.11496,
    37.61356
  ],
  "geometry": {"coordinates":[[-123.44278,36.99136],[-123.4116,37.00578],[-123.33805,37.04041],[-123.29005,37.06256],[-123.23281,37.08873],[-123.16738,37.11888],[-123.12832,37.13678],[-123.03589,37.17893],[-122.98859,37.20066],[-122.93855,37.22337],[-122.87991,37.24984],[-122.83469,37.26393],[-122.76861,37.27964],[-122.73257,37.28816],[-122.68133,37.30017],[-122.61655,37.31527],[-122.56977,37.32612],[-122.5385,37.33344],[-122.46585,37.34998],[-122.43813,37.35638],[-122.3922,37.36695],[-122.36472,37.37334],[-122.31599,37.38458],[-122.24641,37.40055],[-122.21913,37.40667],[-122.16533,37.41932],[-122.13888,37.42758],[-122.11496,37.47111],[-122.13119,37.49823],[-122.16498,37.52235],[-122.17838,37.53179],[-122.2212,37.55687],[-122.25184,37.56925],[-122.27395,37.57853],[-122.2995,37.58931],[-122.31199,37.59455],[-122.34534,37.60854],[-122.35746,37.61356]],"type":"LineString"}
}
