{
  "id": 1981705271,
  "type": "Feature",
  "properties": {
    "geom:area": 0,
    "geom:bbox": "-122.369360,37.624190,-121.282540,38.401250",
    "geom:latitude": 38.028787524028814,
    "geom:longitude": -121.84266437347932,
    "src:alt_label": "swim-takeoff",
    "src:geom": "swim",
    "swim:elevations": [
      122,
      549,
      676,
      1124,
      1494,
      1650,
      2192,
      3033,
      3354,
      3563,
      3710,
      4225,
      4479,
      5002,
      5227,
      5540,
      5991,
      6169,
      6437,
      7055,
      7264,
      7312,
      7792,
      7894,
      8171
    ],
    "swim:geom": "takeoff",
    "swim:timestamps": [
      1760781713,
      1760781748,
      1760781761,
      1760781806,
      1760781833,
      1760781842,
      1760781870,
      1760781923,
      1760781953,
      1760781982,
      1760782000,
      1760782037,
      1760782060,
      1760782099,
      1760782117,
      1760782144,
      1760782185,
      1760782201,
      1760782230,
      1760782288,
      1760782313,
      1760782320,
      1760782378,
      1760782393,
      1760782435
    ],
    "wof:geomhash": "ed6250760ae6604a5d22946b2bc7fde4",
    "wof:id": 1981705271,
    "wof:repo": "sfomuseum-data-flights-2025-10"
  },
  "bbox": [
    -122.36936,
    37.62419,
    -121.28254,
    38.40125
  ],
  "geometry": {"coordinates":[[-122.36936,37.62419],[-122.34726,37.64335],[-122.33601,37.64946],[-122.28968,37.67632],[-122.26195,37.69968],[-122.25793,37.70963],[-122.24702,37.74389],[-122.20031,37.7999],[-122.15995,37.82694],[-122.1166,37.85601],[-122.08767,37.87527],[-122.02636,37.91613],[-121.98769,37.94186],[-121.91988,37.98689],[-121.8885,38.00772],[-121.83982,38.03999],[-121.76663,38.08848],[-121.7367,38.1082],[-121.68385,38.14306],[-121.57452,38.215],[-121.52595,38.24691],[-121.51305,38.25537],[-121.39978,38.32924],[-121.3693,38.34862],[-121.28254,38.40125]],"type":"LineString"}
}
