{
  "id": 1981615211,
  "type": "Feature",
  "properties": {
    "geom:area": 0,
    "geom:bbox": "-123.104760,37.415650,-122.091260,38.492220",
    "geom:latitude": 37.85543807909902,
    "geom:longitude": -122.54198908398939,
    "src:alt_label": "swim-approach",
    "src:geom": "swim",
    "swim:elevations": [
      7947,
      7833,
      7415,
      7119,
      6860,
      6574,
      6327,
      6042,
      5769,
      5605,
      5282,
      4925,
      4648,
      4431,
      4171,
      3892,
      3728,
      3446,
      3380,
      3353,
      3353,
      3353,
      3353,
      3353,
      3189,
      3017,
      2920,
      2729,
      2409,
      2275,
      2013,
      1934,
      1705,
      1508,
      1431,
      1320,
      1245,
      1154,
      927,
      757,
      665,
      485,
      428,
      207,
      135,
      132
    ],
    "swim:geom": "approach",
    "swim:timestamps": [
      1759987407,
      1759987419,
      1759987464,
      1759987497,
      1759987527,
      1759987557,
      1759987584,
      1759987617,
      1759987647,
      1759987665,
      1759987698,
      1759987737,
      1759987767,
      1759987794,
      1759987821,
      1759987854,
      1759987870,
      1759987915,
      1759987939,
      1759987966,
      1759987984,
      1759988020,
      1759988033,
      1759988057,
      1759988093,
      1759988123,
      1759988135,
      1759988168,
      1759988213,
      1759988237,
      1759988276,
      1759988288,
      1759988324,
      1759988366,
      1759988390,
      1759988422,
      1759988440,
      1759988463,
      1759988511,
      1759988545,
      1759988566,
      1759988599,
      1759988614,
      1759988662,
      1759988683,
      1759988713
    ],
    "wof:geomhash": "05b3482212e7d322353993ea950525ec",
    "wof:id": 1981615211,
    "wof:repo": "sfomuseum-data-flights-2025-10"
  },
  "bbox": [
    -123.10476,
    37.41565,
    -122.09126,
    38.49222
  ],
  "geometry": {"coordinates":[[-123.10476,38.49222],[-123.08389,38.47637],[-123.00677,38.4153],[-122.95118,38.37098],[-122.90127,38.33137],[-122.85202,38.29207],[-122.80816,38.25696],[-122.76616,38.20953],[-122.74924,38.161],[-122.74065,38.13188],[-122.72515,38.0785],[-122.70702,38.01641],[-122.69349,37.96887],[-122.68108,37.92693],[-122.65886,37.88743],[-122.61649,37.84629],[-122.59562,37.82648],[-122.53843,37.77226],[-122.50957,37.74505],[-122.47888,37.71602],[-122.45984,37.69816],[-122.42388,37.66427],[-122.41199,37.65306],[-122.38889,37.63122],[-122.35657,37.59671],[-122.33787,37.56502],[-122.33044,37.55239],[-122.31034,37.51789],[-122.28357,37.47177],[-122.26066,37.4526],[-122.21024,37.43525],[-122.19492,37.42997],[-122.14882,37.41565],[-122.10268,37.43573],[-122.09126,37.45865],[-122.10317,37.48623],[-122.11468,37.50006],[-122.13131,37.51549],[-122.17797,37.53589],[-122.21171,37.55013],[-122.2322,37.55885],[-122.26357,37.57201],[-122.27696,37.57773],[-122.31891,37.59517],[-122.3365,37.60258],[-122.36132,37.61304]],"type":"LineString"}
}
