{
  "id": 1981785045,
  "type": "Feature",
  "properties": {
    "geom:area": 0,
    "geom:bbox": "-122.290556,30.007222,-95.053889,38.507778",
    "geom:latitude": 35.78162507086394,
    "geom:longitude": -108.08490385372262,
    "src:alt_label": "swim-path",
    "src:geom": "swim",
    "swim:altitudes": [
      "038",
      "038",
      "038",
      "038",
      "053",
      "053",
      "053",
      "053",
      "053",
      "081",
      "081",
      "081",
      "139",
      "139",
      "139",
      "139",
      "139",
      "218",
      "218",
      "218",
      "218",
      "240",
      "240",
      "240",
      "251",
      "251",
      "251",
      "251",
      "251",
      "293",
      "306",
      "306",
      "306",
      "306",
      "310C",
      "310C",
      "310C",
      "310C",
      "310C",
      "310C",
      "310C",
      "310C",
      "310C",
      "310C",
      "310C",
      "310C",
      "310C",
      "310C",
      "310C",
      "310C",
      "310C",
      "310C",
      "310C",
      "310C",
      "310C",
      "310C",
      "310C",
      "310C",
      "310C",
      "310C",
      "310C",
      "310C",
      "310C",
      "310C",
      "310C",
      "310C",
      "310C",
      "310C",
      "310C",
      "310C",
      "310C",
      "310C",
      "310C",
      "310C",
      "310C",
      "310C",
      "310C",
      "310C",
      "310C",
      "310C",
      "310C",
      "310C",
      "310C",
      "310C",
      "310C",
      "310C",
      "310C",
      "310C",
      "310C",
      "310C",
      "310C",
      "310C",
      "310C",
      "310C",
      "310C",
      "310C",
      "350C",
      "350C",
      "350C",
      "350C",
      "350C",
      "350C",
      "350C",
      "350C",
      "350C",
      "350C",
      "350C",
      "350C",
      "350C",
      "350C",
      "350C",
      "350C",
      "350C",
      "350C",
      "350C",
      "350C",
      "350C",
      "350C",
      "350C",
      "350C",
      "350C",
      "350C",
      "350C",
      "350C",
      "350C",
      "350C",
      "350C",
      "350C",
      "350C",
      "350C",
      "350C",
      "350C",
      "350C",
      "350C",
      "350C",
      "350C",
      "350C",
      "350C",
      "350C",
      "350C",
      "350C",
      "350C",
      "350C",
      "350C",
      "350C",
      "350C",
      "350C",
      "350C",
      "350C",
      "350C",
      "350C",
      "350C",
      "350C",
      "350C",
      "350C",
      "350C",
      "350C",
      "350C",
      "350C",
      "350C",
      "350C",
      "350C",
      "350C",
      "350C",
      "350C",
      "350C",
      "350C",
      "350C",
      "350C",
      "350C",
      "350C",
      "350C",
      "350C",
      "350C",
      "350C",
      "350C",
      "350C",
      "350C",
      "350C",
      "350C",
      "350C",
      "350C",
      "350C",
      "350C",
      "350C",
      "350C",
      "350C",
      "350C",
      "350C",
      "350C",
      "350C",
      "350C",
      "350C",
      "350C",
      "350C",
      "350C",
      "350C",
      "350C",
      "350C",
      "350C",
      "350C",
      "350C",
      "350C",
      "350C",
      "350C",
      "350C",
      "350C",
      "350C",
      "350C",
      "350C",
      "350C",
      "350C",
      "350C",
      "350C",
      "350C",
      "350C",
      "350C",
      "350C",
      "350C",
      "350C",
      "350C",
      "350C",
      "350C",
      "350C",
      "350C",
      "350C",
      "350C",
      "350C",
      "350C",
      "350C",
      "350C",
      "350C",
      "350C",
      "350C",
      "350C",
      "350C",
      "350C",
      "350C",
      "350C",
      "350C",
      "350C",
      "350C",
      "350C",
      "350C",
      "350C",
      "350C",
      "350C",
      "350C",
      "350C",
      "350C",
      "350C",
      "350C",
      "350C",
      "350C",
      "350C",
      "350C",
      "350C",
      "350C",
      "350C",
      "350C",
      "350C",
      "350C",
      "350C",
      "350C",
      "350C",
      "350C",
      "350C",
      "334",
      "334",
      "334",
      "314",
      "314",
      "314",
      "309",
      "309",
      "309",
      "309",
      "309",
      "309",
      "231",
      "231",
      "231",
      "192",
      "192",
      "192",
      "192",
      "192",
      "169",
      "169",
      "169",
      "169",
      "169",
      "067",
      "067",
      "067",
      "067",
      "041",
      "041",
      "041",
      "041",
      "041",
      "041",
      "040",
      "040",
      "040",
      "040",
      "039",
      "039",
      "039",
      "039",
      "023",
      "023",
      "023",
      "023",
      "023"
    ],
    "swim:geom": "path",
    "swim:speeds": [
      192,
      192,
      192,
      192,
      257,
      257,
      257,
      257,
      257,
      267,
      267,
      267,
      352,
      352,
      352,
      352,
      352,
      424,
      424,
      424,
      424,
      449,
      449,
      449,
      459,
      459,
      459,
      459,
      459,
      487,
      501,
      501,
      501,
      501,
      509,
      509,
      509,
      509,
      509,
      509,
      509,
      506,
      506,
      506,
      505,
      505,
      505,
      505,
      505,
      505,
      508,
      508,
      508,
      508,
      508,
      508,
      508,
      508,
      508,
      519,
      519,
      519,
      521,
      521,
      521,
      521,
      521,
      521,
      521,
      521,
      521,
      521,
      521,
      521,
      521,
      528,
      528,
      528,
      528,
      528,
      528,
      528,
      528,
      531,
      531,
      531,
      531,
      531,
      531,
      541,
      541,
      541,
      541,
      541,
      541,
      541,
      550,
      550,
      550,
      550,
      550,
      550,
      550,
      550,
      550,
      550,
      550,
      550,
      550,
      550,
      550,
      550,
      546,
      546,
      546,
      546,
      544,
      544,
      539,
      539,
      540,
      540,
      540,
      540,
      540,
      536,
      536,
      536,
      536,
      536,
      536,
      536,
      536,
      536,
      536,
      536,
      536,
      537,
      537,
      537,
      537,
      536,
      536,
      536,
      536,
      536,
      533,
      533,
      533,
      533,
      533,
      533,
      533,
      533,
      533,
      533,
      536,
      536,
      536,
      536,
      536,
      536,
      523,
      523,
      523,
      523,
      521,
      521,
      521,
      521,
      521,
      521,
      521,
      521,
      527,
      527,
      527,
      527,
      527,
      527,
      527,
      527,
      527,
      527,
      527,
      527,
      520,
      520,
      520,
      520,
      520,
      520,
      520,
      520,
      520,
      520,
      520,
      514,
      514,
      514,
      514,
      514,
      514,
      514,
      514,
      514,
      511,
      511,
      511,
      511,
      511,
      511,
      511,
      511,
      511,
      511,
      511,
      511,
      510,
      510,
      510,
      510,
      510,
      510,
      509,
      509,
      509,
      509,
      509,
      509,
      509,
      509,
      509,
      509,
      509,
      509,
      504,
      504,
      504,
      504,
      504,
      503,
      503,
      503,
      503,
      503,
      503,
      503,
      503,
      503,
      503,
      503,
      503,
      503,
      503,
      502,
      502,
      502,
      502,
      502,
      502,
      503,
      503,
      503,
      503,
      503,
      503,
      504,
      504,
      504,
      503,
      503,
      503,
      502,
      502,
      502,
      502,
      502,
      502,
      437,
      437,
      437,
      418,
      418,
      418,
      418,
      418,
      407,
      407,
      407,
      407,
      407,
      256,
      256,
      256,
      256,
      239,
      239,
      239,
      239,
      239,
      239,
      238,
      238,
      238,
      238,
      225,
      225,
      225,
      225,
      189,
      189,
      189,
      189,
      189
    ],
    "swim:timestamps": [
      1761596165,
      1761596165,
      1761596165,
      1761596165,
      1761596225,
      1761596225,
      1761596225,
      1761596225,
      1761596225,
      1761596285,
      1761596285,
      1761596285,
      1761596466,
      1761596466,
      1761596466,
      1761596466,
      1761596466,
      1761596766,
      1761596766,
      1761596766,
      1761596766,
      1761596886,
      1761596886,
      1761596886,
      1761597006,
      1761597006,
      1761597006,
      1761597006,
      1761597006,
      1761597257,
      1761597367,
      1761597367,
      1761597367,
      1761597367,
      1761597558,
      1761597558,
      1761597558,
      1761597558,
      1761597558,
      1761597558,
      1761597558,
      1761597678,
      1761597678,
      1761597678,
      1761597727,
      1761597727,
      1761597727,
      1761597727,
      1761597727,
      1761597727,
      1761597978,
      1761597978,
      1761597978,
      1761597978,
      1761597978,
      1761597978,
      1761597978,
      1761597978,
      1761597978,
      1761598339,
      1761598339,
      1761598339,
      1761598399,
      1761598399,
      1761598399,
      1761598399,
      1761598399,
      1761598399,
      1761598579,
      1761598579,
      1761598579,
      1761598579,
      1761598579,
      1761598579,
      1761598579,
      1761598760,
      1761598760,
      1761598760,
      1761598760,
      1761598760,
      1761598760,
      1761598760,
      1761598760,
      1761599421,
      1761599421,
      1761599421,
      1761599421,
      1761599421,
      1761599421,
      1761599541,
      1761599541,
      1761599541,
      1761599541,
      1761599541,
      1761599541,
      1761599541,
      1761600021,
      1761600021,
      1761600021,
      1761600021,
      1761600082,
      1761600082,
      1761600082,
      1761600082,
      1761600082,
      1761600082,
      1761600142,
      1761600166,
      1761600166,
      1761600166,
      1761600166,
      1761600166,
      1761600286,
      1761600286,
      1761600286,
      1761600286,
      1761600382,
      1761600382,
      1761600502,
      1761600502,
      1761600527,
      1761600527,
      1761600527,
      1761600527,
      1761600527,
      1761600947,
      1761600947,
      1761600947,
      1761600947,
      1761600947,
      1761600947,
      1761600947,
      1761601159,
      1761601159,
      1761601159,
      1761601159,
      1761601159,
      1761601219,
      1761601219,
      1761601219,
      1761601219,
      1761601308,
      1761601308,
      1761601308,
      1761601308,
      1761601308,
      1761601488,
      1761601488,
      1761601668,
      1761601668,
      1761601668,
      1761601668,
      1761601668,
      1761601668,
      1761601668,
      1761601668,
      1761601820,
      1761601820,
      1761601820,
      1761601820,
      1761601820,
      1761601820,
      1761602301,
      1761602301,
      1761602301,
      1761602301,
      1761602361,
      1761602361,
      1761602361,
      1761602361,
      1761602361,
      1761602361,
      1761602361,
      1761602361,
      1761603024,
      1761603024,
      1761603024,
      1761603024,
      1761603024,
      1761603024,
      1761603024,
      1761603024,
      1761603024,
      1761603024,
      1761603024,
      1761603024,
      1761603565,
      1761603565,
      1761603565,
      1761603565,
      1761603565,
      1761603565,
      1761603565,
      1761603565,
      1761603565,
      1761603565,
      1761603565,
      1761603986,
      1761603986,
      1761603986,
      1761603986,
      1761603986,
      1761603986,
      1761603986,
      1761603986,
      1761603986,
      1761604286,
      1761604286,
      1761604286,
      1761604286,
      1761604346,
      1761604346,
      1761604346,
      1761604346,
      1761604346,
      1761604346,
      1761604406,
      1761604406,
      1761604526,
      1761604526,
      1761604526,
      1761604526,
      1761604526,
      1761604526,
      1761604706,
      1761604706,
      1761604706,
      1761604706,
      1761604706,
      1761604706,
      1761605007,
      1761605007,
      1761605007,
      1761605007,
      1761605007,
      1761605007,
      1761605127,
      1761605127,
      1761605127,
      1761605127,
      1761605127,
      1761605187,
      1761605187,
      1761605187,
      1761605187,
      1761605187,
      1761605350,
      1761605350,
      1761605350,
      1761605350,
      1761605470,
      1761605470,
      1761605470,
      1761605470,
      1761605470,
      1761605548,
      1761605548,
      1761605548,
      1761605548,
      1761605548,
      1761605548,
      1761605650,
      1761605650,
      1761605650,
      1761605650,
      1761605650,
      1761605650,
      1761605848,
      1761605848,
      1761605848,
      1761605891,
      1761605891,
      1761605891,
      1761605908,
      1761605908,
      1761605908,
      1761605908,
      1761605908,
      1761605908,
      1761606131,
      1761606131,
      1761606131,
      1761606248,
      1761606248,
      1761606248,
      1761606248,
      1761606248,
      1761606329,
      1761606329,
      1761606329,
      1761606329,
      1761606329,
      1761606801,
      1761606801,
      1761606801,
      1761606801,
      1761606921,
      1761606921,
      1761606921,
      1761606921,
      1761606921,
      1761606921,
      1761606972,
      1761606972,
      1761606972,
      1761606972,
      1761607032,
      1761607032,
      1761607032,
      1761607032,
      1761607161,
      1761607161,
      1761607161,
      1761607161,
      1761607161
    ],
    "wof:geomhash": "fff9ff69ecdfb531a657321204475951",
    "wof:id": 1981785045,
    "wof:repo": "sfomuseum-data-flights-2025-10"
  },
  "bbox": [
    -122.29055555555556,
    30.00722222222222,
    -95.05388888888889,
    38.507777777777775
  ],
  "geometry": {"coordinates":[[-122.29055555555556,37.687777777777775],[-122.29055555555556,37.687777777777775],[-122.29055555555556,37.687777777777775],[-122.29055555555556,37.687777777777775],[-122.26888888888888,37.75138888888889],[-122.26888888888888,37.75138888888889],[-122.26888888888888,37.75138888888889],[-122.26888888888888,37.75138888888889],[-122.26888888888888,37.75138888888889],[-122.22,37.815],[-122.22,37.815],[-122.22,37.815],[-121.90055555555556,37.880833333333335],[-121.90055555555556,37.880833333333335],[-121.90055555555556,37.880833333333335],[-121.90055555555556,37.880833333333335],[-121.90055555555556,37.880833333333335],[-121.21055555555556,37.97666666666667],[-121.21055555555556,37.97666666666667],[-121.21055555555556,37.97666666666667],[-121.21055555555556,37.97666666666667],[-120.90305555555557,38.02222222222222],[-120.90305555555557,38.02222222222222],[-120.90305555555557,38.02222222222222],[-120.58805555555556,38.07027777777778],[-120.58805555555556,38.07027777777778],[-120.58805555555556,38.07027777777778],[-120.58805555555556,38.07027777777778],[-120.58805555555556,38.07027777777778],[-119.9038888888889,38.17222222222222],[-119.58055555555555,38.217777777777776],[-119.58055555555555,38.217777777777776],[-119.58055555555555,38.217777777777776],[-119.58055555555555,38.217777777777776],[-119.02694444444444,38.29555555555555],[-119.02694444444444,38.29555555555555],[-119.02694444444444,38.29555555555555],[-119.02694444444444,38.29555555555555],[-119.02694444444444,38.29555555555555],[-119.02694444444444,38.29555555555555],[-119.02694444444444,38.29555555555555],[-118.67750000000001,38.343333333333334],[-118.67750000000001,38.343333333333334],[-118.67750000000001,38.343333333333334],[-118.53527777777778,38.36194444444445],[-118.53527777777778,38.36194444444445],[-118.53527777777778,38.36194444444445],[-118.53527777777778,38.36194444444445],[-118.53527777777778,38.36194444444445],[-118.53527777777778,38.36194444444445],[-117.79583333333333,38.4575],[-117.79583333333333,38.4575],[-117.79583333333333,38.4575],[-117.79583333333333,38.4575],[-117.79583333333333,38.4575],[-117.79583333333333,38.4575],[-117.79583333333333,38.4575],[-117.79583333333333,38.4575],[-117.79583333333333,38.4575],[-116.69333333333334,38.507777777777775],[-116.69333333333334,38.507777777777775],[-116.69333333333334,38.507777777777775],[-116.50722222222223,38.503055555555555],[-116.50722222222223,38.503055555555555],[-116.50722222222223,38.503055555555555],[-116.50722222222223,38.503055555555555],[-116.50722222222223,38.503055555555555],[-116.50722222222223,38.503055555555555],[-115.95416666666667,38.48722222222222],[-115.95416666666667,38.48722222222222],[-115.95416666666667,38.48722222222222],[-115.95416666666667,38.48722222222222],[-115.95416666666667,38.48722222222222],[-115.95416666666667,38.48722222222222],[-115.95416666666667,38.48722222222222],[-115.39472222222223,38.46888888888889],[-115.39472222222223,38.46888888888889],[-115.39472222222223,38.46888888888889],[-115.39472222222223,38.46888888888889],[-115.39472222222223,38.46888888888889],[-115.39472222222223,38.46888888888889],[-115.39472222222223,38.46888888888889],[-115.39472222222223,38.46888888888889],[-113.31916666666666,38.37694444444445],[-113.31916666666666,38.37694444444445],[-113.31916666666666,38.37694444444445],[-113.31916666666666,38.37694444444445],[-113.31916666666666,38.37694444444445],[-113.31916666666666,38.37694444444445],[-112.94777777777779,38.33638888888889],[-112.94777777777779,38.33638888888889],[-112.94777777777779,38.33638888888889],[-112.94777777777779,38.33638888888889],[-112.94777777777779,38.33638888888889],[-112.94777777777779,38.33638888888889],[-112.94777777777779,38.33638888888889],[-111.53722222222223,37.81944444444445],[-111.53722222222223,37.81944444444445],[-111.53722222222223,37.81944444444445],[-111.53722222222223,37.81944444444445],[-111.36611111111111,37.75472222222222],[-111.36611111111111,37.75472222222222],[-111.36611111111111,37.75472222222222],[-111.36611111111111,37.75472222222222],[-111.36611111111111,37.75472222222222],[-111.36611111111111,37.75472222222222],[-111.19083333333333,37.68833333333333],[-111.12166666666666,37.66222222222222],[-111.12166666666666,37.66222222222222],[-111.12166666666666,37.66222222222222],[-111.12166666666666,37.66222222222222],[-111.12166666666666,37.66222222222222],[-110.74388888888889,37.5175],[-110.74388888888889,37.5175],[-110.74388888888889,37.5175],[-110.74388888888889,37.5175],[-110.50527777777778,37.425],[-110.50527777777778,37.425],[-110.16777777777779,37.29361111111111],[-110.16777777777779,37.29361111111111],[-110.07722222222222,37.2575],[-110.07722222222222,37.2575],[-110.07722222222222,37.2575],[-110.07722222222222,37.2575],[-110.07722222222222,37.2575],[-108.90666666666667,36.78861111111111],[-108.90666666666667,36.78861111111111],[-108.90666666666667,36.78861111111111],[-108.90666666666667,36.78861111111111],[-108.90666666666667,36.78861111111111],[-108.90666666666667,36.78861111111111],[-108.90666666666667,36.78861111111111],[-108.3425,36.55611111111111],[-108.3425,36.55611111111111],[-108.3425,36.55611111111111],[-108.3425,36.55611111111111],[-108.3425,36.55611111111111],[-108.17888888888889,36.48777777777778],[-108.17888888888889,36.48777777777778],[-108.17888888888889,36.48777777777778],[-108.17888888888889,36.48777777777778],[-107.91111111111111,36.375277777777775],[-107.91111111111111,36.375277777777775],[-107.91111111111111,36.375277777777775],[-107.91111111111111,36.375277777777775],[-107.91111111111111,36.375277777777775],[-107.42611111111111,36.169444444444444],[-107.42611111111111,36.169444444444444],[-106.93944444444445,35.959722222222226],[-106.93944444444445,35.959722222222226],[-106.93944444444445,35.959722222222226],[-106.93944444444445,35.959722222222226],[-106.93944444444445,35.959722222222226],[-106.93944444444445,35.959722222222226],[-106.93944444444445,35.959722222222226],[-106.93944444444445,35.959722222222226],[-106.55083333333333,35.790277777777774],[-106.55083333333333,35.790277777777774],[-106.55083333333333,35.790277777777774],[-106.55083333333333,35.790277777777774],[-106.55083333333333,35.790277777777774],[-106.55083333333333,35.790277777777774],[-105.27972222222222,35.22166666666667],[-105.27972222222222,35.22166666666667],[-105.27972222222222,35.22166666666667],[-105.27972222222222,35.22166666666667],[-105.1261111111111,35.15138888888889],[-105.1261111111111,35.15138888888889],[-105.1261111111111,35.15138888888889],[-105.1261111111111,35.15138888888889],[-105.1261111111111,35.15138888888889],[-105.1261111111111,35.15138888888889],[-105.1261111111111,35.15138888888889],[-105.1261111111111,35.15138888888889],[-103.26777777777778,34.619166666666665],[-103.26777777777778,34.619166666666665],[-103.26777777777778,34.619166666666665],[-103.26777777777778,34.619166666666665],[-103.26777777777778,34.619166666666665],[-103.26777777777778,34.619166666666665],[-103.26777777777778,34.619166666666665],[-103.26777777777778,34.619166666666665],[-103.26777777777778,34.619166666666665],[-103.26777777777778,34.619166666666665],[-103.26777777777778,34.619166666666665],[-103.26777777777778,34.619166666666665],[-101.80111111111111,34.1375],[-101.80111111111111,34.1375],[-101.80111111111111,34.1375],[-101.80111111111111,34.1375],[-101.80111111111111,34.1375],[-101.80111111111111,34.1375],[-101.80111111111111,34.1375],[-101.80111111111111,34.1375],[-101.80111111111111,34.1375],[-101.80111111111111,34.1375],[-101.80111111111111,34.1375],[-100.68611111111112,33.740833333333335],[-100.68611111111112,33.740833333333335],[-100.68611111111112,33.740833333333335],[-100.68611111111112,33.740833333333335],[-100.68611111111112,33.740833333333335],[-100.68611111111112,33.740833333333335],[-100.68611111111112,33.740833333333335],[-100.68611111111112,33.740833333333335],[-100.68611111111112,33.740833333333335],[-99.93611111111112,33.465833333333336],[-99.93611111111112,33.465833333333336],[-99.93611111111112,33.465833333333336],[-99.93611111111112,33.465833333333336],[-99.78083333333333,33.40833333333333],[-99.78083333333333,33.40833333333333],[-99.78083333333333,33.40833333333333],[-99.78083333333333,33.40833333333333],[-99.78083333333333,33.40833333333333],[-99.78083333333333,33.40833333333333],[-99.62555555555555,33.35027777777778],[-99.62555555555555,33.35027777777778],[-99.31166666666667,33.23222222222223],[-99.31166666666667,33.23222222222223],[-99.31166666666667,33.23222222222223],[-99.31166666666667,33.23222222222223],[-99.31166666666667,33.23222222222223],[-99.31166666666667,33.23222222222223],[-98.84944444444444,33.05638888888888],[-98.84944444444444,33.05638888888888],[-98.84944444444444,33.05638888888888],[-98.84944444444444,33.05638888888888],[-98.84944444444444,33.05638888888888],[-98.84944444444444,33.05638888888888],[-98.07027777777778,32.75472222222222],[-98.07027777777778,32.75472222222222],[-98.07027777777778,32.75472222222222],[-98.07027777777778,32.75472222222222],[-98.07027777777778,32.75472222222222],[-98.07027777777778,32.75472222222222],[-97.81527777777778,32.58083333333334],[-97.81527777777778,32.58083333333334],[-97.81527777777778,32.58083333333334],[-97.81527777777778,32.58083333333334],[-97.81527777777778,32.58083333333334],[-97.69611111111111,32.48527777777778],[-97.69611111111111,32.48527777777778],[-97.69611111111111,32.48527777777778],[-97.69611111111111,32.48527777777778],[-97.69611111111111,32.48527777777778],[-97.37416666666665,32.22527777777778],[-97.37416666666665,32.22527777777778],[-97.37416666666665,32.22527777777778],[-97.37416666666665,32.22527777777778],[-97.1375,32.033055555555556],[-97.1375,32.033055555555556],[-97.1375,32.033055555555556],[-97.1375,32.033055555555556],[-97.1375,32.033055555555556],[-96.99388888888889,31.915555555555553],[-96.99388888888889,31.915555555555553],[-96.99388888888889,31.915555555555553],[-96.99388888888889,31.915555555555553],[-96.99388888888889,31.915555555555553],[-96.99388888888889,31.915555555555553],[-96.78111111111112,31.740555555555556],[-96.78111111111112,31.740555555555556],[-96.78111111111112,31.740555555555556],[-96.78111111111112,31.740555555555556],[-96.78111111111112,31.740555555555556],[-96.78111111111112,31.740555555555556],[-96.44,31.398333333333333],[-96.44,31.398333333333333],[-96.44,31.398333333333333],[-96.38,31.30027777777778],[-96.38,31.30027777777778],[-96.38,31.30027777777778],[-96.36416666666666,31.274166666666666],[-96.36416666666666,31.274166666666666],[-96.36416666666666,31.274166666666666],[-96.36416666666666,31.274166666666666],[-96.36416666666666,31.274166666666666],[-96.36416666666666,31.274166666666666],[-96.09888888888888,30.8475],[-96.09888888888888,30.8475],[-96.09888888888888,30.8475],[-95.96722222222222,30.642777777777777],[-95.96722222222222,30.642777777777777],[-95.96722222222222,30.642777777777777],[-95.96722222222222,30.642777777777777],[-95.96722222222222,30.642777777777777],[-95.89055555555557,30.521944444444443],[-95.89055555555557,30.521944444444443],[-95.89055555555557,30.521944444444443],[-95.89055555555557,30.521944444444443],[-95.89055555555557,30.521944444444443],[-95.27472222222222,30.091944444444444],[-95.27472222222222,30.091944444444444],[-95.27472222222222,30.091944444444444],[-95.27472222222222,30.091944444444444],[-95.11777777777777,30.091944444444444],[-95.11777777777777,30.091944444444444],[-95.11777777777777,30.091944444444444],[-95.11777777777777,30.091944444444444],[-95.11777777777777,30.091944444444444],[-95.11777777777777,30.091944444444444],[-95.06694444444445,30.08833333333333],[-95.06694444444445,30.08833333333333],[-95.06694444444445,30.08833333333333],[-95.06694444444445,30.08833333333333],[-95.05388888888889,30.031666666666666],[-95.05388888888889,30.031666666666666],[-95.05388888888889,30.031666666666666],[-95.05388888888889,30.031666666666666],[-95.19805555555556,30.00722222222222],[-95.19805555555556,30.00722222222222],[-95.19805555555556,30.00722222222222],[-95.19805555555556,30.00722222222222],[-95.19805555555556,30.00722222222222]],"type":"LineString"}
}
