{
  "id": 1981610297,
  "type": "Feature",
  "properties": {
    "geom:area": 0,
    "geom:bbox": "-122.464910,36.723910,-121.302070,37.700790",
    "geom:latitude": 37.20256625688086,
    "geom:longitude": -121.98455062638223,
    "src:alt_label": "swim-takeoff",
    "src:geom": "swim",
    "swim:elevations": [
      293,
      736,
      1032,
      1132,
      1295,
      1522,
      1732,
      2119,
      2578,
      3035,
      3493,
      3787,
      4330,
      4566,
      5074,
      5340,
      5847,
      6058,
      6506,
      6728,
      7021,
      7366,
      7477,
      7586,
      7672,
      7859,
      8037,
      8329,
      8530,
      8713,
      8933,
      9119,
      9297,
      9419,
      9551,
      9663
    ],
    "swim:geom": "takeoff",
    "swim:timestamps": [
      1759826275,
      1759826308,
      1759826338,
      1759826363,
      1759826391,
      1759826410,
      1759826425,
      1759826449,
      1759826471,
      1759826494,
      1759826537,
      1759826568,
      1759826603,
      1759826618,
      1759826661,
      1759826683,
      1759826728,
      1759826745,
      1759826786,
      1759826811,
      1759826840,
      1759826877,
      1759826892,
      1759826905,
      1759826913,
      1759826935,
      1759826959,
      1759826990,
      1759827019,
      1759827050,
      1759827087,
      1759827114,
      1759827145,
      1759827172,
      1759827197,
      1759827213
    ],
    "wof:geomhash": "c4bfefd11de93059cbbe1bf4fc838be7",
    "wof:id": 1981610297,
    "wof:repo": "sfomuseum-data-flights-2025-10"
  },
  "bbox": [
    -122.46491,
    36.72391,
    -121.30207,
    37.70079
  ],
  "geometry": {"coordinates":[[-122.36623,37.6341],[-122.36392,37.65619],[-122.36174,37.67637],[-122.36974,37.69448],[-122.4027,37.70079],[-122.4209,37.68462],[-122.4248,37.66789],[-122.4315,37.63801],[-122.43813,37.61045],[-122.44697,37.58157],[-122.46491,37.52547],[-122.45852,37.48039],[-122.40864,37.44197],[-122.38422,37.42833],[-122.31549,37.38626],[-122.27975,37.36309],[-122.20514,37.31546],[-122.17586,37.29669],[-122.10606,37.25173],[-122.06243,37.22351],[-122.01178,37.19066],[-121.94504,37.14726],[-121.91858,37.13004],[-121.895,37.11467],[-121.88082,37.10534],[-121.83955,37.07832],[-121.79661,37.04995],[-121.73898,37.01203],[-121.68378,36.97639],[-121.62364,36.93687],[-121.55405,36.89081],[-121.49936,36.85502],[-121.43861,36.81488],[-121.38502,36.77911],[-121.33466,36.74549],[-121.30207,36.72391]],"type":"LineString"}
}
