{
  "id": 1981774111,
  "type": "Feature",
  "properties": {
    "geom:area": 0,
    "geom:bbox": "-122.470000,30.190000,-97.670000,37.680000",
    "geom:latitude": 33.3316129391447,
    "geom:longitude": -110.35495102121295,
    "src:alt_label": "swim-route",
    "src:geom": "swim",
    "swim:geom": "route",
    "wof:geomhash": "9672b90dc27b7ad2b47d351244303d5c",
    "wof:id": 1981774111,
    "wof:repo": "sfomuseum-data-flights-2025-10"
  },
  "bbox": [
    -122.47,
    30.19,
    -97.67,
    37.68
  ],
  "geometry": {"coordinates":[[-122.38,37.62],[-122.36,37.68],[-122.38,37.64],[-122.39,37.64],[-122.42,37.58],[-122.42,37.57],[-122.44,37.55],[-122.47,37.5],[-122.47,37.49],[-122.47,37.49],[-122.43,37.46],[-122.33,37.4],[-122.17,37.29],[-122.14,37.27],[-122.1,37.25],[-122.04,37.21],[-121.91,37.13],[-121.9,37.12],[-121.82,37.07],[-121.71,36.99],[-121.65,36.95],[-121.63,36.94],[-121.53,36.88],[-121.48,36.84],[-121.41,36.79],[-121.27,36.7],[-120.95,36.49],[-120.93,36.47],[-120.76,36.36],[-120,35.85],[-119.95,35.82],[-119.43,35.5],[-118.66,35.29],[-118.58,35.26],[-118.2,35.13],[-117.36,35],[-117.16,34.92],[-116.7,34.75],[-116.21,34.72],[-115.62,34.51],[-115.13,34.46],[-114,34.16],[-113.46,34.02],[-112.65,33.79],[-112.18,33.77],[-111.81,33.66],[-111.7,33.52],[-110.5,33.25],[-108,32.42],[-106.43,31.87],[-106.28,31.82],[-106.23,31.81],[-105.75,31.75],[-105.08,31.67],[-105.02,31.66],[-103.57,31.47],[-102.21,31.3],[-102.15,31.29],[-101.33,31.18],[-100.2,31.01],[-100.09,31],[-99.99,30.98],[-99.82,30.96],[-99.57,30.92],[-99.52,30.91],[-99.33,30.88],[-99.31,30.88],[-99.21,30.86],[-98.85,30.81],[-98.79,30.8],[-98.45,30.76],[-98.43,30.76],[-98.4,30.75],[-98.28,30.7],[-98.15,30.65],[-98.12,30.64],[-98.1,30.63],[-97.94,30.56],[-97.93,30.56],[-97.89,30.53],[-97.84,30.49],[-97.75,30.43],[-97.75,30.41],[-97.73,30.37],[-97.73,30.36],[-97.72,30.33],[-97.69,30.25],[-97.67,30.19]],"type":"LineString"}
}
