{
  "id": 1981767671,
  "type": "Feature",
  "properties": {
    "geom:area": 0,
    "geom:bbox": "-122.566667,37.683333,-104.907778,40.848056",
    "geom:latitude": 40.11026055542051,
    "geom:longitude": -114.00328177899961,
    "src:alt_label": "swim-path",
    "src:geom": "swim",
    "swim:altitudes": [
      "048",
      "048",
      "048",
      "074",
      "074",
      "074",
      "106",
      "106",
      "106",
      "106",
      "106",
      "190",
      "190",
      "190",
      "190",
      "190",
      "192",
      "192",
      "230",
      "230",
      "230",
      "230",
      "230",
      "246",
      "258",
      "258",
      "258",
      "270C",
      "270C",
      "270C",
      "270C",
      "270C",
      "270C",
      "270C",
      "270C",
      "270C",
      "270C",
      "270C",
      "270C",
      "270C",
      "270C",
      "270C",
      "270C",
      "270C",
      "270C",
      "270C",
      "270C",
      "270C",
      "270C",
      "270C",
      "270C",
      "270C",
      "270C",
      "270C",
      "270C",
      "270C",
      "270C",
      "270C",
      "270C",
      "270C",
      "270C",
      "270C",
      "270C",
      "270C",
      "270C",
      "270C",
      "270C",
      "270C",
      "270C",
      "270C",
      "270C",
      "270C",
      "270C",
      "270C",
      "270C",
      "270C",
      "270C",
      "270C",
      "270C",
      "270C",
      "270C",
      "270C",
      "270C",
      "270C",
      "270C",
      "270C",
      "270C",
      "270C",
      "270C",
      "270C",
      "270C",
      "270C",
      "270C",
      "270C",
      "270C",
      "270C",
      "270C",
      "270C",
      "270C",
      "270C",
      "270C",
      "270C",
      "270C",
      "270C",
      "270C",
      "270C",
      "270C",
      "270C",
      "270C",
      "270C",
      "270C",
      "270C",
      "270C",
      "270C",
      "270C",
      "270C",
      "270C",
      "270C",
      "270C",
      "270C",
      "270C",
      "270C",
      "270C",
      "270C",
      "270C",
      "270C",
      "270C",
      "270C",
      "270C",
      "270C",
      "270C",
      "270C",
      "270C",
      "270C",
      "270C",
      "270C",
      "270",
      "270",
      "270",
      "270",
      "270",
      "270",
      "270",
      "270",
      "270",
      "270",
      "222",
      "222",
      "222",
      "203",
      "179",
      "179",
      "153",
      "153",
      "153",
      "153",
      "117",
      "117",
      "117",
      "117"
    ],
    "swim:geom": "path",
    "swim:speeds": [
      245,
      245,
      245,
      282,
      282,
      282,
      294,
      294,
      294,
      294,
      294,
      447,
      447,
      447,
      447,
      447,
      446,
      446,
      467,
      467,
      467,
      467,
      467,
      474,
      489,
      489,
      489,
      516,
      516,
      516,
      514,
      514,
      514,
      514,
      514,
      514,
      513,
      513,
      516,
      514,
      514,
      514,
      515,
      515,
      515,
      515,
      515,
      505,
      505,
      505,
      505,
      505,
      504,
      506,
      506,
      506,
      506,
      506,
      506,
      516,
      518,
      518,
      518,
      518,
      513,
      513,
      513,
      513,
      513,
      513,
      511,
      511,
      510,
      510,
      510,
      510,
      501,
      500,
      500,
      500,
      501,
      501,
      501,
      501,
      501,
      513,
      524,
      524,
      524,
      524,
      524,
      499,
      499,
      499,
      490,
      490,
      490,
      489,
      489,
      488,
      488,
      488,
      481,
      477,
      477,
      477,
      477,
      477,
      477,
      477,
      480,
      467,
      463,
      463,
      463,
      461,
      461,
      460,
      460,
      459,
      459,
      459,
      459,
      460,
      459,
      459,
      459,
      459,
      457,
      456,
      455,
      455,
      455,
      455,
      452,
      452,
      450,
      450,
      450,
      449,
      449,
      449,
      449,
      449,
      449,
      449,
      413,
      413,
      413,
      402,
      364,
      364,
      322,
      322,
      322,
      322,
      310,
      310,
      310,
      310
    ],
    "swim:timestamps": [
      1761419558,
      1761419558,
      1761419558,
      1761419618,
      1761419618,
      1761419618,
      1761419678,
      1761419678,
      1761419678,
      1761419678,
      1761419678,
      1761419996,
      1761419996,
      1761419996,
      1761419996,
      1761419996,
      1761420056,
      1761420056,
      1761420176,
      1761420176,
      1761420176,
      1761420176,
      1761420176,
      1761420236,
      1761420296,
      1761420296,
      1761420296,
      1761420416,
      1761420416,
      1761420416,
      1761420476,
      1761420476,
      1761420476,
      1761420476,
      1761420559,
      1761420559,
      1761420596,
      1761420596,
      1761420656,
      1761420679,
      1761420679,
      1761420679,
      1761420777,
      1761420777,
      1761420777,
      1761420777,
      1761420777,
      1761421197,
      1761421197,
      1761421220,
      1761421220,
      1761421220,
      1761421257,
      1761421280,
      1761421280,
      1761421280,
      1761421280,
      1761421280,
      1761421280,
      1761421437,
      1761421461,
      1761421461,
      1761421641,
      1761421641,
      1761421818,
      1761421858,
      1761421858,
      1761421858,
      1761421858,
      1761421858,
      1761421918,
      1761421918,
      1761421938,
      1761421938,
      1761421938,
      1761421938,
      1761422239,
      1761422299,
      1761422299,
      1761422299,
      1761422539,
      1761422539,
      1761422539,
      1761422539,
      1761422539,
      1761422719,
      1761422960,
      1761422960,
      1761422960,
      1761422960,
      1761422960,
      1761423080,
      1761423080,
      1761423080,
      1761423441,
      1761423441,
      1761423441,
      1761423501,
      1761423501,
      1761423561,
      1761423561,
      1761423561,
      1761423801,
      1761423981,
      1761423981,
      1761423981,
      1761423981,
      1761424102,
      1761424102,
      1761424102,
      1761424120,
      1761424342,
      1761424402,
      1761424402,
      1761424402,
      1761424462,
      1761424462,
      1761424541,
      1761424541,
      1761424601,
      1761424601,
      1761424642,
      1761424642,
      1761424762,
      1761424781,
      1761424781,
      1761424781,
      1761424781,
      1761424943,
      1761424961,
      1761425003,
      1761425003,
      1761425003,
      1761425003,
      1761425125,
      1761425125,
      1761425382,
      1761425382,
      1761425382,
      1761425502,
      1761425502,
      1761425502,
      1761425562,
      1761425562,
      1761425562,
      1761425562,
      1761425742,
      1761425742,
      1761425742,
      1761425800,
      1761425922,
      1761425922,
      1761426052,
      1761426052,
      1761426052,
      1761426052,
      1761426223,
      1761426223,
      1761426223,
      1761426223
    ],
    "wof:geomhash": "5e017a629ebfb13349a9918d64415c90",
    "wof:id": 1981767671,
    "wof:repo": "sfomuseum-data-flights-2025-10"
  },
  "bbox": [
    -122.56666666666666,
    37.68333333333333,
    -104.90777777777778,
    40.84805555555556
  ],
  "geometry": {"coordinates":[[-122.51666666666667,37.68333333333333],[-122.51666666666667,37.68333333333333],[-122.51666666666667,37.68333333333333],[-122.55,37.75],[-122.55,37.75],[-122.55,37.75],[-122.56666666666666,37.81666666666667],[-122.56666666666666,37.81666666666667],[-122.56666666666666,37.81666666666667],[-122.56666666666666,37.81666666666667],[-122.56666666666666,37.81666666666667],[-121.93972222222223,38.11222222222222],[-121.93972222222223,38.11222222222222],[-121.93972222222223,38.11222222222222],[-121.93972222222223,38.11222222222222],[-121.93972222222223,38.11222222222222],[-121.78277777777778,38.17611111111111],[-121.78277777777778,38.17611111111111],[-121.49555555555555,38.29333333333333],[-121.49555555555555,38.29333333333333],[-121.49555555555555,38.29333333333333],[-121.49555555555555,38.29333333333333],[-121.49555555555555,38.29333333333333],[-121.35138888888888,38.36],[-121.22083333333333,38.44027777777777],[-121.22083333333333,38.44027777777777],[-121.22083333333333,38.44027777777777],[-120.9413888888889,38.613055555555555],[-120.9413888888889,38.613055555555555],[-120.9413888888889,38.613055555555555],[-120.79805555555555,38.70055555555556],[-120.79805555555555,38.70055555555556],[-120.79805555555555,38.70055555555556],[-120.79805555555555,38.70055555555556],[-120.61333333333333,38.81472222222222],[-120.61333333333333,38.81472222222222],[-120.51277777777777,38.87388888888889],[-120.51277777777777,38.87388888888889],[-120.36666666666666,38.96222222222222],[-120.32249999999999,38.98972222222222],[-120.32249999999999,38.98972222222222],[-120.32249999999999,38.98972222222222],[-120.05805555555555,39.14722222222222],[-120.05805555555555,39.14722222222222],[-120.05805555555555,39.14722222222222],[-120.05805555555555,39.14722222222222],[-120.05805555555555,39.14722222222222],[-119.03305555555555,39.74916666666667],[-119.03305555555555,39.74916666666667],[-119.00694444444444,39.76416666666667],[-119.00694444444444,39.76416666666667],[-119.00694444444444,39.76416666666667],[-118.88722222222223,39.83305555555556],[-118.85972222222222,39.848888888888894],[-118.85972222222222,39.848888888888894],[-118.85972222222222,39.848888888888894],[-118.85972222222222,39.848888888888894],[-118.85972222222222,39.848888888888894],[-118.85972222222222,39.848888888888894],[-118.40722222222223,39.98638888888889],[-118.33527777777778,39.99916666666667],[-118.33527777777778,39.99916666666667],[-117.76694444444445,40.09722222222222],[-117.76694444444445,40.09722222222222],[-117.22416666666666,40.191111111111105],[-117.11333333333333,40.21027777777778],[-117.11333333333333,40.21027777777778],[-117.11333333333333,40.21027777777778],[-117.11333333333333,40.21027777777778],[-117.11333333333333,40.21027777777778],[-116.92944444444444,40.24111111111111],[-116.92944444444444,40.24111111111111],[-116.86805555555554,40.25138888888889],[-116.86805555555554,40.25138888888889],[-116.86805555555554,40.25138888888889],[-116.86805555555554,40.25138888888889],[-115.98527777777778,40.39527777777778],[-115.80749999999999,40.42333333333333],[-115.80749999999999,40.42333333333333],[-115.80749999999999,40.42333333333333],[-115.0936111111111,40.53333333333333],[-115.0936111111111,40.53333333333333],[-115.0936111111111,40.53333333333333],[-115.0936111111111,40.53333333333333],[-115.0936111111111,40.53333333333333],[-114.54166666666667,40.615],[-113.78583333333333,40.72166666666667],[-113.78583333333333,40.72166666666667],[-113.78583333333333,40.72166666666667],[-113.78583333333333,40.72166666666667],[-113.78583333333333,40.72166666666667],[-113.41666666666667,40.75194444444445],[-113.41666666666667,40.75194444444445],[-113.41666666666667,40.75194444444445],[-112.34444444444443,40.82694444444445],[-112.34444444444443,40.82694444444445],[-112.34444444444443,40.82694444444445],[-112.16666666666667,40.83861111111111],[-112.16666666666667,40.83861111111111],[-111.99277777777777,40.84805555555556],[-111.99277777777777,40.84805555555556],[-111.99277777777777,40.84805555555556],[-111.26166666666667,40.81361111111111],[-110.74305555555556,40.78444444444444],[-110.74305555555556,40.78444444444444],[-110.74305555555556,40.78444444444444],[-110.74305555555556,40.78444444444444],[-110.42611111111111,40.76555555555556],[-110.42611111111111,40.76555555555556],[-110.42611111111111,40.76555555555556],[-110.35638888888889,40.76138888888889],[-109.72111111111111,40.72027777777778],[-109.55361111111111,40.70888888888889],[-109.55361111111111,40.70888888888889],[-109.55361111111111,40.70888888888889],[-109.38666666666667,40.697222222222216],[-109.38666666666667,40.697222222222216],[-109.15277777777779,40.68055555555555],[-109.15277777777779,40.68055555555555],[-108.98583333333333,40.66861111111111],[-108.98583333333333,40.66861111111111],[-108.87666666666667,40.661944444444444],[-108.87666666666667,40.661944444444444],[-108.54333333333334,40.64],[-108.48222222222222,40.63583333333333],[-108.48222222222222,40.63583333333333],[-108.48222222222222,40.63583333333333],[-108.48222222222222,40.63583333333333],[-108.04722222222222,40.60527777777778],[-108.01194444444444,40.60277777777778],[-107.885,40.593611111111116],[-107.885,40.593611111111116],[-107.885,40.593611111111116],[-107.885,40.593611111111116],[-107.55777777777777,40.56916666666667],[-107.55777777777777,40.56916666666667],[-106.845,40.50833333333333],[-106.845,40.50833333333333],[-106.845,40.50833333333333],[-106.51888888888888,40.477222222222224],[-106.51888888888888,40.477222222222224],[-106.51888888888888,40.477222222222224],[-106.38361111111112,40.46388888888889],[-106.38361111111112,40.46388888888889],[-106.38361111111112,40.46388888888889],[-106.38361111111112,40.46388888888889],[-105.89111111111112,40.41444444444444],[-105.89111111111112,40.41444444444444],[-105.89111111111112,40.41444444444444],[-105.75,40.4],[-105.47944444444444,40.36361111111111],[-105.47944444444444,40.36361111111111],[-105.21666666666667,40.333333333333336],[-105.21666666666667,40.333333333333336],[-105.21666666666667,40.333333333333336],[-105.21666666666667,40.333333333333336],[-104.90777777777778,40.26722222222222],[-104.90777777777778,40.26722222222222],[-104.90777777777778,40.26722222222222],[-104.90777777777778,40.26722222222222]],"type":"LineString"}
}
