{
  "id": 1981797359,
  "type": "Feature",
  "properties": {
    "geom:area": 0,
    "geom:bbox": "-122.355278,32.814444,-117.342500,37.610278",
    "geom:latitude": 35.086902815718,
    "geom:longitude": -120.03248159882921,
    "src:alt_label": "swim-path",
    "src:geom": "swim",
    "swim:altitudes": [
      "057",
      "057",
      "057",
      "057",
      "110",
      "132",
      "132",
      "132",
      "132",
      "132",
      "263",
      "263",
      "263",
      "279",
      "279",
      "279",
      "279",
      "350",
      "350",
      "350",
      "350",
      "350",
      "360C",
      "360C",
      "360C",
      "360C",
      "360C",
      "360C",
      "360C",
      "360C",
      "360C",
      "360C",
      "360C",
      "360C",
      "360C",
      "360C",
      "360C",
      "360C",
      "360C",
      "360C",
      "360C",
      "360C",
      "360",
      "360",
      "360",
      "360",
      "360",
      "360",
      "344",
      "322",
      "322",
      "298",
      "298",
      "239",
      "239",
      "239",
      "232",
      "186",
      "186",
      "126",
      "126",
      "126",
      "126",
      "126",
      "107",
      "107",
      "098",
      "080",
      "080",
      "059",
      "059",
      "052",
      "052",
      "052",
      "046",
      "046",
      "040",
      "039",
      "039",
      "039",
      "039",
      "022",
      "022",
      "001",
      "001",
      "001",
      "001",
      "001"
    ],
    "swim:geom": "path",
    "swim:speeds": [
      265,
      265,
      265,
      265,
      303,
      339,
      339,
      339,
      339,
      339,
      419,
      419,
      419,
      428,
      428,
      428,
      428,
      428,
      428,
      428,
      428,
      428,
      428,
      428,
      428,
      428,
      428,
      428,
      432,
      428,
      428,
      428,
      431,
      431,
      431,
      430,
      430,
      425,
      425,
      425,
      425,
      425,
      434,
      434,
      434,
      434,
      434,
      434,
      437,
      437,
      437,
      427,
      427,
      392,
      392,
      392,
      392,
      372,
      372,
      347,
      347,
      347,
      347,
      347,
      338,
      338,
      301,
      261,
      261,
      210,
      210,
      202,
      202,
      202,
      191,
      191,
      190,
      182,
      182,
      182,
      182,
      166,
      166,
      153,
      153,
      153,
      153,
      153
    ],
    "swim:timestamps": [
      1761788207,
      1761788207,
      1761788207,
      1761788207,
      1761788327,
      1761788388,
      1761788388,
      1761788388,
      1761788388,
      1761788388,
      1761788748,
      1761788748,
      1761788748,
      1761788808,
      1761788808,
      1761788808,
      1761788808,
      1761789109,
      1761789109,
      1761789109,
      1761789109,
      1761789109,
      1761789469,
      1761789469,
      1761789469,
      1761789529,
      1761789529,
      1761789529,
      1761789592,
      1761789649,
      1761789649,
      1761789649,
      1761789772,
      1761789772,
      1761789772,
      1761789890,
      1761789890,
      1761790070,
      1761790070,
      1761790070,
      1761790070,
      1761790070,
      1761790491,
      1761790491,
      1761790491,
      1761790491,
      1761790491,
      1761790491,
      1761790613,
      1761790673,
      1761790673,
      1761790733,
      1761790733,
      1761790884,
      1761790884,
      1761790884,
      1761790914,
      1761791034,
      1761791034,
      1761791214,
      1761791214,
      1761791214,
      1761791214,
      1761791214,
      1761791274,
      1761791274,
      1761791334,
      1761791424,
      1761791424,
      1761791544,
      1761791544,
      1761791574,
      1761791574,
      1761791574,
      1761791604,
      1761791604,
      1761791634,
      1761791664,
      1761791664,
      1761791664,
      1761791664,
      1761791784,
      1761791784,
      1761791935,
      1761791935,
      1761791935,
      1761791935,
      1761791935
    ],
    "wof:geomhash": "8e07e7db15553a281535ad99514b786d",
    "wof:id": 1981797359,
    "wof:repo": "sfomuseum-data-flights-2025-10"
  },
  "bbox": [
    -122.35527777777777,
    32.81444444444444,
    -117.3425,
    37.61027777777778
  ],
  "geometry": {"coordinates":[[-117.3425,32.81444444444444],[-117.3425,32.81444444444444],[-117.3425,32.81444444444444],[-117.3425,32.81444444444444],[-117.4888888888889,32.90888888888889],[-117.57666666666667,32.96527777777778],[-117.57666666666667,32.96527777777778],[-117.57666666666667,32.96527777777778],[-117.57666666666667,32.96527777777778],[-117.57666666666667,32.96527777777778],[-118.13277777777778,33.42027777777778],[-118.13277777777778,33.42027777777778],[-118.13277777777778,33.42027777777778],[-118.23361111111112,33.504444444444445],[-118.23361111111112,33.504444444444445],[-118.23361111111112,33.504444444444445],[-118.23361111111112,33.504444444444445],[-118.75166666666667,33.931666666666665],[-118.75166666666667,33.931666666666665],[-118.75166666666667,33.931666666666665],[-118.75166666666667,33.931666666666665],[-118.75166666666667,33.931666666666665],[-119.39,34.41083333333333],[-119.39,34.41083333333333],[-119.39,34.41083333333333],[-119.48944444444444,34.49638888888889],[-119.48944444444444,34.49638888888889],[-119.48944444444444,34.49638888888889],[-119.59166666666667,34.584722222222226],[-119.67111111111112,34.653055555555554],[-119.67111111111112,34.653055555555554],[-119.67111111111112,34.653055555555554],[-119.89444444444445,34.843611111111116],[-119.89444444444445,34.843611111111116],[-119.89444444444445,34.843611111111116],[-120.07583333333334,34.99777777777778],[-120.07583333333334,34.99777777777778],[-120.37972222222221,35.25416666666667],[-120.37972222222221,35.25416666666667],[-120.37972222222221,35.25416666666667],[-120.37972222222221,35.25416666666667],[-120.37972222222221,35.25416666666667],[-121.05888888888889,35.899166666666666],[-121.05888888888889,35.899166666666666],[-121.05888888888889,35.899166666666666],[-121.05888888888889,35.899166666666666],[-121.05888888888889,35.899166666666666],[-121.05888888888889,35.899166666666666],[-121.25416666666666,36.081944444444446],[-121.35388888888889,36.17527777777777],[-121.35388888888889,36.17527777777777],[-121.45027777777779,36.265],[-121.45027777777779,36.265],[-121.7,36.483333333333334],[-121.7,36.483333333333334],[-121.7,36.483333333333334],[-121.71916666666667,36.52055555555555],[-121.86888888888888,36.70944444444445],[-121.86888888888888,36.70944444444445],[-121.96861111111112,36.99166666666667],[-121.96861111111112,36.99166666666667],[-121.96861111111112,36.99166666666667],[-121.96861111111112,36.99166666666667],[-121.96861111111112,36.99166666666667],[-122.00333333333333,37.08166666666667],[-122.00333333333333,37.08166666666667],[-122.0363888888889,37.164722222222224],[-122.08333333333333,37.28333333333333],[-122.08333333333333,37.28333333333333],[-122.08333333333333,37.4],[-122.08333333333333,37.4],[-122.09666666666666,37.43111111111111],[-122.09666666666666,37.43111111111111],[-122.09666666666666,37.43111111111111],[-122.1,37.45],[-122.1,37.45],[-122.12055555555555,37.47972222222222],[-122.13333333333334,37.5],[-122.13333333333334,37.5],[-122.13333333333334,37.5],[-122.13333333333334,37.5],[-122.23333333333333,37.56666666666667],[-122.23333333333333,37.56666666666667],[-122.35527777777777,37.61027777777778],[-122.35527777777777,37.61027777777778],[-122.35527777777777,37.61027777777778],[-122.35527777777777,37.61027777777778],[-122.35527777777777,37.61027777777778]],"type":"LineString"}
}
