{
  "id": 1981635845,
  "type": "Feature",
  "properties": {
    "geom:area": 0,
    "geom:bbox": "-122.469680,37.202240,-121.303890,37.721280",
    "geom:latitude": 37.397685640007985,
    "geom:longitude": -122.01724814580983,
    "src:alt_label": "swim-takeoff",
    "src:geom": "swim",
    "swim:elevations": [
      289,
      731,
      792,
      1235,
      1339,
      1688,
      1935,
      2366,
      2817,
      3276,
      3509,
      3709,
      3811,
      4086,
      4463,
      4842,
      4899,
      5058,
      5221,
      5665,
      5825,
      5880,
      6451,
      6494,
      6733,
      6913,
      7152,
      7213,
      7367,
      7586,
      7892,
      8037,
      8058
    ],
    "swim:geom": "takeoff",
    "swim:timestamps": [
      1760133549,
      1760133598,
      1760133607,
      1760133654,
      1760133660,
      1760133684,
      1760133699,
      1760133727,
      1760133761,
      1760133802,
      1760133831,
      1760133850,
      1760133860,
      1760133881,
      1760133918,
      1760133955,
      1760133964,
      1760133985,
      1760133999,
      1760134032,
      1760134044,
      1760134050,
      1760134104,
      1760134111,
      1760134163,
      1760134184,
      1760134217,
      1760134226,
      1760134244,
      1760134271,
      1760134318,
      1760134346,
      1760134350
    ],
    "wof:geomhash": "f6852508f624cc0174cc542508124c2c",
    "wof:id": 1981635845,
    "wof:repo": "sfomuseum-data-flights-2025-10"
  },
  "bbox": [
    -122.46968,
    37.20224,
    -121.30389,
    37.72128
  ],
  "geometry": {"coordinates":[[-122.36352,37.6366],[-122.35997,37.67766],[-122.36036,37.68655],[-122.40217,37.72128],[-122.41119,37.72084],[-122.44115,37.70536],[-122.4485,37.68748],[-122.45204,37.65299],[-122.45828,37.61118],[-122.46557,37.55767],[-122.46968,37.51592],[-122.45959,37.48866],[-122.44868,37.47627],[-122.41395,37.45459],[-122.3473,37.41735],[-122.26591,37.39699],[-122.24528,37.39313],[-122.19694,37.38366],[-122.16375,37.37706],[-122.08592,37.36157],[-122.05816,37.35601],[-122.0442,37.35319],[-121.91866,37.3279],[-121.90179,37.32453],[-121.77461,37.29872],[-121.72252,37.28819],[-121.64012,37.27134],[-121.6183,37.2669],[-121.57289,37.25767],[-121.50541,37.24386],[-121.38579,37.21933],[-121.31455,37.20449],[-121.30389,37.20224]],"type":"LineString"}
}
