{
  "id": 1981640541,
  "type": "Feature",
  "properties": {
    "geom:area": 0,
    "geom:bbox": "-123.501410,37.175430,-122.122880,37.612850",
    "geom:latitude": 37.34541911079543,
    "geom:longitude": -122.6680544600768,
    "src:alt_label": "swim-approach",
    "src:geom": "swim",
    "swim:elevations": [
      4885,
      4724,
      4327,
      4142,
      3820,
      3539,
      3382,
      3294,
      3201,
      3161,
      3047,
      3045,
      2793,
      2636,
      2453,
      2438,
      2438,
      2438,
      2438,
      2438,
      2438,
      2374,
      2298,
      2267,
      2064,
      1954,
      1827,
      1829,
      1829,
      1829,
      1829,
      1829,
      1721,
      1540,
      1524,
      1262,
      1224,
      1212,
      994,
      933,
      836,
      732,
      582,
      491,
      269,
      153,
      19,
      0
    ],
    "swim:geom": "approach",
    "swim:timestamps": [
      1760179579,
      1760179597,
      1760179645,
      1760179666,
      1760179704,
      1760179734,
      1760179756,
      1760179790,
      1760179827,
      1760179843,
      1760179888,
      1760179891,
      1760179941,
      1760179970,
      1760180005,
      1760180010,
      1760180046,
      1760180080,
      1760180126,
      1760180146,
      1760180174,
      1760180212,
      1760180246,
      1760180251,
      1760180294,
      1760180315,
      1760180346,
      1760180376,
      1760180422,
      1760180435,
      1760180470,
      1760180515,
      1760180544,
      1760180575,
      1760180585,
      1760180630,
      1760180640,
      1760180671,
      1760180727,
      1760180749,
      1760180775,
      1760180794,
      1760180827,
      1760180851,
      1760180908,
      1760180936,
      1760180968,
      1760180975
    ],
    "wof:geomhash": "22cf7e7b01f14333898561bf0a9d3324",
    "wof:id": 1981640541,
    "wof:repo": "sfomuseum-data-flights-2025-10"
  },
  "bbox": [
    -123.50141,
    37.17543,
    -122.12288,
    37.61285
  ],
  "geometry": {"coordinates":[[-123.50141,37.45631],[-123.46144,37.4439],[-123.35269,37.41039],[-123.30519,37.39564],[-123.22191,37.3698],[-123.15886,37.35027],[-123.11161,37.33541],[-123.04354,37.31417],[-122.97477,37.29258],[-122.94795,37.28427],[-122.86984,37.2625],[-122.86459,37.2621],[-122.77999,37.24958],[-122.7323,37.23995],[-122.67468,37.22799],[-122.66615,37.22615],[-122.60815,37.21377],[-122.55861,37.20295],[-122.49359,37.18911],[-122.46607,37.18329],[-122.42528,37.17543],[-122.38192,37.19604],[-122.38548,37.2307],[-122.38707,37.23542],[-122.40183,37.27803],[-122.40891,37.29806],[-122.41851,37.3291],[-122.39928,37.35408],[-122.33752,37.34951],[-122.32006,37.34573],[-122.27229,37.34426],[-122.21158,37.34823],[-122.17579,37.36087],[-122.14565,37.38193],[-122.14137,37.39075],[-122.12589,37.43445],[-122.12288,37.44357],[-122.13232,37.47226],[-122.16702,37.51327],[-122.18008,37.52758],[-122.19761,37.54315],[-122.21452,37.5511],[-122.24422,37.56371],[-122.26457,37.57227],[-122.31025,37.59152],[-122.33171,37.6005],[-122.3561,37.61076],[-122.36131,37.61285]],"type":"LineString"}
}
