{
  "id": 1981707577,
  "type": "Feature",
  "properties": {
    "geom:area": 0,
    "geom:bbox": "-122.360150,37.491720,-121.264000,37.615520",
    "geom:latitude": 37.54640947497108,
    "geom:longitude": -121.8170904199858,
    "src:alt_label": "swim-approach",
    "src:geom": "swim",
    "swim:elevations": [
      4581,
      4456,
      4255,
      4106,
      3830,
      3761,
      3383,
      3307,
      3158,
      3051,
      2924,
      2889,
      2453,
      2438,
      2348,
      2105,
      2070,
      1828,
      1829,
      1749,
      1468,
      1237,
      1095,
      890,
      864,
      730,
      699,
      559,
      529,
      341,
      276,
      246,
      128,
      94,
      0
    ],
    "swim:geom": "approach",
    "swim:timestamps": [
      1760915694,
      1760915709,
      1760915733,
      1760915751,
      1760915784,
      1760915793,
      1760915842,
      1760915853,
      1760915877,
      1760915896,
      1760915910,
      1760915914,
      1760915967,
      1760915995,
      1760916014,
      1760916055,
      1760916063,
      1760916109,
      1760916115,
      1760916144,
      1760916171,
      1760916203,
      1760916224,
      1760916261,
      1760916270,
      1760916297,
      1760916303,
      1760916331,
      1760916371,
      1760916415,
      1760916430,
      1760916439,
      1760916469,
      1760916478,
      1760916499
    ],
    "wof:geomhash": "bfb42ade5823ac642a81305cf6f0f46b",
    "wof:id": 1981707577,
    "wof:repo": "sfomuseum-data-flights-2025-10"
  },
  "bbox": [
    -122.36015,
    37.49172,
    -121.264,
    37.61552
  ],
  "geometry": {"coordinates":[[-121.264,37.59267],[-121.29412,37.58874],[-121.34202,37.5835],[-121.37709,37.57957],[-121.44011,37.57222],[-121.45702,37.5703],[-121.54728,37.55992],[-121.5673,37.55763],[-121.61001,37.55268],[-121.64225,37.54658],[-121.66437,37.54113],[-121.67056,37.53964],[-121.75352,37.51991],[-121.79358,37.51043],[-121.82025,37.50403],[-121.8806,37.49172],[-121.89159,37.49185],[-121.95742,37.49327],[-121.96549,37.49361],[-122.00299,37.50014],[-122.03911,37.51172],[-122.08009,37.52495],[-122.106,37.53324],[-122.14866,37.54706],[-122.15841,37.55015],[-122.18554,37.55897],[-122.1915,37.56087],[-122.21953,37.56978],[-122.25559,37.58135],[-122.29306,37.59235],[-122.30498,37.59588],[-122.31221,37.59813],[-122.33772,37.60554],[-122.34502,37.60836],[-122.36015,37.61552]],"type":"LineString"}
}
