{
  "id": 1981801567,
  "type": "Feature",
  "properties": {
    "geom:area": 0,
    "geom:bbox": "-122.386820,37.633110,-121.242730,38.166250",
    "geom:latitude": 37.992020725495024,
    "geom:longitude": -121.9299306801378,
    "src:alt_label": "swim-takeoff",
    "src:geom": "swim",
    "swim:elevations": [
      183,
      841,
      923,
      1273,
      1464,
      1784,
      2431,
      2754,
      2945,
      3268,
      3419,
      3624,
      3780,
      4009,
      4633,
      4898,
      5342,
      5427,
      5852,
      6002,
      6356,
      6585,
      6813,
      6976,
      7300
    ],
    "swim:geom": "takeoff",
    "swim:timestamps": [
      1761784176,
      1761784229,
      1761784235,
      1761784277,
      1761784304,
      1761784328,
      1761784373,
      1761784397,
      1761784412,
      1761784436,
      1761784467,
      1761784496,
      1761784517,
      1761784553,
      1761784610,
      1761784635,
      1761784677,
      1761784687,
      1761784736,
      1761784757,
      1761784793,
      1761784817,
      1761784846,
      1761784864,
      1761784903
    ],
    "wof:geomhash": "34ba0af93438d0b888bcc2a3f77582e3",
    "wof:id": 1981801567,
    "wof:repo": "sfomuseum-data-flights-2025-10"
  },
  "bbox": [
    -122.38682,
    37.63311,
    -121.24273,
    38.16625
  ],
  "geometry": {"coordinates":[[-122.36272,37.63311],[-122.3274,37.66514],[-122.32322,37.66873],[-122.31405,37.70391],[-122.3292,37.73184],[-122.34349,37.75881],[-122.37035,37.81298],[-122.38388,37.84216],[-122.38682,37.86332],[-122.38277,37.89643],[-122.35479,37.93533],[-122.3017,37.95826],[-122.25651,37.96626],[-122.17415,37.98302],[-122.03444,38.01086],[-121.97435,38.02313],[-121.86662,38.04454],[-121.84237,38.04956],[-121.71207,38.07494],[-121.65546,38.08612],[-121.55669,38.10552],[-121.48984,38.11835],[-121.40704,38.13433],[-121.35551,38.14443],[-121.24273,38.16625]],"type":"LineString"}
}
