{
  "id": 1981752807,
  "type": "Feature",
  "properties": {
    "date:inception_lower": "2025-10-24",
    "date:inception_upper": "2025-10-24",
    "edtf:cessation": "",
    "edtf:inception": "2025-10-24",
    "flysfo:actual_timestamp": -1,
    "flysfo:airline": "AS",
    "flysfo:date": "2025-10-24",
    "flysfo:estimated_timestamp": 1761363000,
    "flysfo:event": "A",
    "flysfo:flight_number": "AS1435",
    "flysfo:gate": "A12",
    "flysfo:journey": "SJD-SFO",
    "flysfo:scheduled_timestamp": 1761359400,
    "flysfo:timestamp": 1761363000,
    "geom:area": 0,
    "geom:bbox": "-122.370943,23.160962,-109.717461,37.617990",
    "geom:latitude": 30.389476000000002,
    "geom:longitude": -116.044202,
    "iata:airline": "AS",
    "icao:airline": "ASA",
    "lbl:latitude": 37.611747,
    "lbl:longitude": -122.39043,
    "sfomuseum:airline_id": 1159283813,
    "sfomuseum:arrival_id": 102527513,
    "sfomuseum:departure_id": 102536441,
    "sfomuseum:flight_id": "20251024-A-ASA-1435",
    "sfomuseum:flight_number": [
      "ASA1435",
      "AS1435"
    ],
    "sfomuseum:placetype": "flight",
    "src:geom": "flysfo",
    "wof:belongsto": [
      1947304067,
      102527513,
      1947304073,
      102191575,
      85633793,
      102087579,
      85922583,
      554784711,
      85688637,
      1947304083,
      1947304069,
      102085387
    ],
    "wof:country": "US",
    "wof:created": 1761408259,
    "wof:geomhash": "57b2b594ef41523ab9fe7c26d147f9bd",
    "wof:hierarchy": [
      {
        "building_id": 1947304067,
        "campus_id": 102527513,
        "concourse_id": 1947304073,
        "continent_id": 102191575,
        "country_id": 85633793,
        "county_id": 102087579,
        "custom_id": 1981752807,
        "flight_id": 1981752807,
        "locality_id": 85922583,
        "postalcode_id": 554784711,
        "region_id": 85688637,
        "venue_id": 1947304083,
        "wing_id": 1947304069
      },
      {
        "building_id": 1947304067,
        "campus_id": 102527513,
        "concourse_id": 1947304073,
        "continent_id": 102191575,
        "country_id": 85633793,
        "county_id": 102085387,
        "custom_id": 1981752807,
        "flight_id": 1981752807,
        "region_id": 85688637,
        "venue_id": 1947304083,
        "wing_id": 1947304069
      }
    ],
    "wof:id": 1981752807,
    "wof:involves": [
      102527513,
      102536441,
      1159283813,
      1947304083
    ],
    "wof:lastmodified": 1761408259,
    "wof:name": "AS1435 (SJD-SFO)",
    "wof:parent_id": 1947304083,
    "wof:placetype": "custom",
    "wof:placetype_alt": [
      "flight"
    ],
    "wof:repo": "sfomuseum-data-flights-2025-10",
    "wof:superseded_by": [],
    "wof:supersedes": []
  },
  "bbox": [
    -122.370943,
    23.160962,
    -109.717461,
    37.61799
  ],
  "geometry": {"coordinates":[[-109.717461,23.160962],[-122.370943,37.61799]],"type":"MultiPoint"}
}
