{
  "id": 1981806755,
  "type": "Feature",
  "properties": {
    "geom:area": 0,
    "geom:bbox": "-122.366667,37.633333,-73.465556,42.488611",
    "geom:latitude": 38.74872810677794,
    "geom:longitude": -96.18739590969727,
    "src:alt_label": "swim-path",
    "src:geom": "swim",
    "swim:altitudes": [
      "007",
      "071",
      "071",
      "071",
      "071",
      "071",
      "146",
      "162",
      "162",
      "162",
      "162",
      "162",
      "216",
      "216",
      "251",
      "251",
      "269",
      "269",
      "269",
      "289",
      "289",
      "289",
      "289",
      "292",
      "297",
      "311",
      "311",
      "331C",
      "331C",
      "331C",
      "331C",
      "331C",
      "331C",
      "331C",
      "331C",
      "331C",
      "331C",
      "331C",
      "331C",
      "331C",
      "331C",
      "331C",
      "331C",
      "331C",
      "331C",
      "331C",
      "331C",
      "331C",
      "331C",
      "331C",
      "331C",
      "331C",
      "331C",
      "331C",
      "331C",
      "331C",
      "331C",
      "331C",
      "331C",
      "331C",
      "331C",
      "331C",
      "331C",
      "331C",
      "331C",
      "331C",
      "331C",
      "330C",
      "330C",
      "331C",
      "331C",
      "331C",
      "331C",
      "331C",
      "331C",
      "331C",
      "331C",
      "346",
      "351C",
      "351C",
      "351C",
      "351C",
      "351C",
      "351C",
      "351C",
      "351C",
      "351C",
      "351C",
      "351C",
      "351C",
      "351C",
      "351C",
      "351C",
      "351C",
      "350C",
      "350C",
      "350C",
      "350C",
      "350C",
      "350C",
      "350C",
      "350C",
      "350C",
      "350C",
      "351C",
      "351C",
      "351C",
      "351C",
      "351C",
      "351C",
      "351C",
      "351C",
      "351C",
      "351C",
      "351C",
      "351C",
      "351C",
      "351C",
      "351C",
      "351C",
      "351C",
      "351C",
      "351C",
      "351C",
      "351C",
      "351C",
      "351C",
      "351C",
      "351C",
      "351C",
      "351C",
      "351C",
      "351C",
      "351C",
      "351C",
      "351C",
      "351C",
      "351C",
      "351C",
      "350C",
      "350C",
      "350C",
      "351C",
      "351C",
      "351C",
      "351C",
      "351C",
      "351C",
      "351C",
      "351C",
      "351C",
      "351C",
      "351C",
      "351C",
      "351C",
      "350C",
      "350C",
      "350C",
      "350C",
      "350C",
      "351C",
      "351C",
      "351C",
      "351C",
      "351C",
      "351C",
      "351C",
      "351C",
      "351C",
      "351C",
      "351C",
      "351C",
      "350C",
      "350C",
      "350C",
      "350C",
      "350C",
      "350C",
      "351C",
      "351C",
      "351C",
      "351C",
      "351C",
      "351C",
      "351C",
      "351C",
      "351C",
      "351C",
      "351C",
      "351C",
      "351C",
      "351C",
      "351C",
      "351C",
      "351C",
      "351C",
      "351C",
      "351C",
      "351C",
      "351C",
      "351C",
      "351C",
      "351C",
      "351C",
      "351C",
      "351C",
      "351C",
      "351C",
      "351C",
      "351C",
      "351C",
      "351C",
      "351C",
      "351C",
      "351C",
      "350C",
      "350C",
      "350C",
      "350C",
      "350C",
      "350C",
      "351C",
      "351C",
      "351C",
      "351C",
      "350C",
      "350C",
      "351C",
      "351C",
      "351C",
      "351C",
      "351C",
      "351C",
      "351C",
      "351C",
      "351C",
      "351C",
      "351C",
      "351C",
      "351C",
      "351C",
      "351C",
      "351C",
      "351C",
      "351C",
      "351C",
      "351C",
      "351C",
      "351C",
      "350C",
      "350C",
      "350C",
      "350C",
      "350C",
      "350C",
      "350C",
      "350C",
      "350C",
      "351C",
      "351C",
      "351C",
      "351C",
      "351C",
      "351C",
      "351C",
      "351C",
      "351C",
      "351C",
      "351C",
      "351C",
      "351C",
      "350C",
      "350C",
      "350C",
      "350C",
      "350C",
      "350C",
      "350C",
      "351C",
      "351C",
      "351C",
      "351C",
      "351C",
      "351C",
      "351C",
      "350C",
      "350C",
      "350C",
      "350C",
      "350C",
      "350C",
      "350C",
      "350C",
      "351C",
      "351C",
      "351C",
      "351C",
      "351C",
      "351C",
      "351C",
      "351C",
      "351C",
      "351C",
      "351C",
      "351C",
      "351C",
      "351C",
      "351C",
      "351C",
      "351C",
      "351C",
      "351C",
      "351C",
      "351C",
      "351C",
      "351C",
      "351C",
      "351C",
      "351C",
      "351C",
      "351C",
      "351C",
      "351C",
      "351C",
      "350C",
      "350C",
      "350C",
      "350C",
      "350C",
      "351C",
      "351C",
      "351C",
      "351C",
      "351C",
      "351C",
      "351C",
      "351C",
      "351C",
      "351C",
      "351C",
      "351C",
      "351C",
      "351C",
      "351C",
      "351C",
      "351C",
      "350C",
      "350C",
      "350C",
      "350C",
      "351C",
      "351C",
      "351C",
      "351C",
      "351C",
      "351C",
      "351C",
      "351",
      "351",
      "351",
      "351",
      "350",
      "350",
      "350",
      "351",
      "351",
      "351",
      "351",
      "351",
      "351",
      "351",
      "344",
      "344",
      "343",
      "343",
      "326",
      "326",
      "321",
      "296",
      "296",
      "296",
      "287",
      "277",
      "277",
      "277",
      "277",
      "268",
      "255",
      "255",
      "245",
      "245",
      "238",
      "200C",
      "200C",
      "200C",
      "200C",
      "200",
      "200",
      "199",
      "199",
      "190C",
      "190C",
      "190C",
      "190C",
      "190C",
      "169",
      "140",
      "140",
      "130",
      "131",
      "131",
      "131",
      "130",
      "130",
      "130",
      "102",
      "082",
      "082",
      "082",
      "082",
      "052",
      "052",
      "052",
      "052",
      "033",
      "033",
      "031",
      "031",
      "026",
      "026",
      "017",
      "017",
      "017"
    ],
    "swim:geom": "path",
    "swim:speeds": [
      176,
      283,
      283,
      283,
      283,
      283,
      353,
      370,
      370,
      370,
      370,
      370,
      435,
      435,
      494,
      494,
      507,
      507,
      507,
      509,
      509,
      509,
      509,
      510,
      510,
      511,
      511,
      500,
      500,
      499,
      499,
      500,
      499,
      498,
      498,
      498,
      497,
      497,
      497,
      501,
      501,
      501,
      501,
      503,
      503,
      503,
      503,
      503,
      503,
      503,
      503,
      499,
      500,
      500,
      500,
      500,
      500,
      500,
      500,
      497,
      497,
      497,
      497,
      495,
      495,
      495,
      498,
      497,
      497,
      497,
      497,
      497,
      498,
      498,
      498,
      498,
      498,
      501,
      500,
      500,
      500,
      499,
      499,
      499,
      499,
      499,
      499,
      499,
      499,
      499,
      499,
      499,
      499,
      498,
      497,
      497,
      497,
      497,
      497,
      497,
      498,
      498,
      498,
      498,
      498,
      498,
      498,
      498,
      498,
      498,
      498,
      493,
      493,
      493,
      493,
      493,
      493,
      493,
      491,
      491,
      491,
      491,
      491,
      490,
      490,
      490,
      490,
      486,
      486,
      486,
      486,
      486,
      494,
      494,
      494,
      494,
      492,
      492,
      492,
      491,
      491,
      491,
      488,
      488,
      489,
      490,
      492,
      496,
      496,
      496,
      497,
      497,
      501,
      501,
      501,
      499,
      499,
      499,
      499,
      499,
      508,
      508,
      508,
      508,
      508,
      508,
      507,
      507,
      507,
      507,
      507,
      507,
      521,
      521,
      521,
      521,
      521,
      521,
      522,
      522,
      522,
      523,
      523,
      523,
      523,
      523,
      523,
      523,
      527,
      527,
      527,
      527,
      535,
      535,
      535,
      535,
      531,
      531,
      531,
      530,
      530,
      527,
      527,
      513,
      513,
      513,
      509,
      509,
      509,
      509,
      508,
      508,
      508,
      508,
      508,
      508,
      508,
      509,
      509,
      509,
      509,
      511,
      511,
      519,
      519,
      518,
      518,
      526,
      526,
      529,
      529,
      529,
      529,
      528,
      528,
      528,
      514,
      514,
      514,
      522,
      522,
      522,
      524,
      524,
      526,
      526,
      526,
      526,
      526,
      526,
      526,
      526,
      526,
      526,
      526,
      526,
      526,
      526,
      530,
      530,
      533,
      533,
      533,
      533,
      533,
      503,
      503,
      503,
      499,
      499,
      496,
      494,
      494,
      492,
      492,
      492,
      492,
      491,
      491,
      491,
      494,
      494,
      494,
      494,
      501,
      501,
      501,
      501,
      501,
      500,
      500,
      500,
      500,
      499,
      499,
      499,
      501,
      501,
      501,
      501,
      501,
      501,
      502,
      502,
      502,
      502,
      502,
      502,
      506,
      506,
      506,
      507,
      507,
      507,
      507,
      507,
      507,
      503,
      501,
      501,
      501,
      499,
      499,
      499,
      497,
      497,
      497,
      494,
      498,
      499,
      499,
      500,
      500,
      501,
      502,
      502,
      499,
      497,
      497,
      497,
      497,
      497,
      497,
      497,
      496,
      496,
      495,
      495,
      495,
      495,
      491,
      491,
      491,
      491,
      491,
      463,
      434,
      424,
      424,
      423,
      423,
      421,
      420,
      420,
      420,
      420,
      421,
      421,
      421,
      421,
      421,
      443,
      443,
      440,
      440,
      436,
      436,
      435,
      420,
      420,
      420,
      370,
      347,
      347,
      347,
      347,
      344,
      349,
      349,
      352,
      352,
      353,
      342,
      342,
      342,
      342,
      341,
      339,
      337,
      337,
      336,
      336,
      336,
      336,
      336,
      273,
      269,
      269,
      279,
      279,
      279,
      279,
      280,
      280,
      280,
      293,
      307,
      307,
      307,
      307,
      293,
      293,
      293,
      293,
      250,
      250,
      184,
      184,
      184,
      184,
      180,
      180,
      180
    ],
    "swim:timestamps": [
      1761861982,
      1761862171,
      1761862171,
      1761862171,
      1761862171,
      1761862171,
      1761862412,
      1761862472,
      1761862472,
      1761862472,
      1761862472,
      1761862472,
      1761862712,
      1761862712,
      1761862952,
      1761862952,
      1761863072,
      1761863072,
      1761863072,
      1761863193,
      1761863193,
      1761863193,
      1761863193,
      1761863212,
      1761863253,
      1761863333,
      1761863333,
      1761863513,
      1761863513,
      1761863573,
      1761863573,
      1761863693,
      1761863753,
      1761863914,
      1761863934,
      1761863934,
      1761863974,
      1761863974,
      1761863974,
      1761864294,
      1761864294,
      1761864294,
      1761864294,
      1761864471,
      1761864471,
      1761864471,
      1761864592,
      1761864592,
      1761864592,
      1761864592,
      1761864592,
      1761865073,
      1761865193,
      1761865193,
      1761865193,
      1761865193,
      1761865193,
      1761865193,
      1761865193,
      1761865493,
      1761865493,
      1761865493,
      1761865493,
      1761865674,
      1761865674,
      1761865674,
      1761865904,
      1761865914,
      1761865914,
      1761865974,
      1761865974,
      1761865974,
      1761866024,
      1761866024,
      1761866035,
      1761866035,
      1761866035,
      1761866204,
      1761866275,
      1761866275,
      1761866275,
      1761866335,
      1761866335,
      1761866335,
      1761866384,
      1761866384,
      1761866395,
      1761866515,
      1761866515,
      1761866515,
      1761866515,
      1761866564,
      1761866575,
      1761866756,
      1761866805,
      1761866805,
      1761866805,
      1761866816,
      1761866816,
      1761866816,
      1761866865,
      1761866865,
      1761866865,
      1761866865,
      1761867225,
      1761867225,
      1761867225,
      1761867225,
      1761867225,
      1761867225,
      1761867225,
      1761867706,
      1761867706,
      1761867706,
      1761867706,
      1761867706,
      1761867706,
      1761867706,
      1761868066,
      1761868066,
      1761868066,
      1761868066,
      1761868066,
      1761868127,
      1761868127,
      1761868127,
      1761868127,
      1761868445,
      1761868445,
      1761868445,
      1761868445,
      1761868445,
      1761868625,
      1761868625,
      1761868625,
      1761868625,
      1761868926,
      1761868926,
      1761868926,
      1761869106,
      1761869106,
      1761869106,
      1761869286,
      1761869286,
      1761869328,
      1761869406,
      1761869508,
      1761869689,
      1761869689,
      1761869707,
      1761869749,
      1761869749,
      1761869887,
      1761869887,
      1761869887,
      1761870187,
      1761870187,
      1761870187,
      1761870187,
      1761870187,
      1761870848,
      1761870848,
      1761870848,
      1761870848,
      1761870848,
      1761870848,
      1761871209,
      1761871209,
      1761871209,
      1761871209,
      1761871209,
      1761871209,
      1761871810,
      1761871810,
      1761871810,
      1761871810,
      1761871810,
      1761871810,
      1761872051,
      1761872051,
      1761872051,
      1761872111,
      1761872111,
      1761872111,
      1761872231,
      1761872231,
      1761872231,
      1761872231,
      1761872411,
      1761872411,
      1761872411,
      1761872411,
      1761873214,
      1761873214,
      1761873214,
      1761873214,
      1761873373,
      1761873373,
      1761873373,
      1761873433,
      1761873433,
      1761873733,
      1761873733,
      1761873815,
      1761873815,
      1761873815,
      1761873875,
      1761873875,
      1761873875,
      1761873875,
      1761873973,
      1761873995,
      1761873995,
      1761873995,
      1761874055,
      1761874115,
      1761874115,
      1761874176,
      1761874176,
      1761874176,
      1761874176,
      1761874236,
      1761874236,
      1761874536,
      1761874536,
      1761874716,
      1761874716,
      1761874776,
      1761874776,
      1761874897,
      1761874897,
      1761874897,
      1761874897,
      1761874957,
      1761874957,
      1761874957,
      1761875437,
      1761875437,
      1761875437,
      1761875618,
      1761875618,
      1761875618,
      1761875678,
      1761875678,
      1761875738,
      1761875798,
      1761875798,
      1761875798,
      1761875798,
      1761875918,
      1761875918,
      1761875918,
      1761875962,
      1761875962,
      1761875978,
      1761875978,
      1761875978,
      1761875978,
      1761876263,
      1761876263,
      1761876339,
      1761876339,
      1761876339,
      1761876399,
      1761876399,
      1761876503,
      1761876503,
      1761876503,
      1761876564,
      1761876564,
      1761876579,
      1761876624,
      1761876624,
      1761876684,
      1761876684,
      1761876684,
      1761876684,
      1761876699,
      1761876744,
      1761876744,
      1761876822,
      1761876822,
      1761876822,
      1761876822,
      1761876985,
      1761877045,
      1761877045,
      1761877045,
      1761877045,
      1761877105,
      1761877123,
      1761877123,
      1761877123,
      1761877303,
      1761877303,
      1761877303,
      1761877405,
      1761877405,
      1761877405,
      1761877405,
      1761877483,
      1761877483,
      1761877525,
      1761877525,
      1761877525,
      1761877525,
      1761877525,
      1761877543,
      1761877904,
      1761877904,
      1761877904,
      1761877964,
      1761877964,
      1761877995,
      1761877995,
      1761877995,
      1761877995,
      1761878204,
      1761878235,
      1761878235,
      1761878264,
      1761878295,
      1761878295,
      1761878295,
      1761878384,
      1761878384,
      1761878384,
      1761878407,
      1761878415,
      1761878467,
      1761878467,
      1761878476,
      1761878476,
      1761878536,
      1761878587,
      1761878587,
      1761878625,
      1761878685,
      1761878685,
      1761878708,
      1761878708,
      1761878768,
      1761878768,
      1761878776,
      1761878836,
      1761878836,
      1761878888,
      1761878888,
      1761878896,
      1761878896,
      1761879008,
      1761879008,
      1761879016,
      1761879016,
      1761879016,
      1761879076,
      1761879128,
      1761879163,
      1761879163,
      1761879197,
      1761879197,
      1761879257,
      1761879317,
      1761879317,
      1761879343,
      1761879343,
      1761879428,
      1761879428,
      1761879428,
      1761879437,
      1761879437,
      1761879668,
      1761879668,
      1761879677,
      1761879677,
      1761879729,
      1761879729,
      1761879737,
      1761879797,
      1761879797,
      1761879797,
      1761879857,
      1761879909,
      1761879909,
      1761879918,
      1761879918,
      1761879969,
      1761880038,
      1761880038,
      1761880098,
      1761880098,
      1761880149,
      1761880278,
      1761880278,
      1761880278,
      1761880278,
      1761880329,
      1761880389,
      1761880458,
      1761880458,
      1761880518,
      1761880518,
      1761880518,
      1761880518,
      1761880518,
      1761880629,
      1761880759,
      1761880759,
      1761880819,
      1761880930,
      1761880930,
      1761880930,
      1761880939,
      1761880939,
      1761880939,
      1761881059,
      1761881180,
      1761881180,
      1761881180,
      1761881180,
      1761881359,
      1761881359,
      1761881359,
      1761881359,
      1761881540,
      1761881540,
      1761881600,
      1761881600,
      1761881660,
      1761881660,
      1761881720,
      1761881720,
      1761881720
    ],
    "wof:geomhash": "5021517bb9d16f5306bb9b0e4d83f970",
    "wof:id": 1981806755,
    "wof:repo": "sfomuseum-data-flights-2025-10"
  },
  "bbox": [
    -122.36666666666666,
    37.63333333333333,
    -73.46555555555555,
    42.48861111111111
  ],
  "geometry": {"coordinates":[[-122.36666666666666,37.63333333333333],[-122.14722222222223,37.760555555555555],[-122.14722222222223,37.760555555555555],[-122.14722222222223,37.760555555555555],[-122.14722222222223,37.760555555555555],[-122.14722222222223,37.760555555555555],[-121.72416666666666,37.87916666666667],[-121.60472222222222,37.901111111111106],[-121.60472222222222,37.901111111111106],[-121.60472222222222,37.901111111111106],[-121.60472222222222,37.901111111111106],[-121.60472222222222,37.901111111111106],[-121.05138888888888,37.999722222222225],[-121.05138888888888,37.999722222222225],[-120.39250000000001,38.099722222222226],[-120.39250000000001,38.099722222222226],[-120.04305555555555,38.15138888888889],[-120.04305555555555,38.15138888888889],[-120.04305555555555,38.15138888888889],[-119.68916666666667,38.2025],[-119.68916666666667,38.2025],[-119.68916666666667,38.2025],[-119.68916666666667,38.2025],[-119.62777777777777,38.21083333333333],[-119.5125,38.22777777777778],[-119.27416666666666,38.26027777777778],[-119.27416666666666,38.26027777777778],[-118.75555555555556,38.33166666666667],[-118.75555555555556,38.33166666666667],[-118.58305555555555,38.35527777777778],[-118.58305555555555,38.35527777777778],[-118.24416666666667,38.4],[-118.06916666666666,38.4225],[-117.57722222222222,38.484722222222224],[-117.54472222222222,38.48888888888889],[-117.54472222222222,38.48888888888889],[-117.40361111111112,38.50611111111111],[-117.40361111111112,38.50611111111111],[-117.40361111111112,38.50611111111111],[-116.47583333333334,38.50222222222222],[-116.47583333333334,38.50222222222222],[-116.47583333333334,38.50222222222222],[-116.47583333333334,38.50222222222222],[-115.93694444444445,38.48694444444445],[-115.93694444444445,38.48694444444445],[-115.93694444444445,38.48694444444445],[-115.58027777777778,38.47527777777778],[-115.58027777777778,38.47527777777778],[-115.58027777777778,38.47527777777778],[-115.58027777777778,38.47527777777778],[-115.58027777777778,38.47527777777778],[-114.17583333333334,38.419444444444444],[-113.82027777777778,38.402499999999996],[-113.82027777777778,38.402499999999996],[-113.82027777777778,38.402499999999996],[-113.82027777777778,38.402499999999996],[-113.82027777777778,38.402499999999996],[-113.82027777777778,38.402499999999996],[-113.82027777777778,38.402499999999996],[-112.93805555555556,38.363055555555555],[-112.93805555555556,38.363055555555555],[-112.93805555555556,38.363055555555555],[-112.93805555555556,38.363055555555555],[-112.41194444444444,38.37916666666667],[-112.41194444444444,38.37916666666667],[-112.41194444444444,38.37916666666667],[-111.74472222222222,38.36611111111111],[-111.7075,38.364444444444445],[-111.7075,38.364444444444445],[-111.53222222222222,38.35722222222223],[-111.53222222222222,38.35722222222223],[-111.53222222222222,38.35722222222223],[-111.39194444444445,38.35111111111111],[-111.39194444444445,38.35111111111111],[-111.35694444444444,38.349444444444444],[-111.35694444444444,38.349444444444444],[-111.35694444444444,38.349444444444444],[-110.8736111111111,38.32694444444445],[-110.66388888888889,38.31638888888889],[-110.66388888888889,38.31638888888889],[-110.66388888888889,38.31638888888889],[-110.48916666666666,38.3075],[-110.48916666666666,38.3075],[-110.48916666666666,38.3075],[-110.31444444444445,38.29805555555556],[-110.31444444444445,38.29805555555556],[-110.31166666666667,38.29805555555556],[-109.96305555555556,38.279444444444444],[-109.96305555555556,38.279444444444444],[-109.96305555555556,38.279444444444444],[-109.96305555555556,38.279444444444444],[-109.7875,38.27111111111111],[-109.7875,38.27111111111111],[-109.26388888888889,38.24472222222222],[-109.08944444444444,38.23527777777778],[-109.08944444444444,38.23527777777778],[-109.08944444444444,38.23527777777778],[-109.08944444444444,38.23527777777778],[-109.08944444444444,38.23527777777778],[-109.08944444444444,38.23527777777778],[-108.91388888888889,38.22555555555556],[-108.91388888888889,38.22555555555556],[-108.91388888888889,38.22555555555556],[-108.91388888888889,38.22555555555556],[-107.86611111111111,38.16222222222222],[-107.86611111111111,38.16222222222222],[-107.86611111111111,38.16222222222222],[-107.86611111111111,38.16222222222222],[-107.86611111111111,38.16222222222222],[-107.86611111111111,38.16222222222222],[-107.86611111111111,38.16222222222222],[-106.48333333333333,38.1225],[-106.48333333333333,38.1225],[-106.48333333333333,38.1225],[-106.48333333333333,38.1225],[-106.48333333333333,38.1225],[-106.48333333333333,38.1225],[-106.48333333333333,38.1225],[-105.43222222222222,38.1025],[-105.43222222222222,38.1025],[-105.43222222222222,38.1025],[-105.43222222222222,38.1025],[-105.43222222222222,38.1025],[-105.29305555555555,38.09916666666667],[-105.29305555555555,38.09916666666667],[-105.29305555555555,38.09916666666667],[-105.29305555555555,38.09916666666667],[-104.35888888888888,38.07166666666667],[-104.35888888888888,38.07166666666667],[-104.35888888888888,38.07166666666667],[-104.35888888888888,38.07166666666667],[-104.35888888888888,38.07166666666667],[-103.83666666666666,38.05305555555555],[-103.83666666666666,38.05305555555555],[-103.83666666666666,38.05305555555555],[-103.83666666666666,38.05305555555555],[-102.97694444444444,38.019444444444446],[-102.97694444444444,38.019444444444446],[-102.97694444444444,38.019444444444446],[-102.46222222222222,37.99527777777778],[-102.46222222222222,37.99527777777778],[-102.46222222222222,37.99527777777778],[-101.94666666666667,38.00527777777778],[-101.94666666666667,38.00527777777778],[-101.84166666666667,38.009166666666665],[-101.60305555555556,38.018055555555556],[-101.32055555555556,38.028055555555554],[-100.7911111111111,38.044444444444444],[-100.7911111111111,38.044444444444444],[-100.72333333333333,38.046388888888885],[-100.61388888888888,38.04944444444444],[-100.61388888888888,38.04944444444444],[-100.22527777777778,38.059444444444445],[-100.22527777777778,38.059444444444445],[-100.22527777777778,38.059444444444445],[-99.34444444444443,38.07777777777778],[-99.34444444444443,38.07777777777778],[-99.34444444444443,38.07777777777778],[-99.34444444444443,38.07777777777778],[-99.34444444444443,38.07777777777778],[-97.37249999999999,38.072500000000005],[-97.37249999999999,38.072500000000005],[-97.37249999999999,38.072500000000005],[-97.37249999999999,38.072500000000005],[-97.37249999999999,38.072500000000005],[-97.37249999999999,38.072500000000005],[-96.30111111111111,38.044999999999995],[-96.30111111111111,38.044999999999995],[-96.30111111111111,38.044999999999995],[-96.30111111111111,38.044999999999995],[-96.30111111111111,38.044999999999995],[-96.30111111111111,38.044999999999995],[-94.48138888888889,37.99722222222222],[-94.48138888888889,37.99722222222222],[-94.48138888888889,37.99722222222222],[-94.48138888888889,37.99722222222222],[-94.48138888888889,37.99722222222222],[-94.48138888888889,37.99722222222222],[-93.74361111111111,38.01833333333333],[-93.74361111111111,38.01833333333333],[-93.74361111111111,38.01833333333333],[-93.56055555555555,38.022777777777776],[-93.56055555555555,38.022777777777776],[-93.56055555555555,38.022777777777776],[-93.19111111111111,38.030833333333334],[-93.19111111111111,38.030833333333334],[-93.19111111111111,38.030833333333334],[-93.19111111111111,38.030833333333334],[-92.63944444444445,38.03138888888889],[-92.63944444444445,38.03138888888889],[-92.63944444444445,38.03138888888889],[-92.63944444444445,38.03138888888889],[-90.14333333333335,38.000277777777775],[-90.14333333333335,38.000277777777775],[-90.14333333333335,38.000277777777775],[-90.14333333333335,38.000277777777775],[-89.62472222222222,37.988055555555555],[-89.62472222222222,37.988055555555555],[-89.62472222222222,37.988055555555555],[-89.44083333333333,37.98361111111111],[-89.44083333333333,37.98361111111111],[-88.51166666666667,37.95583333333334],[-88.51166666666667,37.95583333333334],[-88.26027777777777,37.94694444444444],[-88.26027777777777,37.94694444444444],[-88.26027777777777,37.94694444444444],[-88.08027777777778,37.940555555555555],[-88.08027777777778,37.940555555555555],[-88.08027777777778,37.940555555555555],[-88.08027777777778,37.940555555555555],[-87.79944444444445,37.92972222222222],[-87.72472222222223,37.92833333333333],[-87.72472222222223,37.92833333333333],[-87.72472222222223,37.92833333333333],[-87.54888888888888,37.92944444444444],[-87.36749999999999,37.92972222222222],[-87.36749999999999,37.92972222222222],[-87.1913888888889,37.930277777777775],[-87.1913888888889,37.930277777777775],[-87.1913888888889,37.930277777777775],[-87.1913888888889,37.930277777777775],[-87.01222222222222,37.930277777777775],[-87.01222222222222,37.930277777777775],[-86.10277777777777,37.92611111111111],[-86.10277777777777,37.92611111111111],[-85.55777777777777,37.92027777777778],[-85.55777777777777,37.92027777777778],[-85.36999999999999,37.91777777777777],[-85.36999999999999,37.91777777777777],[-84.99888888888889,37.911944444444444],[-84.99888888888889,37.911944444444444],[-84.99888888888889,37.911944444444444],[-84.99888888888889,37.911944444444444],[-84.81305555555555,37.90861111111111],[-84.81305555555555,37.90861111111111],[-84.81305555555555,37.90861111111111],[-83.37083333333332,37.87222222222222],[-83.37083333333332,37.87222222222222],[-83.37083333333332,37.87222222222222],[-82.81722222222221,37.87166666666667],[-82.81722222222221,37.87166666666667],[-82.81722222222221,37.87166666666667],[-82.63027777777778,37.87361111111111],[-82.63027777777778,37.87361111111111],[-82.44611111111111,37.87555555555556],[-82.25972222222222,37.87694444444445],[-82.25972222222222,37.87694444444445],[-82.25972222222222,37.87694444444445],[-82.25972222222222,37.87694444444445],[-81.92194444444445,37.87833333333333],[-81.92194444444445,37.87833333333333],[-81.92194444444445,37.87833333333333],[-81.77888888888889,37.87888888888889],[-81.77888888888889,37.87888888888889],[-81.73527777777778,37.87888888888889],[-81.73527777777778,37.87888888888889],[-81.73527777777778,37.87888888888889],[-81.73527777777778,37.87888888888889],[-80.85,37.8775],[-80.85,37.8775],[-80.58333333333333,37.88583333333333],[-80.58333333333333,37.88583333333333],[-80.58333333333333,37.88583333333333],[-80.4263888888889,37.95777777777778],[-80.4263888888889,37.95777777777778],[-80.32083333333333,38.165],[-80.32083333333333,38.165],[-80.32083333333333,38.165],[-80.28277777777778,38.29944444444444],[-80.28277777777778,38.29944444444444],[-80.26694444444445,38.35472222222222],[-80.24472222222222,38.43277777777777],[-80.24472222222222,38.43277777777777],[-80.20666666666666,38.566944444444445],[-80.20666666666666,38.566944444444445],[-80.20666666666666,38.566944444444445],[-80.20666666666666,38.566944444444445],[-80.1913888888889,38.62111111111111],[-80.16944444444445,38.698611111111106],[-80.16944444444445,38.698611111111106],[-80.11999999999999,38.870555555555555],[-80.11999999999999,38.870555555555555],[-80.11999999999999,38.870555555555555],[-80.11999999999999,38.870555555555555],[-80.01083333333334,39.25],[-79.97166666666666,39.38472222222222],[-79.97166666666666,39.38472222222222],[-79.97166666666666,39.38472222222222],[-79.97166666666666,39.38472222222222],[-79.93166666666667,39.52194444444444],[-79.91583333333334,39.57666666666667],[-79.91583333333334,39.57666666666667],[-79.91583333333334,39.57666666666667],[-79.7975,39.97944444444445],[-79.7975,39.97944444444445],[-79.7975,39.97944444444445],[-79.73361111111112,40.195277777777775],[-79.73361111111112,40.195277777777775],[-79.73361111111112,40.195277777777775],[-79.73361111111112,40.195277777777775],[-79.67750000000001,40.38333333333333],[-79.67750000000001,40.38333333333333],[-79.65333333333334,40.46388888888889],[-79.65333333333334,40.46388888888889],[-79.65333333333334,40.46388888888889],[-79.65333333333334,40.46388888888889],[-79.65333333333334,40.46388888888889],[-79.63666666666667,40.51916666666666],[-79.3875,41.33722222222222],[-79.3875,41.33722222222222],[-79.3875,41.33722222222222],[-79.34888888888888,41.46222222222222],[-79.34888888888888,41.46222222222222],[-79.32305555555556,41.544444444444444],[-79.32305555555556,41.544444444444444],[-79.32305555555556,41.544444444444444],[-79.32305555555556,41.544444444444444],[-78.88111111111111,41.87222222222222],[-78.77722222222222,41.89972222222222],[-78.77722222222222,41.89972222222222],[-78.71944444444445,41.915],[-78.6036111111111,41.945277777777775],[-78.6036111111111,41.945277777777775],[-78.6036111111111,41.945277777777775],[-78.36944444444444,42.00611111111111],[-78.36944444444444,42.00611111111111],[-78.36944444444444,42.00611111111111],[-78.2875,42.026944444444446],[-78.25416666666666,42.03583333333333],[-78.09444444444443,42.07694444444445],[-78.09444444444443,42.07694444444445],[-78.0786111111111,42.08083333333334],[-78.0786111111111,42.08083333333334],[-77.90277777777779,42.12583333333333],[-77.75833333333334,42.16222222222222],[-77.75833333333334,42.16222222222222],[-77.65305555555557,42.18833333333333],[-77.47916666666667,42.231944444444444],[-77.47916666666667,42.231944444444444],[-77.4088888888889,42.24916666666667],[-77.4088888888889,42.24916666666667],[-77.23277777777778,42.29277777777778],[-77.23277777777778,42.29277777777778],[-77.20361111111112,42.3],[-77.02583333333334,42.343611111111116],[-77.02583333333334,42.343611111111116],[-76.88305555555554,42.37833333333333],[-76.88305555555554,42.37833333333333],[-76.8536111111111,42.38527777777778],[-76.8536111111111,42.38527777777778],[-76.53083333333333,42.46277777777778],[-76.53083333333333,42.46277777777778],[-76.50611111111111,42.468611111111116],[-76.50611111111111,42.468611111111116],[-76.50611111111111,42.468611111111116],[-76.32888888888888,42.48861111111111],[-76.17888888888889,42.45805555555556],[-76.09638888888888,42.42194444444444],[-76.09638888888888,42.42194444444444],[-76.03861111111111,42.395833333333336],[-76.03861111111111,42.395833333333336],[-75.90277777777779,42.33388888888889],[-75.76916666666666,42.272777777777776],[-75.76916666666666,42.272777777777776],[-75.69694444444445,42.23972222222222],[-75.69694444444445,42.23972222222222],[-75.5125,42.154444444444444],[-75.5125,42.154444444444444],[-75.5125,42.154444444444444],[-75.50166666666667,42.14944444444444],[-75.50166666666667,42.14944444444444],[-74.89083333333333,42.01916666666666],[-74.89083333333333,42.01916666666666],[-74.86166666666666,42.01611111111111],[-74.86166666666666,42.01611111111111],[-74.73194444444445,42.00194444444445],[-74.73194444444445,42.00194444444445],[-74.70027777777779,41.99861111111111],[-74.53944444444444,41.97916666666667],[-74.53944444444444,41.97916666666667],[-74.53944444444444,41.97916666666667],[-74.44083333333333,41.93277777777777],[-74.37916666666666,41.848888888888894],[-74.37916666666666,41.848888888888894],[-74.37888888888888,41.848888888888894],[-74.37888888888888,41.848888888888894],[-74.33138888888888,41.76972222222222],[-74.26444444444445,41.65694444444444],[-74.26444444444445,41.65694444444444],[-74.21055555555556,41.56583333333333],[-74.21055555555556,41.56583333333333],[-74.17333333333333,41.50277777777778],[-74.10305555555556,41.29277777777778],[-74.10305555555556,41.29277777777778],[-74.10305555555556,41.29277777777778],[-74.10305555555556,41.29277777777778],[-74.1061111111111,41.21805555555556],[-74.11055555555555,41.123333333333335],[-74.11555555555555,41.015],[-74.11555555555555,41.015],[-74.11888888888888,40.922777777777775],[-74.11888888888888,40.922777777777775],[-74.11888888888888,40.922777777777775],[-74.11888888888888,40.922777777777775],[-74.11888888888888,40.922777777777775],[-74.10249999999999,40.78444444444444],[-74.05499999999999,40.62027777777778],[-74.05499999999999,40.62027777777778],[-74.0261111111111,40.54611111111111],[-73.97666666666667,40.41888888888889],[-73.97666666666667,40.41888888888889],[-73.97666666666667,40.41888888888889],[-73.96333333333334,40.39694444444444],[-73.96333333333334,40.39694444444444],[-73.96333333333334,40.39694444444444],[-73.77944444444444,40.30888888888889],[-73.6,40.38333333333333],[-73.6,40.38333333333333],[-73.6,40.38333333333333],[-73.6,40.38333333333333],[-73.46555555555555,40.61055555555556],[-73.46555555555555,40.61055555555556],[-73.46555555555555,40.61055555555556],[-73.46555555555555,40.61055555555556],[-73.55888888888889,40.795833333333334],[-73.55888888888889,40.795833333333334],[-73.62249999999999,40.80027777777777],[-73.62249999999999,40.80027777777777],[-73.665,40.75944444444445],[-73.665,40.75944444444445],[-73.69888888888889,40.716944444444444],[-73.69888888888889,40.716944444444444],[-73.69888888888889,40.716944444444444]],"type":"LineString"}
}
