{
  "id": 1981748831,
  "type": "Feature",
  "properties": {
    "geom:area": 0,
    "geom:bbox": "-122.366667,37.633333,-111.978333,40.752500",
    "geom:latitude": 39.85568667711671,
    "geom:longitude": -117.26446739796762,
    "src:alt_label": "swim-path",
    "src:geom": "swim",
    "swim:altitudes": [
      "004",
      "004",
      "004",
      "004",
      "045",
      "045",
      "105",
      "120",
      "124",
      "194",
      "194",
      "225",
      "225",
      "225",
      "225",
      "225",
      "225",
      "225",
      "358",
      "359",
      "362",
      "362",
      "362",
      "362",
      "362",
      "367",
      "367",
      "367",
      "367",
      "370C",
      "370C",
      "370C",
      "370C",
      "370C",
      "370C",
      "370C",
      "370C",
      "370C",
      "370C",
      "370C",
      "370C",
      "370C",
      "370C",
      "370C",
      "370C",
      "370C",
      "370C",
      "370C",
      "370C",
      "370C",
      "370C",
      "370C",
      "370C",
      "370C",
      "365",
      "365",
      "350C",
      "350C",
      "350C",
      "350C",
      "350C",
      "350C",
      "350C",
      "350C",
      "350C",
      "350C",
      "350C",
      "350C",
      "350C",
      "350C",
      "350C",
      "350C",
      "350C",
      "350C",
      "350C",
      "350",
      "350",
      "350",
      "350",
      "350",
      "350",
      "350",
      "213",
      "213",
      "213",
      "187",
      "169C",
      "169C",
      "150",
      "150",
      "150",
      "150",
      "147",
      "147",
      "134",
      "110",
      "110",
      "110",
      "099",
      "079",
      "079",
      "079",
      "079",
      "079",
      "079",
      "079",
      "054",
      "054",
      "054",
      "052",
      "052",
      "052",
      "052"
    ],
    "swim:geom": "path",
    "swim:speeds": [
      159,
      159,
      159,
      159,
      215,
      215,
      283,
      353,
      401,
      441,
      441,
      470,
      470,
      470,
      470,
      470,
      470,
      470,
      419,
      420,
      434,
      434,
      434,
      434,
      434,
      445,
      445,
      445,
      445,
      448,
      446,
      446,
      446,
      444,
      444,
      444,
      443,
      443,
      442,
      442,
      443,
      443,
      444,
      444,
      444,
      445,
      445,
      445,
      446,
      447,
      447,
      447,
      447,
      447,
      450,
      450,
      454,
      454,
      454,
      454,
      454,
      452,
      452,
      452,
      452,
      452,
      452,
      453,
      453,
      453,
      435,
      435,
      435,
      435,
      441,
      443,
      443,
      443,
      443,
      443,
      443,
      443,
      335,
      335,
      335,
      322,
      320,
      320,
      282,
      282,
      282,
      282,
      262,
      262,
      253,
      260,
      260,
      260,
      250,
      174,
      174,
      174,
      174,
      174,
      174,
      174,
      136,
      136,
      136,
      140,
      140,
      140,
      140
    ],
    "swim:timestamps": [
      1761264812,
      1761264812,
      1761264812,
      1761264812,
      1761264932,
      1761264932,
      1761265052,
      1761265113,
      1761265193,
      1761265373,
      1761265373,
      1761265493,
      1761265493,
      1761265493,
      1761265493,
      1761265493,
      1761265493,
      1761265493,
      1761265967,
      1761265974,
      1761266034,
      1761266034,
      1761266034,
      1761266034,
      1761266034,
      1761266094,
      1761266094,
      1761266094,
      1761266094,
      1761266147,
      1761266154,
      1761266154,
      1761266154,
      1761266328,
      1761266328,
      1761266328,
      1761266334,
      1761266334,
      1761266575,
      1761266575,
      1761266635,
      1761266635,
      1761266688,
      1761266688,
      1761266688,
      1761266755,
      1761266755,
      1761266755,
      1761266815,
      1761266875,
      1761266935,
      1761266935,
      1761266935,
      1761266935,
      1761267115,
      1761267115,
      1761267289,
      1761267289,
      1761267295,
      1761267295,
      1761267295,
      1761267416,
      1761267416,
      1761267416,
      1761267416,
      1761267476,
      1761267476,
      1761267770,
      1761267770,
      1761267830,
      1761268071,
      1761268071,
      1761268071,
      1761268071,
      1761268191,
      1761268371,
      1761268371,
      1761268371,
      1761268371,
      1761268371,
      1761268371,
      1761268371,
      1761268912,
      1761268912,
      1761268912,
      1761268972,
      1761269032,
      1761269032,
      1761269213,
      1761269213,
      1761269213,
      1761269213,
      1761269273,
      1761269273,
      1761269393,
      1761269573,
      1761269573,
      1761269573,
      1761269633,
      1761269796,
      1761269796,
      1761269796,
      1761269796,
      1761269796,
      1761269796,
      1761269796,
      1761269979,
      1761269979,
      1761269979,
      1761269994,
      1761269994,
      1761269994,
      1761269994
    ],
    "wof:geomhash": "d6f10c4ed94852d5d835d67a3143f861",
    "wof:id": 1981748831,
    "wof:repo": "sfomuseum-data-flights-2025-10"
  },
  "bbox": [
    -122.36666666666666,
    37.63333333333333,
    -111.97833333333334,
    40.7525
  ],
  "geometry": {"coordinates":[[-122.36666666666666,37.63333333333333],[-122.36666666666666,37.63333333333333],[-122.36666666666666,37.63333333333333],[-122.36666666666666,37.63333333333333],[-122.28333333333333,37.68333333333333],[-122.28333333333333,37.68333333333333],[-122.13333333333334,37.78333333333333],[-122.05,37.85],[-121.93833333333333,37.93666666666666],[-121.60222222222221,38.1825],[-121.60222222222221,38.1825],[-121.36277777777777,38.35333333333333],[-121.36277777777777,38.35333333333333],[-121.36277777777777,38.35333333333333],[-121.36277777777777,38.35333333333333],[-121.36277777777777,38.35333333333333],[-121.36277777777777,38.35333333333333],[-121.36277777777777,38.35333333333333],[-120.30916666666667,38.99777777777778],[-120.29472222222222,39.005833333333335],[-120.1725,39.07888888888889],[-120.1725,39.07888888888889],[-120.1725,39.07888888888889],[-120.1725,39.07888888888889],[-120.1725,39.07888888888889],[-120.05916666666667,39.14694444444444],[-120.05916666666667,39.14694444444444],[-120.05916666666667,39.14694444444444],[-120.05916666666667,39.14694444444444],[-119.93277777777779,39.22166666666667],[-119.93277777777779,39.221944444444446],[-119.93277777777779,39.221944444444446],[-119.93277777777779,39.221944444444446],[-119.55333333333333,39.44638888888888],[-119.55333333333333,39.44638888888888],[-119.55333333333333,39.44638888888888],[-119.55166666666666,39.447222222222216],[-119.55166666666666,39.447222222222216],[-119.04166666666667,39.74444444444445],[-119.04166666666667,39.74444444444445],[-118.91250000000001,39.81888888888889],[-118.91250000000001,39.81888888888889],[-118.78166666666667,39.890277777777776],[-118.78166666666667,39.890277777777776],[-118.78166666666667,39.890277777777776],[-118.6363888888889,39.95027777777778],[-118.6363888888889,39.95027777777778],[-118.6363888888889,39.95027777777778],[-118.49166666666667,40.009166666666665],[-118.34916666666666,40.066944444444445],[-118.20444444444445,40.125],[-118.20444444444445,40.125],[-118.20444444444445,40.125],[-118.20444444444445,40.125],[-117.73555555555555,40.26583333333333],[-117.73555555555555,40.26583333333333],[-117.29444444444444,40.367222222222225],[-117.29444444444444,40.367222222222225],[-117.2611111111111,40.374722222222225],[-117.2611111111111,40.374722222222225],[-117.2611111111111,40.374722222222225],[-116.97555555555556,40.439166666666665],[-116.97555555555556,40.439166666666665],[-116.97555555555556,40.439166666666665],[-116.97555555555556,40.439166666666665],[-116.78805555555556,40.48111111111111],[-116.78805555555556,40.48111111111111],[-116.0025,40.60416666666667],[-116.0025,40.60416666666667],[-115.83944444444444,40.61944444444445],[-115.32111111111111,40.38666666666666],[-115.32111111111111,40.38666666666666],[-115.32111111111111,40.38666666666666],[-115.32111111111111,40.38666666666666],[-115.005,40.43138888888889],[-114.55805555555555,40.495555555555555],[-114.55805555555555,40.495555555555555],[-114.55805555555555,40.495555555555555],[-114.55805555555555,40.495555555555555],[-114.55805555555555,40.495555555555555],[-114.55805555555555,40.495555555555555],[-114.55805555555555,40.495555555555555],[-113.15972222222223,40.68416666666666],[-113.15972222222223,40.68416666666666],[-113.15972222222223,40.68416666666666],[-113.04388888888889,40.69916666666666],[-112.93027777777779,40.71361111111111],[-112.93027777777779,40.71361111111111],[-112.60972222222222,40.72027777777778],[-112.60972222222222,40.72027777777778],[-112.60972222222222,40.72027777777778],[-112.60972222222222,40.72027777777778],[-112.51,40.723333333333336],[-112.51,40.723333333333336],[-112.33166666666666,40.7525],[-112.08555555555554,40.69777777777777],[-112.08555555555554,40.69777777777777],[-112.08555555555554,40.69777777777777],[-112.07777777777777,40.630833333333335],[-111.97833333333334,40.57611111111112],[-111.97833333333334,40.57611111111112],[-111.97833333333334,40.57611111111112],[-111.97833333333334,40.57611111111112],[-111.97833333333334,40.57611111111112],[-111.97833333333334,40.57611111111112],[-111.97833333333334,40.57611111111112],[-111.99222222222222,40.718611111111116],[-111.99222222222222,40.718611111111116],[-111.99222222222222,40.718611111111116],[-111.98972222222223,40.726111111111116],[-111.98972222222223,40.726111111111116],[-111.98972222222223,40.726111111111116],[-111.98972222222223,40.726111111111116]],"type":"LineString"}
}
