{
  "id": 1981732857,
  "type": "Feature",
  "properties": {
    "geom:area": 0,
    "geom:bbox": "-122.366970,37.627360,-121.269080,38.008180",
    "geom:latitude": 37.8712823938514,
    "geom:longitude": -121.83622137322956,
    "src:alt_label": "swim-takeoff",
    "src:geom": "swim",
    "swim:elevations": [
      122,
      213,
      719,
      993,
      1163,
      1642,
      2025,
      2134,
      2216,
      2439,
      2494,
      2747,
      3205,
      3500,
      3646,
      4757,
      5030,
      5526,
      5748,
      6329,
      6470,
      6824,
      7063
    ],
    "swim:geom": "takeoff",
    "swim:timestamps": [
      1761045756,
      1761045761,
      1761045795,
      1761045820,
      1761045840,
      1761045891,
      1761045916,
      1761045930,
      1761045977,
      1761046010,
      1761046039,
      1761046060,
      1761046097,
      1761046131,
      1761046143,
      1761046221,
      1761046239,
      1761046282,
      1761046300,
      1761046346,
      1761046360,
      1761046395,
      1761046430
    ],
    "wof:geomhash": "90bd528ab084a504609aad3dff72b725",
    "wof:id": 1981732857,
    "wof:repo": "sfomuseum-data-flights-2025-10"
  },
  "bbox": [
    -122.36697,
    37.62736,
    -121.26908,
    38.00818
  ],
  "geometry": {"coordinates":[[-122.36697,37.62736],[-122.36422,37.63139],[-122.3394,37.64831],[-122.31892,37.65946],[-122.29985,37.67063],[-122.23968,37.70458],[-122.20573,37.72178],[-122.18558,37.73215],[-122.12006,37.76717],[-122.07394,37.79295],[-122.03285,37.81646],[-122.00283,37.83322],[-121.94861,37.86288],[-121.89457,37.89337],[-121.87362,37.9049],[-121.72575,37.95682],[-121.687,37.9604],[-121.59677,37.96656],[-121.55658,37.9686],[-121.45689,37.9805],[-121.42728,37.98493],[-121.35009,37.9963],[-121.26908,38.00818]],"type":"LineString"}
}
