{
  "id": 1981723691,
  "type": "Feature",
  "properties": {
    "geom:area": 0,
    "geom:bbox": "-105.101389,40.069722,-70.883333,42.758889",
    "geom:latitude": 41.92039530485838,
    "geom:longitude": -87.61798220179392,
    "src:alt_label": "swim-path",
    "src:geom": "swim",
    "swim:altitudes": [
      "331C",
      "331C",
      "331C",
      "331C",
      "331C",
      "331C",
      "331C",
      "330C",
      "330C",
      "330C",
      "330C",
      "330C",
      "330C",
      "330C",
      "330C",
      "330C",
      "331C",
      "331C",
      "331C",
      "331C",
      "340",
      "340",
      "340",
      "340",
      "350C",
      "350C",
      "350C",
      "350C",
      "350C",
      "350C",
      "350C",
      "350C",
      "350C",
      "350C",
      "350C",
      "350C",
      "350C",
      "350C",
      "350C",
      "350C",
      "350C",
      "350C",
      "350C",
      "350C",
      "350C",
      "350C",
      "350C",
      "350C",
      "351C",
      "351C",
      "351C",
      "351C",
      "351C",
      "351C",
      "351C",
      "351C",
      "350C",
      "350C",
      "350C",
      "350C",
      "350C",
      "350C",
      "350C",
      "350C",
      "350C",
      "350C",
      "350C",
      "350C",
      "350C",
      "351C",
      "351C",
      "351C",
      "351C",
      "350C",
      "350C",
      "350C",
      "350C",
      "350C",
      "350C",
      "350C",
      "351C",
      "351C",
      "351C",
      "351C",
      "362",
      "362",
      "362",
      "370C",
      "370C",
      "370C",
      "370C",
      "370C",
      "370C",
      "370C",
      "370C",
      "370C",
      "370C",
      "370C",
      "370C",
      "370C",
      "370C",
      "370C",
      "370C",
      "371C",
      "371C",
      "371C",
      "370C",
      "370C",
      "370C",
      "370C",
      "371C",
      "371C",
      "371C",
      "371C",
      "371C",
      "371C",
      "370C",
      "370C",
      "370C",
      "370C",
      "370C",
      "370C",
      "370C",
      "370C",
      "370C",
      "370C",
      "370C",
      "370C",
      "371C",
      "371C",
      "371C",
      "371C",
      "371C",
      "371C",
      "370C",
      "370C",
      "370C",
      "370C",
      "370C",
      "370C",
      "370C",
      "370C",
      "370C",
      "370C",
      "370C",
      "370C",
      "371C",
      "371C",
      "371C",
      "371C",
      "371C",
      "370C",
      "370C",
      "370C",
      "370C",
      "371C",
      "371C",
      "371C",
      "371C",
      "371C",
      "371C",
      "371C",
      "371C",
      "371C",
      "371C",
      "371C",
      "371C",
      "371C",
      "371C",
      "371C",
      "370C",
      "370C",
      "370C",
      "370C",
      "370C",
      "370C",
      "370C",
      "370C",
      "370C",
      "370C",
      "370C",
      "370C",
      "370C",
      "370C",
      "370C",
      "370C",
      "370C",
      "370C",
      "370C",
      "370C",
      "371C",
      "371C",
      "371C",
      "371C",
      "371C",
      "371C",
      "371C",
      "371C",
      "371C",
      "371C",
      "371C",
      "370C",
      "370C",
      "370C",
      "371C",
      "371C",
      "371C",
      "371C",
      "371C",
      "371C",
      "371C",
      "370C",
      "370C",
      "370C",
      "370C",
      "370C",
      "371C",
      "371C",
      "371C",
      "371C",
      "371C",
      "371C",
      "371C",
      "371C",
      "371C",
      "257",
      "257",
      "257",
      "257",
      "257",
      "241C",
      "241C",
      "241C",
      "241C",
      "241C",
      "241C",
      "241C",
      "240C",
      "240C",
      "240C",
      "240C",
      "240C",
      "240C",
      "227",
      "227",
      "227",
      "170",
      "170",
      "170",
      "170",
      "170",
      "170",
      "146",
      "146",
      "146",
      "092",
      "092",
      "092",
      "092",
      "084",
      "084",
      "084",
      "084",
      "061",
      "061",
      "061",
      "061",
      "061",
      "040",
      "040",
      "040",
      "040",
      "040",
      "040",
      "040",
      "040",
      "040",
      "040",
      "040",
      "040",
      "033",
      "013",
      "013"
    ],
    "swim:geom": "path",
    "swim:speeds": [
      552,
      552,
      552,
      552,
      552,
      552,
      552,
      561,
      561,
      561,
      561,
      561,
      561,
      561,
      561,
      561,
      559,
      559,
      559,
      559,
      557,
      557,
      557,
      557,
      557,
      557,
      557,
      557,
      557,
      558,
      558,
      558,
      558,
      556,
      556,
      556,
      552,
      552,
      552,
      563,
      563,
      563,
      563,
      563,
      563,
      563,
      563,
      563,
      571,
      571,
      571,
      571,
      574,
      574,
      574,
      574,
      561,
      561,
      561,
      561,
      556,
      556,
      556,
      556,
      556,
      556,
      556,
      556,
      556,
      558,
      558,
      558,
      558,
      554,
      554,
      554,
      554,
      554,
      547,
      547,
      543,
      543,
      543,
      543,
      539,
      539,
      539,
      536,
      536,
      536,
      536,
      534,
      534,
      534,
      534,
      534,
      534,
      526,
      526,
      526,
      530,
      530,
      530,
      525,
      525,
      525,
      522,
      522,
      522,
      522,
      519,
      519,
      519,
      519,
      519,
      519,
      504,
      504,
      504,
      510,
      510,
      510,
      510,
      510,
      507,
      507,
      507,
      507,
      519,
      519,
      521,
      521,
      521,
      521,
      516,
      516,
      516,
      516,
      516,
      514,
      514,
      514,
      510,
      510,
      510,
      511,
      512,
      512,
      512,
      512,
      512,
      506,
      506,
      506,
      506,
      505,
      505,
      505,
      505,
      505,
      505,
      505,
      505,
      493,
      493,
      493,
      493,
      493,
      493,
      493,
      484,
      484,
      484,
      484,
      484,
      484,
      484,
      484,
      484,
      477,
      477,
      477,
      478,
      478,
      478,
      478,
      478,
      481,
      481,
      481,
      481,
      482,
      482,
      482,
      482,
      482,
      482,
      482,
      482,
      482,
      482,
      483,
      483,
      483,
      485,
      485,
      485,
      484,
      484,
      484,
      484,
      479,
      479,
      479,
      479,
      479,
      472,
      472,
      472,
      472,
      472,
      472,
      472,
      472,
      472,
      367,
      367,
      367,
      367,
      367,
      354,
      354,
      354,
      354,
      354,
      354,
      354,
      258,
      258,
      258,
      258,
      258,
      258,
      387,
      387,
      387,
      325,
      325,
      325,
      325,
      326,
      326,
      322,
      322,
      322,
      228,
      228,
      228,
      228,
      226,
      226,
      226,
      226,
      216,
      216,
      216,
      216,
      216,
      259,
      259,
      259,
      259,
      196,
      196,
      196,
      196,
      154,
      154,
      154,
      154,
      149,
      144,
      144
    ],
    "swim:timestamps": [
      1760976233,
      1760976233,
      1760976233,
      1760976233,
      1760976233,
      1760976233,
      1760976233,
      1760976474,
      1760976474,
      1760976474,
      1760976474,
      1760976474,
      1760976474,
      1760976474,
      1760976474,
      1760976474,
      1760976594,
      1760976594,
      1760976594,
      1760976594,
      1760977555,
      1760977555,
      1760977555,
      1760977555,
      1760977615,
      1760977615,
      1760977615,
      1760977615,
      1760977615,
      1760977725,
      1760977725,
      1760977725,
      1760977725,
      1760977735,
      1760977845,
      1760977845,
      1760977916,
      1760977916,
      1760977916,
      1760978145,
      1760978145,
      1760978145,
      1760978145,
      1760978145,
      1760978156,
      1760978156,
      1760978156,
      1760978156,
      1760978266,
      1760978266,
      1760978266,
      1760978266,
      1760978386,
      1760978386,
      1760978386,
      1760978386,
      1760978686,
      1760978686,
      1760978686,
      1760978686,
      1760978866,
      1760978866,
      1760978866,
      1760978866,
      1760979047,
      1760979047,
      1760979047,
      1760979047,
      1760979047,
      1760979347,
      1760979347,
      1760979347,
      1760979347,
      1760979483,
      1760979483,
      1760979483,
      1760979483,
      1760979483,
      1760979768,
      1760979768,
      1760979948,
      1760979948,
      1760979948,
      1760979948,
      1760980144,
      1760980144,
      1760980144,
      1760980308,
      1760980308,
      1760980308,
      1760980308,
      1760980368,
      1760980368,
      1760980368,
      1760980368,
      1760980368,
      1760980368,
      1760980549,
      1760980549,
      1760980549,
      1760981045,
      1760981045,
      1760981045,
      1760981225,
      1760981225,
      1760981225,
      1760981285,
      1760981285,
      1760981285,
      1760981285,
      1760981405,
      1760981405,
      1760981405,
      1760981405,
      1760981405,
      1760981405,
      1760981689,
      1760981689,
      1760981689,
      1760981706,
      1760981706,
      1760981706,
      1760981706,
      1760981706,
      1760981749,
      1760981749,
      1760981749,
      1760981749,
      1760981946,
      1760981946,
      1760982006,
      1760982126,
      1760982126,
      1760982126,
      1760982290,
      1760982290,
      1760982290,
      1760982290,
      1760982290,
      1760982350,
      1760982350,
      1760982350,
      1760982471,
      1760982471,
      1760982471,
      1760982531,
      1760982651,
      1760982651,
      1760982651,
      1760982651,
      1760982651,
      1760983011,
      1760983011,
      1760983011,
      1760983011,
      1760983132,
      1760983132,
      1760983132,
      1760983132,
      1760983132,
      1760983132,
      1760983132,
      1760983132,
      1760983913,
      1760983913,
      1760983913,
      1760983913,
      1760983913,
      1760983913,
      1760983913,
      1760984213,
      1760984213,
      1760984213,
      1760984213,
      1760984213,
      1760984213,
      1760984213,
      1760984213,
      1760984213,
      1760984526,
      1760984526,
      1760984526,
      1760984574,
      1760984574,
      1760984574,
      1760984574,
      1760984574,
      1760984875,
      1760984875,
      1760984875,
      1760984886,
      1760984935,
      1760984935,
      1760985006,
      1760985006,
      1760985006,
      1760985006,
      1760985115,
      1760985115,
      1760985115,
      1760985115,
      1760985235,
      1760985235,
      1760985235,
      1760985307,
      1760985307,
      1760985307,
      1760985427,
      1760985427,
      1760985427,
      1760985427,
      1760985547,
      1760985547,
      1760985547,
      1760985547,
      1760985547,
      1760985727,
      1760985727,
      1760985727,
      1760985727,
      1760985727,
      1760985727,
      1760985727,
      1760985727,
      1760985727,
      1760986268,
      1760986268,
      1760986268,
      1760986268,
      1760986268,
      1760986328,
      1760986328,
      1760986328,
      1760986328,
      1760986328,
      1760986328,
      1760986328,
      1760986749,
      1760986749,
      1760986749,
      1760986749,
      1760986749,
      1760986749,
      1760986869,
      1760986869,
      1760986869,
      1760987109,
      1760987109,
      1760987109,
      1760987109,
      1760987169,
      1760987169,
      1760987312,
      1760987312,
      1760987312,
      1760987552,
      1760987552,
      1760987552,
      1760987552,
      1760987590,
      1760987590,
      1760987590,
      1760987590,
      1760987770,
      1760987770,
      1760987770,
      1760987770,
      1760987770,
      1760988011,
      1760988011,
      1760988011,
      1760988011,
      1760988158,
      1760988158,
      1760988158,
      1760988158,
      1760988311,
      1760988311,
      1760988311,
      1760988311,
      1760988371,
      1760988512,
      1760988512
    ],
    "wof:geomhash": "cadf5a8ad7a59a53504e9747de44774b",
    "wof:id": 1981723691,
    "wof:repo": "sfomuseum-data-flights-2025-10"
  },
  "bbox": [
    -105.10138888888888,
    40.069722222222225,
    -70.88333333333334,
    42.75888888888889
  ],
  "geometry": {"coordinates":[[-105.10138888888888,40.069722222222225],[-105.10138888888888,40.069722222222225],[-105.10138888888888,40.069722222222225],[-105.10138888888888,40.069722222222225],[-105.10138888888888,40.069722222222225],[-105.10138888888888,40.069722222222225],[-105.10138888888888,40.069722222222225],[-104.29861111111111,40.15555555555555],[-104.29861111111111,40.15555555555555],[-104.29861111111111,40.15555555555555],[-104.29861111111111,40.15555555555555],[-104.29861111111111,40.15555555555555],[-104.29861111111111,40.15555555555555],[-104.29861111111111,40.15555555555555],[-104.29861111111111,40.15555555555555],[-104.29861111111111,40.15555555555555],[-103.89472222222223,40.196666666666665],[-103.89472222222223,40.196666666666665],[-103.89472222222223,40.196666666666665],[-103.89472222222223,40.196666666666665],[-100.65777777777778,40.51083333333333],[-100.65777777777778,40.51083333333333],[-100.65777777777778,40.51083333333333],[-100.65777777777778,40.51083333333333],[-100.465,40.551944444444445],[-100.465,40.551944444444445],[-100.465,40.551944444444445],[-100.465,40.551944444444445],[-100.465,40.551944444444445],[-100.12666666666667,40.62305555555555],[-100.12666666666667,40.62305555555555],[-100.12666666666667,40.62305555555555],[-100.12666666666667,40.62305555555555],[-100.07805555555555,40.63305555555556],[-99.73583333333333,40.703611111111115],[-99.73583333333333,40.703611111111115],[-99.50361111111111,40.75055555555556],[-99.50361111111111,40.75055555555556],[-99.50361111111111,40.75055555555556],[-98.73611111111111,40.90277777777778],[-98.73611111111111,40.90277777777778],[-98.73611111111111,40.90277777777778],[-98.73611111111111,40.90277777777778],[-98.73611111111111,40.90277777777778],[-98.72055555555556,40.905833333333334],[-98.72055555555556,40.905833333333334],[-98.72055555555556,40.905833333333334],[-98.72055555555556,40.905833333333334],[-98.31638888888888,40.98027777777778],[-98.31638888888888,40.98027777777778],[-98.31638888888888,40.98027777777778],[-98.31638888888888,40.98027777777778],[-97.90611111111112,41.05361111111111],[-97.90611111111112,41.05361111111111],[-97.90611111111112,41.05361111111111],[-97.90611111111112,41.05361111111111],[-96.90277777777779,41.22638888888889],[-96.90277777777779,41.22638888888889],[-96.90277777777779,41.22638888888889],[-96.90277777777779,41.22638888888889],[-96.30527777777777,41.32472222222223],[-96.30527777777777,41.32472222222223],[-96.30527777777777,41.32472222222223],[-96.30527777777777,41.32472222222223],[-95.68916666666667,41.4225],[-95.68916666666667,41.4225],[-95.68916666666667,41.4225],[-95.68916666666667,41.4225],[-95.68916666666667,41.4225],[-94.71055555555556,41.56861111111112],[-94.71055555555556,41.56861111111112],[-94.71055555555556,41.56861111111112],[-94.71055555555556,41.56861111111112],[-94.21666666666667,41.638888888888886],[-94.21666666666667,41.638888888888886],[-94.21666666666667,41.638888888888886],[-94.21666666666667,41.638888888888886],[-94.21666666666667,41.638888888888886],[-93.29222222222222,41.76444444444444],[-93.29222222222222,41.76444444444444],[-92.71305555555556,41.859722222222224],[-92.71305555555556,41.859722222222224],[-92.71305555555556,41.859722222222224],[-92.71305555555556,41.859722222222224],[-92.05166666666666,41.96333333333334],[-92.05166666666666,41.96333333333334],[-92.05166666666666,41.96333333333334],[-91.50638888888889,42.04527777777778],[-91.50638888888889,42.04527777777778],[-91.50638888888889,42.04527777777778],[-91.50638888888889,42.04527777777778],[-91.31166666666667,42.073888888888895],[-91.31166666666667,42.073888888888895],[-91.31166666666667,42.073888888888895],[-91.31166666666667,42.073888888888895],[-91.31166666666667,42.073888888888895],[-91.31166666666667,42.073888888888895],[-90.73055555555555,42.11611111111111],[-90.73055555555555,42.11611111111111],[-90.73055555555555,42.11611111111111],[-89.10527777777777,42.19138888888889],[-89.10527777777777,42.19138888888889],[-89.10527777777777,42.19138888888889],[-88.50027777777778,42.208333333333336],[-88.50027777777778,42.208333333333336],[-88.50027777777778,42.208333333333336],[-88.30388888888889,42.21333333333334],[-88.30388888888889,42.21333333333334],[-88.30388888888889,42.21333333333334],[-88.30388888888889,42.21333333333334],[-87.91388888888889,42.223055555555554],[-87.91388888888889,42.223055555555554],[-87.91388888888889,42.223055555555554],[-87.91388888888889,42.223055555555554],[-87.91388888888889,42.223055555555554],[-87.91388888888889,42.223055555555554],[-87.03888888888889,42.27444444444444],[-87.03888888888889,42.27444444444444],[-87.03888888888889,42.27444444444444],[-86.96111111111111,42.27833333333333],[-86.96111111111111,42.27833333333333],[-86.96111111111111,42.27833333333333],[-86.96111111111111,42.27833333333333],[-86.96111111111111,42.27833333333333],[-86.84833333333333,42.284166666666664],[-86.84833333333333,42.284166666666664],[-86.84833333333333,42.284166666666664],[-86.84833333333333,42.284166666666664],[-86.21472222222222,42.31583333333333],[-86.21472222222222,42.31583333333333],[-86.02027777777778,42.32472222222223],[-85.63416666666667,42.34166666666667],[-85.63416666666667,42.34166666666667],[-85.63416666666667,42.34166666666667],[-85.09805555555555,42.362500000000004],[-85.09805555555555,42.362500000000004],[-85.09805555555555,42.362500000000004],[-85.09805555555555,42.362500000000004],[-85.09805555555555,42.362500000000004],[-84.90277777777779,42.36972222222222],[-84.90277777777779,42.36972222222222],[-84.90277777777779,42.36972222222222],[-84.52194444444444,42.401944444444446],[-84.52194444444444,42.401944444444446],[-84.52194444444444,42.401944444444446],[-84.33277777777778,42.41694444444444],[-83.94805555555556,42.44611111111111],[-83.94805555555556,42.44611111111111],[-83.94805555555556,42.44611111111111],[-83.94805555555556,42.44611111111111],[-83.94805555555556,42.44611111111111],[-82.79638888888888,42.52583333333333],[-82.79638888888888,42.52583333333333],[-82.79638888888888,42.52583333333333],[-82.79638888888888,42.52583333333333],[-82.41777777777779,42.54944444444444],[-82.41777777777779,42.54944444444444],[-82.41777777777779,42.54944444444444],[-82.41777777777779,42.54944444444444],[-82.41777777777779,42.54944444444444],[-82.41777777777779,42.54944444444444],[-82.41777777777779,42.54944444444444],[-82.41777777777779,42.54944444444444],[-80.01444444444445,42.669999999999995],[-80.01444444444445,42.669999999999995],[-80.01444444444445,42.669999999999995],[-80.01444444444445,42.669999999999995],[-80.01444444444445,42.669999999999995],[-80.01444444444445,42.669999999999995],[-80.01444444444445,42.669999999999995],[-79.07833333333333,42.70277777777778],[-79.07833333333333,42.70277777777778],[-79.07833333333333,42.70277777777778],[-79.07833333333333,42.70277777777778],[-79.07833333333333,42.70277777777778],[-79.07833333333333,42.70277777777778],[-79.07833333333333,42.70277777777778],[-79.07833333333333,42.70277777777778],[-79.07833333333333,42.70277777777778],[-78.14166666666668,42.72833333333333],[-78.14166666666668,42.72833333333333],[-78.14166666666668,42.72833333333333],[-77.99555555555555,42.73166666666667],[-77.99555555555555,42.73166666666667],[-77.99555555555555,42.73166666666667],[-77.99555555555555,42.73166666666667],[-77.99555555555555,42.73166666666667],[-77.07388888888889,42.74805555555556],[-77.07388888888889,42.74805555555556],[-77.07388888888889,42.74805555555556],[-77.04194444444444,42.748333333333335],[-76.89083333333333,42.75055555555556],[-76.89083333333333,42.75055555555556],[-76.67444444444445,42.753055555555555],[-76.67444444444445,42.753055555555555],[-76.67444444444445,42.753055555555555],[-76.67444444444445,42.753055555555555],[-76.34027777777777,42.755833333333335],[-76.34027777777777,42.755833333333335],[-76.34027777777777,42.755833333333335],[-76.34027777777777,42.755833333333335],[-75.9775,42.757777777777775],[-75.9775,42.757777777777775],[-75.9775,42.757777777777775],[-75.75777777777778,42.75861111111111],[-75.75777777777778,42.75861111111111],[-75.75777777777778,42.75861111111111],[-75.39472222222223,42.75888888888889],[-75.39472222222223,42.75888888888889],[-75.39472222222223,42.75888888888889],[-75.39472222222223,42.75888888888889],[-75.03666666666666,42.75805555555556],[-75.03666666666666,42.75805555555556],[-75.03666666666666,42.75805555555556],[-75.03666666666666,42.75805555555556],[-75.03666666666666,42.75805555555556],[-74.50444444444445,42.75472222222222],[-74.50444444444445,42.75472222222222],[-74.50444444444445,42.75472222222222],[-74.50444444444445,42.75472222222222],[-74.50444444444445,42.75472222222222],[-74.50444444444445,42.75472222222222],[-74.50444444444445,42.75472222222222],[-74.50444444444445,42.75472222222222],[-74.50444444444445,42.75472222222222],[-72.98861111111111,42.725833333333334],[-72.98861111111111,42.725833333333334],[-72.98861111111111,42.725833333333334],[-72.98861111111111,42.725833333333334],[-72.98861111111111,42.725833333333334],[-72.86666666666666,42.71194444444445],[-72.86666666666666,42.71194444444445],[-72.86666666666666,42.71194444444445],[-72.86666666666666,42.71194444444445],[-72.86666666666666,42.71194444444445],[-72.86666666666666,42.71194444444445],[-72.86666666666666,42.71194444444445],[-72.2025,42.52916666666667],[-72.2025,42.52916666666667],[-72.2025,42.52916666666667],[-72.2025,42.52916666666667],[-72.2025,42.52916666666667],[-72.2025,42.52916666666667],[-72.40527777777778,42.46361111111111],[-72.40527777777778,42.46361111111111],[-72.40527777777778,42.46361111111111],[-72.23805555555556,42.65333333333333],[-72.23805555555556,42.65333333333333],[-72.23805555555556,42.65333333333333],[-72.23805555555556,42.65333333333333],[-72.11861111111111,42.63611111111111],[-72.11861111111111,42.63611111111111],[-71.83333333333333,42.583333333333336],[-71.83333333333333,42.583333333333336],[-71.83333333333333,42.583333333333336],[-71.43333333333334,42.61666666666667],[-71.43333333333334,42.61666666666667],[-71.43333333333334,42.61666666666667],[-71.43333333333334,42.61666666666667],[-71.39194444444445,42.58888888888889],[-71.39194444444445,42.58888888888889],[-71.39194444444445,42.58888888888889],[-71.39194444444445,42.58888888888889],[-71.19944444444445,42.47888888888889],[-71.19944444444445,42.47888888888889],[-71.19944444444445,42.47888888888889],[-71.19944444444445,42.47888888888889],[-71.19944444444445,42.47888888888889],[-71.02083333333333,42.625277777777775],[-71.02083333333333,42.625277777777775],[-71.02083333333333,42.625277777777775],[-71.02083333333333,42.625277777777775],[-70.88333333333334,42.68333333333333],[-70.88333333333334,42.68333333333333],[-70.88333333333334,42.68333333333333],[-70.88333333333334,42.68333333333333],[-70.90666666666667,42.5675],[-70.90666666666667,42.5675],[-70.90666666666667,42.5675],[-70.90666666666667,42.5675],[-70.92555555555556,42.52861111111111],[-70.96666666666667,42.43333333333333],[-70.96666666666667,42.43333333333333]],"type":"LineString"}
}
