{
  "id": 1981723283,
  "type": "Feature",
  "properties": {
    "geom:area": 0,
    "geom:bbox": "-122.522500,32.701111,-116.950000,37.653333",
    "geom:latitude": 34.95279807268275,
    "geom:longitude": -119.91388682967637,
    "src:alt_label": "swim-path",
    "src:geom": "swim",
    "swim:altitudes": [
      "018",
      "018",
      "018",
      "018",
      "018",
      "177",
      "177",
      "177",
      "177",
      "177",
      "177",
      "177",
      "239",
      "239",
      "239",
      "239",
      "239",
      "255",
      "255",
      "290",
      "290",
      "302",
      "318",
      "343",
      "343",
      "345",
      "350C",
      "350C",
      "350C",
      "350C",
      "350C",
      "350C",
      "350C",
      "350C",
      "350C",
      "350C",
      "350C",
      "350C",
      "350C",
      "350C",
      "350C",
      "350C",
      "350C",
      "350C",
      "350C",
      "350C",
      "350C",
      "350C",
      "350C",
      "350C",
      "350C",
      "309",
      "309",
      "309",
      "309",
      "309",
      "309",
      "220",
      "220",
      "220",
      "220",
      "220",
      "220",
      "111",
      "111",
      "111",
      "111",
      "080",
      "080",
      "080",
      "080",
      "080",
      "050",
      "044",
      "026",
      "026",
      "026",
      "017",
      "017",
      "017",
      "006",
      "006",
      "006"
    ],
    "swim:geom": "path",
    "swim:speeds": [
      169,
      169,
      169,
      169,
      169,
      371,
      371,
      371,
      371,
      371,
      371,
      371,
      415,
      415,
      415,
      415,
      415,
      423,
      423,
      438,
      438,
      446,
      442,
      433,
      433,
      433,
      434,
      434,
      434,
      434,
      434,
      434,
      441,
      441,
      441,
      441,
      441,
      441,
      441,
      441,
      441,
      411,
      411,
      411,
      411,
      411,
      411,
      411,
      411,
      411,
      411,
      418,
      418,
      418,
      418,
      418,
      418,
      369,
      369,
      369,
      369,
      369,
      369,
      318,
      318,
      318,
      318,
      260,
      260,
      260,
      260,
      260,
      222,
      212,
      184,
      184,
      184,
      174,
      174,
      174,
      140,
      140,
      140
    ],
    "swim:timestamps": [
      1760998212,
      1760998212,
      1760998212,
      1760998212,
      1760998212,
      1760998632,
      1760998632,
      1760998632,
      1760998632,
      1760998632,
      1760998632,
      1760998632,
      1760998873,
      1760998873,
      1760998873,
      1760998873,
      1760998873,
      1760998939,
      1760998939,
      1760999113,
      1760999113,
      1760999173,
      1760999233,
      1760999353,
      1760999353,
      1760999359,
      1760999534,
      1760999534,
      1760999534,
      1760999534,
      1760999534,
      1760999534,
      1761000201,
      1761000201,
      1761000201,
      1761000201,
      1761000201,
      1761000201,
      1761000201,
      1761000201,
      1761000201,
      1761000435,
      1761000435,
      1761000561,
      1761000561,
      1761000561,
      1761000561,
      1761000561,
      1761000561,
      1761000561,
      1761000561,
      1761001162,
      1761001162,
      1761001162,
      1761001162,
      1761001162,
      1761001162,
      1761001462,
      1761001462,
      1761001462,
      1761001462,
      1761001462,
      1761001462,
      1761001823,
      1761001823,
      1761001823,
      1761001823,
      1761002003,
      1761002003,
      1761002003,
      1761002003,
      1761002003,
      1761002160,
      1761002220,
      1761002364,
      1761002364,
      1761002364,
      1761002400,
      1761002400,
      1761002400,
      1761002484,
      1761002484,
      1761002484
    ],
    "wof:geomhash": "af6a06a75e3d26837b849e3c58fd3c96",
    "wof:id": 1981723283,
    "wof:repo": "sfomuseum-data-flights-2025-10"
  },
  "bbox": [
    -122.5225,
    32.70111111111111,
    -116.95,
    37.65333333333333
  ],
  "geometry": {"coordinates":[[-122.36416666666666,37.65333333333333],[-122.36416666666666,37.65333333333333],[-122.36416666666666,37.65333333333333],[-122.36416666666666,37.65333333333333],[-122.36416666666666,37.65333333333333],[-122.5225,37.23222222222223],[-122.5225,37.23222222222223],[-122.5225,37.23222222222223],[-122.5225,37.23222222222223],[-122.5225,37.23222222222223],[-122.5225,37.23222222222223],[-122.5225,37.23222222222223],[-122.30138888888888,36.85444444444445],[-122.30138888888888,36.85444444444445],[-122.30138888888888,36.85444444444445],[-122.30138888888888,36.85444444444445],[-122.30138888888888,36.85444444444445],[-122.19500000000001,36.740833333333335],[-122.19500000000001,36.740833333333335],[-121.94222222222223,36.469722222222224],[-121.94222222222223,36.469722222222224],[-121.84916666666666,36.36972222222222],[-121.7575,36.27055555555555],[-121.57916666666667,36.07694444444445],[-121.57916666666667,36.07694444444445],[-121.56222222222222,36.058611111111105],[-121.31472222222222,35.78722222222222],[-121.31472222222222,35.78722222222222],[-121.31472222222222,35.78722222222222],[-121.31472222222222,35.78722222222222],[-121.31472222222222,35.78722222222222],[-121.31472222222222,35.78722222222222],[-120.06583333333333,34.92722222222222],[-120.06583333333333,34.92722222222222],[-120.06583333333333,34.92722222222222],[-120.06583333333333,34.92722222222222],[-120.06583333333333,34.92722222222222],[-120.06583333333333,34.92722222222222],[-120.06583333333333,34.92722222222222],[-120.06583333333333,34.92722222222222],[-120.06583333333333,34.92722222222222],[-119.61277777777777,34.65611111111111],[-119.61277777777777,34.65611111111111],[-119.37666666666667,34.513333333333335],[-119.37666666666667,34.513333333333335],[-119.37666666666667,34.513333333333335],[-119.37666666666667,34.513333333333335],[-119.37666666666667,34.513333333333335],[-119.37666666666667,34.513333333333335],[-119.37666666666667,34.513333333333335],[-119.37666666666667,34.513333333333335],[-118.26833333333333,33.80611111111111],[-118.26833333333333,33.80611111111111],[-118.26833333333333,33.80611111111111],[-118.26833333333333,33.80611111111111],[-118.26833333333333,33.80611111111111],[-118.26833333333333,33.80611111111111],[-117.7911111111111,33.42777777777778],[-117.7911111111111,33.42777777777778],[-117.7911111111111,33.42777777777778],[-117.7911111111111,33.42777777777778],[-117.7911111111111,33.42777777777778],[-117.7911111111111,33.42777777777778],[-117.35888888888888,32.988055555555555],[-117.35888888888888,32.988055555555555],[-117.35888888888888,32.988055555555555],[-117.35888888888888,32.988055555555555],[-117.17416666666666,32.835],[-117.17416666666666,32.835],[-117.17416666666666,32.835],[-117.17416666666666,32.835],[-117.17416666666666,32.835],[-116.98333333333333,32.78333333333333],[-116.95,32.733333333333334],[-117.05638888888889,32.70111111111111],[-117.05638888888889,32.70111111111111],[-117.05638888888889,32.70111111111111],[-117.1,32.71666666666667],[-117.1,32.71666666666667],[-117.1,32.71666666666667],[-117.15416666666667,32.725],[-117.15416666666667,32.725],[-117.15416666666667,32.725]],"type":"LineString"}
}
