{
  "id": 1981705235,
  "type": "Feature",
  "properties": {
    "geom:area": 0,
    "geom:bbox": "-122.598110,37.093630,-121.243510,37.721580",
    "geom:latitude": 37.36350178302109,
    "geom:longitude": -122.05886374439741,
    "src:alt_label": "swim-takeoff",
    "src:geom": "swim",
    "swim:elevations": [
      332,
      519,
      702,
      965,
      1302,
      1497,
      1606,
      2060,
      2399,
      2596,
      3048,
      3246,
      3262,
      3413,
      3547,
      4031,
      4306,
      4447,
      4816,
      5125,
      5276,
      5494,
      5882,
      6148,
      6330,
      6451,
      6666,
      6983,
      7187,
      7315,
      7451,
      7539,
      7623,
      7847
    ],
    "swim:geom": "takeoff",
    "swim:timestamps": [
      1760772205,
      1760772234,
      1760772267,
      1760772290,
      1760772325,
      1760772340,
      1760772348,
      1760772381,
      1760772409,
      1760772426,
      1760772476,
      1760772508,
      1760772512,
      1760772542,
      1760772573,
      1760772622,
      1760772651,
      1760772664,
      1760772708,
      1760772742,
      1760772760,
      1760772791,
      1760772838,
      1760772868,
      1760772891,
      1760772906,
      1760772936,
      1760772987,
      1760773017,
      1760773037,
      1760773061,
      1760773073,
      1760773086,
      1760773128
    ],
    "wof:geomhash": "58de9af700822ebfefa68d37a4864a7c",
    "wof:id": 1981705235,
    "wof:repo": "sfomuseum-data-flights-2025-10"
  },
  "bbox": [
    -122.59811,
    37.09363,
    -121.24351,
    37.72158
  ],
  "geometry": {"coordinates":[[-122.36251,37.64258],[-122.36198,37.66691],[-122.36937,37.69925],[-122.39796,37.71332],[-122.45011,37.72158],[-122.47304,37.71654],[-122.48582,37.71356],[-122.53825,37.70132],[-122.5811,37.68872],[-122.59811,37.67197],[-122.59542,37.60297],[-122.58423,37.55697],[-122.58021,37.55148],[-122.53027,37.52528],[-122.46621,37.51097],[-122.36064,37.48695],[-122.30014,37.46519],[-122.27674,37.4483],[-122.20353,37.3906],[-122.14377,37.34394],[-122.11279,37.31961],[-122.05898,37.27715],[-121.97463,37.2111],[-121.90906,37.18227],[-121.85385,37.17403],[-121.8166,37.16939],[-121.74168,37.15959],[-121.61116,37.14282],[-121.53494,37.13324],[-121.48197,37.12656],[-121.41975,37.11826],[-121.3883,37.1139],[-121.35465,37.10929],[-121.24351,37.09363]],"type":"LineString"}
}
