{
  "id": 1981724657,
  "type": "Feature",
  "properties": {
    "geom:area": 0,
    "geom:bbox": "-122.387030,37.639490,-121.246310,38.165230",
    "geom:latitude": 37.99268845689606,
    "geom:longitude": -121.9314005236669,
    "src:alt_label": "swim-takeoff",
    "src:geom": "swim",
    "swim:elevations": [
      373,
      726,
      1059,
      1161,
      1510,
      1812,
      2023,
      2100,
      2432,
      2530,
      2829,
      3031,
      3294,
      3515,
      3948,
      4238,
      4564,
      4670,
      5283,
      5600,
      5893,
      6173,
      6493,
      6829,
      7069,
      7285,
      7486,
      7710,
      7795,
      7847,
      8002,
      8127,
      8236
    ],
    "swim:geom": "takeoff",
    "swim:timestamps": [
      1761003444,
      1761003468,
      1761003501,
      1761003519,
      1761003555,
      1761003579,
      1761003594,
      1761003600,
      1761003627,
      1761003633,
      1761003658,
      1761003672,
      1761003696,
      1761003733,
      1761003771,
      1761003796,
      1761003823,
      1761003832,
      1761003885,
      1761003921,
      1761003951,
      1761003978,
      1761004013,
      1761004047,
      1761004076,
      1761004100,
      1761004124,
      1761004154,
      1761004166,
      1761004175,
      1761004196,
      1761004217,
      1761004233
    ],
    "wof:geomhash": "ddef6893aa6f4264845597642a7fbb83",
    "wof:id": 1981724657,
    "wof:repo": "sfomuseum-data-flights-2025-10"
  },
  "bbox": [
    -122.38703,
    37.63949,
    -121.24631,
    38.16523
  ],
  "geometry": {"coordinates":[[-122.35862,37.63949],[-122.34137,37.65335],[-122.31802,37.67332],[-122.31139,37.68985],[-122.32705,37.72782],[-122.34195,37.75476],[-122.35112,37.7726],[-122.35466,37.77984],[-122.3712,37.81333],[-122.375,37.82092],[-122.38703,37.85268],[-122.3869,37.87384],[-122.38269,37.90787],[-122.33665,37.94915],[-122.26319,37.96478],[-122.21254,37.97561],[-122.15721,37.98711],[-122.13857,37.99069],[-122.02933,38.01191],[-121.95336,38.02711],[-121.88991,38.03968],[-121.83165,38.05132],[-121.75444,38.06668],[-121.67877,38.08154],[-121.61494,38.09413],[-121.55958,38.10496],[-121.50557,38.11543],[-121.43579,38.12875],[-121.40717,38.13387],[-121.38593,38.1381],[-121.33608,38.14775],[-121.28593,38.15759],[-121.24631,38.16523]],"type":"LineString"}
}
