{
  "id": 1981637061,
  "type": "Feature",
  "properties": {
    "geom:area": 0,
    "geom:bbox": "-122.539370,36.719010,-121.292750,37.665220",
    "geom:latitude": 37.19860216200676,
    "geom:longitude": -121.99299617511869,
    "src:alt_label": "swim-takeoff",
    "src:geom": "swim",
    "swim:elevations": [
      375,
      678,
      927,
      1205,
      1422,
      1764,
      2427,
      2759,
      3454,
      3497,
      3657,
      4103,
      4343,
      4861,
      4982,
      5268,
      5562,
      6059,
      6217,
      6401,
      6634,
      6876,
      6974,
      7037,
      7392,
      7486,
      7716,
      7930,
      8032,
      8160,
      8447,
      8709
    ],
    "swim:geom": "takeoff",
    "swim:timestamps": [
      1760103442,
      1760103465,
      1760103484,
      1760103522,
      1760103549,
      1760103570,
      1760103612,
      1760103633,
      1760103688,
      1760103696,
      1760103722,
      1760103762,
      1760103780,
      1760103827,
      1760103841,
      1760103871,
      1760103904,
      1760103953,
      1760103973,
      1760103997,
      1760104025,
      1760104064,
      1760104077,
      1760104084,
      1760104128,
      1760104141,
      1760104173,
      1760104206,
      1760104221,
      1760104244,
      1760104279,
      1760104318
    ],
    "wof:geomhash": "dc8c6f4cad8789981b9710bbe9678bf4",
    "wof:id": 1981637061,
    "wof:repo": "sfomuseum-data-flights-2025-10"
  },
  "bbox": [
    -122.53937,
    36.71901,
    -121.29275,
    37.66522
  ],
  "geometry": {"coordinates":[[-122.40566,37.63414],[-122.42714,37.64224],[-122.44488,37.64894],[-122.48509,37.66522],[-122.52278,37.66229],[-122.53937,37.64139],[-122.52936,37.59065],[-122.51643,37.56514],[-122.47555,37.49952],[-122.46633,37.4914],[-122.42713,37.46448],[-122.36094,37.42242],[-122.32998,37.40226],[-122.2493,37.34992],[-122.22673,37.3351],[-122.17458,37.29997],[-122.11503,37.26067],[-122.02363,37.20121],[-121.98729,37.1776],[-121.94151,37.14776],[-121.88966,37.11379],[-121.81341,37.06371],[-121.78655,37.04606],[-121.77272,37.03698],[-121.68576,36.97973],[-121.65964,36.96251],[-121.59578,36.92028],[-121.52752,36.87543],[-121.49681,36.85538],[-121.44858,36.82273],[-121.37539,36.77438],[-121.29275,36.71901]],"type":"LineString"}
}
