{
  "id": 1981770293,
  "type": "Feature",
  "properties": {
    "geom:area": 0,
    "geom:bbox": "-122.333333,33.927778,-118.456389,37.600000",
    "geom:latitude": 35.52879257417166,
    "geom:longitude": -120.62766457495498,
    "src:alt_label": "swim-path",
    "src:geom": "swim",
    "swim:altitudes": [
      "016",
      "016",
      "016",
      "016",
      "016",
      "016",
      "080",
      "080",
      "080",
      "080",
      "192",
      "192",
      "192",
      "192",
      "192",
      "231",
      "231",
      "251",
      "251",
      "251",
      "251",
      "321",
      "321",
      "321",
      "339C",
      "339C",
      "339C",
      "340C",
      "340C",
      "340C",
      "340C",
      "340C",
      "340C",
      "340C",
      "340C",
      "340C",
      "340C",
      "340C",
      "340C",
      "340C",
      "340C",
      "340C",
      "340C",
      "340C",
      "340C",
      "340C",
      "340C",
      "340C",
      "340C",
      "340",
      "340",
      "340",
      "340",
      "340",
      "340",
      "340",
      "340",
      "340",
      "337",
      "337",
      "337",
      "266",
      "266",
      "266",
      "266",
      "169",
      "164",
      "164",
      "164",
      "149",
      "142",
      "142",
      "142",
      "129",
      "129",
      "129",
      "129",
      "124",
      "099",
      "099",
      "090",
      "090",
      "090",
      "079",
      "079",
      "075",
      "075",
      "075",
      "075",
      "075",
      "066",
      "066",
      "050",
      "050",
      "050",
      "043",
      "043",
      "034",
      "034",
      "031",
      "031",
      "026",
      "025",
      "025",
      "025",
      "025",
      "004",
      "004",
      "004",
      "004",
      "004",
      "004",
      "004",
      "004"
    ],
    "swim:geom": "path",
    "swim:speeds": [
      167,
      167,
      167,
      167,
      167,
      167,
      257,
      257,
      257,
      257,
      372,
      372,
      372,
      372,
      372,
      392,
      392,
      400,
      400,
      400,
      400,
      412,
      412,
      412,
      406,
      406,
      406,
      405,
      405,
      405,
      404,
      404,
      404,
      404,
      404,
      404,
      404,
      404,
      404,
      404,
      404,
      404,
      402,
      402,
      402,
      402,
      402,
      402,
      402,
      403,
      403,
      403,
      403,
      403,
      403,
      403,
      402,
      402,
      397,
      397,
      397,
      408,
      408,
      408,
      408,
      340,
      342,
      342,
      342,
      340,
      336,
      336,
      336,
      339,
      339,
      339,
      339,
      335,
      282,
      282,
      264,
      264,
      264,
      236,
      236,
      231,
      231,
      231,
      231,
      231,
      230,
      230,
      213,
      213,
      213,
      199,
      199,
      183,
      183,
      172,
      172,
      168,
      165,
      165,
      165,
      165,
      159,
      159,
      159,
      159,
      159,
      159,
      159,
      159
    ],
    "swim:timestamps": [
      1761485459,
      1761485459,
      1761485459,
      1761485459,
      1761485459,
      1761485459,
      1761485639,
      1761485639,
      1761485639,
      1761485639,
      1761485940,
      1761485940,
      1761485940,
      1761485940,
      1761485940,
      1761486053,
      1761486053,
      1761486113,
      1761486113,
      1761486113,
      1761486113,
      1761486353,
      1761486353,
      1761486353,
      1761486420,
      1761486420,
      1761486420,
      1761486480,
      1761486480,
      1761486480,
      1761486653,
      1761486653,
      1761486653,
      1761486653,
      1761486660,
      1761486720,
      1761486720,
      1761486720,
      1761486841,
      1761486841,
      1761486894,
      1761486894,
      1761486954,
      1761486954,
      1761486954,
      1761486954,
      1761487021,
      1761487021,
      1761487021,
      1761487081,
      1761487081,
      1761487081,
      1761487081,
      1761487134,
      1761487134,
      1761487134,
      1761487201,
      1761487201,
      1761487374,
      1761487374,
      1761487374,
      1761487569,
      1761487569,
      1761487569,
      1761487569,
      1761487854,
      1761487863,
      1761487863,
      1761487863,
      1761487914,
      1761487929,
      1761487929,
      1761487929,
      1761487974,
      1761487974,
      1761487974,
      1761487974,
      1761487983,
      1761488103,
      1761488103,
      1761488154,
      1761488154,
      1761488154,
      1761488215,
      1761488215,
      1761488223,
      1761488223,
      1761488223,
      1761488223,
      1761488223,
      1761488275,
      1761488275,
      1761488349,
      1761488349,
      1761488349,
      1761488395,
      1761488395,
      1761488455,
      1761488455,
      1761488463,
      1761488463,
      1761488515,
      1761488523,
      1761488523,
      1761488523,
      1761488523,
      1761488703,
      1761488703,
      1761488703,
      1761488703,
      1761488703,
      1761488703,
      1761488703,
      1761488703
    ],
    "wof:geomhash": "3d7270169fdc14e0c84cb189aaf22d20",
    "wof:id": 1981770293,
    "wof:repo": "sfomuseum-data-flights-2025-10"
  },
  "bbox": [
    -122.33333333333333,
    33.92777777777778,
    -118.4563888888889,
    37.6
  ],
  "geometry": {"coordinates":[[-118.4563888888889,33.94416666666666],[-118.4563888888889,33.94416666666666],[-118.4563888888889,33.94416666666666],[-118.4563888888889,33.94416666666666],[-118.4563888888889,33.94416666666666],[-118.4563888888889,33.94416666666666],[-118.69361111111111,33.92777777777778],[-118.69361111111111,33.92777777777778],[-118.69361111111111,33.92777777777778],[-118.69361111111111,33.92777777777778],[-119.1588888888889,34.098888888888894],[-119.1588888888889,34.098888888888894],[-119.1588888888889,34.098888888888894],[-119.1588888888889,34.098888888888894],[-119.1588888888889,34.098888888888894],[-119.33527777777778,34.24638888888889],[-119.33527777777778,34.24638888888889],[-119.42972222222222,34.32833333333333],[-119.42972222222222,34.32833333333333],[-119.42972222222222,34.32833333333333],[-119.42972222222222,34.32833333333333],[-119.8236111111111,34.66166666666666],[-119.8236111111111,34.66166666666666],[-119.8236111111111,34.66166666666666],[-119.93777777777778,34.75694444444444],[-119.93777777777778,34.75694444444444],[-119.93777777777778,34.75694444444444],[-120.035,34.838055555555556],[-120.035,34.838055555555556],[-120.035,34.838055555555556],[-120.30388888888889,35.06194444444444],[-120.30388888888889,35.06194444444444],[-120.30388888888889,35.06194444444444],[-120.30388888888889,35.06194444444444],[-120.32472222222222,35.07888888888889],[-120.42111111111112,35.15833333333333],[-120.42111111111112,35.15833333333333],[-120.42111111111112,35.15833333333333],[-120.61472222222221,35.3175],[-120.61472222222221,35.3175],[-120.6975,35.38527777777778],[-120.6975,35.38527777777778],[-120.7936111111111,35.46333333333334],[-120.7936111111111,35.46333333333334],[-120.7936111111111,35.46333333333334],[-120.7936111111111,35.46333333333334],[-120.88944444444445,35.559999999999995],[-120.88944444444445,35.559999999999995],[-120.88944444444445,35.559999999999995],[-120.97194444444445,35.64888888888889],[-120.97194444444445,35.64888888888889],[-120.97194444444445,35.64888888888889],[-120.97194444444445,35.64888888888889],[-121.0475,35.730000000000004],[-121.0475,35.730000000000004],[-121.0475,35.730000000000004],[-121.12972222222221,35.818333333333335],[-121.12972222222221,35.818333333333335],[-121.37694444444443,36.08388888888889],[-121.37694444444443,36.08388888888889],[-121.37694444444443,36.08388888888889],[-121.61666666666666,36.4],[-121.61666666666666,36.4],[-121.61666666666666,36.4],[-121.61666666666666,36.4],[-121.90916666666668,36.79333333333333],[-121.91666666666667,36.81666666666667],[-121.91666666666667,36.81666666666667],[-121.91666666666667,36.81666666666667],[-121.93444444444445,36.88472222222222],[-121.95,36.916666666666664],[-121.95,36.916666666666664],[-121.95,36.916666666666664],[-121.9625,36.97555555555556],[-121.9625,36.97555555555556],[-121.9625,36.97555555555556],[-121.9625,36.97555555555556],[-121.96666666666667,37],[-122.03333333333333,37.166666666666664],[-122.03333333333333,37.166666666666664],[-122.05749999999999,37.218333333333334],[-122.05749999999999,37.218333333333334],[-122.05749999999999,37.218333333333334],[-122.08222222222221,37.282222222222224],[-122.08222222222221,37.282222222222224],[-122.08333333333333,37.3],[-122.08333333333333,37.3],[-122.08333333333333,37.3],[-122.08333333333333,37.3],[-122.08333333333333,37.3],[-122.10666666666665,37.343611111111116],[-122.10666666666665,37.343611111111116],[-122.1,37.43333333333333],[-122.1,37.43333333333333],[-122.1,37.43333333333333],[-122.09694444444445,37.461666666666666],[-122.09694444444445,37.461666666666666],[-122.13111111111111,37.505833333333335],[-122.13111111111111,37.505833333333335],[-122.13333333333334,37.516666666666666],[-122.13333333333334,37.516666666666666],[-122.17500000000001,37.535],[-122.18333333333334,37.53333333333333],[-122.18333333333334,37.53333333333333],[-122.18333333333334,37.53333333333333],[-122.18333333333334,37.53333333333333],[-122.33333333333333,37.6],[-122.33333333333333,37.6],[-122.33333333333333,37.6],[-122.33333333333333,37.6],[-122.33333333333333,37.6],[-122.33333333333333,37.6],[-122.33333333333333,37.6],[-122.33333333333333,37.6]],"type":"LineString"}
}
