{
  "id": 1981793195,
  "type": "Feature",
  "properties": {
    "geom:area": 0,
    "geom:bbox": "-122.433333,34.198333,-118.400833,37.700000",
    "geom:latitude": 35.81846437036065,
    "geom:longitude": -120.5458381909264,
    "src:alt_label": "swim-path",
    "src:geom": "swim",
    "swim:altitudes": [
      "043",
      "063",
      "063",
      "063",
      "117",
      "130",
      "130",
      "130",
      "130",
      "154",
      "154",
      "310C",
      "310C",
      "310C",
      "310C",
      "310C",
      "310C",
      "310C",
      "310C",
      "310C",
      "310C",
      "310C",
      "310C",
      "310C",
      "310C",
      "310",
      "310",
      "310",
      "310",
      "310",
      "310",
      "310",
      "258",
      "258",
      "258",
      "258",
      "195",
      "195",
      "140",
      "140",
      "140",
      "085",
      "085",
      "071",
      "071",
      "067",
      "067",
      "067",
      "067",
      "038",
      "019",
      "019",
      "019",
      "019",
      "013",
      "013",
      "013"
    ],
    "swim:geom": "path",
    "swim:speeds": [
      186,
      270,
      270,
      270,
      356,
      361,
      361,
      361,
      361,
      354,
      354,
      434,
      439,
      439,
      439,
      439,
      441,
      441,
      446,
      443,
      443,
      442,
      442,
      448,
      448,
      452,
      452,
      452,
      452,
      441,
      441,
      441,
      390,
      390,
      390,
      390,
      357,
      357,
      336,
      336,
      336,
      277,
      277,
      273,
      273,
      270,
      270,
      270,
      270,
      191,
      160,
      160,
      160,
      160,
      137,
      137,
      137
    ],
    "swim:timestamps": [
      1761709894,
      1761709954,
      1761709954,
      1761709954,
      1761710074,
      1761710108,
      1761710108,
      1761710108,
      1761710108,
      1761710167,
      1761710167,
      1761710648,
      1761710708,
      1761710708,
      1761710708,
      1761710708,
      1761710768,
      1761710768,
      1761710888,
      1761710948,
      1761710948,
      1761711129,
      1761711129,
      1761711309,
      1761711309,
      1761711369,
      1761711369,
      1761711369,
      1761711369,
      1761711549,
      1761711549,
      1761711549,
      1761711729,
      1761711729,
      1761711729,
      1761711729,
      1761711910,
      1761711910,
      1761712090,
      1761712090,
      1761712090,
      1761712327,
      1761712327,
      1761712390,
      1761712390,
      1761712450,
      1761712450,
      1761712450,
      1761712450,
      1761712691,
      1761712811,
      1761712811,
      1761712811,
      1761712811,
      1761712871,
      1761712871,
      1761712871
    ],
    "wof:geomhash": "9e85297401a970919eff7907e0cf748e",
    "wof:id": 1981793195,
    "wof:repo": "sfomuseum-data-flights-2025-10"
  },
  "bbox": [
    -122.43333333333334,
    34.19833333333333,
    -118.40083333333334,
    37.7
  ],
  "geometry": {"coordinates":[[-122.36666666666666,37.7],[-122.43333333333334,37.666666666666664],[-122.43333333333334,37.666666666666664],[-122.43333333333334,37.666666666666664],[-122.38333333333334,37.5],[-122.34805555555555,37.47027777777778],[-122.34805555555555,37.47027777777778],[-122.34805555555555,37.47027777777778],[-122.34805555555555,37.47027777777778],[-122.27555555555556,37.404444444444444],[-122.27555555555556,37.404444444444444],[-121.5038888888889,36.69333333333333],[-121.40305555555557,36.60138888888889],[-121.40305555555557,36.60138888888889],[-121.40305555555557,36.60138888888889],[-121.40305555555557,36.60138888888889],[-121.30222222222221,36.50861111111111],[-121.30222222222221,36.50861111111111],[-121.09861111111111,36.321111111111115],[-121.00166666666667,36.22638888888889],[-121.00166666666667,36.22638888888889],[-120.71277777777777,35.942499999999995],[-120.71277777777777,35.942499999999995],[-120.42,35.65222222222222],[-120.42,35.65222222222222],[-120.33222222222221,35.56444444444444],[-120.33222222222221,35.56444444444444],[-120.33222222222221,35.56444444444444],[-120.33222222222221,35.56444444444444],[-120.0411111111111,35.285555555555554],[-120.0411111111111,35.285555555555554],[-120.0411111111111,35.285555555555554],[-119.76861111111111,35.02111111111111],[-119.76861111111111,35.02111111111111],[-119.76861111111111,35.02111111111111],[-119.76861111111111,35.02111111111111],[-119.5125,34.80361111111111],[-119.5125,34.80361111111111],[-119.24222222222222,34.63],[-119.24222222222222,34.63],[-119.24222222222222,34.63],[-118.95,34.416666666666664],[-118.95,34.416666666666664],[-118.88944444444445,34.356944444444444],[-118.88944444444445,34.356944444444444],[-118.82333333333332,34.30694444444444],[-118.82333333333332,34.30694444444444],[-118.82333333333332,34.30694444444444],[-118.82333333333332,34.30694444444444],[-118.56833333333333,34.200833333333335],[-118.44555555555556,34.19888888888889],[-118.44555555555556,34.19888888888889],[-118.44555555555556,34.19888888888889],[-118.44555555555556,34.19888888888889],[-118.40083333333334,34.19833333333333],[-118.40083333333334,34.19833333333333],[-118.40083333333334,34.19833333333333]],"type":"LineString"}
}
