{
  "id": 1981770297,
  "type": "Feature",
  "properties": {
    "geom:area": 0,
    "geom:bbox": "-122.380000,37.490000,-70.800000,44.800000",
    "geom:latitude": 41.32018068763149,
    "geom:longitude": -96.40508270482992,
    "src:alt_label": "swim-route",
    "src:geom": "swim",
    "swim:geom": "route",
    "wof:geomhash": "fc482544a747dd6c92a195ec43d1d65c",
    "wof:id": 1981770297,
    "wof:repo": "sfomuseum-data-flights-2025-10"
  },
  "bbox": [
    -122.38,
    37.49,
    -70.8,
    44.8
  ],
  "geometry": {"coordinates":[[-71.01,42.36],[-70.98,42.41],[-70.98,42.42],[-70.97,42.44],[-70.96,42.44],[-70.95,42.44],[-70.93,42.45],[-70.92,42.45],[-70.86,42.46],[-70.85,42.46],[-70.85,42.46],[-70.8,42.51],[-70.81,42.55],[-70.83,42.58],[-71.05,42.68],[-71.15,42.72],[-71.2,42.75],[-71.28,42.78],[-71.37,42.8],[-71.45,42.82],[-71.82,42.91],[-71.89,42.92],[-72.04,42.96],[-72.32,43.02],[-74.31,43.44],[-74.59,43.5],[-76.6,43.88],[-76.61,43.88],[-78.32,44.18],[-79.48,44.37],[-82.39,44.79],[-82.39,44.8],[-83.9,44.76],[-87.15,44.62],[-88.19,44.56],[-89.71,44.27],[-90.46,44.12],[-91.47,43.91],[-91.75,43.79],[-93.33,43.09],[-93.87,42.87],[-94.37,42.66],[-95.82,42.02],[-96.3,41.8],[-96.52,41.7],[-96.73,41.6],[-98,41],[-99.05,40.69],[-100.59,40.2],[-101.35,39.87],[-102.8,39.21],[-103.62,38.82],[-103.96,38.53],[-104,38.5],[-104.43,38.29],[-104.85,38.35],[-105.71,38.46],[-106,38.5],[-106.26,38.49],[-107.04,38.45],[-108.24,38.45],[-108.44,38.45],[-108.61,38.45],[-109.98,38.43],[-110.7,38.42],[-111.91,38.39],[-113.01,38.36],[-113.97,38.29],[-114.39,38.25],[-116.15,37.95],[-117.18,37.99],[-117.77,38],[-118.76,37.9],[-119.1,37.86],[-119.61,37.8],[-119.72,37.78],[-119.82,37.77],[-119.92,37.76],[-120.02,37.75],[-120.31,37.71],[-120.4,37.7],[-120.4,37.7],[-120.57,37.68],[-120.69,37.67],[-120.75,37.66],[-120.79,37.65],[-120.8,37.65],[-120.96,37.63],[-121,37.63],[-121.01,37.63],[-121.07,37.62],[-121.17,37.61],[-121.26,37.59],[-121.39,37.58],[-121.41,37.58],[-121.6,37.55],[-121.61,37.55],[-121.62,37.55],[-121.72,37.53],[-121.8,37.51],[-121.88,37.49],[-121.89,37.49],[-122.01,37.53],[-122.08,37.54],[-122.18,37.57],[-122.18,37.57],[-122.28,37.59],[-122.33,37.61],[-122.36,37.61],[-122.38,37.62]],"type":"LineString"}
}
