{
  "id": 1981754187,
  "type": "Feature",
  "properties": {
    "geom:area": 0,
    "geom:bbox": "-122.233333,37.566667,-70.849722,43.648333",
    "geom:latitude": 41.756832294732746,
    "geom:longitude": -96.62250144655508,
    "src:alt_label": "swim-path",
    "src:geom": "swim",
    "swim:altitudes": [
      "054",
      "251",
      "299C",
      "300",
      "324",
      "342",
      "360C",
      "360C",
      "360C",
      "360C",
      "360C",
      "360C",
      "360C",
      "360C",
      "360C",
      "360C",
      "360C",
      "360C",
      "361C",
      "360C",
      "361C",
      "360C",
      "360C",
      "360C",
      "360C",
      "360C",
      "360C",
      "360C",
      "360C",
      "360C",
      "360C",
      "360C",
      "360C",
      "360C",
      "361C",
      "360C",
      "360C",
      "360C",
      "360C",
      "360C",
      "360C",
      "360C",
      "360C",
      "360C",
      "360C",
      "361C",
      "360C",
      "360C",
      "360C",
      "360C",
      "360C",
      "360C",
      "360C",
      "361C",
      "360",
      "353",
      "294",
      "023"
    ],
    "swim:geom": "path",
    "swim:speeds": [
      270,
      389,
      406,
      412,
      413,
      418,
      419,
      416,
      413,
      409,
      394,
      390,
      384,
      386,
      400,
      405,
      404,
      402,
      408,
      378,
      385,
      387,
      383,
      382,
      384,
      386,
      388,
      388,
      388,
      390,
      390,
      390,
      411,
      434,
      436,
      449,
      450,
      459,
      462,
      464,
      464,
      467,
      469,
      461,
      458,
      461,
      446,
      438,
      434,
      422,
      418,
      398,
      394,
      408,
      400,
      406,
      400,
      179
    ],
    "swim:timestamps": [
      1761355438,
      1761356039,
      1761356279,
      1761356459,
      1761356639,
      1761356759,
      1761357060,
      1761357323,
      1761357720,
      1761357901,
      1761358141,
      1761358261,
      1761359149,
      1761359329,
      1761359690,
      1761360037,
      1761360277,
      1761360531,
      1761360960,
      1761361380,
      1761361587,
      1761361921,
      1761362248,
      1761362428,
      1761362788,
      1761363062,
      1761363482,
      1761363569,
      1761363809,
      1761363990,
      1761364470,
      1761364770,
      1761365731,
      1761366572,
      1761366735,
      1761367215,
      1761367275,
      1761367870,
      1761368056,
      1761368476,
      1761368776,
      1761369017,
      1761369432,
      1761369853,
      1761370214,
      1761370518,
      1761371115,
      1761371653,
      1761372014,
      1761372555,
      1761372794,
      1761373396,
      1761373637,
      1761374355,
      1761374690,
      1761374990,
      1761375350,
      1761376379
    ],
    "wof:geomhash": "ad91cc5cceb9285fdfcf39f124c97d97",
    "wof:id": 1981754187,
    "wof:repo": "sfomuseum-data-flights-2025-10"
  },
  "bbox": [
    -122.23333333333333,
    37.56666666666667,
    -70.84972222222221,
    43.64833333333333
  ],
  "geometry": {"coordinates":[[-70.84972222222221,42.32888888888889],[-71.7525,42.83361111111111],[-72.36611111111111,42.89805555555556],[-72.80222222222221,42.94194444444444],[-73.27083333333333,42.987500000000004],[-73.61,43.00055555555556],[-74.40277777777779,43.019999999999996],[-75.06722222222221,43.04861111111111],[-76.10833333333333,43.07777777777778],[-76.57638888888889,43.08722222222222],[-77.1888888888889,43.13638888888889],[-77.47916666666667,43.1625],[-79.65666666666667,43.36611111111111],[-80.09333333333333,43.41416666666667],[-80.995,43.50805555555556],[-81.87249999999999,43.5925],[-82.48472222222222,43.6475],[-83.155,43.64833333333333],[-84.255,43.64],[-85.28472222222221,43.6225],[-85.8111111111111,43.61027777777778],[-86.63527777777779,43.58555555555556],[-87.41722222222222,43.55694444444444],[-87.85416666666666,43.538333333333334],[-88.74972222222222,43.49527777777778],[-89.42055555555557,43.45861111111111],[-90.42944444444444,43.39555555555555],[-90.66555555555556,43.379444444444445],[-91.25444444444445,43.337500000000006],[-91.69305555555556,43.30416666666667],[-92.87194444444444,43.20583333333334],[-93.60472222222222,43.13861111111111],[-96.03416666666666,42.88027777777778],[-98.2625,42.595555555555556],[-98.67722222222223,42.5375],[-99.99111111111111,42.34305555555556],[-100.15611111111112,42.31722222222223],[-101.80499999999999,42.04555555555555],[-102.3425,41.95388888888889],[-103.4825,41.74583333333334],[-104.31944444444444,41.585],[-104.98972222222223,41.45138888888889],[-106.15138888888889,41.20805555555556],[-107.29583333333333,40.956944444444446],[-108.26638888888888,40.7325],[-109.08749999999999,40.53527777777778],[-110.61555555555555,40.14944444444444],[-111.98055555555555,39.78333333333333],[-112.86638888888888,39.53527777777778],[-114.14694444444446,39.16111111111111],[-114.7038888888889,38.99277777777778],[-116.0411111111111,38.574444444444445],[-116.55777777777777,38.407222222222224],[-118.14666666666668,37.96333333333334],[-118.93305555555555,37.87638888888889],[-119.63805555555557,37.79388888888889],[-120.48138888888889,37.689722222222215],[-122.23333333333333,37.56666666666667]],"type":"LineString"}
}
