{
  "id": 1981791707,
  "type": "Feature",
  "properties": {
    "geom:area": 0,
    "geom:bbox": "-122.227500,37.711389,-70.939167,43.548611",
    "geom:latitude": 42.14797046481016,
    "geom:longitude": -96.48799215964613,
    "src:alt_label": "swim-path",
    "src:geom": "swim",
    "swim:altitudes": [
      "048",
      "048",
      "048",
      "048",
      "048",
      "048",
      "048",
      "048",
      "072",
      "072",
      "108",
      "108",
      "108",
      "108",
      "156",
      "156",
      "156",
      "156",
      "156",
      "156",
      "220",
      "220",
      "220",
      "220",
      "220",
      "220",
      "286",
      "286",
      "286",
      "286",
      "286",
      "286",
      "286",
      "330C",
      "330C",
      "330C",
      "330C",
      "330C",
      "330C",
      "330C",
      "330C",
      "330C",
      "330C",
      "330C",
      "330C",
      "330C",
      "330C",
      "330C",
      "330C",
      "330C",
      "330C",
      "330C",
      "330C",
      "330C",
      "330C",
      "330C",
      "330C",
      "330C",
      "330C",
      "330C",
      "330C",
      "330C",
      "330C",
      "330C",
      "330C",
      "330C",
      "330C",
      "330C",
      "330C",
      "330C",
      "330C",
      "330C",
      "330C",
      "330C",
      "330C",
      "330C",
      "330C",
      "330C",
      "330C",
      "330C",
      "330C",
      "330C",
      "330C",
      "330C",
      "330C",
      "330C",
      "330C",
      "330C",
      "330C",
      "330C",
      "330C",
      "330C",
      "330C",
      "330C",
      "330C",
      "330C",
      "330C",
      "330C",
      "330C",
      "330C",
      "330C",
      "330C",
      "330C",
      "330C",
      "330C",
      "330C",
      "330C",
      "330C",
      "330C",
      "330C",
      "330C",
      "330C",
      "330C",
      "330C",
      "330C",
      "330C",
      "330C",
      "330C",
      "330C",
      "330C",
      "330C",
      "330C",
      "330C",
      "330C",
      "330C",
      "330C",
      "330C",
      "330C",
      "330C",
      "330C",
      "330C",
      "330",
      "330",
      "330",
      "330",
      "330",
      "330",
      "330",
      "330",
      "337",
      "337",
      "337",
      "337",
      "337",
      "350C",
      "350C",
      "350C",
      "350C",
      "350C",
      "350C",
      "350C",
      "350C",
      "350C",
      "350C",
      "350C",
      "350C",
      "350C",
      "350C",
      "350C",
      "350C",
      "350C",
      "350C",
      "350C",
      "350C",
      "350C",
      "350C",
      "350C",
      "350C",
      "350C",
      "350C",
      "350C",
      "350C",
      "350C",
      "350C",
      "350C",
      "350C",
      "350C",
      "350C",
      "350C",
      "350C",
      "350C",
      "350C",
      "350C",
      "350C",
      "350C",
      "350C",
      "350C",
      "350C",
      "350C",
      "350C",
      "350C",
      "350C",
      "350C",
      "350C",
      "350C",
      "350C",
      "350C",
      "350C",
      "350C",
      "350C",
      "350C",
      "350C",
      "350C",
      "350C",
      "350C",
      "350C",
      "350C",
      "350C",
      "350C",
      "350C",
      "350C",
      "350C",
      "350C",
      "350C",
      "350C",
      "350C",
      "350C",
      "350C",
      "350C",
      "350C",
      "350C",
      "350C",
      "350C",
      "350C",
      "350C",
      "350C",
      "350C",
      "350C",
      "350C",
      "350C",
      "350C",
      "350C",
      "350C",
      "350C",
      "350C",
      "350C",
      "350C",
      "350C",
      "350C",
      "350C",
      "350C",
      "350C",
      "350C",
      "349C",
      "349C",
      "350C",
      "350C",
      "350C",
      "350C",
      "350C",
      "350C",
      "350C",
      "350C",
      "350C",
      "350C",
      "350C",
      "350C",
      "350C",
      "350C",
      "350C",
      "350C",
      "350C",
      "350C",
      "350C",
      "350C",
      "350C",
      "350C",
      "350C",
      "350C",
      "350C",
      "350C",
      "350C",
      "350C",
      "350C",
      "350C",
      "350C",
      "350C",
      "350C",
      "356",
      "356",
      "359",
      "359",
      "361",
      "367",
      "367",
      "367",
      "367",
      "367",
      "367",
      "370C",
      "370C",
      "370C",
      "370C",
      "370C",
      "370C",
      "370C",
      "370C",
      "370C",
      "370C",
      "370C",
      "370C",
      "370C",
      "370C",
      "370C",
      "370C",
      "370C",
      "370C",
      "370C",
      "370C",
      "370C",
      "370C",
      "370C",
      "370C",
      "370C",
      "370C",
      "370C",
      "370C",
      "370C",
      "370C",
      "370C",
      "370C",
      "370C",
      "370C",
      "370C",
      "370C",
      "370C",
      "350C",
      "350C",
      "350C",
      "350C",
      "350C",
      "351C",
      "351C",
      "351C",
      "351C",
      "350C",
      "350C",
      "350C",
      "350C",
      "350C",
      "350C",
      "350C",
      "350C",
      "350C",
      "350C",
      "350C",
      "350C",
      "350C",
      "350C",
      "350C",
      "350C",
      "350C",
      "350C",
      "351C",
      "351C",
      "351C",
      "351C",
      "351C",
      "350C",
      "350C",
      "350C",
      "350C",
      "350C",
      "350C",
      "350C",
      "350C",
      "350C",
      "350C",
      "350C",
      "350C",
      "350C",
      "327",
      "327",
      "327",
      "327",
      "327",
      "327",
      "231",
      "231",
      "198",
      "198",
      "198",
      "198",
      "198",
      "181",
      "181",
      "181",
      "181",
      "136",
      "136",
      "136",
      "121",
      "121",
      "112C",
      "112C",
      "112C",
      "112C",
      "108",
      "071",
      "071",
      "071",
      "071",
      "064",
      "064",
      "064",
      "060",
      "060",
      "060",
      "060",
      "060",
      "060",
      "057",
      "057",
      "041",
      "040",
      "040",
      "040",
      "040",
      "040",
      "040",
      "040",
      "040",
      "040",
      "040",
      "040",
      "040",
      "040",
      "040",
      "038",
      "038",
      "035",
      "030",
      "030",
      "030",
      "030",
      "029",
      "029",
      "019",
      "019",
      "015",
      "015",
      "015",
      "012",
      "012",
      "012",
      "012",
      "005",
      "005",
      "005",
      "005"
    ],
    "swim:geom": "path",
    "swim:speeds": [
      261,
      261,
      261,
      261,
      261,
      261,
      261,
      261,
      273,
      273,
      300,
      300,
      300,
      300,
      440,
      440,
      440,
      440,
      440,
      440,
      465,
      465,
      465,
      465,
      465,
      465,
      492,
      492,
      492,
      492,
      492,
      492,
      492,
      494,
      494,
      494,
      494,
      492,
      492,
      492,
      494,
      494,
      495,
      495,
      495,
      495,
      495,
      495,
      495,
      495,
      495,
      494,
      494,
      494,
      494,
      494,
      494,
      494,
      494,
      496,
      496,
      496,
      496,
      496,
      495,
      495,
      495,
      495,
      495,
      503,
      503,
      503,
      509,
      509,
      509,
      509,
      509,
      499,
      499,
      499,
      499,
      499,
      499,
      499,
      499,
      499,
      497,
      497,
      497,
      497,
      495,
      495,
      495,
      495,
      495,
      495,
      495,
      495,
      496,
      496,
      496,
      498,
      498,
      498,
      498,
      498,
      498,
      498,
      501,
      501,
      501,
      501,
      493,
      493,
      489,
      489,
      489,
      488,
      488,
      488,
      488,
      488,
      488,
      484,
      484,
      484,
      484,
      484,
      484,
      484,
      484,
      494,
      494,
      494,
      494,
      493,
      493,
      493,
      493,
      490,
      490,
      490,
      490,
      490,
      489,
      489,
      489,
      489,
      489,
      490,
      490,
      490,
      490,
      490,
      489,
      480,
      480,
      480,
      480,
      480,
      480,
      480,
      480,
      480,
      480,
      477,
      477,
      475,
      475,
      475,
      475,
      475,
      475,
      475,
      475,
      459,
      459,
      459,
      459,
      459,
      457,
      457,
      457,
      457,
      457,
      457,
      456,
      452,
      452,
      451,
      451,
      451,
      450,
      450,
      450,
      450,
      450,
      450,
      450,
      451,
      451,
      450,
      450,
      449,
      449,
      449,
      447,
      447,
      447,
      446,
      446,
      446,
      446,
      446,
      446,
      446,
      446,
      446,
      445,
      445,
      441,
      441,
      441,
      439,
      439,
      439,
      437,
      436,
      436,
      436,
      434,
      434,
      433,
      433,
      433,
      433,
      433,
      430,
      430,
      430,
      430,
      430,
      430,
      427,
      427,
      427,
      427,
      427,
      426,
      426,
      426,
      426,
      426,
      426,
      430,
      430,
      434,
      434,
      434,
      434,
      434,
      434,
      434,
      436,
      436,
      436,
      436,
      436,
      436,
      445,
      445,
      445,
      445,
      445,
      445,
      439,
      439,
      439,
      442,
      442,
      442,
      442,
      444,
      446,
      446,
      446,
      446,
      446,
      446,
      450,
      450,
      450,
      450,
      450,
      450,
      450,
      447,
      447,
      447,
      447,
      447,
      447,
      447,
      449,
      449,
      449,
      449,
      449,
      461,
      461,
      461,
      461,
      461,
      461,
      461,
      461,
      463,
      463,
      463,
      463,
      463,
      463,
      463,
      440,
      440,
      440,
      423,
      423,
      423,
      432,
      432,
      439,
      439,
      439,
      439,
      451,
      451,
      451,
      451,
      451,
      451,
      456,
      456,
      456,
      456,
      456,
      454,
      454,
      454,
      454,
      454,
      454,
      454,
      458,
      458,
      458,
      458,
      458,
      467,
      466,
      466,
      466,
      466,
      466,
      466,
      466,
      466,
      469,
      469,
      469,
      469,
      472,
      472,
      472,
      472,
      472,
      472,
      462,
      462,
      399,
      399,
      399,
      399,
      399,
      374,
      374,
      374,
      374,
      311,
      311,
      311,
      298,
      298,
      287,
      287,
      287,
      287,
      284,
      206,
      206,
      206,
      206,
      204,
      204,
      204,
      215,
      215,
      220,
      212,
      226,
      226,
      223,
      223,
      223,
      229,
      229,
      229,
      229,
      229,
      229,
      226,
      226,
      226,
      226,
      229,
      229,
      220,
      220,
      188,
      188,
      171,
      151,
      151,
      151,
      151,
      148,
      148,
      152,
      152,
      123,
      123,
      123,
      121,
      121,
      121,
      121,
      116,
      116,
      116,
      116
    ],
    "swim:timestamps": [
      1761681671,
      1761681671,
      1761681671,
      1761681671,
      1761681671,
      1761681671,
      1761681671,
      1761681671,
      1761681731,
      1761681731,
      1761681851,
      1761681851,
      1761681851,
      1761681851,
      1761682092,
      1761682092,
      1761682092,
      1761682092,
      1761682092,
      1761682092,
      1761682392,
      1761682392,
      1761682392,
      1761682392,
      1761682392,
      1761682392,
      1761682844,
      1761682844,
      1761682844,
      1761682844,
      1761682844,
      1761682844,
      1761682844,
      1761683325,
      1761683325,
      1761683325,
      1761683325,
      1761683353,
      1761683353,
      1761683353,
      1761683445,
      1761683445,
      1761683506,
      1761683534,
      1761683534,
      1761683534,
      1761683534,
      1761683534,
      1761683534,
      1761683534,
      1761683534,
      1761684347,
      1761684347,
      1761684347,
      1761684347,
      1761684347,
      1761684347,
      1761684347,
      1761684347,
      1761684527,
      1761684527,
      1761684527,
      1761684527,
      1761684527,
      1761684768,
      1761684768,
      1761684768,
      1761684768,
      1761684768,
      1761685125,
      1761685125,
      1761685125,
      1761685366,
      1761685366,
      1761685366,
      1761685366,
      1761685426,
      1761685846,
      1761685846,
      1761685846,
      1761685846,
      1761685846,
      1761685846,
      1761685846,
      1761685846,
      1761685846,
      1761686387,
      1761686507,
      1761686507,
      1761686507,
      1761686618,
      1761686618,
      1761686618,
      1761686618,
      1761686808,
      1761686808,
      1761686808,
      1761686808,
      1761686988,
      1761686988,
      1761686988,
      1761687099,
      1761687099,
      1761687099,
      1761687099,
      1761687219,
      1761687219,
      1761687219,
      1761687399,
      1761687399,
      1761687399,
      1761687399,
      1761687529,
      1761687529,
      1761687589,
      1761687589,
      1761687589,
      1761687760,
      1761687760,
      1761687760,
      1761687760,
      1761687760,
      1761687760,
      1761688180,
      1761688180,
      1761688180,
      1761688180,
      1761688180,
      1761688180,
      1761688180,
      1761688180,
      1761688781,
      1761688781,
      1761688781,
      1761688781,
      1761688901,
      1761688901,
      1761688901,
      1761688901,
      1761689021,
      1761689021,
      1761689021,
      1761689021,
      1761689021,
      1761689354,
      1761689354,
      1761689354,
      1761689354,
      1761689354,
      1761689475,
      1761689475,
      1761689475,
      1761689475,
      1761689475,
      1761689535,
      1761689862,
      1761689862,
      1761689862,
      1761689862,
      1761689923,
      1761689923,
      1761689923,
      1761689923,
      1761689955,
      1761689955,
      1761690075,
      1761690075,
      1761690256,
      1761690256,
      1761690256,
      1761690256,
      1761690256,
      1761690256,
      1761690256,
      1761690256,
      1761691097,
      1761691097,
      1761691097,
      1761691097,
      1761691097,
      1761691217,
      1761691217,
      1761691277,
      1761691277,
      1761691277,
      1761691277,
      1761691337,
      1761691445,
      1761691445,
      1761691517,
      1761691517,
      1761691517,
      1761691577,
      1761691577,
      1761691577,
      1761691745,
      1761691745,
      1761691745,
      1761691745,
      1761691758,
      1761691758,
      1761691818,
      1761691818,
      1761691865,
      1761691865,
      1761691865,
      1761692226,
      1761692226,
      1761692226,
      1761692346,
      1761692346,
      1761692346,
      1761692406,
      1761692406,
      1761692406,
      1761692406,
      1761692406,
      1761692419,
      1761692539,
      1761692539,
      1761692659,
      1761692659,
      1761692659,
      1761692706,
      1761692706,
      1761692706,
      1761692767,
      1761692839,
      1761692839,
      1761692839,
      1761693067,
      1761693067,
      1761693139,
      1761693139,
      1761693139,
      1761693187,
      1761693200,
      1761693307,
      1761693307,
      1761693320,
      1761693320,
      1761693320,
      1761693320,
      1761693367,
      1761693367,
      1761693380,
      1761693380,
      1761693380,
      1761693427,
      1761693427,
      1761693488,
      1761693488,
      1761693488,
      1761693500,
      1761693608,
      1761693608,
      1761693728,
      1761693728,
      1761693728,
      1761693728,
      1761693728,
      1761693728,
      1761693728,
      1761694028,
      1761694028,
      1761694028,
      1761694028,
      1761694028,
      1761694028,
      1761694242,
      1761694242,
      1761694242,
      1761694242,
      1761694242,
      1761694242,
      1761694423,
      1761694423,
      1761694423,
      1761694603,
      1761694603,
      1761694629,
      1761694629,
      1761694663,
      1761694723,
      1761694723,
      1761694723,
      1761694723,
      1761694723,
      1761694723,
      1761695024,
      1761695024,
      1761695144,
      1761695144,
      1761695144,
      1761695144,
      1761695144,
      1761695324,
      1761695324,
      1761695324,
      1761695324,
      1761695324,
      1761695324,
      1761695324,
      1761696250,
      1761696250,
      1761696250,
      1761696250,
      1761696250,
      1761696611,
      1761696611,
      1761696611,
      1761696611,
      1761696611,
      1761696611,
      1761696611,
      1761696611,
      1761697031,
      1761697031,
      1761697031,
      1761697031,
      1761697031,
      1761697031,
      1761697031,
      1761697211,
      1761697211,
      1761697211,
      1761697388,
      1761697388,
      1761697388,
      1761697448,
      1761697448,
      1761697508,
      1761697508,
      1761697508,
      1761697508,
      1761697930,
      1761697930,
      1761697930,
      1761697930,
      1761697930,
      1761697930,
      1761698049,
      1761698049,
      1761698049,
      1761698049,
      1761698110,
      1761698230,
      1761698230,
      1761698230,
      1761698230,
      1761698410,
      1761698410,
      1761698410,
      1761698531,
      1761698531,
      1761698531,
      1761698531,
      1761698531,
      1761698709,
      1761698769,
      1761698769,
      1761698769,
      1761698769,
      1761698769,
      1761698889,
      1761698889,
      1761698889,
      1761698950,
      1761698950,
      1761698950,
      1761698950,
      1761699250,
      1761699250,
      1761699250,
      1761699250,
      1761699250,
      1761699250,
      1761699550,
      1761699550,
      1761699670,
      1761699670,
      1761699670,
      1761699670,
      1761699670,
      1761699730,
      1761699730,
      1761699730,
      1761699730,
      1761699910,
      1761699910,
      1761699910,
      1761699970,
      1761699970,
      1761700031,
      1761700031,
      1761700031,
      1761700031,
      1761700055,
      1761700307,
      1761700307,
      1761700307,
      1761700307,
      1761700349,
      1761700349,
      1761700349,
      1761700391,
      1761700391,
      1761700415,
      1761700571,
      1761700661,
      1761700661,
      1761700691,
      1761700691,
      1761700751,
      1761700775,
      1761700775,
      1761700775,
      1761700775,
      1761700775,
      1761700775,
      1761700811,
      1761700811,
      1761700811,
      1761700811,
      1761700835,
      1761700835,
      1761700871,
      1761700871,
      1761700931,
      1761700931,
      1761700955,
      1761701051,
      1761701051,
      1761701051,
      1761701051,
      1761701063,
      1761701063,
      1761701135,
      1761701135,
      1761701195,
      1761701195,
      1761701195,
      1761701231,
      1761701231,
      1761701231,
      1761701231,
      1761701292,
      1761701292,
      1761701292,
      1761701292
    ],
    "wof:geomhash": "6efa790ed89459cc8631888a588232ce",
    "wof:id": 1981791707,
    "wof:repo": "sfomuseum-data-flights-2025-10"
  },
  "bbox": [
    -122.2275,
    37.71138888888889,
    -70.93916666666667,
    43.54861111111111
  ],
  "geometry": {"coordinates":[[-122.2275,37.71138888888889],[-122.2275,37.71138888888889],[-122.2275,37.71138888888889],[-122.2275,37.71138888888889],[-122.2275,37.71138888888889],[-122.2275,37.71138888888889],[-122.2275,37.71138888888889],[-122.2275,37.71138888888889],[-122.14888888888889,37.754444444444445],[-122.14888888888889,37.754444444444445],[-121.98527777777778,37.85027777777778],[-121.98527777777778,37.85027777777778],[-121.98527777777778,37.85027777777778],[-121.98527777777778,37.85027777777778],[-121.59888888888888,38.16638888888889],[-121.59888888888888,38.16638888888889],[-121.59888888888888,38.16638888888889],[-121.59888888888888,38.16638888888889],[-121.59888888888888,38.16638888888889],[-121.59888888888888,38.16638888888889],[-120.98083333333334,38.58861111111111],[-120.98083333333334,38.58861111111111],[-120.98083333333334,38.58861111111111],[-120.98083333333334,38.58861111111111],[-120.98083333333334,38.58861111111111],[-120.98083333333334,38.58861111111111],[-119.97111111111111,39.196666666666665],[-119.97111111111111,39.196666666666665],[-119.97111111111111,39.196666666666665],[-119.97111111111111,39.196666666666665],[-119.97111111111111,39.196666666666665],[-119.97111111111111,39.196666666666665],[-119.97111111111111,39.196666666666665],[-118.83694444444444,39.86194444444445],[-118.83694444444444,39.86194444444445],[-118.83694444444444,39.86194444444445],[-118.83694444444444,39.86194444444445],[-118.74361111111111,39.906388888888884],[-118.74361111111111,39.906388888888884],[-118.74361111111111,39.906388888888884],[-118.52305555555556,39.99611111111111],[-118.52305555555556,39.99611111111111],[-118.36277777777777,40.06111111111111],[-118.26444444444445,40.100833333333334],[-118.26444444444445,40.100833333333334],[-118.26444444444445,40.100833333333334],[-118.26444444444445,40.100833333333334],[-118.26444444444445,40.100833333333334],[-118.26444444444445,40.100833333333334],[-118.26444444444445,40.100833333333334],[-118.26444444444445,40.100833333333334],[-116.03361111111111,40.77611111111111],[-116.03361111111111,40.77611111111111],[-116.03361111111111,40.77611111111111],[-116.03361111111111,40.77611111111111],[-116.03361111111111,40.77611111111111],[-116.03361111111111,40.77611111111111],[-116.03361111111111,40.77611111111111],[-116.03361111111111,40.77611111111111],[-115.52222222222223,40.9175],[-115.52222222222223,40.9175],[-115.52222222222223,40.9175],[-115.52222222222223,40.9175],[-115.52222222222223,40.9175],[-114.80388888888889,41.111666666666665],[-114.80388888888889,41.111666666666665],[-114.80388888888889,41.111666666666665],[-114.80388888888889,41.111666666666665],[-114.80388888888889,41.111666666666665],[-113.78527777777778,41.36527777777778],[-113.78527777777778,41.36527777777778],[-113.78527777777778,41.36527777777778],[-113.07,41.41277777777778],[-113.07,41.41277777777778],[-113.07,41.41277777777778],[-113.07,41.41277777777778],[-112.84416666666667,41.42666666666666],[-111.5411111111111,41.49666666666667],[-111.5411111111111,41.49666666666667],[-111.5411111111111,41.49666666666667],[-111.5411111111111,41.49666666666667],[-111.5411111111111,41.49666666666667],[-111.5411111111111,41.49666666666667],[-111.5411111111111,41.49666666666667],[-111.5411111111111,41.49666666666667],[-111.5411111111111,41.49666666666667],[-109.87777777777777,41.65833333333333],[-109.51361111111112,41.70277777777778],[-109.51361111111112,41.70277777777778],[-109.51361111111112,41.70277777777778],[-109.18305555555555,41.742222222222225],[-109.18305555555555,41.742222222222225],[-109.18305555555555,41.742222222222225],[-109.18305555555555,41.742222222222225],[-108.63305555555554,41.80555555555555],[-108.63305555555554,41.80555555555555],[-108.63305555555554,41.80555555555555],[-108.63305555555554,41.80555555555555],[-108.08416666666666,41.865833333333335],[-108.08416666666666,41.865833333333335],[-108.08416666666666,41.865833333333335],[-107.71694444444445,41.90472222222222],[-107.71694444444445,41.90472222222222],[-107.71694444444445,41.90472222222222],[-107.71694444444445,41.90472222222222],[-107.34805555555555,41.942499999999995],[-107.34805555555555,41.942499999999995],[-107.34805555555555,41.942499999999995],[-106.79194444444444,41.99722222222222],[-106.79194444444444,41.99722222222222],[-106.79194444444444,41.99722222222222],[-106.79194444444444,41.99722222222222],[-106.41361111111112,42.032777777777774],[-106.41361111111112,42.032777777777774],[-106.24694444444445,42.04805555555556],[-106.24694444444445,42.04805555555556],[-106.24694444444445,42.04805555555556],[-105.73194444444445,42.09388888888889],[-105.73194444444445,42.09388888888889],[-105.73194444444445,42.09388888888889],[-105.73194444444445,42.09388888888889],[-105.73194444444445,42.09388888888889],[-105.73194444444445,42.09388888888889],[-104.44305555555556,42.19777777777777],[-104.44305555555556,42.19777777777777],[-104.44305555555556,42.19777777777777],[-104.44305555555556,42.19777777777777],[-104.44305555555556,42.19777777777777],[-104.44305555555556,42.19777777777777],[-104.44305555555556,42.19777777777777],[-104.44305555555556,42.19777777777777],[-102.61388888888888,42.32],[-102.61388888888888,42.32],[-102.61388888888888,42.32],[-102.61388888888888,42.32],[-102.24472222222222,42.34111111111111],[-102.24472222222222,42.34111111111111],[-102.24472222222222,42.34111111111111],[-102.24472222222222,42.34111111111111],[-101.88111111111111,42.36083333333333],[-101.88111111111111,42.36083333333333],[-101.88111111111111,42.36083333333333],[-101.88111111111111,42.36083333333333],[-101.88111111111111,42.36083333333333],[-100.87333333333332,42.40888888888889],[-100.87333333333332,42.40888888888889],[-100.87333333333332,42.40888888888889],[-100.87333333333332,42.40888888888889],[-100.87333333333332,42.40888888888889],[-100.50361111111111,42.42444444444444],[-100.50361111111111,42.42444444444444],[-100.50361111111111,42.42444444444444],[-100.50361111111111,42.42444444444444],[-100.50361111111111,42.42444444444444],[-100.32388888888889,42.431666666666665],[-99.34805555555555,42.46527777777778],[-99.34805555555555,42.46527777777778],[-99.34805555555555,42.46527777777778],[-99.34805555555555,42.46527777777778],[-99.16638888888889,42.47083333333334],[-99.16638888888889,42.47083333333334],[-99.16638888888889,42.47083333333334],[-99.16638888888889,42.47083333333334],[-99.05444444444444,42.473888888888894],[-99.05444444444444,42.473888888888894],[-98.69805555555556,42.483333333333334],[-98.69805555555556,42.483333333333334],[-98.16055555555556,42.49527777777778],[-98.16055555555556,42.49527777777778],[-98.16055555555556,42.49527777777778],[-98.16055555555556,42.49527777777778],[-98.16055555555556,42.49527777777778],[-98.16055555555556,42.49527777777778],[-98.16055555555556,42.49527777777778],[-98.16055555555556,42.49527777777778],[-95.72527777777778,42.69333333333333],[-95.72527777777778,42.69333333333333],[-95.72527777777778,42.69333333333333],[-95.72527777777778,42.69333333333333],[-95.72527777777778,42.69333333333333],[-95.38277777777778,42.72666666666667],[-95.38277777777778,42.72666666666667],[-95.24222222222222,42.73972222222222],[-95.24222222222222,42.73972222222222],[-95.24222222222222,42.73972222222222],[-95.24222222222222,42.73972222222222],[-95.07305555555556,42.755833333333335],[-94.76166666666667,42.78472222222222],[-94.76166666666667,42.78472222222222],[-94.56638888888888,42.80222222222222],[-94.56638888888888,42.80222222222222],[-94.56638888888888,42.80222222222222],[-94.39055555555557,42.8175],[-94.39055555555557,42.8175],[-94.39055555555557,42.8175],[-93.91944444444445,42.85722222222223],[-93.91944444444445,42.85722222222223],[-93.91944444444445,42.85722222222223],[-93.91944444444445,42.85722222222223],[-93.88333333333334,42.86027777777778],[-93.88333333333334,42.86027777777778],[-93.71555555555555,42.87388888888889],[-93.71555555555555,42.87388888888889],[-93.58138888888888,42.88472222222222],[-93.58138888888888,42.88472222222222],[-93.58138888888888,42.88472222222222],[-92.57527777777777,42.96055555555556],[-92.57527777777777,42.96055555555556],[-92.57527777777777,42.96055555555556],[-92.23805555555556,42.98388888888889],[-92.23805555555556,42.98388888888889],[-92.23805555555556,42.98388888888889],[-92.0675,42.995555555555555],[-92.0675,42.995555555555555],[-92.0675,42.995555555555555],[-92.0675,42.995555555555555],[-92.0675,42.995555555555555],[-92.03388888888888,42.99777777777778],[-91.69444444444444,43.019444444444446],[-91.69444444444444,43.019444444444446],[-91.35888888888888,43.04],[-91.35888888888888,43.04],[-91.35888888888888,43.04],[-91.22611111111111,43.04805555555556],[-91.22611111111111,43.04805555555556],[-91.22611111111111,43.04805555555556],[-91.06055555555555,43.05777777777777],[-90.86222222222221,43.06888888888889],[-90.86222222222221,43.06888888888889],[-90.86222222222221,43.06888888888889],[-90.23694444444445,43.10194444444445],[-90.23694444444445,43.10194444444445],[-90.02722222222222,43.112500000000004],[-90.02722222222222,43.112500000000004],[-90.02722222222222,43.112500000000004],[-89.91111111111111,43.11805555555556],[-89.86333333333333,43.12027777777778],[-89.5761111111111,43.13305555555556],[-89.5761111111111,43.13305555555556],[-89.54583333333333,43.13472222222222],[-89.54583333333333,43.13472222222222],[-89.54583333333333,43.13472222222222],[-89.54583333333333,43.13472222222222],[-89.41638888888889,43.140277777777776],[-89.41638888888889,43.140277777777776],[-89.38583333333334,43.14222222222222],[-89.38583333333334,43.14222222222222],[-89.38583333333334,43.14222222222222],[-89.25361111111111,43.14722222222222],[-89.25361111111111,43.14722222222222],[-89.0925,43.15361111111111],[-89.0925,43.15361111111111],[-89.0925,43.15361111111111],[-89.06444444444445,43.155833333333334],[-88.76805555555555,43.16638888888889],[-88.76805555555555,43.16638888888889],[-88.44361111111111,43.17777777777778],[-88.44361111111111,43.17777777777778],[-88.44361111111111,43.17777777777778],[-88.44361111111111,43.17777777777778],[-88.44361111111111,43.17777777777778],[-88.44361111111111,43.17777777777778],[-88.44361111111111,43.17777777777778],[-87.61944444444444,43.20333333333333],[-87.61944444444444,43.20333333333333],[-87.61944444444444,43.20333333333333],[-87.61944444444444,43.20333333333333],[-87.61944444444444,43.20333333333333],[-87.61944444444444,43.20333333333333],[-87.03361111111111,43.218611111111116],[-87.03361111111111,43.218611111111116],[-87.03361111111111,43.218611111111116],[-87.03361111111111,43.218611111111116],[-87.03361111111111,43.218611111111116],[-87.03361111111111,43.218611111111116],[-86.53277777777778,43.22833333333333],[-86.53277777777778,43.22833333333333],[-86.53277777777778,43.22833333333333],[-86.02361111111111,43.23583333333333],[-86.02361111111111,43.23583333333333],[-85.91888888888889,43.23722222222222],[-85.91888888888889,43.23722222222222],[-85.85194444444444,43.238055555555555],[-85.67750000000001,43.24],[-85.67750000000001,43.24],[-85.67750000000001,43.24],[-85.67750000000001,43.24],[-85.67750000000001,43.24],[-85.67750000000001,43.24],[-84.82333333333332,43.245555555555555],[-84.82333333333332,43.245555555555555],[-84.48194444444445,43.24611111111111],[-84.48194444444445,43.24611111111111],[-84.48194444444445,43.24611111111111],[-84.48194444444445,43.24611111111111],[-84.48194444444445,43.24611111111111],[-83.95305555555557,43.24472222222222],[-83.95305555555557,43.24472222222222],[-83.95305555555557,43.24472222222222],[-83.95305555555557,43.24472222222222],[-83.95305555555557,43.24472222222222],[-83.95305555555557,43.24472222222222],[-83.95305555555557,43.24472222222222],[-81.28305555555555,43.20138888888889],[-81.28305555555555,43.20138888888889],[-81.28305555555555,43.20138888888889],[-81.28305555555555,43.20138888888889],[-81.28305555555555,43.20138888888889],[-80.23722222222223,43.16694444444444],[-80.23722222222223,43.16694444444444],[-80.23722222222223,43.16694444444444],[-80.23722222222223,43.16694444444444],[-80.23722222222223,43.16694444444444],[-80.23722222222223,43.16694444444444],[-80.23722222222223,43.16694444444444],[-80.23722222222223,43.16694444444444],[-79.03055555555555,43.115833333333335],[-79.03055555555555,43.115833333333335],[-79.03055555555555,43.115833333333335],[-79.03055555555555,43.115833333333335],[-79.03055555555555,43.115833333333335],[-79.03055555555555,43.115833333333335],[-79.03055555555555,43.115833333333335],[-78.65138888888889,43.294444444444444],[-78.65138888888889,43.294444444444444],[-78.65138888888889,43.294444444444444],[-78.35527777777777,43.54861111111111],[-78.35527777777777,43.54861111111111],[-78.35527777777777,43.54861111111111],[-78.20472222222223,43.50333333333333],[-78.20472222222223,43.50333333333333],[-78.13,43.39527777777778],[-78.13,43.39527777777778],[-78.13,43.39527777777778],[-78.13,43.39527777777778],[-77.26388888888889,42.98083333333334],[-77.26388888888889,42.98083333333334],[-77.26388888888889,42.98083333333334],[-77.26388888888889,42.98083333333334],[-77.26388888888889,42.98083333333334],[-77.26388888888889,42.98083333333334],[-76.92,42.96194444444445],[-76.92,42.96194444444445],[-76.92,42.96194444444445],[-76.92,42.96194444444445],[-76.74555555555555,42.952222222222225],[-76.42472222222223,42.93333333333333],[-76.42472222222223,42.93333333333333],[-76.42472222222223,42.93333333333333],[-76.42472222222223,42.93333333333333],[-75.91194444444444,42.901666666666664],[-75.91194444444444,42.901666666666664],[-75.91194444444444,42.901666666666664],[-75.56833333333333,42.87888888888889],[-75.56833333333333,42.87888888888889],[-75.56833333333333,42.87888888888889],[-75.56833333333333,42.87888888888889],[-75.56833333333333,42.87888888888889],[-75.05111111111111,42.84277777777778],[-74.87694444444443,42.83027777777778],[-74.87694444444443,42.83027777777778],[-74.87694444444443,42.83027777777778],[-74.87694444444443,42.83027777777778],[-74.87694444444443,42.83027777777778],[-74.49416666666667,42.801111111111105],[-74.49416666666667,42.801111111111105],[-74.49416666666667,42.801111111111105],[-74.31805555555555,42.7875],[-74.31805555555555,42.7875],[-74.31805555555555,42.7875],[-74.31805555555555,42.7875],[-73.42611111111111,42.74388888888889],[-73.42611111111111,42.74388888888889],[-73.42611111111111,42.74388888888889],[-73.42611111111111,42.74388888888889],[-73.42611111111111,42.74388888888889],[-73.42611111111111,42.74388888888889],[-72.54861111111111,42.67444444444444],[-72.54861111111111,42.67444444444444],[-72.22472222222223,42.63527777777778],[-72.22472222222223,42.63527777777778],[-72.22472222222223,42.63527777777778],[-72.22472222222223,42.63527777777778],[-72.22472222222223,42.63527777777778],[-72.0825,42.61888888888889],[-72.0825,42.61888888888889],[-72.0825,42.61888888888889],[-72.0825,42.61888888888889],[-71.71722222222222,42.57],[-71.71722222222222,42.57],[-71.71722222222222,42.57],[-71.60749999999999,42.55277777777778],[-71.60749999999999,42.55277777777778],[-71.5038888888889,42.53194444444444],[-71.5038888888889,42.53194444444444],[-71.5038888888889,42.53194444444444],[-71.5038888888889,42.53194444444444],[-71.45,42.516666666666666],[-71.11666666666666,42.516666666666666],[-71.11666666666666,42.516666666666666],[-71.11666666666666,42.516666666666666],[-71.11666666666666,42.516666666666666],[-71.06666666666666,42.516666666666666],[-71.06666666666666,42.516666666666666],[-71.06666666666666,42.516666666666666],[-71.025,42.495],[-71.025,42.495],[-71,42.46666666666667],[-70.93916666666667,42.32166666666667],[-70.96666666666667,42.233333333333334],[-70.96666666666667,42.233333333333334],[-70.98194444444445,42.20277777777778],[-70.98194444444445,42.20277777777778],[-71.00722222222223,42.14361111111111],[-71.01666666666667,42.11666666666667],[-71.01666666666667,42.11666666666667],[-71.01666666666667,42.11666666666667],[-71.01666666666667,42.11666666666667],[-71.01666666666667,42.11666666666667],[-71.01666666666667,42.11666666666667],[-71.03416666666666,42.08277777777778],[-71.03416666666666,42.08277777777778],[-71.03416666666666,42.08277777777778],[-71.03416666666666,42.08277777777778],[-71.06666666666666,42.06666666666667],[-71.06666666666666,42.06666666666667],[-71.10416666666666,42.064166666666665],[-71.10416666666666,42.064166666666665],[-71.135,42.10888888888889],[-71.135,42.10888888888889],[-71.13333333333334,42.13333333333333],[-71.10111111111111,42.195277777777775],[-71.10111111111111,42.195277777777775],[-71.10111111111111,42.195277777777775],[-71.10111111111111,42.195277777777775],[-71.1,42.2],[-71.1,42.2],[-71.06666666666666,42.25],[-71.06666666666666,42.25],[-71.05,42.28333333333333],[-71.05,42.28333333333333],[-71.05,42.28333333333333],[-71.04277777777777,42.30472222222222],[-71.04277777777777,42.30472222222222],[-71.04277777777777,42.30472222222222],[-71.04277777777777,42.30472222222222],[-71.02555555555556,42.336666666666666],[-71.02555555555556,42.336666666666666],[-71.02555555555556,42.336666666666666],[-71.02555555555556,42.336666666666666]],"type":"LineString"}
}
