{
  "id": 1981589487,
  "type": "Feature",
  "properties": {
    "geom:area": 0,
    "geom:bbox": "-122.365470,37.629280,-121.254960,38.119790",
    "geom:latitude": 37.88958173927104,
    "geom:longitude": -121.8175688891348,
    "src:alt_label": "swim-takeoff",
    "src:geom": "swim",
    "swim:elevations": [
      152,
      496,
      943,
      993,
      1190,
      1605,
      1871,
      2246,
      2681,
      2901,
      3277,
      3348,
      3577,
      3817,
      4007,
      4292,
      4616,
      4949,
      5037,
      5450,
      5633,
      5792,
      6210
    ],
    "swim:geom": "takeoff",
    "swim:timestamps": [
      1759675882,
      1759675901,
      1759675948,
      1759675959,
      1759675993,
      1759676034,
      1759676054,
      1759676084,
      1759676119,
      1759676138,
      1759676186,
      1759676200,
      1759676241,
      1759676273,
      1759676293,
      1759676327,
      1759676360,
      1759676397,
      1759676409,
      1759676451,
      1759676470,
      1759676494,
      1759676538
    ],
    "wof:geomhash": "36ec22a4c584df3d7d28b5c05a7f691b",
    "wof:id": 1981589487,
    "wof:repo": "sfomuseum-data-flights-2025-10"
  },
  "bbox": [
    -122.36547,
    37.62928,
    -121.25496,
    38.11979
  ],
  "geometry": {"coordinates":[[-122.36547,37.62928],[-122.35266,37.64001],[-122.31476,37.6627],[-122.30496,37.6685],[-122.27014,37.68862],[-122.21941,37.71488],[-122.19388,37.72802],[-122.1531,37.74908],[-122.10485,37.77423],[-122.07882,37.7878],[-122.00395,37.82049],[-121.9788,37.83057],[-121.90273,37.86144],[-121.83811,37.88754],[-121.79723,37.90399],[-121.72532,37.93277],[-121.65555,37.96074],[-121.57537,37.99272],[-121.54743,38.00385],[-121.45398,38.04102],[-121.41177,38.05777],[-121.35612,38.07977],[-121.25496,38.11979]],"type":"LineString"}
}
