{
  "id": 1981763783,
  "type": "Feature",
  "properties": {
    "geom:area": 0,
    "geom:bbox": "-122.456680,37.421210,-122.096690,37.695090",
    "geom:latitude": 37.53433803005599,
    "geom:longitude": -122.2583583561028,
    "src:alt_label": "swim-approach",
    "src:geom": "swim",
    "swim:elevations": [
      3353,
      3353,
      3353,
      3337,
      3165,
      2946,
      2717,
      2489,
      2335,
      2152,
      1917,
      1769,
      1674,
      1641,
      1534,
      1461,
      1283,
      1091,
      975,
      914,
      879,
      794,
      737,
      662,
      454,
      391,
      181,
      90,
      18
    ],
    "swim:geom": "approach",
    "swim:timestamps": [
      1761375619,
      1761375650,
      1761375669,
      1761375706,
      1761375728,
      1761375760,
      1761375793,
      1761375828,
      1761375850,
      1761375883,
      1761375919,
      1761375955,
      1761375977,
      1761375988,
      1761376000,
      1761376013,
      1761376039,
      1761376075,
      1761376099,
      1761376123,
      1761376164,
      1761376182,
      1761376194,
      1761376213,
      1761376255,
      1761376269,
      1761376317,
      1761376336,
      1761376352
    ],
    "wof:geomhash": "6095a36a702d61790515b2d279444b77",
    "wof:id": 1981763783,
    "wof:repo": "sfomuseum-data-flights-2025-10"
  },
  "bbox": [
    -122.45668,
    37.42121,
    -122.09669,
    37.69509
  ],
  "geometry": {"coordinates":[[-122.45668,37.69509],[-122.42535,37.66568],[-122.40537,37.64664],[-122.36856,37.61176],[-122.35189,37.59037],[-122.33528,37.55526],[-122.31562,37.52136],[-122.29366,37.48554],[-122.27999,37.46411],[-122.23859,37.44555],[-122.18864,37.43166],[-122.14099,37.42121],[-122.11649,37.43213],[-122.11011,37.44113],[-122.10379,37.45122],[-122.09696,37.46242],[-122.09669,37.48477],[-122.11854,37.51046],[-122.13794,37.52111],[-122.15829,37.52998],[-122.19436,37.54507],[-122.20997,37.55163],[-122.22123,37.55639],[-122.23755,37.56326],[-122.2753,37.57919],[-122.28668,37.58397],[-122.32653,37.60065],[-122.34253,37.60743],[-122.35602,37.613]],"type":"LineString"}
}
