{
  "id": 1981767625,
  "type": "Feature",
  "properties": {
    "geom:area": 0,
    "geom:bbox": "-122.390000,37.620000,-77.460000,41.580000",
    "geom:latitude": 40.70862826652693,
    "geom:longitude": -100.03658868694279,
    "src:alt_label": "swim-route",
    "src:geom": "swim",
    "swim:geom": "route",
    "wof:geomhash": "ae2755a363738c24a23474e9fa518200",
    "wof:id": 1981767625,
    "wof:repo": "sfomuseum-data-flights-2025-10"
  },
  "bbox": [
    -122.39,
    37.62,
    -77.46,
    41.58
  ],
  "geometry": {"coordinates":[[-122.38,37.62],[-122.3,37.68],[-122.31,37.7],[-122.31,37.7],[-122.34,37.75],[-122.35,37.76],[-122.35,37.77],[-122.36,37.79],[-122.38,37.84],[-122.39,37.85],[-122.39,37.86],[-122.38,37.94],[-122.32,37.97],[-122.13,38.04],[-122.05,38.07],[-121.98,38.1],[-121.96,38.11],[-121.83,38.16],[-121.72,38.2],[-121.62,38.25],[-121.59,38.26],[-121.52,38.28],[-121.5,38.29],[-121.39,38.34],[-121.33,38.38],[-121.25,38.42],[-121.18,38.47],[-121.11,38.51],[-120.18,39.08],[-118.8,39.88],[-118.02,40.2],[-117.93,40.22],[-116.4,40.57],[-116.13,40.59],[-115.86,40.61],[-115.59,40.63],[-114.5,40.7],[-114.45,40.7],[-113.76,40.73],[-112.1,40.99],[-112,41],[-110.02,41.12],[-109.39,41.15],[-108.75,41.18],[-108.54,41.2],[-107.21,41.37],[-106,41.5],[-104.58,41.55],[-103.15,41.58],[-101.92,41.56],[-101.81,41.55],[-101.3,41.54],[-100,41.5],[-99.03,41.48],[-97.08,41.41],[-96,41.45],[-94.86,41.48],[-94,41.5],[-93.5,41.46],[-90.65,41.18],[-90.43,41.16],[-90.05,41.12],[-88.94,41.14],[-87,41.16],[-86.58,41.16],[-86.38,41.11],[-85.77,40.97],[-85.5,40.9],[-85.23,40.84],[-84.69,40.7],[-84.43,40.64],[-84.18,40.57],[-83.17,40.31],[-83.17,40.31],[-82.59,40.15],[-82.09,40.05],[-81.58,39.94],[-81.09,39.83],[-79.86,39.56],[-79.63,39.52],[-79.53,39.5],[-79.48,39.49],[-79.41,39.48],[-79.33,39.46],[-79.28,39.45],[-79.18,39.43],[-79.12,39.42],[-79.02,39.4],[-78.93,39.39],[-78.91,39.39],[-78.81,39.37],[-78.6,39.33],[-78.57,39.32],[-78.37,39.29],[-78.3,39.25],[-78.24,39.22],[-78.19,39.19],[-78.14,39.17],[-78.06,39.13],[-78.01,39.1],[-77.94,39.06],[-77.87,39.02],[-77.82,39],[-77.76,38.97],[-77.69,38.96],[-77.62,38.95],[-77.58,39],[-77.57,39.01],[-77.57,39.11],[-77.57,39.15],[-77.57,39.16],[-77.58,39.23],[-77.58,39.24],[-77.54,39.15],[-77.51,39.07],[-77.48,38.99],[-77.46,38.95]],"type":"LineString"}
}
