{
  "id": 1981763573,
  "type": "Feature",
  "properties": {
    "geom:area": 0,
    "geom:bbox": "-122.380000,37.620000,-81.830000,43.500000",
    "geom:latitude": 41.12146287360991,
    "geom:longitude": -102.05348763493969,
    "src:alt_label": "swim-route",
    "src:geom": "swim",
    "swim:geom": "route",
    "wof:geomhash": "ae5d8568a62b2155639a337a9e29b3a6",
    "wof:id": 1981763573,
    "wof:repo": "sfomuseum-data-flights-2025-10"
  },
  "bbox": [
    -122.38,
    37.62,
    -81.83,
    43.5
  ],
  "geometry": {"coordinates":[[-81.85,41.41],[-81.84,41.47],[-81.83,41.49],[-81.83,41.49],[-81.87,41.52],[-81.9,41.53],[-81.9,41.54],[-81.93,41.53],[-81.99,41.52],[-82.02,41.52],[-82.02,41.52],[-82.17,41.42],[-82.23,41.38],[-82.35,41.33],[-82.43,41.29],[-82.46,41.28],[-82.47,41.28],[-82.64,41.28],[-82.71,41.28],[-82.77,41.29],[-82.78,41.29],[-82.96,41.31],[-82.99,41.31],[-83.02,41.33],[-83.22,41.47],[-83.3,41.52],[-83.37,41.57],[-83.4,41.6],[-83.53,41.64],[-83.63,41.67],[-83.72,41.7],[-83.73,41.71],[-84.2,41.86],[-84.44,41.96],[-84.6,41.99],[-85,42.12],[-85.4,42.27],[-85.83,42.39],[-86.9,42.72],[-87,42.74],[-88.28,43.12],[-89.05,43.14],[-89.76,43.23],[-90.19,43.29],[-91.06,43.39],[-91.14,43.4],[-92,43.5],[-93.53,43.5],[-93.85,43.5],[-94,43.5],[-94.39,43.44],[-95.66,43.23],[-96.16,43.14],[-96.21,43.13],[-96.47,43.08],[-96.68,43.04],[-97.55,42.88],[-98.26,42.74],[-98.49,42.7],[-99.45,42.52],[-100.12,42.39],[-102,42],[-102.09,41.98],[-102.4,41.92],[-102.72,41.86],[-104.57,41.46],[-105.33,41.29],[-105.97,41.11],[-106.22,41.03],[-108,40.5],[-108.66,40.4],[-109.14,40.32],[-109.46,40.26],[-110.13,40.15],[-110.61,39.98],[-110.85,39.9],[-111.09,39.82],[-112.51,39.3],[-113.32,39.12],[-117.27,38.12],[-117.27,38.12],[-117.77,38],[-118.76,37.9],[-119.1,37.86],[-119.43,37.82],[-119.55,37.8],[-120.11,37.74],[-120.2,37.72],[-120.39,37.7],[-120.4,37.7],[-120.58,37.68],[-120.65,37.67],[-120.69,37.67],[-120.75,37.66],[-120.94,37.64],[-120.96,37.63],[-120.99,37.64],[-121.22,37.68],[-121.24,37.69],[-121.33,37.7],[-121.5,37.73],[-121.55,37.74],[-121.56,37.74],[-121.7,37.77],[-121.71,37.77],[-121.77,37.78],[-121.98,37.82],[-121.99,37.82],[-122.01,37.83],[-122.04,37.83],[-122.08,37.84],[-122.21,37.86],[-122.23,37.84],[-122.26,37.79],[-122.28,37.77],[-122.28,37.76],[-122.33,37.69],[-122.38,37.62]],"type":"LineString"}
}
