{
  "id": 1981725047,
  "type": "Feature",
  "properties": {
    "geom:area": 0,
    "geom:bbox": "-177.020000,21.930000,180.000000,37.850000",
    "geom:latitude": 31.81492574291226,
    "geom:longitude": 4.636735686659534,
    "src:alt_label": "swim-route",
    "src:geom": "swim",
    "swim:geom": "route",
    "wof:geomhash": "809782771045f72baa4716b487d56a56",
    "wof:id": 1981725047,
    "wof:repo": "sfomuseum-data-flights-2025-10"
  },
  "bbox": [
    -177.02,
    21.93,
    180,
    37.85
  ],
  "geometry": {"coordinates":[[[-122.38,37.62],[-122.5,37.67],[-122.5,37.67],[-122.5,37.67],[-122.61,37.68],[-122.61,37.68],[-122.66,37.68],[-122.74,37.69],[-122.75,37.69],[-122.86,37.7],[-122.88,37.7],[-123,37.7],[-123.09,37.71],[-123.53,37.73],[-123.54,37.73],[-123.8,37.75],[-124.01,37.76],[-124.12,37.76],[-124.32,37.77],[-125.83,37.83],[-126.99,37.85],[-127,37.85],[-128.11,37.85],[-130,37.83],[-140,37],[-141.02,36.84],[-142.04,36.67],[-143.05,36.49],[-150,35],[-151.02,34.84],[-153.05,34.49],[-158.04,33.46],[-160,33],[-161,33.04],[-170,33],[-171.01,32.94],[-172.02,32.86],[-175.03,32.6],[-177.02,32.38]],[[180,32],[177.98,31.86],[173.97,31.49],[170,31],[165,31.1],[163.33,31.09],[161.67,31.05],[160,31],[157.03,30.21],[150.29,28.1],[150,28],[148.98,27.65],[146.96,26.93],[142.04,25],[137,24.36],[135,24.06],[134.01,23.9],[133.02,23.73],[132.03,23.56],[129.08,23],[128.59,23.1],[127.83,23.25],[127.07,23.4],[124,23.95],[120.84,21.93],[120.04,22.03],[118.98,22.16],[118.53,22.22],[118.13,22.26],[118,22.28],[117.5,22.33],[116.19,22.31],[116.01,22.3],[115.83,22.3],[115.69,22.3],[115.41,22.3],[115.06,22.31],[114.88,22.31],[114.65,22.31],[114.6,22.31],[114.47,22.31],[114.38,22.32],[114.29,22.32],[114.2,22.32]]],"type":"MultiLineString"}
}
