{
  "id": 1981725577,
  "type": "Feature",
  "properties": {
    "geom:area": 0,
    "geom:bbox": "-122.363480,37.532560,-121.300320,37.616210",
    "geom:latitude": 37.56175953395596,
    "geom:longitude": -121.83649543186843,
    "src:alt_label": "swim-approach",
    "src:geom": "swim",
    "swim:elevations": [
      4603,
      4506,
      4288,
      4200,
      1261,
      1170,
      1036,
      837,
      609,
      560,
      347,
      233,
      145,
      0
    ],
    "swim:geom": "approach",
    "swim:timestamps": [
      1761071008,
      1761071026,
      1761071065,
      1761071076,
      1761071540,
      1761071558,
      1761071582,
      1761071620,
      1761071666,
      1761071678,
      1761071722,
      1761071754,
      1761071776,
      1761071813
    ],
    "wof:geomhash": "5ae980a41c94735859163ec621be8204",
    "wof:id": 1981725577,
    "wof:repo": "sfomuseum-data-flights-2025-10"
  },
  "bbox": [
    -122.36348,
    37.53256,
    -121.30032,
    37.61621
  ],
  "geometry": {"coordinates":[[-121.30032,37.58807],[-121.33668,37.58432],[-121.41118,37.57596],[-121.43115,37.57358],[-122.10529,37.53256],[-122.12623,37.53942],[-122.15327,37.54827],[-122.19353,37.56145],[-122.24026,37.57654],[-122.25279,37.58062],[-122.29195,37.59187],[-122.3182,37.59946],[-122.33585,37.60498],[-122.36348,37.61621]],"type":"LineString"}
}
