{
  "id": 1981694117,
  "type": "Feature",
  "properties": {
    "geom:area": 0,
    "geom:bbox": "-122.334170,37.491850,-121.290310,37.604640",
    "geom:latitude": 37.54365486014559,
    "geom:longitude": -121.8165258842612,
    "src:alt_label": "swim-approach",
    "src:geom": "swim",
    "swim:elevations": [
      4172,
      3977,
      3891,
      3592,
      3563,
      3199,
      3109,
      2993,
      2794,
      2618,
      2517,
      2455,
      2244,
      2010,
      1934,
      1724,
      1636,
      1406,
      1219,
      914,
      863,
      697,
      650,
      618,
      511,
      425,
      212,
      133
    ],
    "swim:geom": "approach",
    "swim:timestamps": [
      1760702152,
      1760702174,
      1760702183,
      1760702217,
      1760702221,
      1760702272,
      1760702304,
      1760702335,
      1760702366,
      1760702397,
      1760702410,
      1760702433,
      1760702470,
      1760702514,
      1760702531,
      1760702575,
      1760702587,
      1760702614,
      1760702641,
      1760702698,
      1760702706,
      1760702741,
      1760702756,
      1760702764,
      1760702792,
      1760702820,
      1760702878,
      1760702898
    ],
    "wof:geomhash": "146ad94989995feea80cbcdfc778e075",
    "wof:id": 1981694117,
    "wof:repo": "sfomuseum-data-flights-2025-10"
  },
  "bbox": [
    -122.33417,
    37.49185,
    -121.29031,
    37.60464
  ],
  "geometry": {"coordinates":[[-121.29031,37.58908],[-121.33659,37.58399],[-121.35356,37.58219],[-121.42129,37.57458],[-121.42911,37.5737],[-121.52718,37.56231],[-121.58629,37.55533],[-121.6392,37.54726],[-121.68966,37.53544],[-121.73892,37.52373],[-121.76008,37.5186],[-121.79636,37.50974],[-121.85246,37.49626],[-121.91962,37.49185],[-121.94441,37.49247],[-122.00374,37.4997],[-122.0189,37.5046],[-122.0526,37.51567],[-122.08571,37.5266],[-122.15013,37.54727],[-122.15846,37.54992],[-122.19437,37.56153],[-122.20875,37.5662],[-122.21686,37.56885],[-122.24529,37.57807],[-122.27015,37.58576],[-122.31854,37.5997],[-122.33417,37.60464]],"type":"LineString"}
}
