{
  "id": 1981797221,
  "type": "Feature",
  "properties": {
    "geom:area": 0,
    "geom:bbox": "-122.789400,37.414760,-122.074350,38.512700",
    "geom:latitude": 37.812643162084306,
    "geom:longitude": -122.4775070708976,
    "src:alt_label": "swim-approach",
    "src:geom": "swim",
    "swim:elevations": [
      7995,
      7531,
      7221,
      6967,
      6495,
      6369,
      5865,
      5724,
      5349,
      5127,
      4828,
      4364,
      4272,
      3701,
      3505,
      3384,
      3353,
      3353,
      3353,
      3353,
      3335,
      3054,
      2967,
      2710,
      2510,
      2322,
      2240,
      1992,
      1793,
      1547,
      1489,
      1368,
      1218,
      1219,
      1066,
      987,
      832,
      765,
      704,
      639,
      426,
      334,
      266,
      148,
      90,
      31
    ],
    "swim:geom": "approach",
    "swim:timestamps": [
      1761735607,
      1761735652,
      1761735680,
      1761735705,
      1761735749,
      1761735761,
      1761735807,
      1761735821,
      1761735859,
      1761735880,
      1761735909,
      1761735951,
      1761735960,
      1761736017,
      1761736044,
      1761736078,
      1761736104,
      1761736125,
      1761736157,
      1761736196,
      1761736200,
      1761736245,
      1761736261,
      1761736305,
      1761736338,
      1761736368,
      1761736380,
      1761736420,
      1761736455,
      1761736494,
      1761736501,
      1761736518,
      1761736545,
      1761736583,
      1761736608,
      1761736622,
      1761736648,
      1761736662,
      1761736671,
      1761736691,
      1761736733,
      1761736762,
      1761736780,
      1761736812,
      1761736828,
      1761736844
    ],
    "wof:geomhash": "8bb47b86a68013a85dc8d4980ac1c54e",
    "wof:id": 1981797221,
    "wof:repo": "sfomuseum-data-flights-2025-10"
  },
  "bbox": [
    -122.7894,
    37.41476,
    -122.07435,
    38.5127
  ],
  "geometry": {"coordinates":[[-122.7894,38.5127],[-122.78221,38.42525],[-122.77812,38.37164],[-122.77465,38.32617],[-122.76847,38.24617],[-122.76559,38.22434],[-122.74315,38.14345],[-122.73612,38.11884],[-122.71677,38.05267],[-122.70669,38.01755],[-122.69305,37.96991],[-122.66934,37.90054],[-122.65895,37.88779],[-122.58392,37.81608],[-122.54908,37.78306],[-122.50828,37.74433],[-122.47869,37.71651],[-122.45459,37.69388],[-122.41718,37.65861],[-122.37623,37.61985],[-122.37248,37.61595],[-122.34287,37.56694],[-122.3323,37.55005],[-122.30405,37.50363],[-122.2789,37.4731],[-122.24067,37.45778],[-122.22454,37.45154],[-122.17507,37.43242],[-122.13094,37.41476],[-122.08551,37.42344],[-122.08053,37.43049],[-122.07435,37.44739],[-122.08936,37.47255],[-122.11984,37.5039],[-122.14521,37.52128],[-122.16067,37.52844],[-122.19043,37.54109],[-122.20513,37.5472],[-122.21467,37.55124],[-122.23452,37.55967],[-122.27289,37.57585],[-122.2947,37.585],[-122.30778,37.59051],[-122.33029,37.59988],[-122.34126,37.60455],[-122.35256,37.60922]],"type":"LineString"}
}
