{
  "id": 1981632583,
  "type": "Feature",
  "properties": {
    "geom:area": 0,
    "geom:bbox": "-123.496590,36.957670,-122.149850,37.610560",
    "geom:latitude": 37.272352741638976,
    "geom:longitude": -122.69868657997512,
    "src:alt_label": "swim-approach",
    "src:geom": "swim",
    "swim:elevations": [
      6316,
      6190,
      5630,
      5550,
      5350,
      5084,
      4604,
      4307,
      4075,
      3996,
      3843,
      3467,
      3180,
      3048,
      3021,
      2969,
      2898,
      2867,
      2668,
      2532,
      2438,
      2438,
      2332,
      2311,
      2262,
      2060,
      1828,
      1829,
      1829,
      1829,
      1829,
      1829,
      1829,
      1829,
      1829,
      1829,
      1829,
      1829,
      1829,
      1829,
      1701,
      1487,
      1269,
      1025,
      972,
      885,
      722,
      575,
      547,
      335,
      215,
      219,
      159,
      30
    ],
    "swim:geom": "approach",
    "swim:timestamps": [
      1760126903,
      1760126912,
      1760126952,
      1760126958,
      1760126977,
      1760127005,
      1760127055,
      1760127084,
      1760127109,
      1760127118,
      1760127134,
      1760127171,
      1760127198,
      1760127235,
      1760127264,
      1760127294,
      1760127306,
      1760127315,
      1760127349,
      1760127368,
      1760127409,
      1760127437,
      1760127478,
      1760127481,
      1760127488,
      1760127521,
      1760127563,
      1760127598,
      1760127620,
      1760127626,
      1760127643,
      1760127652,
      1760127686,
      1760127696,
      1760127733,
      1760127751,
      1760127784,
      1760127816,
      1760127834,
      1760127855,
      1760127891,
      1760127919,
      1760127949,
      1760127987,
      1760127995,
      1760128007,
      1760128040,
      1760128074,
      1760128080,
      1760128128,
      1760128167,
      1760128171,
      1760128184,
      1760128218
    ],
    "wof:geomhash": "6f9478f2256645969f664717937790bd",
    "wof:id": 1981632583,
    "wof:repo": "sfomuseum-data-flights-2025-10"
  },
  "bbox": [
    -123.49659,
    36.95767,
    -122.14985,
    37.61056
  ],
  "geometry": {"coordinates":[[-123.49659,36.95767],[-123.47658,36.96716],[-123.39193,37.0072],[-123.37938,37.01297],[-123.3409,37.03195],[-123.28419,37.05876],[-123.18085,37.10857],[-123.12215,37.13602],[-123.07366,37.15879],[-123.05574,37.16716],[-123.02267,37.1827],[-122.95043,37.21661],[-122.89857,37.24105],[-122.82788,37.26571],[-122.77319,37.27882],[-122.72105,37.29032],[-122.70261,37.28972],[-122.68913,37.28561],[-122.64345,37.26558],[-122.61949,37.25463],[-122.56773,37.22966],[-122.53407,37.2133],[-122.47731,37.20758],[-122.47355,37.20936],[-122.46565,37.21469],[-122.45156,37.24814],[-122.44391,37.29202],[-122.4379,37.32804],[-122.43387,37.35131],[-122.4328,37.35767],[-122.42837,37.37617],[-122.42221,37.38439],[-122.37837,37.39238],[-122.36526,37.38802],[-122.31771,37.37263],[-122.29343,37.37276],[-122.24784,37.37616],[-122.20524,37.3796],[-122.17944,37.38308],[-122.15845,37.39769],[-122.14985,37.43466],[-122.15316,37.46441],[-122.15645,37.49583],[-122.16452,37.53281],[-122.17141,37.53709],[-122.1843,37.53959],[-122.2165,37.55208],[-122.24641,37.56469],[-122.25175,37.56691],[-122.28983,37.5825],[-122.31815,37.59474],[-122.32109,37.59596],[-122.33014,37.59983],[-122.35559,37.61056]],"type":"LineString"}
}
