{
  "id": 1981720291,
  "type": "Feature",
  "properties": {
    "geom:area": 0,
    "geom:bbox": "-122.359790,37.491790,-121.270900,37.614470",
    "geom:latitude": 37.5459375372181,
    "geom:longitude": -121.82018478861197,
    "src:alt_label": "swim-approach",
    "src:geom": "swim",
    "swim:elevations": [
      4406,
      4128,
      3851,
      3608,
      3476,
      3230,
      3174,
      2954,
      2676,
      2562,
      2429,
      2231,
      2070,
      1948,
      1821,
      1763,
      1631,
      1521,
      1251,
      1151,
      968,
      823,
      689,
      575,
      395,
      354,
      170,
      0
    ],
    "swim:geom": "approach",
    "swim:timestamps": [
      1760950101,
      1760950134,
      1760950168,
      1760950196,
      1760950213,
      1760950244,
      1760950261,
      1760950307,
      1760950345,
      1760950361,
      1760950401,
      1760950433,
      1760950463,
      1760950490,
      1760950527,
      1760950534,
      1760950552,
      1760950570,
      1760950612,
      1760950625,
      1760950655,
      1760950681,
      1760950706,
      1760950728,
      1760950765,
      1760950778,
      1760950818,
      1760950855
    ],
    "wof:geomhash": "90838d5306e74a47f11c6486195b8df3",
    "wof:id": 1981720291,
    "wof:repo": "sfomuseum-data-flights-2025-10"
  },
  "bbox": [
    -122.35979,
    37.49179,
    -121.2709,
    37.61447
  ],
  "geometry": {"coordinates":[[-121.2709,37.59157],[-121.33533,37.58443],[-121.40363,37.57658],[-121.45672,37.57054],[-121.48929,37.56668],[-121.55121,37.55946],[-121.58267,37.55574],[-121.66328,37.54146],[-121.72456,37.52688],[-121.75107,37.52057],[-121.81135,37.50612],[-121.85859,37.49489],[-121.90466,37.49179],[-121.94383,37.49263],[-121.99681,37.49756],[-122.00639,37.5005],[-122.03015,37.50827],[-122.05414,37.51604],[-122.10899,37.53388],[-122.12686,37.5396],[-122.16566,37.55225],[-122.19748,37.56263],[-122.22516,37.57154],[-122.24721,37.57859],[-122.28201,37.58914],[-122.29299,37.59229],[-122.32788,37.60286],[-122.35979,37.61447]],"type":"LineString"}
}
