{
  "id": 1981558293,
  "type": "Feature",
  "properties": {
    "geom:area": 0,
    "geom:bbox": "-122.361780,37.635410,-121.242570,38.211900",
    "geom:latitude": 37.98356009729184,
    "geom:longitude": -121.8753194092768,
    "src:alt_label": "swim-takeoff",
    "src:geom": "swim",
    "swim:elevations": [
      321,
      791,
      978,
      1035,
      1220,
      1453,
      1521,
      1949,
      2546,
      2746,
      3251,
      3440,
      3538,
      3693,
      3999,
      4188,
      4329,
      4477,
      4585,
      4886,
      5151,
      5429,
      5621,
      5882,
      6004,
      6269,
      6475
    ],
    "swim:geom": "takeoff",
    "swim:timestamps": [
      1759363186,
      1759363228,
      1759363248,
      1759363264,
      1759363293,
      1759363314,
      1759363326,
      1759363360,
      1759363406,
      1759363421,
      1759363461,
      1759363486,
      1759363498,
      1759363513,
      1759363548,
      1759363586,
      1759363617,
      1759363639,
      1759363651,
      1759363682,
      1759363706,
      1759363736,
      1759363763,
      1759363796,
      1759363809,
      1759363842,
      1759363866
    ],
    "wof:geomhash": "b76dc10369885744b0f3e66ef19c92d6",
    "wof:id": 1981558293,
    "wof:repo": "sfomuseum-data-flights-2025-10"
  },
  "bbox": [
    -122.36178,
    37.63541,
    -121.24257,
    38.2119
  ],
  "geometry": {"coordinates":[[-122.36178,37.63541],[-122.33026,37.66177],[-122.31498,37.67478],[-122.30752,37.68889],[-122.32032,37.71949],[-122.33366,37.74211],[-122.341,37.7564],[-122.33472,37.80221],[-122.27552,37.84252],[-122.25179,37.8527],[-122.18636,37.88051],[-122.14404,37.89807],[-122.12227,37.90676],[-122.09471,37.91765],[-122.02991,37.94645],[-121.9584,37.98789],[-121.8922,38.01738],[-121.83618,38.03483],[-121.80643,38.04397],[-121.73095,38.06691],[-121.66958,38.08538],[-121.59222,38.1084],[-121.52186,38.12922],[-121.43496,38.15492],[-121.39976,38.16524],[-121.30822,38.19223],[-121.24257,38.2119]],"type":"LineString"}
}
