{
  "id": 1981658595,
  "type": "Feature",
  "properties": {
    "geom:area": 0,
    "geom:bbox": "-122.360960,37.491940,-121.257600,37.615890",
    "geom:latitude": 37.54273999522642,
    "geom:longitude": -121.81651734990932,
    "src:alt_label": "swim-approach",
    "src:geom": "swim",
    "swim:elevations": [
      4659,
      4415,
      3968,
      3669,
      3341,
      3245,
      3171,
      3037,
      2773,
      2628,
      2370,
      2190,
      2152,
      1942,
      1599,
      1494,
      1403,
      1334,
      981,
      909,
      699,
      513,
      402,
      262,
      135,
      258
    ],
    "swim:geom": "approach",
    "swim:timestamps": [
      1760403143,
      1760403164,
      1760403203,
      1760403228,
      1760403258,
      1760403279,
      1760403300,
      1760403352,
      1760403386,
      1760403403,
      1760403448,
      1760403478,
      1760403484,
      1760403512,
      1760403561,
      1760403582,
      1760403618,
      1760403633,
      1760403688,
      1760403700,
      1760403736,
      1760403775,
      1760403802,
      1760403835,
      1760403862,
      1760403892
    ],
    "wof:geomhash": "24b527b84a28b5daf8834c3b9c928725",
    "wof:id": 1981658595,
    "wof:repo": "sfomuseum-data-flights-2025-10"
  },
  "bbox": [
    -122.36096,
    37.49194,
    -121.2576,
    37.61589
  ],
  "geometry": {"coordinates":[[-121.2576,37.59365],[-121.30434,37.58765],[-121.38986,37.578],[-121.44376,37.57177],[-121.50802,37.56454],[-121.5524,37.55947],[-121.59444,37.55457],[-121.68637,37.53611],[-121.73979,37.52334],[-121.76703,37.51682],[-121.83694,37.50005],[-121.88338,37.49194],[-121.89284,37.49199],[-121.93822,37.49449],[-122.01587,37.49899],[-122.04768,37.50073],[-122.09817,37.50536],[-122.11663,37.51165],[-122.18087,37.53935],[-122.19375,37.54489],[-122.23001,37.56005],[-122.26497,37.57479],[-122.28691,37.58397],[-122.31425,37.59545],[-122.3366,37.6049],[-122.36096,37.61589]],"type":"LineString"}
}
