{
  "id": 1981772051,
  "type": "Feature",
  "properties": {
    "geom:area": 0,
    "geom:bbox": "-122.358130,37.440360,-121.280930,37.614210",
    "geom:latitude": 37.534016860922094,
    "geom:longitude": -121.82225141788619,
    "src:alt_label": "swim-approach",
    "src:geom": "swim",
    "swim:elevations": [
      5005,
      4663,
      4458,
      4281,
      3874,
      3804,
      3660,
      3381,
      3300,
      3166,
      3078,
      3049,
      3045,
      3011,
      2861,
      2678,
      2554,
      2226,
      2037,
      1828,
      1829,
      1689,
      1519,
      1404,
      1376,
      1370,
      1342,
      1308,
      1120,
      971,
      880,
      825,
      625,
      577,
      383,
      340,
      153,
      111,
      41,
      0
    ],
    "swim:geom": "approach",
    "swim:timestamps": [
      1761501237,
      1761501263,
      1761501285,
      1761501310,
      1761501358,
      1761501373,
      1761501393,
      1761501437,
      1761501453,
      1761501478,
      1761501497,
      1761501512,
      1761501568,
      1761501576,
      1761501610,
      1761501655,
      1761501679,
      1761501733,
      1761501802,
      1761501835,
      1761501856,
      1761501887,
      1761501928,
      1761501953,
      1761501957,
      1761501961,
      1761501977,
      1761502000,
      1761502038,
      1761502076,
      1761502098,
      1761502112,
      1761502160,
      1761502173,
      1761502226,
      1761502237,
      1761502285,
      1761502296,
      1761502315,
      1761502321
    ],
    "wof:geomhash": "8f45706f615f443f66c6fcfa42277fae",
    "wof:id": 1981772051,
    "wof:repo": "sfomuseum-data-flights-2025-10"
  },
  "bbox": [
    -122.35813,
    37.44036,
    -121.28093,
    37.61421
  ],
  "geometry": {"coordinates":[[-121.28093,37.5904],[-121.3214,37.5862],[-121.35832,37.58226],[-121.3991,37.57733],[-121.4771,37.56794],[-121.50098,37.56518],[-121.53289,37.56155],[-121.60081,37.5537],[-121.62626,37.55439],[-121.65845,37.57056],[-121.68161,37.58449],[-121.69908,37.59442],[-121.76998,37.57987],[-121.77433,37.56941],[-121.77209,37.52296],[-121.76804,37.46814],[-121.78826,37.4516],[-121.85257,37.44649],[-121.93599,37.44036],[-121.97392,37.4519],[-121.99599,37.46114],[-122.02461,37.47313],[-122.06181,37.48865],[-122.08296,37.49793],[-122.08634,37.49935],[-122.08955,37.50069],[-122.10206,37.50598],[-122.12038,37.51375],[-122.15111,37.52684],[-122.17989,37.53893],[-122.19595,37.54574],[-122.20621,37.55008],[-122.24291,37.5655],[-122.25246,37.56957],[-122.28912,37.58502],[-122.29654,37.58818],[-122.33126,37.6026],[-122.33956,37.60616],[-122.35387,37.61216],[-122.35813,37.61421]],"type":"LineString"}
}
