{
  "id": 1981775269,
  "type": "Feature",
  "properties": {
    "geom:area": 0,
    "geom:bbox": "-122.387500,37.647010,-121.262690,37.991040",
    "geom:latitude": 37.939208540480934,
    "geom:longitude": -121.93832474548105,
    "src:alt_label": "swim-takeoff",
    "src:geom": "swim",
    "swim:elevations": [
      438,
      627,
      768,
      1132,
      1625,
      1747,
      2073,
      2298,
      2765,
      2961,
      3263,
      3390,
      3478,
      3714,
      4258,
      4622,
      4894,
      4962,
      5056,
      5295,
      5508,
      5805,
      6183,
      6323,
      6398
    ],
    "swim:geom": "takeoff",
    "swim:timestamps": [
      1761522988,
      1761523015,
      1761523035,
      1761523077,
      1761523103,
      1761523112,
      1761523136,
      1761523149,
      1761523195,
      1761523213,
      1761523256,
      1761523286,
      1761523303,
      1761523334,
      1761523387,
      1761523434,
      1761523464,
      1761523473,
      1761523482,
      1761523518,
      1761523554,
      1761523588,
      1761523646,
      1761523676,
      1761523686
    ],
    "wof:geomhash": "b4d9e2a852c3c779e408cacda79c029d",
    "wof:id": 1981775269,
    "wof:repo": "sfomuseum-data-flights-2025-10"
  },
  "bbox": [
    -122.3875,
    37.64701,
    -121.26269,
    37.99104
  ],
  "geometry": {"coordinates":[[-122.34963,37.64701],[-122.32857,37.66496],[-122.31301,37.68008],[-122.32186,37.72611],[-122.3388,37.75445],[-122.34445,37.76382],[-122.35886,37.78976],[-122.36567,37.80359],[-122.3875,37.85593],[-122.3865,37.87838],[-122.36527,37.93521],[-122.30935,37.95707],[-122.27256,37.96318],[-122.19982,37.97705],[-122.07322,37.98795],[-121.95367,37.98856],[-121.87599,37.98915],[-121.85248,37.98931],[-121.82872,37.98942],[-121.73264,37.98982],[-121.63419,37.99014],[-121.53934,37.99046],[-121.37842,37.99091],[-121.29395,37.99104],[-121.26269,37.99103]],"type":"LineString"}
}
