{
  "id": 1981637071,
  "type": "Feature",
  "properties": {
    "geom:area": 0,
    "geom:bbox": "-122.467180,36.759570,-121.572640,37.717010",
    "geom:latitude": 37.22963045811556,
    "geom:longitude": -122.12679773390981,
    "src:alt_label": "swim-takeoff",
    "src:geom": "swim",
    "swim:elevations": [
      152,
      311,
      847,
      1143,
      1175,
      1420,
      1605,
      2326,
      2846,
      3375,
      3567,
      3686,
      4427,
      4981,
      5324,
      5707,
      5818,
      6328,
      6608,
      6975,
      7241,
      7308,
      7678,
      7899,
      8067,
      8229,
      8623,
      8715,
      8813,
      9026,
      9263,
      9340,
      9528
    ],
    "swim:geom": "takeoff",
    "swim:timestamps": [
      1760094897,
      1760094911,
      1760094948,
      1760094975,
      1760094984,
      1760095009,
      1760095023,
      1760095069,
      1760095096,
      1760095130,
      1760095161,
      1760095170,
      1760095223,
      1760095257,
      1760095281,
      1760095311,
      1760095333,
      1760095371,
      1760095396,
      1760095435,
      1760095465,
      1760095475,
      1760095510,
      1760095532,
      1760095553,
      1760095569,
      1760095612,
      1760095620,
      1760095632,
      1760095668,
      1760095705,
      1760095721,
      1760095742
    ],
    "wof:geomhash": "4a4198888ebfd00028fe93f197842120",
    "wof:id": 1981637071,
    "wof:repo": "sfomuseum-data-flights-2025-10"
  },
  "bbox": [
    -122.46718,
    36.75957,
    -121.57264,
    37.71701
  ],
  "geometry": {"coordinates":[[-122.36819,37.63033],[-122.364,37.64056],[-122.36216,37.67254],[-122.36565,37.69518],[-122.37073,37.70256],[-122.39855,37.717],[-122.41822,37.71701],[-122.45581,37.67557],[-122.45855,37.64163],[-122.46334,37.60058],[-122.46718,37.55614],[-122.46408,37.54372],[-122.40836,37.46903],[-122.37011,37.42166],[-122.34262,37.38828],[-122.30847,37.34634],[-122.28326,37.3154],[-122.23639,37.25923],[-122.20577,37.22396],[-122.15536,37.16633],[-122.11414,37.12167],[-122.09794,37.10793],[-122.03095,37.0631],[-121.98992,37.03524],[-121.94909,37.00834],[-121.91799,36.98795],[-121.83236,36.93299],[-121.81664,36.92258],[-121.79324,36.9063],[-121.72225,36.86085],[-121.64874,36.80988],[-121.6159,36.78765],[-121.57264,36.75957]],"type":"LineString"}
}
