{
  "id": 1981616263,
  "type": "Feature",
  "properties": {
    "geom:area": 0,
    "geom:bbox": "-122.356820,37.639100,-121.248780,38.146230",
    "geom:latitude": 37.94798152077321,
    "geom:longitude": -121.85961179190838,
    "src:alt_label": "swim-takeoff",
    "src:geom": "swim",
    "swim:elevations": [
      310,
      598,
      689,
      812,
      1156,
      1204,
      1280,
      1437,
      1531,
      2121,
      2523,
      2719,
      3222,
      3290,
      3709,
      4036,
      4438,
      4622,
      4818,
      4914,
      5267,
      5436,
      5810,
      6083,
      6252,
      6499,
      6768,
      7053,
      7273
    ],
    "swim:geom": "takeoff",
    "swim:timestamps": [
      1759913728,
      1759913749,
      1759913758,
      1759913768,
      1759913807,
      1759913816,
      1759913828,
      1759913846,
      1759913857,
      1759913906,
      1759913936,
      1759913951,
      1759913998,
      1759914007,
      1759914049,
      1759914079,
      1759914117,
      1759914137,
      1759914157,
      1759914167,
      1759914206,
      1759914227,
      1759914267,
      1759914298,
      1759914317,
      1759914347,
      1759914376,
      1759914415,
      1759914446
    ],
    "wof:geomhash": "23884aa6bfd2a4cb09b5985f886eb31c",
    "wof:id": 1981616263,
    "wof:repo": "sfomuseum-data-flights-2025-10"
  },
  "bbox": [
    -122.35682,
    37.6391,
    -121.24878,
    38.14623
  ],
  "geometry": {"coordinates":[[-122.35682,37.6391],[-122.3374,37.64755],[-122.32926,37.65206],[-122.32016,37.65789],[-122.28596,37.67987],[-122.27743,37.68649],[-122.27064,37.69822],[-122.26833,37.71922],[-122.2677,37.73326],[-122.26552,37.79599],[-122.26317,37.83732],[-122.25373,37.85535],[-122.17977,37.87802],[-122.16464,37.88226],[-122.09177,37.90488],[-122.0351,37.92188],[-121.96347,37.9427],[-121.92379,37.95414],[-121.88422,37.96545],[-121.86397,37.97125],[-121.78409,37.9943],[-121.74203,38.00635],[-121.65496,38.03115],[-121.5871,38.05045],[-121.54607,38.06213],[-121.47878,38.08124],[-121.41169,38.10028],[-121.321,38.1259],[-121.24878,38.14623]],"type":"LineString"}
}
