{
  "id": 1981611463,
  "type": "Feature",
  "properties": {
    "geom:area": 0,
    "geom:bbox": "-122.362430,37.491320,-121.504830,37.617580",
    "geom:latitude": 37.53753054410373,
    "geom:longitude": -121.9374637745809,
    "src:alt_label": "swim-approach",
    "src:geom": "swim",
    "swim:elevations": [
      3797,
      3317,
      3172,
      3078,
      2957,
      2834,
      2448,
      2400,
      2253,
      2120,
      1962,
      1830,
      1824,
      1672,
      1263,
      1094,
      842,
      764,
      557,
      549,
      457,
      396,
      211,
      143,
      362
    ],
    "swim:geom": "approach",
    "swim:timestamps": [
      1759949527,
      1759949572,
      1759949606,
      1759949622,
      1759949653,
      1759949678,
      1759949725,
      1759949732,
      1759949754,
      1759949778,
      1759949812,
      1759949847,
      1759949850,
      1759949882,
      1759949935,
      1759949954,
      1759949990,
      1759950002,
      1759950054,
      1759950072,
      1759950110,
      1759950126,
      1759950169,
      1759950190,
      1759950222
    ],
    "wof:geomhash": "a89e82bb70e29671d4c50d6877567503",
    "wof:id": 1981611463,
    "wof:repo": "sfomuseum-data-flights-2025-10"
  },
  "bbox": [
    -122.36243,
    37.49132,
    -121.50483,
    37.61758
  ],
  "geometry": {"coordinates":[[-121.50483,37.56483],[-121.57683,37.55629],[-121.63131,37.54878],[-121.65812,37.54248],[-121.70493,37.53135],[-121.74065,37.52285],[-121.80676,37.50712],[-121.81677,37.50478],[-121.84712,37.49747],[-121.87924,37.49132],[-121.9265,37.49222],[-121.97306,37.49323],[-121.97771,37.49344],[-122.01913,37.50467],[-122.08667,37.52653],[-122.1094,37.53397],[-122.15084,37.54753],[-122.16411,37.55183],[-122.22004,37.56996],[-122.23706,37.57545],[-122.27235,37.58647],[-122.28569,37.59038],[-122.32124,37.60068],[-122.33763,37.60573],[-122.36243,37.61758]],"type":"LineString"}
}
