{
  "id": 1981724765,
  "type": "Feature",
  "properties": {
    "geom:area": 0,
    "geom:bbox": "-122.363920,37.632030,-122.214420,38.507820",
    "geom:latitude": 38.03691115011707,
    "geom:longitude": -122.23804212198492,
    "src:alt_label": "swim-takeoff",
    "src:geom": "swim",
    "swim:elevations": [
      213,
      422,
      705,
      1220,
      1231,
      1349,
      1861,
      2041,
      2671,
      3136,
      3450,
      3629,
      3999,
      4112,
      4476,
      5061,
      5139,
      5284,
      5387,
      6215,
      6237,
      6422,
      6697,
      6854,
      6958,
      7028
    ],
    "swim:geom": "takeoff",
    "swim:timestamps": [
      1760987966,
      1760987981,
      1760988001,
      1760988058,
      1760988061,
      1760988073,
      1760988112,
      1760988126,
      1760988169,
      1760988205,
      1760988237,
      1760988260,
      1760988291,
      1760988302,
      1760988333,
      1760988383,
      1760988391,
      1760988410,
      1760988422,
      1760988507,
      1760988510,
      1760988531,
      1760988558,
      1760988576,
      1760988589,
      1760988600
    ],
    "wof:geomhash": "78539cdc0217ec1e72589939c7310c64",
    "wof:id": 1981724765,
    "wof:repo": "sfomuseum-data-flights-2025-10"
  },
  "bbox": [
    -122.36392,
    37.63203,
    -122.21442,
    38.50782
  ],
  "geometry": {"coordinates":[[-122.36392,37.63203],[-122.3545,37.64096],[-122.3378,37.65024],[-122.28364,37.68064],[-122.28031,37.68267],[-122.26636,37.69097],[-122.22016,37.72126],[-122.21442,37.73873],[-122.21694,37.79479],[-122.21879,37.84446],[-122.21866,37.89033],[-122.2195,37.92429],[-122.22139,37.97348],[-122.22202,37.99145],[-122.22382,38.04106],[-122.22448,38.12407],[-122.22467,38.13723],[-122.2259,38.16979],[-122.22706,38.1897],[-122.2315,38.33919],[-122.23158,38.34454],[-122.23483,38.38237],[-122.23971,38.43071],[-122.24305,38.46319],[-122.24558,38.48721],[-122.24772,38.50782]],"type":"LineString"}
}
