{
  "id": 1997539171,
  "type": "Feature",
  "properties": {
    "geom:area": 0,
    "geom:bbox": "-122.461650,36.721820,-121.296880,37.702270",
    "geom:latitude": 37.20286141130697,
    "geom:longitude": -121.9821260762743,
    "src:alt_label": "swim-takeoff",
    "src:geom": "swim",
    "swim:elevations": [
      122,
      213,
      822,
      1184,
      1207,
      1459,
      1826,
      2295,
      2663,
      2929,
      3173,
      3388,
      3549,
      3599,
      4006,
      4704,
      5059,
      5407,
      5491,
      5616,
      5928,
      6108,
      6530,
      6724,
      7051,
      7122,
      7300,
      7458,
      7723,
      7960,
      8154,
      8428,
      8552,
      8815
    ],
    "swim:geom": "takeoff",
    "swim:timestamps": [
      1761863246,
      1761863252,
      1761863301,
      1761863338,
      1761863341,
      1761863363,
      1761863387,
      1761863427,
      1761863449,
      1761863466,
      1761863501,
      1761863533,
      1761863546,
      1761863551,
      1761863581,
      1761863635,
      1761863664,
      1761863694,
      1761863704,
      1761863719,
      1761863756,
      1761863774,
      1761863817,
      1761863837,
      1761863872,
      1761863881,
      1761863902,
      1761863925,
      1761863956,
      1761863984,
      1761864011,
      1761864050,
      1761864071,
      1761864111
    ],
    "wof:geomhash": "bc98699876e8b5d2515b1b6f6224b27c",
    "wof:id": 1997539171,
    "wof:repo": "sfomuseum-data-flights-2025-10"
  },
  "bbox": [
    -122.46165,
    36.72182,
    -121.29688,
    37.70227
  ],
  "geometry": {"coordinates":[[-122.36914,37.62842],[-122.36644,37.63206],[-122.36363,37.66924],[-122.37136,37.69786],[-122.37418,37.69968],[-122.40198,37.70227],[-122.42178,37.68376],[-122.43429,37.63543],[-122.44156,37.60681],[-122.44788,37.58442],[-122.46165,37.53625],[-122.45266,37.48517],[-122.43578,37.46572],[-122.42809,37.45957],[-122.37513,37.42539],[-122.27647,37.36418],[-122.22449,37.33068],[-122.16735,37.29302],[-122.15012,37.28185],[-122.1218,37.26336],[-122.0491,37.21593],[-122.01355,37.1927],[-121.92784,37.13652],[-121.88664,37.10952],[-121.81423,37.06215],[-121.79558,37.04994],[-121.75172,37.02104],[-121.70437,36.98997],[-121.6382,36.9463],[-121.57812,36.90645],[-121.51997,36.86813],[-121.43446,36.81161],[-121.38805,36.78098],[-121.29688,36.72182]],"type":"LineString"}
}
