{
  "id": 1981559245,
  "type": "Feature",
  "properties": {
    "geom:area": 0,
    "geom:bbox": "-122.356190,37.491220,-121.390860,37.613160",
    "geom:latitude": 37.54085776693809,
    "geom:longitude": -121.87764507792903,
    "src:alt_label": "swim-approach",
    "src:geom": "swim",
    "swim:elevations": [
      4170,
      3819,
      3620,
      3475,
      3386,
      3284,
      3102,
      2873,
      2625,
      2529,
      2494,
      2326,
      2150,
      2040,
      1910,
      1780,
      1610,
      1515,
      1308,
      1254,
      1104,
      943,
      698,
      620,
      548,
      549,
      488,
      388,
      294,
      253,
      110,
      0
    ],
    "swim:geom": "approach",
    "swim:timestamps": [
      1759430899,
      1759430937,
      1759430959,
      1759430976,
      1759430997,
      1759431028,
      1759431054,
      1759431082,
      1759431118,
      1759431141,
      1759431152,
      1759431177,
      1759431207,
      1759431225,
      1759431262,
      1759431298,
      1759431324,
      1759431340,
      1759431381,
      1759431396,
      1759431429,
      1759431456,
      1759431489,
      1759431502,
      1759431525,
      1759431545,
      1759431593,
      1759431619,
      1759431649,
      1759431661,
      1759431698,
      1759431722
    ],
    "wof:geomhash": "57d4ee06087b4dcc36db77f3c0299a80",
    "wof:id": 1981559245,
    "wof:repo": "sfomuseum-data-flights-2025-10"
  },
  "bbox": [
    -122.35619,
    37.49122,
    -121.39086,
    37.61316
  ],
  "geometry": {"coordinates":[[-121.39086,37.57793],[-121.46022,37.56987],[-121.49943,37.56514],[-121.53037,37.56145],[-121.56731,37.55703],[-121.61805,37.55125],[-121.65766,37.54253],[-121.69958,37.53249],[-121.75326,37.5198],[-121.78706,37.51177],[-121.80263,37.50803],[-121.83843,37.49949],[-121.87984,37.49122],[-121.90433,37.49164],[-121.95255,37.49301],[-121.99904,37.49844],[-122.02987,37.50834],[-122.04878,37.5145],[-122.09479,37.52932],[-122.10979,37.53415],[-122.13997,37.54395],[-122.16369,37.55171],[-122.19178,37.5607],[-122.20202,37.56394],[-122.21849,37.56935],[-122.23199,37.57368],[-122.26591,37.58459],[-122.28452,37.58985],[-122.30538,37.59601],[-122.31363,37.59847],[-122.33969,37.60642],[-122.35619,37.61316]],"type":"LineString"}
}
