{
  "id": 1981728719,
  "type": "Feature",
  "properties": {
    "geom:area": 0,
    "geom:bbox": "-122.283333,34.423889,-119.858333,37.583333",
    "geom:latitude": 35.87387363564499,
    "geom:longitude": -121.1814059481711,
    "src:alt_label": "swim-path",
    "src:geom": "swim",
    "swim:altitudes": [
      "006",
      "006",
      "006",
      "006",
      "006",
      "006",
      "059",
      "059",
      "059",
      "059",
      "091",
      "091",
      "091",
      "091",
      "091",
      "128",
      "128",
      "128",
      "128",
      "128",
      "128",
      "128",
      "128",
      "128",
      "128",
      "220",
      "220",
      "220",
      "220",
      "220",
      "220",
      "157",
      "157",
      "157",
      "157",
      "136",
      "136",
      "136",
      "124",
      "124",
      "124",
      "124",
      "124",
      "109",
      "109",
      "109",
      "097",
      "097",
      "097",
      "097",
      "085",
      "085",
      "085",
      "085",
      "085",
      "080",
      "080",
      "080",
      "080",
      "066",
      "066",
      "066",
      "066",
      "066",
      "059",
      "059",
      "059",
      "059",
      "059",
      "012",
      "012",
      "012",
      "012",
      "012",
      "012",
      "012",
      "012",
      "012",
      "012"
    ],
    "swim:geom": "path",
    "swim:speeds": [
      152,
      152,
      152,
      152,
      152,
      152,
      287,
      287,
      287,
      287,
      299,
      299,
      299,
      299,
      299,
      404,
      404,
      404,
      404,
      404,
      404,
      404,
      404,
      404,
      404,
      421,
      421,
      421,
      421,
      421,
      421,
      382,
      382,
      382,
      382,
      377,
      377,
      377,
      377,
      377,
      377,
      377,
      377,
      358,
      358,
      358,
      304,
      304,
      304,
      304,
      295,
      295,
      295,
      295,
      295,
      292,
      292,
      292,
      268,
      250,
      250,
      250,
      250,
      250,
      251,
      251,
      251,
      251,
      251,
      177,
      177,
      177,
      177,
      177,
      177,
      177,
      177,
      177,
      177
    ],
    "swim:timestamps": [
      1761068762,
      1761068762,
      1761068762,
      1761068762,
      1761068762,
      1761068762,
      1761068914,
      1761068914,
      1761068914,
      1761068914,
      1761068975,
      1761068975,
      1761068975,
      1761068975,
      1761068975,
      1761069095,
      1761069095,
      1761069095,
      1761069095,
      1761069095,
      1761069095,
      1761069095,
      1761069095,
      1761069095,
      1761069095,
      1761070114,
      1761070114,
      1761070114,
      1761070114,
      1761070114,
      1761070114,
      1761070316,
      1761070316,
      1761070316,
      1761070316,
      1761070376,
      1761070376,
      1761070376,
      1761070414,
      1761070414,
      1761070414,
      1761070414,
      1761070414,
      1761070474,
      1761070474,
      1761070474,
      1761070556,
      1761070556,
      1761070556,
      1761070556,
      1761070616,
      1761070616,
      1761070616,
      1761070616,
      1761070616,
      1761070676,
      1761070676,
      1761070676,
      1761070715,
      1761070796,
      1761070796,
      1761070796,
      1761070796,
      1761070796,
      1761070835,
      1761070835,
      1761070835,
      1761070835,
      1761070835,
      1761071041,
      1761071041,
      1761071041,
      1761071041,
      1761071041,
      1761071041,
      1761071041,
      1761071041,
      1761071041,
      1761071041
    ],
    "wof:geomhash": "8e9bfe3dfc8197d0ebfa6f307d5cdae4",
    "wof:id": 1981728719,
    "wof:repo": "sfomuseum-data-flights-2025-10"
  },
  "bbox": [
    -122.28333333333333,
    34.42388888888889,
    -119.85833333333333,
    37.583333333333336
  ],
  "geometry": {"coordinates":[[-119.85833333333333,34.42777777777778],[-119.85833333333333,34.42777777777778],[-119.85833333333333,34.42777777777778],[-119.85833333333333,34.42777777777778],[-119.85833333333333,34.42777777777778],[-119.85833333333333,34.42777777777778],[-120.04416666666667,34.42388888888889],[-120.04416666666667,34.42388888888889],[-120.04416666666667,34.42388888888889],[-120.04416666666667,34.42388888888889],[-120.13472222222222,34.43055555555555],[-120.13472222222222,34.43055555555555],[-120.13472222222222,34.43055555555555],[-120.13472222222222,34.43055555555555],[-120.13472222222222,34.43055555555555],[-120.26722222222222,34.60166666666667],[-120.26722222222222,34.60166666666667],[-120.26722222222222,34.60166666666667],[-120.26722222222222,34.60166666666667],[-120.26722222222222,34.60166666666667],[-120.26722222222222,34.60166666666667],[-120.26722222222222,34.60166666666667],[-120.26722222222222,34.60166666666667],[-120.26722222222222,34.60166666666667],[-120.26722222222222,34.60166666666667],[-121.61722222222221,36.39083333333333],[-121.61722222222221,36.39083333333333],[-121.61722222222221,36.39083333333333],[-121.61722222222221,36.39083333333333],[-121.61722222222221,36.39083333333333],[-121.61722222222221,36.39083333333333],[-121.86666666666666,36.71666666666667],[-121.86666666666666,36.71666666666667],[-121.86666666666666,36.71666666666667],[-121.86666666666666,36.71666666666667],[-121.91666666666667,36.8],[-121.91666666666667,36.8],[-121.91666666666667,36.8],[-121.92833333333334,36.86333333333334],[-121.92833333333334,36.86333333333334],[-121.92833333333334,36.86333333333334],[-121.92833333333334,36.86333333333334],[-121.92833333333334,36.86333333333334],[-121.9575,36.96277777777778],[-121.9575,36.96277777777778],[-121.9575,36.96277777777778],[-122,37.083333333333336],[-122,37.083333333333336],[-122,37.083333333333336],[-122,37.083333333333336],[-122.03333333333333,37.166666666666664],[-122.03333333333333,37.166666666666664],[-122.03333333333333,37.166666666666664],[-122.03333333333333,37.166666666666664],[-122.03333333333333,37.166666666666664],[-122.06666666666666,37.25],[-122.06666666666666,37.25],[-122.06666666666666,37.25],[-122.08222222222221,37.28194444444444],[-122.11666666666666,37.38333333333333],[-122.11666666666666,37.38333333333333],[-122.11666666666666,37.38333333333333],[-122.11666666666666,37.38333333333333],[-122.11666666666666,37.38333333333333],[-122.13361111111112,37.418055555555554],[-122.13361111111112,37.418055555555554],[-122.13361111111112,37.418055555555554],[-122.13361111111112,37.418055555555554],[-122.13361111111112,37.418055555555554],[-122.28333333333333,37.583333333333336],[-122.28333333333333,37.583333333333336],[-122.28333333333333,37.583333333333336],[-122.28333333333333,37.583333333333336],[-122.28333333333333,37.583333333333336],[-122.28333333333333,37.583333333333336],[-122.28333333333333,37.583333333333336],[-122.28333333333333,37.583333333333336],[-122.28333333333333,37.583333333333336],[-122.28333333333333,37.583333333333336]],"type":"LineString"}
}
