{
  "id": 1981559281,
  "type": "Feature",
  "properties": {
    "geom:area": 0,
    "geom:bbox": "-122.358520,37.491000,-121.302940,37.613850",
    "geom:latitude": 37.5442490529293,
    "geom:longitude": -121.83544668042136,
    "src:alt_label": "swim-approach",
    "src:geom": "swim",
    "swim:elevations": [
      4392,
      4102,
      3884,
      3804,
      3621,
      3353,
      3314,
      3115,
      2958,
      2825,
      2711,
      2502,
      2429,
      2366,
      2131,
      2039,
      1828,
      1829,
      1675,
      1472,
      1178,
      1000,
      913,
      791,
      765,
      687,
      553,
      549,
      524,
      429,
      367,
      243,
      208,
      116,
      130
    ],
    "swim:geom": "approach",
    "swim:timestamps": [
      1759433307,
      1759433337,
      1759433362,
      1759433381,
      1759433420,
      1759433458,
      1759433463,
      1759433487,
      1759433509,
      1759433527,
      1759433551,
      1759433594,
      1759433614,
      1759433623,
      1759433662,
      1759433686,
      1759433728,
      1759433746,
      1759433777,
      1759433796,
      1759433841,
      1759433875,
      1759433900,
      1759433934,
      1759433945,
      1759433966,
      1759433994,
      1759434025,
      1759434049,
      1759434074,
      1759434090,
      1759434126,
      1759434135,
      1759434158,
      1759434183
    ],
    "wof:geomhash": "632571b3478d5fdd2bf90c29e5ffa0f0",
    "wof:id": 1981559281,
    "wof:repo": "sfomuseum-data-flights-2025-10"
  },
  "bbox": [
    -122.35852,
    37.491,
    -121.30294,
    37.61385
  ],
  "geometry": {"coordinates":[[-121.30294,37.58762],[-121.35896,37.58143],[-121.40364,37.57628],[-121.4383,37.57232],[-121.5051,37.5647],[-121.56589,37.55753],[-121.57367,37.55663],[-121.61249,37.55199],[-121.64679,37.54526],[-121.67543,37.5384],[-121.71237,37.52963],[-121.77395,37.51489],[-121.80077,37.50844],[-121.81295,37.50552],[-121.8645,37.49317],[-121.89474,37.491],[-121.94995,37.49247],[-121.97345,37.49308],[-122.01209,37.50187],[-122.0355,37.50961],[-122.089,37.5269],[-122.12235,37.53782],[-122.1429,37.5444],[-122.16973,37.5531],[-122.17804,37.55582],[-122.194,37.56105],[-122.21592,37.5682],[-122.23836,37.57541],[-122.25653,37.58131],[-122.27646,37.58719],[-122.2878,37.59051],[-122.31561,37.59889],[-122.32278,37.60094],[-122.34012,37.60658],[-122.35852,37.61385]],"type":"LineString"}
}
