{
  "id": 1981663235,
  "type": "Feature",
  "properties": {
    "geom:area": 0,
    "geom:bbox": "-122.581160,36.720280,-122.353930,37.668120",
    "geom:latitude": 37.22895686198845,
    "geom:longitude": -122.52436156817349,
    "src:alt_label": "swim-takeoff",
    "src:geom": "swim",
    "swim:elevations": [
      312,
      661,
      977,
      1180,
      1380,
      1775,
      2299,
      2692,
      3039,
      3451,
      3578,
      3954,
      4593,
      4758,
      5298,
      5757,
      5978,
      6292,
      6580,
      6792,
      7340,
      7608,
      7640,
      7790,
      8015,
      8380,
      8713,
      8811
    ],
    "swim:geom": "takeoff",
    "swim:timestamps": [
      1760366391,
      1760366416,
      1760366437,
      1760366463,
      1760366484,
      1760366513,
      1760366547,
      1760366573,
      1760366594,
      1760366637,
      1760366651,
      1760366690,
      1760366727,
      1760366737,
      1760366776,
      1760366810,
      1760366831,
      1760366867,
      1760366895,
      1760366912,
      1760366961,
      1760366998,
      1760367002,
      1760367021,
      1760367053,
      1760367083,
      1760367110,
      1760367128
    ],
    "wof:geomhash": "63c19cabefefcd811a7a3688bfea8849",
    "wof:id": 1981663235,
    "wof:repo": "sfomuseum-data-flights-2025-10"
  },
  "bbox": [
    -122.58116,
    36.72028,
    -122.35393,
    37.66812
  ],
  "geometry": {"coordinates":[[-122.40493,37.63197],[-122.42909,37.64199],[-122.44745,37.64965],[-122.47327,37.66088],[-122.49859,37.66812],[-122.53415,37.65697],[-122.5552,37.62202],[-122.56836,37.59308],[-122.57871,37.569],[-122.58116,37.51369],[-122.58061,37.49374],[-122.57819,37.43425],[-122.57569,37.37677],[-122.57533,37.36138],[-122.5739,37.30209],[-122.57189,37.24866],[-122.57093,37.21566],[-122.56887,37.15474],[-122.56784,37.10561],[-122.56709,37.07711],[-122.55444,36.9913],[-122.51497,36.93108],[-122.5099,36.92497],[-122.48566,36.8961],[-122.44467,36.84305],[-122.40769,36.79314],[-122.37475,36.74869],[-122.35393,36.72028]],"type":"LineString"}
}
