{
  "id": 1981672877,
  "type": "Feature",
  "properties": {
    "geom:area": 0,
    "geom:bbox": "-122.362560,37.493480,-121.259690,37.613860",
    "geom:latitude": 37.54299824965647,
    "geom:longitude": -121.81782461025432,
    "src:alt_label": "swim-approach",
    "src:geom": "swim",
    "swim:elevations": [
      4531,
      4379,
      4039,
      3740,
      3487,
      3259,
      3136,
      2919,
      2712,
      2617,
      2469,
      2437,
      2397,
      2208,
      1831,
      1734,
      1448,
      1242,
      1217,
      1157,
      1020,
      885,
      876,
      796,
      706,
      588,
      397,
      243,
      161,
      61,
      128
    ],
    "swim:geom": "approach",
    "swim:timestamps": [
      1760517564,
      1760517581,
      1760517616,
      1760517648,
      1760517674,
      1760517701,
      1760517734,
      1760517773,
      1760517794,
      1760517806,
      1760517837,
      1760517852,
      1760517876,
      1760517906,
      1760517957,
      1760517974,
      1760518013,
      1760518042,
      1760518075,
      1760518084,
      1760518116,
      1760518138,
      1760518141,
      1760518153,
      1760518174,
      1760518201,
      1760518247,
      1760518287,
      1760518308,
      1760518332,
      1760518354
    ],
    "wof:geomhash": "3bf91888652ed393715a053e267e63fd",
    "wof:id": 1981672877,
    "wof:repo": "sfomuseum-data-flights-2025-10"
  },
  "bbox": [
    -122.36256,
    37.49348,
    -121.25969,
    37.61386
  ],
  "geometry": {"coordinates":[[-121.25969,37.59341],[-121.2925,37.58911],[-121.36303,37.58135],[-121.42421,37.57435],[-121.47474,37.56847],[-121.526,37.56249],[-121.58449,37.55549],[-121.65116,37.54462],[-121.68433,37.53659],[-121.7045,37.53186],[-121.75342,37.52017],[-121.77736,37.51457],[-121.81685,37.50513],[-121.86457,37.49348],[-121.94437,37.49629],[-121.97016,37.49878],[-122.03094,37.50371],[-122.07483,37.50739],[-122.11979,37.51307],[-122.13044,37.51653],[-122.16538,37.53064],[-122.18647,37.53935],[-122.18937,37.54054],[-122.20079,37.54542],[-122.22069,37.55383],[-122.24485,37.56398],[-122.28205,37.57972],[-122.31298,37.59262],[-122.32898,37.59935],[-122.34665,37.60679],[-122.36256,37.61386]],"type":"LineString"}
}
