{
  "id": 1981793269,
  "type": "Feature",
  "properties": {
    "geom:area": 0,
    "geom:bbox": "-122.891389,37.644167,-122.229722,45.671111",
    "geom:latitude": 41.78260478863547,
    "geom:longitude": -122.54344131965803,
    "src:alt_label": "swim-path",
    "src:geom": "swim",
    "swim:altitudes": [
      "016",
      "016",
      "016",
      "016",
      "016",
      "016",
      "016",
      "196",
      "196",
      "196",
      "221",
      "244",
      "244",
      "242",
      "242",
      "277",
      "277",
      "291",
      "291",
      "291",
      "352",
      "352",
      "352",
      "360C",
      "360C",
      "360C",
      "360C",
      "360C",
      "360C",
      "360C",
      "360C",
      "360C",
      "360C",
      "360C",
      "360C",
      "360C",
      "360C",
      "360C",
      "360C",
      "360C",
      "360C",
      "360C",
      "360C",
      "360C",
      "360C",
      "360C",
      "360C",
      "360C",
      "360C",
      "360C",
      "360C",
      "360C",
      "360C",
      "360C",
      "360C",
      "360C",
      "360C",
      "360C",
      "360C",
      "360C",
      "360C",
      "360C",
      "360C",
      "360C",
      "360C",
      "360C",
      "360C",
      "360C",
      "360C",
      "360C",
      "360C",
      "360C",
      "360C",
      "360C",
      "360C",
      "360C",
      "360C",
      "360C",
      "360C",
      "360C",
      "360C",
      "360C",
      "360C",
      "360C",
      "360C",
      "360C",
      "360C",
      "360C",
      "360C",
      "360C",
      "360C",
      "360C",
      "360C",
      "360C",
      "360",
      "360",
      "360",
      "360",
      "360",
      "360",
      "360",
      "360",
      "360",
      "277",
      "277",
      "277",
      "183",
      "183",
      "183",
      "182",
      "182",
      "182",
      "182",
      "167",
      "150",
      "150",
      "144",
      "144",
      "144",
      "106",
      "106",
      "102",
      "102",
      "102",
      "102",
      "085",
      "085",
      "085",
      "085",
      "070",
      "067",
      "067",
      "067",
      "067",
      "044",
      "044",
      "040",
      "040",
      "040",
      "040",
      "040",
      "040",
      "040",
      "040",
      "015",
      "011",
      "011",
      "011",
      "011",
      "011"
    ],
    "swim:geom": "path",
    "swim:speeds": [
      174,
      174,
      174,
      174,
      174,
      174,
      174,
      390,
      390,
      390,
      398,
      409,
      409,
      403,
      403,
      430,
      430,
      451,
      451,
      451,
      458,
      458,
      458,
      455,
      455,
      456,
      451,
      451,
      450,
      450,
      450,
      450,
      450,
      449,
      449,
      449,
      449,
      449,
      449,
      449,
      450,
      453,
      453,
      453,
      453,
      453,
      453,
      461,
      461,
      461,
      463,
      465,
      465,
      465,
      465,
      465,
      465,
      465,
      465,
      465,
      465,
      465,
      465,
      465,
      465,
      465,
      465,
      465,
      465,
      466,
      466,
      466,
      467,
      467,
      467,
      467,
      469,
      469,
      472,
      472,
      472,
      472,
      472,
      468,
      468,
      468,
      466,
      466,
      466,
      466,
      466,
      465,
      465,
      465,
      464,
      464,
      464,
      464,
      464,
      464,
      464,
      464,
      464,
      468,
      468,
      468,
      383,
      383,
      383,
      385,
      385,
      385,
      385,
      376,
      367,
      367,
      360,
      360,
      360,
      331,
      331,
      325,
      325,
      325,
      325,
      257,
      257,
      257,
      257,
      251,
      246,
      246,
      246,
      246,
      226,
      226,
      229,
      229,
      256,
      256,
      256,
      256,
      256,
      256,
      145,
      133,
      133,
      133,
      133,
      133
    ],
    "swim:timestamps": [
      1761703057,
      1761703057,
      1761703057,
      1761703057,
      1761703057,
      1761703057,
      1761703057,
      1761703483,
      1761703483,
      1761703483,
      1761703543,
      1761703597,
      1761703597,
      1761703603,
      1761703603,
      1761703723,
      1761703723,
      1761703777,
      1761703777,
      1761703777,
      1761704018,
      1761704018,
      1761704018,
      1761704078,
      1761704078,
      1761704084,
      1761704144,
      1761704144,
      1761704204,
      1761704204,
      1761704204,
      1761704204,
      1761704204,
      1761704318,
      1761704318,
      1761704318,
      1761704318,
      1761704318,
      1761704318,
      1761704318,
      1761704444,
      1761704618,
      1761704618,
      1761704618,
      1761704684,
      1761704684,
      1761704684,
      1761704799,
      1761704805,
      1761704805,
      1761704865,
      1761704919,
      1761704919,
      1761704919,
      1761704925,
      1761704925,
      1761704985,
      1761704985,
      1761704985,
      1761705039,
      1761705039,
      1761705045,
      1761705045,
      1761705045,
      1761705105,
      1761705105,
      1761705165,
      1761705165,
      1761705165,
      1761705219,
      1761705219,
      1761705219,
      1761705279,
      1761705279,
      1761705285,
      1761705285,
      1761705339,
      1761705339,
      1761705399,
      1761705399,
      1761705399,
      1761705399,
      1761705399,
      1761705644,
      1761705644,
      1761705644,
      1761705704,
      1761705704,
      1761705704,
      1761705704,
      1761705764,
      1761705824,
      1761705824,
      1761705824,
      1761705945,
      1761705945,
      1761705945,
      1761706005,
      1761706005,
      1761706005,
      1761706005,
      1761706005,
      1761706005,
      1761706245,
      1761706245,
      1761706245,
      1761706530,
      1761706530,
      1761706530,
      1761706545,
      1761706545,
      1761706545,
      1761706545,
      1761706605,
      1761706665,
      1761706665,
      1761706677,
      1761706677,
      1761706677,
      1761706846,
      1761706846,
      1761706858,
      1761706858,
      1761706858,
      1761706858,
      1761706966,
      1761706966,
      1761706966,
      1761706966,
      1761707026,
      1761707041,
      1761707041,
      1761707041,
      1761707041,
      1761707161,
      1761707161,
      1761707224,
      1761707224,
      1761707325,
      1761707325,
      1761707325,
      1761707349,
      1761707349,
      1761707349,
      1761707506,
      1761707533,
      1761707533,
      1761707533,
      1761707533,
      1761707533
    ],
    "wof:geomhash": "f772989b27fca8448ba71e65c2b9739e",
    "wof:id": 1981793269,
    "wof:repo": "sfomuseum-data-flights-2025-10"
  },
  "bbox": [
    -122.8913888888889,
    37.64416666666666,
    -122.22972222222222,
    45.67111111111111
  ],
  "geometry": {"coordinates":[[-122.34972222222221,37.64416666666666],[-122.34972222222221,37.64416666666666],[-122.34972222222221,37.64416666666666],[-122.34972222222221,37.64416666666666],[-122.34972222222221,37.64416666666666],[-122.34972222222221,37.64416666666666],[-122.34972222222221,37.64416666666666],[-122.24138888888889,38.211666666666666],[-122.24138888888889,38.211666666666666],[-122.24138888888889,38.211666666666666],[-122.22972222222222,38.32361111111111],[-122.24138888888889,38.446666666666665],[-122.24138888888889,38.446666666666665],[-122.23416666666667,38.43666666666666],[-122.23416666666667,38.43666666666666],[-122.26277777777777,38.674166666666665],[-122.26277777777777,38.674166666666665],[-122.27777777777777,38.79472222222222],[-122.27777777777777,38.79472222222222],[-122.27777777777777,38.79472222222222],[-122.33166666666666,39.30638888888888],[-122.33166666666666,39.30638888888888],[-122.33166666666666,39.30638888888888],[-122.345,39.43194444444444],[-122.345,39.43194444444444],[-122.34416666666667,39.433611111111105],[-122.35749999999999,39.55833333333333],[-122.35749999999999,39.55833333333333],[-122.37166666666666,39.68277777777777],[-122.37166666666666,39.68277777777777],[-122.37166666666666,39.68277777777777],[-122.37166666666666,39.68277777777777],[-122.37166666666666,39.68277777777777],[-122.39833333333334,39.93222222222222],[-122.39833333333334,39.93222222222222],[-122.39833333333334,39.93222222222222],[-122.39833333333334,39.93222222222222],[-122.39833333333334,39.93222222222222],[-122.39833333333334,39.93222222222222],[-122.39833333333334,39.93222222222222],[-122.42666666666668,40.18944444444444],[-122.46861111111112,40.56861111111112],[-122.46861111111112,40.56861111111112],[-122.46861111111112,40.56861111111112],[-122.48222222222222,40.69472222222222],[-122.48222222222222,40.69472222222222],[-122.48222222222222,40.69472222222222],[-122.51055555555556,40.947222222222216],[-122.51055555555556,40.94694444444444],[-122.51055555555556,40.94694444444444],[-122.52472222222222,41.075833333333335],[-122.53916666666666,41.205555555555556],[-122.53916666666666,41.205555555555556],[-122.53916666666666,41.205555555555556],[-122.53916666666666,41.20527777777778],[-122.53916666666666,41.20527777777778],[-122.55361111111111,41.33444444444444],[-122.55361111111111,41.33444444444444],[-122.55361111111111,41.33444444444444],[-122.56666666666666,41.448055555555555],[-122.56666666666666,41.448055555555555],[-122.56944444444444,41.473333333333336],[-122.56944444444444,41.473333333333336],[-122.56944444444444,41.473333333333336],[-122.58055555555555,41.60277777777778],[-122.58055555555555,41.60277777777778],[-122.58888888888889,41.73305555555556],[-122.58888888888889,41.73305555555556],[-122.58888888888889,41.73305555555556],[-122.59583333333333,41.838055555555556],[-122.59583333333333,41.838055555555556],[-122.59583333333333,41.838055555555556],[-122.60472222222222,41.968333333333334],[-122.60472222222222,41.968333333333334],[-122.60638888888889,41.99472222222222],[-122.60638888888889,41.99472222222222],[-122.61305555555555,42.10027777777778],[-122.61305555555555,42.10027777777778],[-122.62166666666666,42.23388888888889],[-122.62166666666666,42.23388888888889],[-122.62166666666666,42.23388888888889],[-122.62166666666666,42.23388888888889],[-122.62166666666666,42.23388888888889],[-122.65805555555556,42.7725],[-122.65805555555556,42.7725],[-122.65805555555556,42.7725],[-122.66694444444445,42.903055555555554],[-122.66694444444445,42.903055555555554],[-122.66694444444445,42.903055555555554],[-122.66694444444445,42.903055555555554],[-122.67555555555556,43.032222222222224],[-122.68444444444445,43.16],[-122.68444444444445,43.16],[-122.68444444444445,43.16],[-122.70222222222222,43.41777777777777],[-122.70222222222222,43.41777777777777],[-122.70222222222222,43.41777777777777],[-122.71111111111111,43.54666666666667],[-122.71111111111111,43.54666666666667],[-122.71111111111111,43.54666666666667],[-122.71111111111111,43.54666666666667],[-122.71111111111111,43.54666666666667],[-122.71111111111111,43.54666666666667],[-122.74694444444445,44.06166666666666],[-122.74694444444445,44.06166666666666],[-122.74694444444445,44.06166666666666],[-122.705,44.64083333333333],[-122.705,44.64083333333333],[-122.705,44.64083333333333],[-122.7038888888889,44.65083333333333],[-122.7038888888889,44.65083333333333],[-122.7038888888889,44.65083333333333],[-122.7038888888889,44.65083333333333],[-122.69333333333334,44.7525],[-122.68333333333334,44.853611111111114],[-122.68333333333334,44.853611111111114],[-122.68111111111112,44.88944444444444],[-122.68111111111112,44.88944444444444],[-122.68111111111112,44.88944444444444],[-122.65305555555557,45.150555555555556],[-122.65305555555557,45.150555555555556],[-122.65194444444445,45.17388888888889],[-122.65194444444445,45.17388888888889],[-122.65194444444445,45.17388888888889],[-122.65194444444445,45.17388888888889],[-122.67611111111111,45.30972222222222],[-122.67611111111111,45.30972222222222],[-122.67611111111111,45.30972222222222],[-122.67611111111111,45.30972222222222],[-122.71138888888889,45.37388888888889],[-122.72055555555556,45.39138888888889],[-122.72055555555556,45.39138888888889],[-122.72055555555556,45.39138888888889],[-122.72055555555556,45.39138888888889],[-122.80666666666666,45.5125],[-122.80666666666666,45.5125],[-122.86861111111111,45.5575],[-122.86861111111111,45.5575],[-122.8913888888889,45.650555555555556],[-122.8913888888889,45.650555555555556],[-122.8913888888889,45.650555555555556],[-122.86305555555555,45.67111111111111],[-122.86305555555555,45.67111111111111],[-122.86305555555555,45.67111111111111],[-122.68083333333334,45.62777777777778],[-122.6613888888889,45.62],[-122.6613888888889,45.62],[-122.6613888888889,45.62],[-122.6613888888889,45.62],[-122.6613888888889,45.62]],"type":"LineString"}
}
