{
  "id": 1981615173,
  "type": "Feature",
  "properties": {
    "geom:area": 0,
    "geom:bbox": "-122.360000,37.441010,-121.255850,37.614270",
    "geom:latitude": 37.53037747695186,
    "geom:longitude": -121.81668093923821,
    "src:alt_label": "swim-approach",
    "src:geom": "swim",
    "swim:elevations": [
      4799,
      4589,
      4384,
      4009,
      3888,
      3517,
      3315,
      3047,
      3017,
      2862,
      2722,
      2535,
      2439,
      2438,
      2438,
      2438,
      2368,
      2276,
      2103,
      1854,
      1767,
      1637,
      1545,
      1296,
      1135,
      810,
      701,
      601,
      430,
      369,
      169,
      54,
      0
    ],
    "swim:geom": "approach",
    "swim:timestamps": [
      1759921706,
      1759921732,
      1759921757,
      1759921796,
      1759921810,
      1759921854,
      1759921882,
      1759921916,
      1759921935,
      1759921961,
      1759921994,
      1759922028,
      1759922047,
      1759922073,
      1759922111,
      1759922146,
      1759922174,
      1759922192,
      1759922238,
      1759922276,
      1759922307,
      1759922335,
      1759922347,
      1759922387,
      1759922409,
      1759922458,
      1759922479,
      1759922506,
      1759922544,
      1759922557,
      1759922607,
      1759922635,
      1759922646
    ],
    "wof:geomhash": "36d0467189bc953e5ba24f629bf85320",
    "wof:id": 1981615173,
    "wof:repo": "sfomuseum-data-flights-2025-10"
  },
  "bbox": [
    -122.36,
    37.44101,
    -121.25585,
    37.61427
  ],
  "geometry": {"coordinates":[[-121.25585,37.59371],[-121.30104,37.58797],[-121.34328,37.5834],[-121.41033,37.57588],[-121.43541,37.57299],[-121.51443,37.56401],[-121.563,37.55807],[-121.62176,37.55094],[-121.65469,37.54351],[-121.69384,37.53424],[-121.74341,37.52233],[-121.78746,37.50918],[-121.7995,37.4923],[-121.80289,37.46687],[-121.83814,37.44529],[-121.88613,37.44298],[-121.92368,37.44101],[-121.94717,37.44237],[-122.00102,37.46308],[-122.04346,37.48137],[-122.07697,37.49555],[-122.10433,37.50699],[-122.11631,37.512],[-122.15211,37.52722],[-122.17154,37.53546],[-122.21008,37.55179],[-122.22693,37.55876],[-122.24869,37.56801],[-122.2791,37.5807],[-122.28963,37.58508],[-122.32887,37.6018],[-122.35087,37.6109],[-122.36,37.61427]],"type":"LineString"}
}
