{
  "id": 1981659083,
  "type": "Feature",
  "properties": {
    "geom:area": 0,
    "geom:bbox": "-122.357110,37.452330,-121.249720,37.617500",
    "geom:latitude": 37.54358691820413,
    "geom:longitude": -121.81139991903852,
    "src:alt_label": "swim-approach",
    "src:geom": "swim",
    "swim:elevations": [
      5671,
      5455,
      5083,
      4780,
      4513,
      4307,
      3844,
      3643,
      3357,
      3293,
      3228,
      3139,
      3107,
      3040,
      2997,
      2811,
      2533,
      2514,
      2438,
      2436,
      2408,
      2249,
      2134,
      2136,
      2104,
      2040,
      1949,
      1862,
      1761,
      1600,
      1362,
      1191,
      1121,
      1044,
      905,
      737,
      728,
      517,
      480,
      307,
      240,
      0
    ],
    "swim:geom": "approach",
    "swim:timestamps": [
      1760348727,
      1760348749,
      1760348785,
      1760348812,
      1760348834,
      1760348856,
      1760348901,
      1760348919,
      1760348966,
      1760348986,
      1760349013,
      1760349050,
      1760349068,
      1760349088,
      1760349099,
      1760349126,
      1760349168,
      1760349171,
      1760349204,
      1760349234,
      1760349262,
      1760349296,
      1760349326,
      1760349330,
      1760349382,
      1760349396,
      1760349416,
      1760349445,
      1760349467,
      1760349494,
      1760349521,
      1760349542,
      1760349560,
      1760349580,
      1760349623,
      1760349656,
      1760349660,
      1760349711,
      1760349723,
      1760349765,
      1760349782,
      1760349835
    ],
    "wof:geomhash": "dfcdf87cd53fab729affcdde8530a137",
    "wof:id": 1981659083,
    "wof:repo": "sfomuseum-data-flights-2025-10"
  },
  "bbox": [
    -122.35711,
    37.45233,
    -121.24972,
    37.6175
  ],
  "geometry": {"coordinates":[[-121.24972,37.59448],[-121.28788,37.5895],[-121.34864,37.58291],[-121.39329,37.57789],[-121.42904,37.57369],[-121.4657,37.56942],[-121.53879,37.56087],[-121.56763,37.55743],[-121.64223,37.54879],[-121.67115,37.55693],[-121.70394,37.57557],[-121.74834,37.602],[-121.76898,37.6138],[-121.79504,37.6175],[-121.80824,37.6134],[-121.82381,37.58906],[-121.81258,37.54381],[-121.81174,37.54057],[-121.80343,37.50525],[-121.80922,37.47322],[-121.8338,37.45233],[-121.87818,37.45287],[-121.91719,37.4559],[-121.92201,37.45624],[-121.98714,37.46103],[-122.00421,37.46559],[-122.02792,37.47414],[-122.05754,37.48706],[-122.07877,37.49615],[-122.10167,37.50592],[-122.12391,37.51526],[-122.13924,37.52175],[-122.15284,37.52752],[-122.16749,37.53396],[-122.19933,37.54789],[-122.22494,37.55812],[-122.2278,37.55931],[-122.26643,37.57555],[-122.27539,37.57929],[-122.30591,37.59199],[-122.31808,37.59712],[-122.35711,37.61346]],"type":"LineString"}
}
