{
  "id": 1981766163,
  "type": "Feature",
  "properties": {
    "geom:area": 0,
    "geom:bbox": "-122.440420,36.737030,-121.396670,37.714670",
    "geom:latitude": 37.22110641076201,
    "geom:longitude": -122.0070530227524,
    "src:alt_label": "swim-takeoff",
    "src:geom": "swim",
    "swim:elevations": [
      339,
      478,
      635,
      1356,
      1823,
      2182,
      2685,
      3051,
      3253,
      3501,
      3840,
      4109,
      4676,
      4927,
      4994,
      5033,
      5410,
      5610,
      5915,
      6581,
      6666,
      7277,
      7423,
      7770,
      7876,
      7967,
      8074,
      8295,
      8549,
      8669,
      8875
    ],
    "swim:geom": "takeoff",
    "swim:timestamps": [
      1761421464,
      1761421476,
      1761421500,
      1761421557,
      1761421583,
      1761421602,
      1761421640,
      1761421670,
      1761421708,
      1761421729,
      1761421764,
      1761421782,
      1761421828,
      1761421852,
      1761421858,
      1761421861,
      1761421895,
      1761421911,
      1761421929,
      1761421976,
      1761421984,
      1761422035,
      1761422051,
      1761422098,
      1761422111,
      1761422128,
      1761422144,
      1761422172,
      1761422211,
      1761422229,
      1761422258
    ],
    "wof:geomhash": "0cef5a67895b054584f545c55bc158fd",
    "wof:id": 1981766163,
    "wof:repo": "sfomuseum-data-flights-2025-10"
  },
  "bbox": [
    -122.44042,
    36.73703,
    -121.39667,
    37.71467
  ],
  "geometry": {"coordinates":[[-122.36329,37.64069],[-122.36333,37.65012],[-122.36299,37.67132],[-122.40271,37.71467],[-122.43383,37.70109],[-122.44042,37.6779],[-122.42877,37.62876],[-122.41727,37.58795],[-122.40234,37.53186],[-122.39298,37.49771],[-122.35305,37.44406],[-122.31971,37.42074],[-122.23742,37.35974],[-122.19329,37.32676],[-122.18219,37.31865],[-122.17649,37.31449],[-122.11191,37.2672],[-122.08141,37.24492],[-122.04762,37.22028],[-121.95894,37.15557],[-121.94433,37.14477],[-121.84891,37.07449],[-121.81741,37.05108],[-121.72858,36.98498],[-121.70336,36.96565],[-121.66843,36.93967],[-121.63549,36.91488],[-121.57868,36.87358],[-121.49763,36.8128],[-121.45971,36.78463],[-121.39667,36.73703]],"type":"LineString"}
}
