{
  "id": 1981805797,
  "type": "Feature",
  "properties": {
    "geom:area": 0,
    "geom:bbox": "-156.430000,20.900000,-122.280000,37.620000",
    "geom:latitude": 29.83717939180574,
    "geom:longitude": -139.64748713110285,
    "src:alt_label": "swim-route",
    "src:geom": "swim",
    "swim:geom": "route",
    "wof:geomhash": "1a0087b7685a3e46f01b054e22c2dde6",
    "wof:id": 1981805797,
    "wof:repo": "sfomuseum-data-flights-2025-10"
  },
  "bbox": [
    -156.43,
    20.9,
    -122.28,
    37.62
  ],
  "geometry": {"coordinates":[[-156.43,20.9],[-156.36,20.98],[-156.33,21.02],[-156.32,21.03],[-156.3,21.05],[-156.27,21.09],[-156.26,21.11],[-156.16,21.23],[-156.05,21.36],[-155.95,21.48],[-155.83,21.62],[-155.71,21.76],[-155.7,21.77],[-155.57,21.93],[-155.52,21.99],[-155.44,22.09],[-155.41,22.11],[-155.19,22.38],[-154.52,22.88],[-154.49,22.91],[-154.38,22.99],[-153.39,23.76],[-153.37,23.78],[-153.34,23.8],[-147.22,27.24],[-145.54,27.95],[-144.7,28.29],[-143.85,28.64],[-140.38,29.95],[-138.53,30.54],[-137.59,30.83],[-132.83,32.17],[-131.58,32.84],[-130.31,33.5],[-129.67,33.82],[-127.71,34.78],[-125.95,35.6],[-125.95,35.6],[-125.94,35.6],[-125.66,35.75],[-124.94,36.15],[-124.61,36.33],[-124.01,36.66],[-123.66,36.84],[-123.48,36.94],[-122.95,37.21],[-122.95,37.21],[-122.86,37.26],[-122.84,37.26],[-122.84,37.26],[-122.76,37.28],[-122.67,37.3],[-122.66,37.3],[-122.54,37.33],[-122.5,37.34],[-122.3,37.39],[-122.28,37.39],[-122.3,37.43],[-122.31,37.46],[-122.34,37.54],[-122.37,37.6],[-122.37,37.61],[-122.38,37.62]],"type":"LineString"}
}
