{
  "id": 1981804299,
  "type": "Feature",
  "properties": {
    "geom:area": 0,
    "geom:bbox": "-122.301389,37.491944,-93.383333,44.866667",
    "geom:latitude": 40.62146921454737,
    "geom:longitude": -107.68065547878916,
    "src:alt_label": "swim-path",
    "src:geom": "swim",
    "swim:altitudes": [
      "058",
      "058",
      "058",
      "058",
      "058",
      "058",
      "107",
      "107",
      "107",
      "107",
      "107",
      "107",
      "223",
      "223",
      "223",
      "223",
      "223",
      "223",
      "223",
      "223",
      "223",
      "310",
      "310",
      "310",
      "310",
      "320C",
      "320C",
      "320C",
      "320C",
      "320C",
      "320C",
      "320C",
      "320C",
      "320C",
      "320C",
      "320C",
      "320C",
      "320C",
      "320C",
      "320C",
      "320C",
      "320C",
      "320C",
      "320C",
      "320C",
      "320C",
      "320C",
      "320C",
      "320C",
      "320C",
      "320C",
      "320C",
      "320C",
      "320C",
      "320C",
      "320C",
      "320C",
      "320C",
      "320C",
      "320C",
      "320C",
      "320C",
      "320C",
      "320C",
      "320C",
      "320C",
      "320C",
      "320C",
      "320C",
      "320C",
      "320C",
      "320C",
      "320C",
      "320C",
      "320C",
      "320C",
      "320C",
      "320C",
      "320C",
      "320C",
      "320C",
      "320C",
      "320C",
      "320C",
      "320C",
      "320C",
      "320C",
      "320C",
      "320C",
      "320C",
      "320C",
      "320C",
      "320C",
      "320C",
      "320C",
      "320C",
      "320C",
      "320C",
      "320C",
      "320C",
      "320C",
      "320C",
      "320C",
      "320C",
      "320C",
      "320C",
      "320C",
      "320C",
      "320C",
      "320C",
      "320C",
      "320C",
      "320C",
      "320C",
      "320C",
      "320C",
      "320C",
      "320C",
      "320C",
      "320C",
      "320C",
      "320C",
      "320C",
      "320C",
      "320C",
      "320C",
      "320C",
      "320C",
      "320C",
      "320C",
      "320C",
      "320C",
      "320C",
      "320C",
      "320C",
      "320C",
      "320C",
      "320C",
      "320C",
      "320C",
      "320C",
      "320C",
      "320C",
      "320C",
      "320C",
      "320C",
      "320C",
      "320C",
      "320C",
      "320C",
      "320C",
      "320C",
      "320C",
      "320C",
      "320C",
      "320C",
      "320C",
      "320C",
      "320C",
      "320C",
      "320C",
      "320C",
      "320C",
      "320C",
      "320C",
      "320C",
      "320C",
      "320C",
      "320C",
      "320C",
      "320C",
      "320C",
      "320C",
      "320C",
      "320C",
      "320C",
      "320C",
      "320C",
      "320C",
      "320C",
      "320C",
      "320C",
      "320C",
      "320C",
      "320C",
      "320C",
      "320C",
      "320C",
      "320C",
      "320C",
      "320C",
      "320C",
      "320C",
      "320C",
      "320C",
      "320C",
      "320C",
      "320C",
      "320C",
      "320C",
      "320C",
      "320C",
      "320C",
      "320C",
      "320C",
      "320C",
      "320C",
      "320C",
      "320C",
      "320C",
      "320C",
      "320C",
      "320C",
      "320C",
      "320C",
      "320C",
      "320C",
      "320C",
      "320C",
      "320C",
      "320C",
      "320C",
      "320C",
      "320C",
      "320C",
      "320C",
      "320C",
      "320C",
      "320C",
      "320C",
      "320C",
      "320C",
      "320C",
      "320C",
      "320C",
      "320C",
      "320C",
      "320C",
      "320C",
      "320C",
      "320C",
      "320C",
      "320C",
      "320C",
      "320C",
      "320C",
      "320C",
      "320C",
      "320C",
      "320C",
      "320C",
      "320C",
      "320C",
      "320C",
      "320C",
      "320C",
      "320C",
      "320C",
      "320C",
      "320C",
      "320C",
      "320C",
      "320C",
      "320C",
      "320C",
      "320C",
      "320C",
      "320C",
      "320C",
      "320C",
      "320C",
      "320C",
      "320C",
      "320C",
      "320C",
      "320C",
      "320C",
      "320C",
      "320C",
      "320C",
      "320C",
      "320C",
      "320C",
      "320C",
      "320C",
      "320C",
      "320C",
      "320C",
      "320C",
      "320C",
      "320C",
      "320C",
      "320C",
      "320C",
      "320C",
      "320C",
      "320C",
      "320C",
      "320C",
      "320C",
      "320C",
      "320C",
      "320C",
      "320C",
      "320C",
      "320C",
      "320C",
      "320C",
      "320C",
      "320C",
      "320C",
      "320C",
      "320C",
      "320C",
      "320C",
      "320C",
      "320C",
      "320C",
      "320C",
      "320C",
      "320C",
      "320C",
      "320C",
      "320C",
      "320C",
      "320C",
      "320",
      "320",
      "320",
      "320",
      "320",
      "320",
      "320",
      "320",
      "320",
      "320",
      "269",
      "269",
      "245",
      "245",
      "245",
      "245",
      "218",
      "218",
      "218",
      "218",
      "218",
      "205",
      "205",
      "205",
      "159",
      "159",
      "149",
      "149",
      "149",
      "149",
      "141",
      "141",
      "102",
      "102",
      "102",
      "102",
      "069C",
      "069C",
      "069C",
      "069C",
      "069C",
      "054",
      "054",
      "054",
      "044",
      "038",
      "038",
      "038",
      "038",
      "028",
      "028",
      "028",
      "023",
      "023",
      "010",
      "010",
      "010",
      "010",
      "010",
      "010"
    ],
    "swim:geom": "path",
    "swim:speeds": [
      249,
      249,
      249,
      249,
      249,
      249,
      288,
      288,
      288,
      288,
      288,
      288,
      412,
      412,
      412,
      412,
      412,
      412,
      412,
      412,
      412,
      435,
      435,
      435,
      435,
      435,
      435,
      434,
      434,
      434,
      434,
      431,
      428,
      428,
      428,
      428,
      428,
      424,
      424,
      424,
      424,
      424,
      424,
      424,
      415,
      415,
      415,
      415,
      415,
      415,
      415,
      414,
      414,
      414,
      414,
      414,
      414,
      414,
      414,
      414,
      414,
      414,
      414,
      414,
      406,
      406,
      406,
      406,
      406,
      408,
      408,
      408,
      408,
      410,
      410,
      410,
      410,
      410,
      404,
      404,
      404,
      410,
      410,
      410,
      410,
      410,
      410,
      405,
      405,
      405,
      405,
      391,
      391,
      385,
      385,
      385,
      385,
      385,
      382,
      382,
      382,
      382,
      383,
      383,
      383,
      383,
      385,
      385,
      385,
      385,
      391,
      391,
      391,
      391,
      391,
      391,
      393,
      393,
      393,
      393,
      393,
      393,
      393,
      396,
      396,
      396,
      393,
      393,
      393,
      393,
      393,
      393,
      393,
      406,
      406,
      406,
      406,
      406,
      406,
      406,
      406,
      406,
      406,
      406,
      406,
      406,
      406,
      406,
      406,
      407,
      407,
      407,
      407,
      407,
      417,
      417,
      414,
      425,
      425,
      425,
      425,
      425,
      429,
      429,
      429,
      429,
      429,
      429,
      429,
      429,
      429,
      429,
      429,
      429,
      429,
      431,
      431,
      431,
      431,
      431,
      431,
      432,
      432,
      432,
      432,
      432,
      432,
      434,
      434,
      434,
      434,
      436,
      436,
      436,
      436,
      436,
      436,
      436,
      436,
      436,
      436,
      436,
      436,
      436,
      436,
      436,
      436,
      436,
      436,
      436,
      439,
      439,
      439,
      439,
      439,
      439,
      439,
      439,
      440,
      440,
      440,
      440,
      440,
      433,
      433,
      433,
      433,
      433,
      431,
      431,
      431,
      431,
      431,
      431,
      431,
      431,
      431,
      431,
      440,
      440,
      440,
      440,
      440,
      440,
      440,
      440,
      431,
      431,
      431,
      431,
      431,
      431,
      431,
      409,
      409,
      409,
      407,
      407,
      407,
      407,
      401,
      401,
      401,
      401,
      401,
      399,
      399,
      399,
      398,
      398,
      398,
      398,
      398,
      403,
      403,
      400,
      400,
      400,
      400,
      400,
      403,
      403,
      403,
      403,
      403,
      403,
      402,
      402,
      402,
      402,
      402,
      402,
      404,
      404,
      404,
      404,
      405,
      405,
      405,
      405,
      405,
      407,
      407,
      407,
      405,
      405,
      404,
      404,
      404,
      404,
      404,
      404,
      403,
      403,
      403,
      401,
      401,
      401,
      401,
      401,
      401,
      401,
      416,
      416,
      416,
      416,
      413,
      413,
      412,
      412,
      412,
      412,
      412,
      412,
      412,
      412,
      412,
      412,
      401,
      401,
      401,
      401,
      362,
      362,
      362,
      362,
      362,
      327,
      327,
      327,
      320,
      320,
      312,
      312,
      312,
      312,
      315,
      315,
      240,
      240,
      240,
      240,
      235,
      235,
      235,
      235,
      235,
      229,
      229,
      229,
      230,
      229,
      229,
      229,
      229,
      197,
      197,
      197,
      187,
      187,
      155,
      155,
      155,
      155,
      155,
      155
    ],
    "swim:timestamps": [
      1761833429,
      1761833429,
      1761833429,
      1761833429,
      1761833429,
      1761833429,
      1761833558,
      1761833558,
      1761833558,
      1761833558,
      1761833558,
      1761833558,
      1761833918,
      1761833918,
      1761833918,
      1761833918,
      1761833918,
      1761833918,
      1761833918,
      1761833918,
      1761833918,
      1761834279,
      1761834279,
      1761834279,
      1761834279,
      1761834339,
      1761834339,
      1761834399,
      1761834399,
      1761834399,
      1761834399,
      1761834459,
      1761834519,
      1761834519,
      1761834519,
      1761834519,
      1761834519,
      1761834579,
      1761834579,
      1761834579,
      1761834579,
      1761834579,
      1761834579,
      1761834579,
      1761834759,
      1761834759,
      1761834759,
      1761834759,
      1761834819,
      1761834819,
      1761834819,
      1761835000,
      1761835000,
      1761835000,
      1761835000,
      1761835000,
      1761835000,
      1761835060,
      1761835060,
      1761835060,
      1761835060,
      1761835120,
      1761835120,
      1761835120,
      1761835600,
      1761835600,
      1761835600,
      1761835600,
      1761835600,
      1761835684,
      1761835684,
      1761835684,
      1761835684,
      1761835744,
      1761835744,
      1761835744,
      1761835744,
      1761835744,
      1761836045,
      1761836045,
      1761836045,
      1761836091,
      1761836091,
      1761836091,
      1761836091,
      1761836091,
      1761836091,
      1761836151,
      1761836151,
      1761836151,
      1761836151,
      1761836261,
      1761836261,
      1761836512,
      1761836512,
      1761836512,
      1761836512,
      1761836512,
      1761836585,
      1761836585,
      1761836622,
      1761836622,
      1761836706,
      1761836706,
      1761836706,
      1761836706,
      1761836766,
      1761836766,
      1761836766,
      1761836766,
      1761836992,
      1761836992,
      1761837052,
      1761837052,
      1761837052,
      1761837052,
      1761837126,
      1761837126,
      1761837126,
      1761837233,
      1761837233,
      1761837233,
      1761837233,
      1761837246,
      1761837246,
      1761837246,
      1761837353,
      1761837353,
      1761837353,
      1761837353,
      1761837353,
      1761837353,
      1761837353,
      1761837774,
      1761837774,
      1761837774,
      1761837774,
      1761837774,
      1761837894,
      1761837894,
      1761837894,
      1761837894,
      1761837894,
      1761837954,
      1761837954,
      1761837954,
      1761837954,
      1761837954,
      1761838014,
      1761838194,
      1761838194,
      1761838194,
      1761838194,
      1761838194,
      1761838268,
      1761838268,
      1761838314,
      1761838388,
      1761838388,
      1761838388,
      1761838388,
      1761838388,
      1761838555,
      1761838555,
      1761838555,
      1761838555,
      1761838555,
      1761838735,
      1761838735,
      1761838735,
      1761838735,
      1761838735,
      1761838735,
      1761838735,
      1761838735,
      1761838988,
      1761838988,
      1761838988,
      1761838988,
      1761838988,
      1761838988,
      1761839049,
      1761839049,
      1761839049,
      1761839049,
      1761839049,
      1761839049,
      1761839276,
      1761839276,
      1761839276,
      1761839276,
      1761839529,
      1761839529,
      1761839529,
      1761839529,
      1761839589,
      1761839589,
      1761839589,
      1761839589,
      1761839637,
      1761839649,
      1761839649,
      1761839649,
      1761839649,
      1761839649,
      1761839649,
      1761839697,
      1761839697,
      1761839697,
      1761839697,
      1761840190,
      1761840190,
      1761840190,
      1761840190,
      1761840190,
      1761840190,
      1761840190,
      1761840190,
      1761840238,
      1761840238,
      1761840238,
      1761840238,
      1761840238,
      1761840671,
      1761840671,
      1761840671,
      1761840671,
      1761840671,
      1761841019,
      1761841019,
      1761841019,
      1761841019,
      1761841019,
      1761841019,
      1761841019,
      1761841019,
      1761841019,
      1761841019,
      1761841319,
      1761841319,
      1761841319,
      1761841319,
      1761841319,
      1761841319,
      1761841319,
      1761841319,
      1761841800,
      1761841800,
      1761841800,
      1761841800,
      1761841800,
      1761841800,
      1761841800,
      1761842101,
      1761842101,
      1761842101,
      1761842161,
      1761842161,
      1761842161,
      1761842161,
      1761842341,
      1761842341,
      1761842341,
      1761842341,
      1761842341,
      1761842401,
      1761842401,
      1761842401,
      1761842521,
      1761842521,
      1761842521,
      1761842521,
      1761842521,
      1761842609,
      1761842609,
      1761842702,
      1761842702,
      1761842702,
      1761842702,
      1761842702,
      1761842882,
      1761842882,
      1761842882,
      1761842882,
      1761842882,
      1761842882,
      1761843182,
      1761843182,
      1761843182,
      1761843182,
      1761843182,
      1761843182,
      1761843303,
      1761843303,
      1761843303,
      1761843303,
      1761843390,
      1761843390,
      1761843390,
      1761843390,
      1761843390,
      1761843450,
      1761843450,
      1761843450,
      1761843723,
      1761843723,
      1761843810,
      1761843810,
      1761843810,
      1761843810,
      1761843810,
      1761843810,
      1761843904,
      1761843904,
      1761843904,
      1761844024,
      1761844024,
      1761844024,
      1761844024,
      1761844024,
      1761844024,
      1761844024,
      1761844351,
      1761844351,
      1761844351,
      1761844351,
      1761844591,
      1761844591,
      1761844711,
      1761844711,
      1761844711,
      1761844711,
      1761844711,
      1761844711,
      1761844711,
      1761844711,
      1761844952,
      1761844952,
      1761845012,
      1761845012,
      1761845012,
      1761845012,
      1761845104,
      1761845104,
      1761845104,
      1761845104,
      1761845104,
      1761845164,
      1761845164,
      1761845164,
      1761845312,
      1761845312,
      1761845344,
      1761845344,
      1761845344,
      1761845344,
      1761845372,
      1761845372,
      1761845584,
      1761845584,
      1761845584,
      1761845584,
      1761845733,
      1761845733,
      1761845733,
      1761845733,
      1761845733,
      1761845853,
      1761845853,
      1761845853,
      1761845883,
      1761845913,
      1761845913,
      1761845913,
      1761845913,
      1761845973,
      1761845973,
      1761845973,
      1761846004,
      1761846004,
      1761846093,
      1761846093,
      1761846093,
      1761846093,
      1761846093,
      1761846093
    ],
    "wof:geomhash": "3763f6079d90ba84de49f695bc196b34",
    "wof:id": 1981804299,
    "wof:repo": "sfomuseum-data-flights-2025-10"
  },
  "bbox": [
    -122.30138888888888,
    37.49194444444444,
    -93.38333333333334,
    44.86666666666667
  ],
  "geometry": {"coordinates":[[-93.38333333333334,44.86666666666667],[-93.38333333333334,44.86666666666667],[-93.38333333333334,44.86666666666667],[-93.38333333333334,44.86666666666667],[-93.38333333333334,44.86666666666667],[-93.38333333333334,44.86666666666667],[-93.54305555555555,44.76722222222222],[-93.54305555555555,44.76722222222222],[-93.54305555555555,44.76722222222222],[-93.54305555555555,44.76722222222222],[-93.54305555555555,44.76722222222222],[-93.54305555555555,44.76722222222222],[-94.23777777777778,44.375],[-94.23777777777778,44.375],[-94.23777777777778,44.375],[-94.23777777777778,44.375],[-94.23777777777778,44.375],[-94.23777777777778,44.375],[-94.23777777777778,44.375],[-94.23777777777778,44.375],[-94.23777777777778,44.375],[-95.05666666666666,43.93805555555555],[-95.05666666666666,43.93805555555555],[-95.05666666666666,43.93805555555555],[-95.05666666666666,43.93805555555555],[-95.19194444444445,43.86805555555556],[-95.19194444444445,43.86805555555556],[-95.32833333333333,43.79694444444444],[-95.32833333333333,43.79694444444444],[-95.32833333333333,43.79694444444444],[-95.32833333333333,43.79694444444444],[-95.46027777777778,43.727222222222224],[-95.59305555555555,43.656666666666666],[-95.59305555555555,43.656666666666666],[-95.59305555555555,43.656666666666666],[-95.59305555555555,43.656666666666666],[-95.59305555555555,43.656666666666666],[-95.7238888888889,43.58694444444445],[-95.7238888888889,43.58694444444445],[-95.7238888888889,43.58694444444445],[-95.7238888888889,43.58694444444445],[-95.7238888888889,43.58694444444445],[-95.7238888888889,43.58694444444445],[-95.7238888888889,43.58694444444445],[-96.1086111111111,43.380833333333335],[-96.1086111111111,43.380833333333335],[-96.1086111111111,43.380833333333335],[-96.1086111111111,43.380833333333335],[-96.23583333333333,43.31194444444444],[-96.23583333333333,43.31194444444444],[-96.23583333333333,43.31194444444444],[-96.6613888888889,43.164722222222224],[-96.6613888888889,43.164722222222224],[-96.6613888888889,43.164722222222224],[-96.6613888888889,43.164722222222224],[-96.6613888888889,43.164722222222224],[-96.6613888888889,43.164722222222224],[-96.80638888888889,43.117222222222225],[-96.80638888888889,43.117222222222225],[-96.80638888888889,43.117222222222225],[-96.80638888888889,43.117222222222225],[-96.94972222222222,43.07527777777778],[-96.94972222222222,43.07527777777778],[-96.94972222222222,43.07527777777778],[-98.10666666666665,42.76444444444444],[-98.10666666666665,42.76444444444444],[-98.10666666666665,42.76444444444444],[-98.10666666666665,42.76444444444444],[-98.10666666666665,42.76444444444444],[-98.2936111111111,42.71277777777778],[-98.2936111111111,42.71277777777778],[-98.2936111111111,42.71277777777778],[-98.2936111111111,42.71277777777778],[-98.44,42.67222222222222],[-98.44,42.67222222222222],[-98.44,42.67222222222222],[-98.44,42.67222222222222],[-98.44,42.67222222222222],[-99.17027777777778,42.506388888888885],[-99.17027777777778,42.506388888888885],[-99.17027777777778,42.506388888888885],[-99.28305555555555,42.48277777777778],[-99.28305555555555,42.48277777777778],[-99.28305555555555,42.48277777777778],[-99.28305555555555,42.48277777777778],[-99.28305555555555,42.48277777777778],[-99.28305555555555,42.48277777777778],[-99.42611111111111,42.45388888888889],[-99.42611111111111,42.45388888888889],[-99.42611111111111,42.45388888888889],[-99.42611111111111,42.45388888888889],[-99.67833333333334,42.402499999999996],[-99.67833333333334,42.402499999999996],[-100.27472222222222,42.27583333333333],[-100.27472222222222,42.27583333333333],[-100.27472222222222,42.27583333333333],[-100.27472222222222,42.27583333333333],[-100.27472222222222,42.27583333333333],[-100.42694444444444,42.244166666666665],[-100.42694444444444,42.244166666666665],[-100.53277777777778,42.22138888888889],[-100.53277777777778,42.22138888888889],[-100.7286111111111,42.17861111111111],[-100.7286111111111,42.17861111111111],[-100.7286111111111,42.17861111111111],[-100.7286111111111,42.17861111111111],[-100.83972222222222,42.154444444444444],[-100.83972222222222,42.154444444444444],[-100.83972222222222,42.154444444444444],[-100.83972222222222,42.154444444444444],[-101.38277777777778,42.032222222222224],[-101.38277777777778,42.032222222222224],[-101.52222222222223,41.999722222222225],[-101.52222222222223,41.999722222222225],[-101.52222222222223,41.999722222222225],[-101.52222222222223,41.999722222222225],[-101.69194444444445,41.96361111111111],[-101.69194444444445,41.96361111111111],[-101.69194444444445,41.96361111111111],[-101.94416666666667,41.9075],[-101.94416666666667,41.9075],[-101.94416666666667,41.9075],[-101.94416666666667,41.9075],[-101.97472222222223,41.89888888888889],[-101.97472222222223,41.89888888888889],[-101.97472222222223,41.89888888888889],[-102.22666666666667,41.84055555555556],[-102.22666666666667,41.84055555555556],[-102.22666666666667,41.84055555555556],[-102.22666666666667,41.84055555555556],[-102.22666666666667,41.84055555555556],[-102.22666666666667,41.84055555555556],[-102.22666666666667,41.84055555555556],[-103.22472222222223,41.60111111111111],[-103.22472222222223,41.60111111111111],[-103.22472222222223,41.60111111111111],[-103.22472222222223,41.60111111111111],[-103.22472222222223,41.60111111111111],[-103.51027777777777,41.53055555555555],[-103.51027777777777,41.53055555555555],[-103.51027777777777,41.53055555555555],[-103.51027777777777,41.53055555555555],[-103.51027777777777,41.53055555555555],[-103.65222222222222,41.49583333333334],[-103.65222222222222,41.49583333333334],[-103.65222222222222,41.49583333333334],[-103.65222222222222,41.49583333333334],[-103.65222222222222,41.49583333333334],[-103.79416666666667,41.46],[-104.22777777777777,41.350833333333334],[-104.22777777777777,41.350833333333334],[-104.22777777777777,41.350833333333334],[-104.22777777777777,41.350833333333334],[-104.22777777777777,41.350833333333334],[-104.40444444444445,41.30611111111111],[-104.40444444444445,41.30611111111111],[-104.52166666666666,41.27583333333333],[-104.70277777777778,41.22916666666667],[-104.70277777777778,41.22916666666667],[-104.70277777777778,41.22916666666667],[-104.70277777777778,41.22916666666667],[-104.70277777777778,41.22916666666667],[-105.12833333333333,41.14944444444444],[-105.12833333333333,41.14944444444444],[-105.12833333333333,41.14944444444444],[-105.12833333333333,41.14944444444444],[-105.12833333333333,41.14944444444444],[-105.58972222222222,41.06666666666667],[-105.58972222222222,41.06666666666667],[-105.58972222222222,41.06666666666667],[-105.58972222222222,41.06666666666667],[-105.58972222222222,41.06666666666667],[-105.58972222222222,41.06666666666667],[-105.58972222222222,41.06666666666667],[-105.58972222222222,41.06666666666667],[-106.23722222222223,40.948611111111106],[-106.23722222222223,40.948611111111106],[-106.23722222222223,40.948611111111106],[-106.23722222222223,40.948611111111106],[-106.23722222222223,40.948611111111106],[-106.23722222222223,40.948611111111106],[-106.39,40.919999999999995],[-106.39,40.919999999999995],[-106.39,40.919999999999995],[-106.39,40.919999999999995],[-106.39,40.919999999999995],[-106.39,40.919999999999995],[-106.97833333333334,40.80638888888888],[-106.97833333333334,40.80638888888888],[-106.97833333333334,40.80638888888888],[-106.97833333333334,40.80638888888888],[-107.63388888888889,40.67833333333333],[-107.63388888888889,40.67833333333333],[-107.63388888888889,40.67833333333333],[-107.63388888888889,40.67833333333333],[-107.79222222222222,40.64666666666667],[-107.79222222222222,40.64666666666667],[-107.79222222222222,40.64666666666667],[-107.79222222222222,40.64666666666667],[-107.90583333333333,40.62388888888889],[-107.94916666666667,40.615],[-107.94916666666667,40.615],[-107.94916666666667,40.615],[-107.94916666666667,40.615],[-107.94916666666667,40.615],[-107.94916666666667,40.615],[-108.05972222222222,40.5925],[-108.05972222222222,40.5925],[-108.05972222222222,40.5925],[-108.05972222222222,40.5925],[-109.31472222222222,40.32833333333333],[-109.31472222222222,40.32833333333333],[-109.31472222222222,40.32833333333333],[-109.31472222222222,40.32833333333333],[-109.31472222222222,40.32833333333333],[-109.31472222222222,40.32833333333333],[-109.31472222222222,40.32833333333333],[-109.31472222222222,40.32833333333333],[-109.43777777777778,40.30166666666666],[-109.43777777777778,40.30166666666666],[-109.43777777777778,40.30166666666666],[-109.43777777777778,40.30166666666666],[-109.43777777777778,40.30166666666666],[-110.5375,40.00805555555556],[-110.5375,40.00805555555556],[-110.5375,40.00805555555556],[-110.5375,40.00805555555556],[-110.5375,40.00805555555556],[-111.34916666666666,39.72277777777778],[-111.34916666666666,39.72277777777778],[-111.34916666666666,39.72277777777778],[-111.34916666666666,39.72277777777778],[-111.34916666666666,39.72277777777778],[-111.34916666666666,39.72277777777778],[-111.34916666666666,39.72277777777778],[-111.34916666666666,39.72277777777778],[-111.34916666666666,39.72277777777778],[-111.34916666666666,39.72277777777778],[-112.06166666666667,39.46555555555556],[-112.06166666666667,39.46555555555556],[-112.06166666666667,39.46555555555556],[-112.06166666666667,39.46555555555556],[-112.06166666666667,39.46555555555556],[-112.06166666666667,39.46555555555556],[-112.06166666666667,39.46555555555556],[-112.06166666666667,39.46555555555556],[-113.24722222222222,39.13638888888889],[-113.24722222222222,39.13638888888889],[-113.24722222222222,39.13638888888889],[-113.24722222222222,39.13638888888889],[-113.24722222222222,39.13638888888889],[-113.24722222222222,39.13638888888889],[-113.24722222222222,39.13638888888889],[-113.94833333333334,38.974444444444444],[-113.94833333333334,38.974444444444444],[-113.94833333333334,38.974444444444444],[-114.06277777777777,38.94777777777777],[-114.06277777777777,38.94777777777777],[-114.06277777777777,38.94777777777777],[-114.06277777777777,38.94777777777777],[-114.49694444444445,38.844166666666666],[-114.49694444444445,38.844166666666666],[-114.49694444444445,38.844166666666666],[-114.49694444444445,38.844166666666666],[-114.49694444444445,38.844166666666666],[-114.63138888888888,38.81194444444444],[-114.63138888888888,38.81194444444444],[-114.63138888888888,38.81194444444444],[-114.90166666666667,38.74638888888889],[-114.90166666666667,38.74638888888889],[-114.90166666666667,38.74638888888889],[-114.90166666666667,38.74638888888889],[-114.90166666666667,38.74638888888889],[-115.08999999999999,38.70138888888889],[-115.08999999999999,38.70138888888889],[-115.30833333333334,38.64611111111111],[-115.30833333333334,38.64611111111111],[-115.30833333333334,38.64611111111111],[-115.30833333333334,38.64611111111111],[-115.30833333333334,38.64611111111111],[-115.71888888888888,38.54333333333333],[-115.71888888888888,38.54333333333333],[-115.71888888888888,38.54333333333333],[-115.71888888888888,38.54333333333333],[-115.71888888888888,38.54333333333333],[-115.71888888888888,38.54333333333333],[-116.39666666666668,38.36972222222222],[-116.39666666666668,38.36972222222222],[-116.39666666666668,38.36972222222222],[-116.39666666666668,38.36972222222222],[-116.39666666666668,38.36972222222222],[-116.39666666666668,38.36972222222222],[-116.66944444444445,38.29861111111111],[-116.66944444444445,38.29861111111111],[-116.66944444444445,38.29861111111111],[-116.66944444444445,38.29861111111111],[-116.8625,38.2475],[-116.8625,38.2475],[-116.8625,38.2475],[-116.8625,38.2475],[-116.8625,38.2475],[-116.99888888888889,38.21138888888889],[-116.99888888888889,38.21138888888889],[-116.99888888888889,38.21138888888889],[-117.62888888888888,38.11277777777778],[-117.62888888888888,38.11277777777778],[-117.82694444444444,38.08583333333333],[-117.82694444444444,38.08583333333333],[-117.82694444444444,38.08583333333333],[-117.82694444444444,38.08583333333333],[-117.82694444444444,38.08583333333333],[-117.82694444444444,38.08583333333333],[-118.04777777777778,38.055],[-118.04777777777778,38.055],[-118.04777777777778,38.055],[-118.32583333333334,38.01555555555556],[-118.32583333333334,38.01555555555556],[-118.32583333333334,38.01555555555556],[-118.32583333333334,38.01555555555556],[-118.32583333333334,38.01555555555556],[-118.32583333333334,38.01555555555556],[-118.32583333333334,38.01555555555556],[-119.10277777777777,37.901944444444446],[-119.10277777777777,37.901944444444446],[-119.10277777777777,37.901944444444446],[-119.10277777777777,37.901944444444446],[-119.69111111111111,37.81222222222222],[-119.69111111111111,37.81222222222222],[-119.97583333333334,37.7675],[-119.97583333333334,37.7675],[-119.97583333333334,37.7675],[-119.97583333333334,37.7675],[-119.97583333333334,37.7675],[-119.97583333333334,37.7675],[-119.97583333333334,37.7675],[-119.97583333333334,37.7675],[-120.54444444444444,37.683055555555555],[-120.54444444444444,37.683055555555555],[-120.68472222222222,37.66638888888889],[-120.68472222222222,37.66638888888889],[-120.68472222222222,37.66638888888889],[-120.68472222222222,37.66638888888889],[-120.88333333333334,37.65],[-120.88333333333334,37.65],[-120.88333333333334,37.65],[-120.88333333333334,37.65],[-120.88333333333334,37.65],[-121,37.63333333333333],[-121,37.63333333333333],[-121,37.63333333333333],[-121.26861111111111,37.591944444444444],[-121.26861111111111,37.591944444444444],[-121.33333333333333,37.583333333333336],[-121.33333333333333,37.583333333333336],[-121.33333333333333,37.583333333333336],[-121.33333333333333,37.583333333333336],[-121.3761111111111,37.57972222222222],[-121.3761111111111,37.57972222222222],[-121.7,37.53333333333333],[-121.7,37.53333333333333],[-121.7,37.53333333333333],[-121.7,37.53333333333333],[-121.89833333333334,37.49194444444444],[-121.89833333333334,37.49194444444444],[-121.89833333333334,37.49194444444444],[-121.89833333333334,37.49194444444444],[-121.89833333333334,37.49194444444444],[-122.05694444444444,37.50111111111111],[-122.05694444444444,37.50111111111111],[-122.05694444444444,37.50111111111111],[-122.1,37.5],[-122.13305555555554,37.51916666666666],[-122.13305555555554,37.51916666666666],[-122.13305555555554,37.51916666666666],[-122.13305555555554,37.51916666666666],[-122.19527777777778,37.54555555555555],[-122.19527777777778,37.54555555555555],[-122.19527777777778,37.54555555555555],[-122.23333333333333,37.56666666666667],[-122.23333333333333,37.56666666666667],[-122.30138888888888,37.59],[-122.30138888888888,37.59],[-122.30138888888888,37.59],[-122.30138888888888,37.59],[-122.30138888888888,37.59],[-122.30138888888888,37.59]],"type":"LineString"}
}
