{
  "id": 1981769685,
  "type": "Feature",
  "properties": {
    "geom:area": 0,
    "geom:bbox": "-122.834750,37.422140,-122.070290,38.513170",
    "geom:latitude": 37.813745196019795,
    "geom:longitude": -122.4810934457672,
    "src:alt_label": "swim-approach",
    "src:geom": "swim",
    "swim:elevations": [
      7498,
      7075,
      6760,
      6661,
      6242,
      5921,
      5669,
      5333,
      5149,
      4865,
      4603,
      4544,
      4189,
      4143,
      3920,
      3672,
      3490,
      3352,
      3353,
      3353,
      3282,
      3095,
      2958,
      2762,
      2620,
      2533,
      2387,
      2225,
      2056,
      1816,
      1661,
      1421,
      1219,
      1158,
      912,
      771,
      599,
      568,
      381,
      204,
      68,
      43
    ],
    "swim:geom": "approach",
    "swim:timestamps": [
      1761480068,
      1761480111,
      1761480144,
      1761480154,
      1761480197,
      1761480232,
      1761480258,
      1761480297,
      1761480315,
      1761480347,
      1761480380,
      1761480396,
      1761480447,
      1761480453,
      1761480481,
      1761480515,
      1761480542,
      1761480585,
      1761480604,
      1761480655,
      1761480676,
      1761480710,
      1761480736,
      1761480775,
      1761480800,
      1761480819,
      1761480853,
      1761480885,
      1761480909,
      1761480945,
      1761480969,
      1761481008,
      1761481044,
      1761481056,
      1761481097,
      1761481127,
      1761481160,
      1761481170,
      1761481212,
      1761481252,
      1761481285,
      1761481293
    ],
    "wof:geomhash": "9ff3da1f284b5092136ba19467de43bd",
    "wof:id": 1981769685,
    "wof:repo": "sfomuseum-data-flights-2025-10"
  },
  "bbox": [
    -122.83475,
    37.42214,
    -122.07029,
    38.51317
  ],
  "geometry": {"coordinates":[[-122.83475,38.51317],[-122.81548,38.4303],[-122.80145,38.3698],[-122.79692,38.35091],[-122.77846,38.27227],[-122.76351,38.21003],[-122.75004,38.16357],[-122.72995,38.09525],[-122.72103,38.06457],[-122.70487,38.0089],[-122.68825,37.95148],[-122.68035,37.92508],[-122.62311,37.85202],[-122.61487,37.84419],[-122.57594,37.80766],[-122.53055,37.76508],[-122.49523,37.73132],[-122.44306,37.68216],[-122.42118,37.66187],[-122.3657,37.60921],[-122.34962,37.5864],[-122.33241,37.54877],[-122.31623,37.52257],[-122.29079,37.48123],[-122.27442,37.455],[-122.2529,37.43991],[-122.20305,37.43026],[-122.15552,37.42214],[-122.11992,37.42525],[-122.08731,37.45693],[-122.07029,37.48143],[-122.08738,37.51219],[-122.12639,37.52125],[-122.13851,37.52473],[-122.17901,37.53586],[-122.20762,37.54847],[-122.23955,37.56182],[-122.24867,37.56571],[-122.28566,37.58108],[-122.31915,37.59519],[-122.34581,37.60665],[-122.35317,37.60957]],"type":"LineString"}
}
