{
  "id": 1981767821,
  "type": "Feature",
  "properties": {
    "geom:area": 0,
    "geom:bbox": "-122.525530,37.626920,-122.290630,38.504980",
    "geom:latitude": 38.01936363475881,
    "geom:longitude": -122.39014704870546,
    "src:alt_label": "swim-takeoff",
    "src:geom": "swim",
    "swim:elevations": [
      183,
      562,
      919,
      1179,
      1468,
      1938,
      2220,
      2768,
      2990,
      3108,
      3269,
      3895,
      4294,
      4425,
      4844,
      5207,
      5389,
      5621,
      5825,
      6164,
      6430,
      6542,
      6914,
      7052,
      7302
    ],
    "swim:geom": "takeoff",
    "swim:timestamps": [
      1761395741,
      1761395767,
      1761395798,
      1761395832,
      1761395854,
      1761395883,
      1761395903,
      1761395936,
      1761395955,
      1761395981,
      1761396000,
      1761396053,
      1761396086,
      1761396095,
      1761396131,
      1761396161,
      1761396178,
      1761396196,
      1761396212,
      1761396238,
      1761396263,
      1761396274,
      1761396320,
      1761396343,
      1761396388
    ],
    "wof:geomhash": "6cb9c61a3d666cfa6ee711abce6bc597",
    "wof:id": 1981767821,
    "wof:repo": "sfomuseum-data-flights-2025-10"
  },
  "bbox": [
    -122.52553,
    37.62692,
    -122.29063,
    38.50498
  ],
  "geometry": {"coordinates":[[-122.38886,37.62692],[-122.41176,37.63682],[-122.43949,37.64753],[-122.47646,37.66317],[-122.50406,37.6759],[-122.52355,37.70648],[-122.52482,37.73193],[-122.52553,37.77713],[-122.51176,37.80196],[-122.47157,37.82428],[-122.43927,37.84069],[-122.38482,37.9151],[-122.36695,37.96919],[-122.3651,37.98383],[-122.35661,38.04438],[-122.34935,38.09626],[-122.3451,38.12561],[-122.34082,38.1559],[-122.33662,38.18522],[-122.33025,38.23011],[-122.32432,38.27263],[-122.32149,38.29306],[-122.30967,38.376],[-122.30333,38.41968],[-122.29063,38.50498]],"type":"LineString"}
}
