{
  "id": 1981632063,
  "type": "Feature",
  "properties": {
    "geom:area": 0,
    "geom:bbox": "-122.357870,37.491910,-121.244140,37.613790",
    "geom:latitude": 37.5471661005108,
    "geom:longitude": -121.8059153144206,
    "src:alt_label": "swim-approach",
    "src:geom": "swim",
    "swim:elevations": [
      4754,
      4436,
      4387,
      4032,
      3586,
      3320,
      3262,
      3194,
      3015,
      2976,
      2627,
      2396,
      2293,
      2078,
      1951,
      1857,
      1711,
      1596,
      1321,
      1251,
      1216,
      964,
      818,
      726,
      540,
      428,
      334,
      274,
      143,
      18
    ],
    "swim:geom": "approach",
    "swim:timestamps": [
      1760098974,
      1760099004,
      1760099011,
      1760099047,
      1760099094,
      1760099128,
      1760099146,
      1760099182,
      1760099216,
      1760099221,
      1760099274,
      1760099333,
      1760099347,
      1760099398,
      1760099424,
      1760099446,
      1760099474,
      1760099494,
      1760099544,
      1760099558,
      1760099564,
      1760099608,
      1760099637,
      1760099656,
      1760099695,
      1760099721,
      1760099747,
      1760099760,
      1760099797,
      1760099825
    ],
    "wof:geomhash": "06775f46dfe0f6af9774b0d720ac11de",
    "wof:id": 1981632063,
    "wof:repo": "sfomuseum-data-flights-2025-10"
  },
  "bbox": [
    -122.35787,
    37.49191,
    -121.24414,
    37.61379
  ],
  "geometry": {"coordinates":[[-121.24414,37.59544],[-121.29979,37.5883],[-121.31178,37.58704],[-121.37992,37.57937],[-121.46523,37.56955],[-121.52058,37.56315],[-121.54803,37.55997],[-121.60284,37.55347],[-121.65277,37.54427],[-121.66064,37.54232],[-121.73974,37.52346],[-121.82012,37.50421],[-121.83953,37.4996],[-121.90944,37.49191],[-121.94644,37.49287],[-121.97519,37.49379],[-122.01038,37.50201],[-122.03446,37.50977],[-122.09345,37.52895],[-122.10971,37.53422],[-122.11685,37.53654],[-122.16601,37.55244],[-122.19665,37.56242],[-122.21522,37.5684],[-122.25361,37.58079],[-122.27667,37.58759],[-122.29677,37.59353],[-122.30771,37.59677],[-122.33675,37.6054],[-122.35787,37.61379]],"type":"LineString"}
}
