{
  "id": 1981784881,
  "type": "Feature",
  "properties": {
    "geom:area": 0,
    "geom:bbox": "-122.283333,37.683333,-87.965556,42.548333",
    "geom:latitude": 41.552374196358734,
    "geom:longitude": -105.41597854055328,
    "src:alt_label": "swim-path",
    "src:geom": "swim",
    "swim:altitudes": [
      "043",
      "043",
      "051",
      "051",
      "068",
      "068",
      "083",
      "083",
      "083",
      "083",
      "083",
      "114",
      "181",
      "181",
      "181",
      "181",
      "181",
      "181",
      "181",
      "181",
      "262",
      "262",
      "262",
      "262",
      "262",
      "275",
      "275",
      "275",
      "300",
      "300",
      "300",
      "300",
      "318",
      "318",
      "318",
      "330C",
      "330C",
      "330C",
      "330C",
      "330C",
      "330C",
      "330C",
      "330C",
      "330C",
      "330C",
      "330C",
      "330C",
      "330C",
      "330C",
      "330C",
      "330C",
      "330C",
      "330C",
      "330C",
      "330C",
      "330C",
      "330C",
      "330C",
      "330C",
      "330C",
      "330C",
      "330C",
      "330C",
      "330C",
      "330C",
      "330C",
      "330C",
      "330C",
      "330C",
      "330C",
      "330C",
      "330C",
      "330C",
      "330C",
      "330C",
      "330C",
      "330C",
      "330C",
      "330C",
      "330C",
      "355",
      "355",
      "355",
      "355",
      "355",
      "362",
      "362",
      "362",
      "362",
      "362",
      "362",
      "370C",
      "370C",
      "370C",
      "370C",
      "370C",
      "370C",
      "370C",
      "370C",
      "370C",
      "370C",
      "370C",
      "370C",
      "370C",
      "370C",
      "370C",
      "370C",
      "370C",
      "370C",
      "370C",
      "370C",
      "370C",
      "370C",
      "370C",
      "370C",
      "370C",
      "370C",
      "370C",
      "370C",
      "370C",
      "370C",
      "370C",
      "370C",
      "370C",
      "370C",
      "370C",
      "370C",
      "370C",
      "370C",
      "370C",
      "370C",
      "370C",
      "370C",
      "370C",
      "370C",
      "370C",
      "370C",
      "370C",
      "370C",
      "370C",
      "371C",
      "371C",
      "371C",
      "371C",
      "370C",
      "370C",
      "370C",
      "370C",
      "370C",
      "370C",
      "370C",
      "370C",
      "370C",
      "370C",
      "370C",
      "370C",
      "370C",
      "370C",
      "370C",
      "370C",
      "370C",
      "370C",
      "370C",
      "370C",
      "370C",
      "370C",
      "370C",
      "370C",
      "370C",
      "370C",
      "370C",
      "370C",
      "370C",
      "370C",
      "370C",
      "370C",
      "370C",
      "370C",
      "370C",
      "370C",
      "370C",
      "370C",
      "370C",
      "370C",
      "370C",
      "370C",
      "370C",
      "370C",
      "370C",
      "370C",
      "370C",
      "370C",
      "370C",
      "370C",
      "370C",
      "370C",
      "370C",
      "370C",
      "370C",
      "370C",
      "370C",
      "370C",
      "370C",
      "370C",
      "370C",
      "370C",
      "370C",
      "370C",
      "370C",
      "370C",
      "370C",
      "370C",
      "370C",
      "370C",
      "370C",
      "370C",
      "370C",
      "370C",
      "370C",
      "370C",
      "370C",
      "370C",
      "370C",
      "370C",
      "370C",
      "370C",
      "370C",
      "370C",
      "370C",
      "370C",
      "370C",
      "370C",
      "370C",
      "370C",
      "370C",
      "370C",
      "370C",
      "370C",
      "370C",
      "370C",
      "370C",
      "370C",
      "370C",
      "370C",
      "370C",
      "370C",
      "370C",
      "370C",
      "370C",
      "370C",
      "370C",
      "370C",
      "370C",
      "370C",
      "370C",
      "370C",
      "370C",
      "370C",
      "370C",
      "370C",
      "370C",
      "370C",
      "370C",
      "370C",
      "370C",
      "370C",
      "370C",
      "370C",
      "370C",
      "370C",
      "370C",
      "370C",
      "370C",
      "370C",
      "370C",
      "370C",
      "370C",
      "370C",
      "370C",
      "370C",
      "370C",
      "370C",
      "370C",
      "370C",
      "370C",
      "370C",
      "370C",
      "370C",
      "370C",
      "370C",
      "370C",
      "370C",
      "370C",
      "370C",
      "370C",
      "370C",
      "370C",
      "370C",
      "370C",
      "370C",
      "370C",
      "370C",
      "370C",
      "370C",
      "370C",
      "370C",
      "370C",
      "371C",
      "371C",
      "371C",
      "371C",
      "371C",
      "371C",
      "370C",
      "370C",
      "370C",
      "370C",
      "370C",
      "370C",
      "370C",
      "370C",
      "370C",
      "370C",
      "371C",
      "371C",
      "371C",
      "370C",
      "370C",
      "370C",
      "370C",
      "370C",
      "370C",
      "370C",
      "371C",
      "371C",
      "371C",
      "371C",
      "370C",
      "370C",
      "370C",
      "370C",
      "370C",
      "370C",
      "370C",
      "370C",
      "370C",
      "370C",
      "370C",
      "370C",
      "370C",
      "370C",
      "370C",
      "370C",
      "370C",
      "370C",
      "370C",
      "370C",
      "370C",
      "370C",
      "370C",
      "370C",
      "370C",
      "370C",
      "370C",
      "370C",
      "370C",
      "370C",
      "370C",
      "370C",
      "370C",
      "370C",
      "370C",
      "370C",
      "370C",
      "370C",
      "370C",
      "370C",
      "370C",
      "370C",
      "370C",
      "371C",
      "371C",
      "371C",
      "371C",
      "371C",
      "371C",
      "371C",
      "370C",
      "370C",
      "370C",
      "370C",
      "370C",
      "370C",
      "370C",
      "370C",
      "370C",
      "370C",
      "370C",
      "370C",
      "370C",
      "370C",
      "370C",
      "370C",
      "371",
      "370",
      "370",
      "370",
      "370",
      "370",
      "370",
      "370",
      "370",
      "370",
      "361",
      "361",
      "361",
      "361",
      "354",
      "354",
      "354",
      "350",
      "273",
      "273",
      "273",
      "273",
      "273",
      "250",
      "250",
      "250",
      "250",
      "250",
      "173",
      "147",
      "147",
      "147",
      "147",
      "147",
      "147",
      "147",
      "147",
      "098",
      "096",
      "096",
      "096",
      "088",
      "088",
      "088",
      "088",
      "076",
      "058",
      "058",
      "058",
      "058",
      "056",
      "056",
      "042",
      "042",
      "042",
      "042",
      "042",
      "039",
      "032",
      "032",
      "023",
      "023",
      "023",
      "012"
    ],
    "swim:geom": "path",
    "swim:speeds": [
      219,
      219,
      260,
      260,
      278,
      278,
      275,
      275,
      275,
      275,
      275,
      361,
      444,
      444,
      444,
      444,
      444,
      444,
      444,
      444,
      506,
      506,
      506,
      506,
      506,
      506,
      506,
      506,
      504,
      504,
      504,
      504,
      506,
      506,
      506,
      504,
      504,
      504,
      503,
      503,
      503,
      503,
      503,
      501,
      501,
      501,
      501,
      501,
      501,
      500,
      500,
      500,
      500,
      500,
      500,
      499,
      499,
      499,
      502,
      502,
      502,
      504,
      505,
      505,
      506,
      506,
      506,
      506,
      506,
      507,
      507,
      507,
      507,
      506,
      506,
      505,
      505,
      505,
      505,
      505,
      520,
      520,
      520,
      520,
      520,
      522,
      522,
      522,
      522,
      522,
      522,
      523,
      523,
      523,
      523,
      523,
      523,
      523,
      523,
      528,
      528,
      528,
      528,
      528,
      529,
      529,
      529,
      529,
      529,
      530,
      530,
      530,
      530,
      530,
      530,
      533,
      533,
      533,
      533,
      533,
      538,
      538,
      538,
      538,
      538,
      538,
      538,
      544,
      544,
      544,
      544,
      544,
      544,
      544,
      544,
      553,
      553,
      553,
      553,
      553,
      556,
      556,
      556,
      556,
      558,
      558,
      558,
      558,
      559,
      559,
      559,
      559,
      559,
      559,
      559,
      550,
      550,
      550,
      550,
      550,
      550,
      550,
      550,
      550,
      544,
      544,
      544,
      544,
      544,
      544,
      538,
      538,
      538,
      541,
      539,
      539,
      540,
      539,
      539,
      539,
      539,
      539,
      539,
      539,
      539,
      539,
      538,
      538,
      536,
      536,
      536,
      536,
      536,
      536,
      535,
      535,
      535,
      535,
      535,
      535,
      535,
      535,
      535,
      535,
      514,
      514,
      514,
      514,
      514,
      514,
      514,
      514,
      514,
      514,
      514,
      514,
      517,
      517,
      517,
      519,
      519,
      520,
      520,
      520,
      520,
      520,
      520,
      520,
      521,
      521,
      521,
      521,
      521,
      521,
      521,
      521,
      521,
      521,
      521,
      521,
      521,
      521,
      521,
      521,
      521,
      520,
      520,
      520,
      520,
      520,
      520,
      520,
      520,
      512,
      512,
      512,
      512,
      512,
      512,
      510,
      510,
      510,
      510,
      510,
      510,
      510,
      510,
      510,
      510,
      510,
      510,
      510,
      510,
      513,
      513,
      513,
      513,
      511,
      511,
      511,
      511,
      511,
      509,
      509,
      509,
      509,
      509,
      509,
      510,
      510,
      508,
      508,
      507,
      507,
      507,
      507,
      507,
      508,
      508,
      508,
      507,
      507,
      507,
      507,
      507,
      507,
      507,
      506,
      506,
      506,
      506,
      506,
      506,
      505,
      505,
      502,
      501,
      501,
      499,
      499,
      499,
      499,
      498,
      498,
      498,
      498,
      480,
      480,
      480,
      481,
      481,
      481,
      481,
      482,
      482,
      482,
      482,
      480,
      480,
      480,
      484,
      484,
      484,
      484,
      484,
      484,
      484,
      484,
      484,
      484,
      481,
      476,
      476,
      476,
      476,
      476,
      476,
      473,
      473,
      473,
      473,
      473,
      469,
      469,
      469,
      469,
      469,
      469,
      469,
      469,
      460,
      460,
      460,
      460,
      462,
      462,
      462,
      462,
      459,
      459,
      458,
      458,
      458,
      458,
      458,
      458,
      458,
      461,
      461,
      461,
      461,
      458,
      458,
      458,
      458,
      458,
      458,
      458,
      458,
      458,
      458,
      459,
      459,
      460,
      460,
      460,
      460,
      460,
      460,
      460,
      460,
      460,
      460,
      449,
      449,
      449,
      449,
      447,
      447,
      447,
      446,
      441,
      441,
      441,
      441,
      441,
      428,
      428,
      428,
      428,
      428,
      378,
      354,
      354,
      354,
      354,
      358,
      358,
      358,
      358,
      279,
      272,
      272,
      272,
      273,
      273,
      273,
      273,
      265,
      262,
      262,
      262,
      262,
      265,
      265,
      255,
      255,
      255,
      255,
      255,
      243,
      186,
      186,
      151,
      151,
      151,
      120
    ],
    "swim:timestamps": [
      1761616423,
      1761616423,
      1761616459,
      1761616459,
      1761616489,
      1761616489,
      1761616519,
      1761616519,
      1761616519,
      1761616519,
      1761616519,
      1761616639,
      1761616879,
      1761616879,
      1761616879,
      1761616879,
      1761616879,
      1761616879,
      1761616879,
      1761616879,
      1761617289,
      1761617289,
      1761617289,
      1761617289,
      1761617289,
      1761617349,
      1761617349,
      1761617349,
      1761617469,
      1761617469,
      1761617469,
      1761617469,
      1761617540,
      1761617540,
      1761617540,
      1761617600,
      1761617600,
      1761617600,
      1761617649,
      1761617649,
      1761617649,
      1761617649,
      1761617649,
      1761617769,
      1761617769,
      1761617769,
      1761617769,
      1761617769,
      1761617769,
      1761618070,
      1761618070,
      1761618070,
      1761618070,
      1761618070,
      1761618070,
      1761618081,
      1761618081,
      1761618081,
      1761618141,
      1761618141,
      1761618141,
      1761618190,
      1761618251,
      1761618251,
      1761618311,
      1761618321,
      1761618321,
      1761618321,
      1761618321,
      1761618368,
      1761618368,
      1761618368,
      1761618368,
      1761618381,
      1761618428,
      1761618488,
      1761618488,
      1761618488,
      1761618488,
      1761618488,
      1761618669,
      1761618669,
      1761618669,
      1761618669,
      1761618669,
      1761618729,
      1761618729,
      1761618729,
      1761618729,
      1761618729,
      1761618729,
      1761618802,
      1761618802,
      1761618862,
      1761618862,
      1761618862,
      1761618862,
      1761618862,
      1761618862,
      1761619090,
      1761619090,
      1761619090,
      1761619090,
      1761619090,
      1761619150,
      1761619150,
      1761619150,
      1761619150,
      1761619150,
      1761619330,
      1761619330,
      1761619330,
      1761619330,
      1761619330,
      1761619330,
      1761619511,
      1761619511,
      1761619511,
      1761619511,
      1761619511,
      1761619571,
      1761619571,
      1761619571,
      1761619571,
      1761619571,
      1761619571,
      1761619571,
      1761619751,
      1761619751,
      1761619751,
      1761619751,
      1761619751,
      1761619751,
      1761619751,
      1761619751,
      1761619931,
      1761619931,
      1761619931,
      1761619931,
      1761619931,
      1761619991,
      1761619991,
      1761619991,
      1761619991,
      1761620051,
      1761620051,
      1761620051,
      1761620051,
      1761620112,
      1761620112,
      1761620112,
      1761620112,
      1761620112,
      1761620112,
      1761620112,
      1761620592,
      1761620592,
      1761620592,
      1761620592,
      1761620592,
      1761620592,
      1761620592,
      1761620592,
      1761620592,
      1761620893,
      1761620893,
      1761620893,
      1761620893,
      1761620893,
      1761620893,
      1761620966,
      1761620966,
      1761620966,
      1761621013,
      1761621026,
      1761621026,
      1761621073,
      1761621086,
      1761621086,
      1761621086,
      1761621086,
      1761621086,
      1761621133,
      1761621133,
      1761621133,
      1761621133,
      1761621146,
      1761621146,
      1761621206,
      1761621206,
      1761621206,
      1761621253,
      1761621253,
      1761621253,
      1761621266,
      1761621266,
      1761621266,
      1761621266,
      1761621266,
      1761621374,
      1761621374,
      1761621374,
      1761621374,
      1761621374,
      1761621687,
      1761621687,
      1761621687,
      1761621687,
      1761621687,
      1761621687,
      1761621687,
      1761621794,
      1761621794,
      1761621794,
      1761621794,
      1761621854,
      1761621914,
      1761621914,
      1761621914,
      1761621927,
      1761621927,
      1761621974,
      1761621974,
      1761621974,
      1761621974,
      1761621974,
      1761621974,
      1761621974,
      1761622034,
      1761622034,
      1761622034,
      1761622034,
      1761622034,
      1761622034,
      1761622348,
      1761622348,
      1761622348,
      1761622348,
      1761622348,
      1761622348,
      1761622408,
      1761622408,
      1761622408,
      1761622408,
      1761622408,
      1761622528,
      1761622528,
      1761622528,
      1761622528,
      1761622528,
      1761622528,
      1761622528,
      1761622528,
      1761622828,
      1761622828,
      1761622828,
      1761622828,
      1761622828,
      1761622828,
      1761622888,
      1761622888,
      1761622888,
      1761622888,
      1761622948,
      1761622948,
      1761622948,
      1761622948,
      1761622948,
      1761623069,
      1761623069,
      1761623069,
      1761623069,
      1761623069,
      1761623341,
      1761623341,
      1761623341,
      1761623341,
      1761623369,
      1761623369,
      1761623369,
      1761623369,
      1761623369,
      1761623429,
      1761623429,
      1761623429,
      1761623429,
      1761623429,
      1761623429,
      1761623461,
      1761623461,
      1761623669,
      1761623669,
      1761623729,
      1761623729,
      1761623729,
      1761623729,
      1761623729,
      1761623761,
      1761623761,
      1761623761,
      1761623789,
      1761623789,
      1761623821,
      1761623821,
      1761623821,
      1761623821,
      1761623821,
      1761623850,
      1761623850,
      1761623850,
      1761623850,
      1761623881,
      1761623881,
      1761623910,
      1761623910,
      1761623970,
      1761624001,
      1761624001,
      1761624061,
      1761624061,
      1761624061,
      1761624090,
      1761624182,
      1761624242,
      1761624242,
      1761624242,
      1761624362,
      1761624362,
      1761624362,
      1761624482,
      1761624482,
      1761624482,
      1761624482,
      1761624542,
      1761624542,
      1761624542,
      1761624542,
      1761624902,
      1761624902,
      1761624902,
      1761624962,
      1761624962,
      1761624962,
      1761624962,
      1761624962,
      1761624962,
      1761625022,
      1761625022,
      1761625022,
      1761625022,
      1761625142,
      1761625322,
      1761625322,
      1761625322,
      1761625322,
      1761625322,
      1761625322,
      1761625443,
      1761625443,
      1761625443,
      1761625443,
      1761625443,
      1761625743,
      1761625743,
      1761625743,
      1761625743,
      1761625743,
      1761625743,
      1761625743,
      1761625743,
      1761626038,
      1761626038,
      1761626038,
      1761626038,
      1761626098,
      1761626158,
      1761626158,
      1761626158,
      1761626218,
      1761626218,
      1761626398,
      1761626398,
      1761626398,
      1761626398,
      1761626398,
      1761626398,
      1761626398,
      1761626578,
      1761626578,
      1761626578,
      1761626578,
      1761626758,
      1761626758,
      1761626758,
      1761626758,
      1761626758,
      1761626818,
      1761626818,
      1761626818,
      1761626878,
      1761626878,
      1761626938,
      1761626938,
      1761626998,
      1761627058,
      1761627058,
      1761627058,
      1761627058,
      1761627118,
      1761627118,
      1761627118,
      1761627118,
      1761627118,
      1761627244,
      1761627244,
      1761627244,
      1761627244,
      1761627298,
      1761627298,
      1761627298,
      1761627304,
      1761627478,
      1761627478,
      1761627478,
      1761627478,
      1761627478,
      1761627538,
      1761627538,
      1761627538,
      1761627538,
      1761627538,
      1761627779,
      1761627830,
      1761627830,
      1761627830,
      1761627830,
      1761627839,
      1761627839,
      1761627839,
      1761627839,
      1761628139,
      1761628149,
      1761628149,
      1761628149,
      1761628197,
      1761628197,
      1761628197,
      1761628197,
      1761628257,
      1761628311,
      1761628311,
      1761628311,
      1761628311,
      1761628319,
      1761628319,
      1761628379,
      1761628379,
      1761628379,
      1761628379,
      1761628379,
      1761628439,
      1761628491,
      1761628491,
      1761628559,
      1761628559,
      1761628559,
      1761628679
    ],
    "wof:geomhash": "340896bf1f88610e794f0b0528d4ccb7",
    "wof:id": 1981784881,
    "wof:repo": "sfomuseum-data-flights-2025-10"
  },
  "bbox": [
    -122.28333333333333,
    37.68333333333333,
    -87.96555555555555,
    42.54833333333333
  ],
  "geometry": {"coordinates":[[-122.28333333333333,37.68333333333333],[-122.28333333333333,37.68333333333333],[-122.2461111111111,37.70166666666667],[-122.2461111111111,37.70166666666667],[-122.2,37.733333333333334],[-122.2,37.733333333333334],[-122.18083333333334,37.75555555555555],[-122.18083333333334,37.75555555555555],[-122.18083333333334,37.75555555555555],[-122.18083333333334,37.75555555555555],[-122.18083333333334,37.75555555555555],[-122.05527777777777,37.894444444444446],[-121.71111111111111,38.270833333333336],[-121.71111111111111,38.270833333333336],[-121.71111111111111,38.270833333333336],[-121.71111111111111,38.270833333333336],[-121.71111111111111,38.270833333333336],[-121.71111111111111,38.270833333333336],[-121.71111111111111,38.270833333333336],[-121.71111111111111,38.270833333333336],[-120.83194444444445,38.88166666666667],[-120.83194444444445,38.88166666666667],[-120.83194444444445,38.88166666666667],[-120.83194444444445,38.88166666666667],[-120.83194444444445,38.88166666666667],[-120.68777777777778,38.96638888888889],[-120.68777777777778,38.96638888888889],[-120.68777777777778,38.96638888888889],[-120.40138888888889,39.132777777777775],[-120.40138888888889,39.132777777777775],[-120.40138888888889,39.132777777777775],[-120.40138888888889,39.132777777777775],[-120.20305555555557,39.217222222222226],[-120.20305555555557,39.217222222222226],[-120.20305555555557,39.217222222222226],[-120.05194444444444,39.283055555555556],[-120.05194444444444,39.283055555555556],[-120.05194444444444,39.283055555555556],[-119.92833333333334,39.33722222222222],[-119.92833333333334,39.33722222222222],[-119.92833333333334,39.33722222222222],[-119.92833333333334,39.33722222222222],[-119.92833333333334,39.33722222222222],[-119.61388888888888,39.473055555555554],[-119.61388888888888,39.473055555555554],[-119.61388888888888,39.473055555555554],[-119.61388888888888,39.473055555555554],[-119.61388888888888,39.473055555555554],[-119.61388888888888,39.473055555555554],[-118.82222222222222,39.80722222222222],[-118.82222222222222,39.80722222222222],[-118.82222222222222,39.80722222222222],[-118.82222222222222,39.80722222222222],[-118.82222222222222,39.80722222222222],[-118.82222222222222,39.80722222222222],[-118.78666666666666,39.82194444444445],[-118.78666666666666,39.82194444444445],[-118.78666666666666,39.82194444444445],[-118.62388888888889,39.88972222222222],[-118.62388888888889,39.88972222222222],[-118.62388888888889,39.88972222222222],[-118.49666666666667,39.94222222222222],[-118.33583333333333,40.00833333333333],[-118.33583333333333,40.00833333333333],[-118.17305555555556,40.075],[-118.13972222222223,40.08888888888889],[-118.13972222222223,40.08888888888889],[-118.13972222222223,40.08888888888889],[-118.13972222222223,40.08888888888889],[-118.02166666666666,40.136944444444445],[-118.02166666666666,40.136944444444445],[-118.02166666666666,40.136944444444445],[-118.02166666666666,40.136944444444445],[-117.97555555555556,40.15555555555555],[-117.86055555555555,40.2025],[-117.69777777777779,40.268055555555556],[-117.69777777777779,40.268055555555556],[-117.69777777777779,40.268055555555556],[-117.69777777777779,40.268055555555556],[-117.69777777777779,40.268055555555556],[-117.17694444444444,40.42805555555555],[-117.17694444444444,40.42805555555555],[-117.17694444444444,40.42805555555555],[-117.17694444444444,40.42805555555555],[-117.17694444444444,40.42805555555555],[-116.99027777777778,40.46472222222223],[-116.99027777777778,40.46472222222223],[-116.99027777777778,40.46472222222223],[-116.99027777777778,40.46472222222223],[-116.99027777777778,40.46472222222223],[-116.99027777777778,40.46472222222223],[-116.75833333333334,40.50944444444445],[-116.75833333333334,40.50944444444445],[-116.56805555555555,40.54611111111111],[-116.56805555555555,40.54611111111111],[-116.56805555555555,40.54611111111111],[-116.56805555555555,40.54611111111111],[-116.56805555555555,40.54611111111111],[-116.56805555555555,40.54611111111111],[-115.89722222222223,40.671388888888885],[-115.89722222222223,40.671388888888885],[-115.89722222222223,40.671388888888885],[-115.89722222222223,40.671388888888885],[-115.89722222222223,40.671388888888885],[-115.67277777777778,40.712500000000006],[-115.67277777777778,40.712500000000006],[-115.67277777777778,40.712500000000006],[-115.67277777777778,40.712500000000006],[-115.67277777777778,40.712500000000006],[-115.10777777777777,40.81361111111111],[-115.10777777777777,40.81361111111111],[-115.10777777777777,40.81361111111111],[-115.10777777777777,40.81361111111111],[-115.10777777777777,40.81361111111111],[-115.10777777777777,40.81361111111111],[-114.53472222222221,40.91305555555555],[-114.53472222222221,40.91305555555555],[-114.53472222222221,40.91305555555555],[-114.53472222222221,40.91305555555555],[-114.53472222222221,40.91305555555555],[-114.37138888888889,40.94083333333333],[-114.37138888888889,40.94083333333333],[-114.37138888888889,40.94083333333333],[-114.37138888888889,40.94083333333333],[-114.37138888888889,40.94083333333333],[-114.37138888888889,40.94083333333333],[-114.37138888888889,40.94083333333333],[-113.78527777777778,41.03861111111111],[-113.78527777777778,41.03861111111111],[-113.78527777777778,41.03861111111111],[-113.78527777777778,41.03861111111111],[-113.78527777777778,41.03861111111111],[-113.78527777777778,41.03861111111111],[-113.78527777777778,41.03861111111111],[-113.78527777777778,41.03861111111111],[-113.19194444444445,41.134166666666665],[-113.19194444444445,41.134166666666665],[-113.19194444444445,41.134166666666665],[-113.19194444444445,41.134166666666665],[-113.19194444444445,41.134166666666665],[-112.99027777777778,41.16583333333333],[-112.99027777777778,41.16583333333333],[-112.99027777777778,41.16583333333333],[-112.99027777777778,41.16583333333333],[-112.78555555555555,41.1975],[-112.78555555555555,41.1975],[-112.78555555555555,41.1975],[-112.78555555555555,41.1975],[-112.58222222222221,41.22888888888889],[-112.58222222222221,41.22888888888889],[-112.58222222222221,41.22888888888889],[-112.58222222222221,41.22888888888889],[-112.58222222222221,41.22888888888889],[-112.58222222222221,41.22888888888889],[-112.58222222222221,41.22888888888889],[-110.97055555555556,41.46222222222222],[-110.97055555555556,41.46222222222222],[-110.97055555555556,41.46222222222222],[-110.97055555555556,41.46222222222222],[-110.97055555555556,41.46222222222222],[-110.97055555555556,41.46222222222222],[-110.97055555555556,41.46222222222222],[-110.97055555555556,41.46222222222222],[-110.97055555555556,41.46222222222222],[-109.9588888888889,41.59666666666667],[-109.9588888888889,41.59666666666667],[-109.9588888888889,41.59666666666667],[-109.9588888888889,41.59666666666667],[-109.9588888888889,41.59666666666667],[-109.9588888888889,41.59666666666667],[-109.71972222222223,41.62694444444445],[-109.71972222222223,41.62694444444445],[-109.71972222222223,41.62694444444445],[-109.56222222222222,41.64666666666667],[-109.52333333333333,41.651666666666664],[-109.52333333333333,41.651666666666664],[-109.36222222222221,41.671388888888885],[-109.32333333333332,41.67611111111111],[-109.32333333333332,41.67611111111111],[-109.32333333333332,41.67611111111111],[-109.32333333333332,41.67611111111111],[-109.32333333333332,41.67611111111111],[-109.16055555555556,41.69583333333333],[-109.16055555555556,41.69583333333333],[-109.16055555555556,41.69583333333333],[-109.16055555555556,41.69583333333333],[-109.12222222222222,41.70055555555556],[-109.12222222222222,41.70055555555556],[-108.9238888888889,41.72416666666667],[-108.9238888888889,41.72416666666667],[-108.9238888888889,41.72416666666667],[-108.80361111111111,41.73861111111111],[-108.80361111111111,41.73861111111111],[-108.80361111111111,41.73861111111111],[-108.72555555555556,41.74777777777778],[-108.72555555555556,41.74777777777778],[-108.72555555555556,41.74777777777778],[-108.72555555555556,41.74777777777778],[-108.72555555555556,41.74777777777778],[-108.41250000000001,41.78388888888889],[-108.41250000000001,41.78388888888889],[-108.41250000000001,41.78388888888889],[-108.41250000000001,41.78388888888889],[-108.41250000000001,41.78388888888889],[-107.39666666666668,41.96555555555556],[-107.39666666666668,41.96555555555556],[-107.39666666666668,41.96555555555556],[-107.39666666666668,41.96555555555556],[-107.39666666666668,41.96555555555556],[-107.39666666666668,41.96555555555556],[-107.39666666666668,41.96555555555556],[-107.09944444444444,42.02444444444444],[-107.09944444444444,42.02444444444444],[-107.09944444444444,42.02444444444444],[-107.09944444444444,42.02444444444444],[-106.91583333333334,42.062777777777775],[-106.72666666666667,42.08916666666667],[-106.72666666666667,42.08916666666667],[-106.72666666666667,42.08916666666667],[-106.65,42.09527777777778],[-106.65,42.09527777777778],[-106.51666666666667,42.10638888888889],[-106.51666666666667,42.10638888888889],[-106.51666666666667,42.10638888888889],[-106.51666666666667,42.10638888888889],[-106.51666666666667,42.10638888888889],[-106.51666666666667,42.10638888888889],[-106.51666666666667,42.10638888888889],[-106.32166666666666,42.121944444444445],[-106.32166666666666,42.121944444444445],[-106.32166666666666,42.121944444444445],[-106.32166666666666,42.121944444444445],[-106.32166666666666,42.121944444444445],[-106.32166666666666,42.121944444444445],[-105.31777777777778,42.197222222222216],[-105.31777777777778,42.197222222222216],[-105.31777777777778,42.197222222222216],[-105.31777777777778,42.197222222222216],[-105.31777777777778,42.197222222222216],[-105.31777777777778,42.197222222222216],[-105.12583333333333,42.21055555555556],[-105.12583333333333,42.21055555555556],[-105.12583333333333,42.21055555555556],[-105.12583333333333,42.21055555555556],[-105.12583333333333,42.21055555555556],[-104.74388888888889,42.236111111111114],[-104.74388888888889,42.236111111111114],[-104.74388888888889,42.236111111111114],[-104.74388888888889,42.236111111111114],[-104.74388888888889,42.236111111111114],[-104.74388888888889,42.236111111111114],[-104.74388888888889,42.236111111111114],[-104.74388888888889,42.236111111111114],[-103.75333333333333,42.296388888888885],[-103.75333333333333,42.296388888888885],[-103.75333333333333,42.296388888888885],[-103.75333333333333,42.296388888888885],[-103.75333333333333,42.296388888888885],[-103.75333333333333,42.296388888888885],[-103.56694444444445,42.30694444444444],[-103.56694444444445,42.30694444444444],[-103.56694444444445,42.30694444444444],[-103.56694444444445,42.30694444444444],[-103.375,42.31722222222223],[-103.375,42.31722222222223],[-103.375,42.31722222222223],[-103.375,42.31722222222223],[-103.375,42.31722222222223],[-102.99527777777777,42.336666666666666],[-102.99527777777777,42.336666666666666],[-102.99527777777777,42.336666666666666],[-102.99527777777777,42.336666666666666],[-102.99527777777777,42.336666666666666],[-102.11916666666666,42.37777777777778],[-102.11916666666666,42.37777777777778],[-102.11916666666666,42.37777777777778],[-102.11916666666666,42.37777777777778],[-102.03888888888889,42.38055555555555],[-102.03888888888889,42.38055555555555],[-102.03888888888889,42.38055555555555],[-102.03888888888889,42.38055555555555],[-102.03888888888889,42.38055555555555],[-101.85111111111111,42.38805555555555],[-101.85111111111111,42.38805555555555],[-101.85111111111111,42.38805555555555],[-101.85111111111111,42.38805555555555],[-101.85111111111111,42.38805555555555],[-101.85111111111111,42.38805555555555],[-101.73916666666666,42.393055555555556],[-101.73916666666666,42.393055555555556],[-101.10666666666665,42.415277777777774],[-101.10666666666665,42.415277777777774],[-100.91777777777779,42.421388888888885],[-100.91777777777779,42.421388888888885],[-100.91777777777779,42.421388888888885],[-100.91777777777779,42.421388888888885],[-100.91777777777779,42.421388888888885],[-100.81888888888888,42.42444444444444],[-100.81888888888888,42.42444444444444],[-100.81888888888888,42.42444444444444],[-100.72555555555556,42.427499999999995],[-100.72555555555556,42.427499999999995],[-100.62805555555555,42.430277777777775],[-100.62805555555555,42.430277777777775],[-100.62805555555555,42.430277777777775],[-100.62805555555555,42.430277777777775],[-100.62805555555555,42.430277777777775],[-100.5375,42.43277777777777],[-100.5375,42.43277777777777],[-100.5375,42.43277777777777],[-100.5375,42.43277777777777],[-100.4363888888889,42.43583333333333],[-100.4363888888889,42.43583333333333],[-100.34638888888888,42.43805555555555],[-100.34638888888888,42.43805555555555],[-100.16000000000001,42.44305555555555],[-100.06166666666667,42.44555555555555],[-100.06166666666667,42.44555555555555],[-99.87527777777777,42.44972222222222],[-99.87527777777777,42.44972222222222],[-99.87527777777777,42.44972222222222],[-99.76388888888889,42.452222222222225],[-99.50055555555555,42.45777777777778],[-99.31222222222222,42.46138888888889],[-99.31222222222222,42.46138888888889],[-99.31222222222222,42.46138888888889],[-98.94805555555556,42.466944444444444],[-98.94805555555556,42.466944444444444],[-98.94805555555556,42.466944444444444],[-98.585,42.473888888888894],[-98.585,42.473888888888894],[-98.585,42.473888888888894],[-98.585,42.473888888888894],[-98.40111111111112,42.48083333333334],[-98.40111111111112,42.48083333333334],[-98.40111111111112,42.48083333333334],[-98.40111111111112,42.48083333333334],[-97.3461111111111,42.51222222222222],[-97.3461111111111,42.51222222222222],[-97.3461111111111,42.51222222222222],[-97.16388888888889,42.516666666666666],[-97.16388888888889,42.516666666666666],[-97.16388888888889,42.516666666666666],[-97.16388888888889,42.516666666666666],[-97.16388888888889,42.516666666666666],[-97.16388888888889,42.516666666666666],[-96.98388888888888,42.520833333333336],[-96.98388888888888,42.520833333333336],[-96.98388888888888,42.520833333333336],[-96.98388888888888,42.520833333333336],[-96.62222222222222,42.52833333333333],[-96.0825,42.53722222222222],[-96.0825,42.53722222222222],[-96.0825,42.53722222222222],[-96.0825,42.53722222222222],[-96.0825,42.53722222222222],[-96.0825,42.53722222222222],[-95.72833333333334,42.541666666666664],[-95.72833333333334,42.541666666666664],[-95.72833333333334,42.541666666666664],[-95.72833333333334,42.541666666666664],[-95.72833333333334,42.541666666666664],[-94.83972222222222,42.54833333333333],[-94.83972222222222,42.54833333333333],[-94.83972222222222,42.54833333333333],[-94.83972222222222,42.54833333333333],[-94.83972222222222,42.54833333333333],[-94.83972222222222,42.54833333333333],[-94.83972222222222,42.54833333333333],[-94.83972222222222,42.54833333333333],[-93.97194444444445,42.54805555555556],[-93.97194444444445,42.54805555555556],[-93.97194444444445,42.54805555555556],[-93.97194444444445,42.54805555555556],[-93.7975,42.54694444444444],[-93.62527777777777,42.545833333333334],[-93.62527777777777,42.545833333333334],[-93.62527777777777,42.545833333333334],[-93.45472222222223,42.54416666666666],[-93.45472222222223,42.54416666666666],[-92.9388888888889,42.53638888888889],[-92.9388888888889,42.53638888888889],[-92.9388888888889,42.53638888888889],[-92.9388888888889,42.53638888888889],[-92.9388888888889,42.53638888888889],[-92.9388888888889,42.53638888888889],[-92.9388888888889,42.53638888888889],[-92.41888888888889,42.52611111111111],[-92.41888888888889,42.52611111111111],[-92.41888888888889,42.52611111111111],[-92.41888888888889,42.52611111111111],[-91.90555555555557,42.51305555555555],[-91.90555555555557,42.51305555555555],[-91.90555555555557,42.51305555555555],[-91.90555555555557,42.51305555555555],[-91.90555555555557,42.51305555555555],[-91.73805555555556,42.50833333333333],[-91.73805555555556,42.50833333333333],[-91.73805555555556,42.50833333333333],[-91.56722222222221,42.50361111111111],[-91.56722222222221,42.50361111111111],[-91.39888888888889,42.498333333333335],[-91.39888888888889,42.498333333333335],[-91.22583333333334,42.49277777777778],[-91.05499999999999,42.48694444444445],[-91.05499999999999,42.48694444444445],[-91.05499999999999,42.48694444444445],[-91.05499999999999,42.48694444444445],[-90.88333333333334,42.48111111111111],[-90.88333333333334,42.48111111111111],[-90.88333333333334,42.48111111111111],[-90.88333333333334,42.48111111111111],[-90.88333333333334,42.48111111111111],[-90.50611111111111,42.466944444444444],[-90.50611111111111,42.466944444444444],[-90.50611111111111,42.466944444444444],[-90.50611111111111,42.466944444444444],[-90.37416666666665,42.461666666666666],[-90.37416666666665,42.461666666666666],[-90.37416666666665,42.461666666666666],[-90.34083333333332,42.46027777777778],[-89.86722222222221,42.44027777777777],[-89.86722222222221,42.44027777777777],[-89.86722222222221,42.44027777777777],[-89.86722222222221,42.44027777777777],[-89.86722222222221,42.44027777777777],[-89.7063888888889,42.43277777777777],[-89.7063888888889,42.43277777777777],[-89.7063888888889,42.43277777777777],[-89.7063888888889,42.43277777777777],[-89.7063888888889,42.43277777777777],[-89.11472222222221,42.40416666666667],[-88.98333333333333,42.4],[-88.98333333333333,42.4],[-88.98333333333333,42.4],[-88.98333333333333,42.4],[-88.97888888888889,42.39694444444444],[-88.97888888888889,42.39694444444444],[-88.97888888888889,42.39694444444444],[-88.97888888888889,42.39694444444444],[-88.4625,42.286944444444444],[-88.45,42.266666666666666],[-88.45,42.266666666666666],[-88.45,42.266666666666666],[-88.4,42.21666666666667],[-88.4,42.21666666666667],[-88.4,42.21666666666667],[-88.4,42.21666666666667],[-88.35,42.166666666666664],[-88.3,42.1],[-88.3,42.1],[-88.3,42.1],[-88.3,42.1],[-88.30055555555555,42.098888888888894],[-88.30055555555555,42.098888888888894],[-88.24777777777778,42.038333333333334],[-88.24777777777778,42.038333333333334],[-88.24777777777778,42.038333333333334],[-88.24777777777778,42.038333333333334],[-88.24777777777778,42.038333333333334],[-88.18361111111112,41.9925],[-88.11666666666666,41.96666666666667],[-88.11666666666666,41.96666666666667],[-88.05499999999999,41.96888888888889],[-88.05499999999999,41.96888888888889],[-88.05499999999999,41.96888888888889],[-87.96555555555555,41.96888888888889]],"type":"LineString"}
}
