{
  "id": 1981757901,
  "type": "Feature",
  "properties": {
    "geom:area": 0,
    "geom:bbox": "-122.528056,37.649444,-117.152500,48.167778",
    "geom:latitude": 42.87719642600096,
    "geom:longitude": -119.83197946459306,
    "src:alt_label": "swim-path",
    "src:geom": "swim",
    "swim:altitudes": [
      "029",
      "029",
      "038",
      "038",
      "057",
      "080",
      "100",
      "100",
      "111",
      "130",
      "142",
      "142",
      "157",
      "169",
      "182",
      "182",
      "223",
      "223",
      "251",
      "285",
      "293",
      "293",
      "298",
      "298",
      "306",
      "318",
      "324",
      "325",
      "333",
      "355",
      "355",
      "360C",
      "360C",
      "360C",
      "360C",
      "360C",
      "360C",
      "360C",
      "360C",
      "360C",
      "360C",
      "360C",
      "360C",
      "360C",
      "360C",
      "360C",
      "360C",
      "360C",
      "360C",
      "360C",
      "360C",
      "360C",
      "360C",
      "360C",
      "360C",
      "360C",
      "360C",
      "360C",
      "360C",
      "360C",
      "360C",
      "360C",
      "360C",
      "350C",
      "350C"
    ],
    "swim:geom": "path",
    "swim:speeds": [
      172,
      172,
      230,
      230,
      273,
      297,
      304,
      304,
      363,
      396,
      400,
      400,
      408,
      416,
      428,
      428,
      473,
      473,
      486,
      507,
      514,
      514,
      519,
      519,
      531,
      542,
      546,
      548,
      552,
      549,
      549,
      541,
      541,
      541,
      543,
      544,
      544,
      544,
      551,
      551,
      544,
      547,
      546,
      561,
      561,
      561,
      581,
      581,
      581,
      585,
      585,
      590,
      590,
      591,
      593,
      599,
      599,
      599,
      599,
      600,
      600,
      604,
      604,
      611,
      611
    ],
    "swim:timestamps": [
      1761366608,
      1761366608,
      1761366668,
      1761366668,
      1761366728,
      1761366788,
      1761366848,
      1761366848,
      1761366908,
      1761367028,
      1761367088,
      1761367088,
      1761367143,
      1761367208,
      1761367268,
      1761367268,
      1761367448,
      1761367448,
      1761367569,
      1761367749,
      1761367809,
      1761367809,
      1761367861,
      1761367861,
      1761367929,
      1761368041,
      1761368101,
      1761368109,
      1761368169,
      1761368289,
      1761368289,
      1761368402,
      1761368402,
      1761368469,
      1761368589,
      1761368642,
      1761368642,
      1761368649,
      1761368763,
      1761368763,
      1761368944,
      1761369004,
      1761369064,
      1761369304,
      1761369304,
      1761369304,
      1761369903,
      1761369903,
      1761369903,
      1761370084,
      1761370145,
      1761370265,
      1761370265,
      1761370326,
      1761370443,
      1761370563,
      1761370563,
      1761370624,
      1761370683,
      1761370743,
      1761370743,
      1761370803,
      1761370803,
      1761371224,
      1761371224
    ],
    "wof:geomhash": "a1cbd6881343ba575de8fe6a696187aa",
    "wof:id": 1981757901,
    "wof:repo": "sfomuseum-data-flights-2025-10"
  },
  "bbox": [
    -122.52805555555555,
    37.64944444444444,
    -117.1525,
    48.16777777777777
  ],
  "geometry": {"coordinates":[[-122.4475,37.64944444444444],[-122.4475,37.64944444444444],[-122.50888888888889,37.676944444444445],[-122.50888888888889,37.676944444444445],[-122.52805555555555,37.74611111111111],[-122.495,37.81722222222223],[-122.4213888888889,37.868611111111115],[-122.4213888888889,37.868611111111115],[-122.38055555555555,37.97555555555556],[-122.29138888888889,38.17666666666666],[-122.23333333333333,38.27916666666667],[-122.23333333333333,38.27916666666667],[-122.1738888888889,38.36666666666667],[-122.11999999999999,38.47916666666667],[-122.05722222222222,38.58916666666667],[-122.05722222222222,38.58916666666667],[-121.85499999999999,38.94138888888889],[-121.85499999999999,38.94138888888889],[-121.71138888888889,39.18944444444444],[-121.48472222222222,39.57694444444445],[-121.40805555555556,39.706944444444446],[-121.40805555555556,39.706944444444446],[-121.34527777777777,39.8125],[-121.34527777777777,39.8125],[-121.25055555555555,39.971944444444446],[-121.10333333333332,40.21805555555556],[-121.02166666666666,40.35388888888889],[-121.00472222222223,40.38194444444444],[-120.92027777777778,40.52111111111111],[-120.75111111111111,40.79861111111111],[-120.75111111111111,40.79861111111111],[-120.60083333333333,41.04277777777778],[-120.60083333333333,41.04277777777778],[-120.5,41.205555555555556],[-120.33027777777778,41.47777777777778],[-120.26055555555556,41.58861111111111],[-120.26055555555556,41.58861111111111],[-120.24361111111111,41.615833333333335],[-120.08777777777777,41.86222222222222],[-120.08777777777777,41.86222222222222],[-119.89277777777778,42.29111111111111],[-119.83833333333332,42.43833333333333],[-119.78416666666666,42.58361111111111],[-119.54805555555555,43.20888888888889],[-119.54805555555555,43.20888888888889],[-119.54805555555555,43.20888888888889],[-118.95194444444445,44.731388888888894],[-118.95194444444445,44.731388888888894],[-118.95194444444445,44.731388888888894],[-118.76333333333334,45.19611111111111],[-118.69944444444445,45.35194444444445],[-118.56944444444444,45.66638888888889],[-118.56944444444444,45.66638888888889],[-118.50333333333333,45.82472222222223],[-118.36888888888888,46.14361111111111],[-118.23333333333333,46.461666666666666],[-118.23333333333333,46.461666666666666],[-118.16416666666667,46.6225],[-118.095,46.7825],[-118.02583333333334,46.940555555555555],[-118.02583333333334,46.940555555555555],[-117.92972222222222,47.09916666666667],[-117.92972222222222,47.09916666666667],[-117.1525,48.16777777777777],[-117.1525,48.16777777777777]],"type":"LineString"}
}
