{
  "id": 1981729023,
  "type": "Feature",
  "properties": {
    "geom:area": 0,
    "geom:bbox": "-122.345278,37.493056,-77.508889,43.492778",
    "geom:latitude": 40.88466207830556,
    "geom:longitude": -99.62139945004449,
    "src:alt_label": "swim-path",
    "src:geom": "swim",
    "swim:altitudes": [
      "014",
      "014",
      "014",
      "014",
      "014",
      "014",
      "014",
      "014",
      "014",
      "014",
      "107",
      "107",
      "107",
      "107",
      "107",
      "107",
      "107",
      "107",
      "107",
      "107",
      "158",
      "158",
      "158",
      "158",
      "158",
      "158",
      "158",
      "196",
      "196",
      "196",
      "196",
      "196",
      "196",
      "257",
      "257",
      "257",
      "257",
      "278",
      "278",
      "278",
      "278",
      "278",
      "278",
      "278",
      "286",
      "286",
      "286",
      "303",
      "303",
      "303",
      "303",
      "303",
      "303",
      "320C",
      "320C",
      "320C",
      "320C",
      "320C",
      "320C",
      "320C",
      "320C",
      "320C",
      "320C",
      "320C",
      "320C",
      "320C",
      "320C",
      "320C",
      "320C",
      "320C",
      "320C",
      "320C",
      "320C",
      "320C",
      "320C",
      "320C",
      "320C",
      "320C",
      "320C",
      "320C",
      "320C",
      "320C",
      "320C",
      "320C",
      "320C",
      "320C",
      "320C",
      "320C",
      "320C",
      "320C",
      "320C",
      "320C",
      "320C",
      "320C",
      "320C",
      "320C",
      "320C",
      "320C",
      "320C",
      "320C",
      "320C",
      "320C",
      "320C",
      "320C",
      "320C",
      "320C",
      "320C",
      "320C",
      "320C",
      "320C",
      "320C",
      "320C",
      "320C",
      "320C",
      "320C",
      "320C",
      "320C",
      "320C",
      "320C",
      "320C",
      "320C",
      "320C",
      "320C",
      "320C",
      "320C",
      "320C",
      "320C",
      "320C",
      "320C",
      "320C",
      "320C",
      "320C",
      "320C",
      "320C",
      "320C",
      "320C",
      "320C",
      "320C",
      "320C",
      "320C",
      "320C",
      "320C",
      "320C",
      "320C",
      "320C",
      "320C",
      "320C",
      "320C",
      "320C",
      "320C",
      "320C",
      "320C",
      "320C",
      "320C",
      "320C",
      "320C",
      "320C",
      "320C",
      "320C",
      "320C",
      "320C",
      "320C",
      "320C",
      "320C",
      "320C",
      "320C",
      "320C",
      "320C",
      "320C",
      "320C",
      "320C",
      "320C",
      "320C",
      "320C",
      "320C",
      "320C",
      "320C",
      "320C",
      "320C",
      "320C",
      "320C",
      "320C",
      "320C",
      "320C",
      "320C",
      "320C",
      "320C",
      "320C",
      "320C",
      "320C",
      "320C",
      "320C",
      "320C",
      "320C",
      "320C",
      "320C",
      "320C",
      "320C",
      "320C",
      "320C",
      "320C",
      "320C",
      "320C",
      "320C",
      "320C",
      "320C",
      "320C",
      "320C",
      "320C",
      "320C",
      "320C",
      "320C",
      "320C",
      "320C",
      "320C",
      "320C",
      "320C",
      "320C",
      "320C",
      "320C",
      "320C",
      "320C",
      "320C",
      "320C",
      "320C",
      "320C",
      "320C",
      "320C",
      "320C",
      "320C",
      "320C",
      "320C",
      "320C",
      "320C",
      "320C",
      "320C",
      "320C",
      "320C",
      "320C",
      "320C",
      "320C",
      "320C",
      "320C",
      "320C",
      "320C",
      "320C",
      "320C",
      "320C",
      "320C",
      "320C",
      "320C",
      "320C",
      "320C",
      "320C",
      "320C",
      "320C",
      "320C",
      "320C",
      "320C",
      "320C",
      "320C",
      "320C",
      "320C",
      "320C",
      "320C",
      "320C",
      "320C",
      "320C",
      "320C",
      "320C",
      "320C",
      "320C",
      "320C",
      "320C",
      "320C",
      "320C",
      "320C",
      "320C",
      "320C",
      "320C",
      "320C",
      "320C",
      "320C",
      "320C",
      "320C",
      "320C",
      "320C",
      "320C",
      "320C",
      "320C",
      "320C",
      "320C",
      "320C",
      "320C",
      "320C",
      "320C",
      "320C",
      "320C",
      "320C",
      "320C",
      "320C",
      "320C",
      "320C",
      "320C",
      "320C",
      "320C",
      "320C",
      "320C",
      "320C",
      "320C",
      "320C",
      "320C",
      "320C",
      "320C",
      "320C",
      "320C",
      "320C",
      "320C",
      "320C",
      "320C",
      "320C",
      "320C",
      "320C",
      "320C",
      "320C",
      "320C",
      "320C",
      "320C",
      "320C",
      "320C",
      "320C",
      "320C",
      "320C",
      "320C",
      "320C",
      "320C",
      "320C",
      "320C",
      "320C",
      "320C",
      "320C",
      "320C",
      "320C",
      "320C",
      "320C",
      "320C",
      "320C",
      "320C",
      "320C",
      "320C",
      "320C",
      "320C",
      "320C",
      "320C",
      "320C",
      "320C",
      "320C",
      "320C",
      "320C",
      "320C",
      "320C",
      "320C",
      "320C",
      "320C",
      "320C",
      "320C",
      "320C",
      "320C",
      "320C",
      "320C",
      "320C",
      "320C",
      "320C",
      "320C",
      "320C",
      "320C",
      "320C",
      "320C",
      "320C",
      "320C",
      "320C",
      "320C",
      "320C",
      "320C",
      "320C",
      "320C",
      "320C",
      "320C",
      "320C",
      "320C",
      "320C",
      "320C",
      "320C",
      "320C",
      "320C",
      "320C",
      "320C",
      "320C",
      "320C",
      "320C",
      "320C",
      "320C",
      "320C",
      "320C",
      "320C",
      "320C",
      "320C",
      "320C",
      "320C",
      "320C",
      "320C",
      "320C",
      "320C",
      "320C",
      "320C",
      "320C",
      "320C",
      "320C",
      "320C",
      "320C",
      "320C",
      "320C",
      "320C",
      "320C",
      "320C",
      "320C",
      "320C",
      "320C",
      "320C",
      "320C",
      "320C",
      "320C",
      "320C",
      "320C",
      "320C",
      "320C",
      "320C",
      "320C",
      "320C",
      "320C",
      "320C",
      "320C",
      "320C",
      "320C",
      "320C",
      "320C",
      "320C",
      "320C",
      "320C",
      "320C",
      "320C",
      "320C",
      "320C",
      "320C",
      "320C",
      "320C",
      "320C",
      "320C",
      "320C",
      "320C",
      "320C",
      "320C",
      "320C",
      "320C",
      "320C",
      "320C",
      "320C",
      "320C",
      "320C",
      "320C",
      "320C",
      "320C",
      "320C",
      "320C",
      "320C",
      "320C",
      "320C",
      "320C",
      "320",
      "320",
      "320",
      "320",
      "282",
      "282",
      "282",
      "270",
      "270",
      "257",
      "257",
      "257",
      "257",
      "257",
      "187",
      "183",
      "183",
      "183",
      "183",
      "183",
      "137",
      "137",
      "133",
      "133",
      "133",
      "133",
      "121",
      "121",
      "121",
      "111",
      "110",
      "110",
      "110",
      "110",
      "097",
      "097",
      "097",
      "097",
      "060",
      "060",
      "060",
      "060",
      "060",
      "030",
      "030",
      "030",
      "028",
      "019",
      "019",
      "010",
      "010",
      "010",
      "010",
      "010",
      "010",
      "003",
      "003",
      "003",
      "003",
      "003",
      "003",
      "003"
    ],
    "swim:geom": "path",
    "swim:speeds": [
      180,
      180,
      180,
      180,
      180,
      180,
      180,
      180,
      180,
      180,
      309,
      309,
      309,
      309,
      309,
      309,
      309,
      309,
      309,
      309,
      343,
      343,
      343,
      343,
      343,
      343,
      343,
      388,
      388,
      388,
      388,
      388,
      388,
      408,
      408,
      408,
      408,
      422,
      422,
      422,
      422,
      422,
      422,
      422,
      420,
      420,
      420,
      437,
      437,
      437,
      437,
      437,
      437,
      434,
      434,
      434,
      434,
      435,
      435,
      435,
      435,
      435,
      437,
      437,
      437,
      437,
      437,
      433,
      433,
      433,
      433,
      433,
      432,
      432,
      432,
      432,
      432,
      432,
      423,
      423,
      423,
      423,
      423,
      439,
      439,
      439,
      439,
      439,
      439,
      439,
      441,
      442,
      442,
      442,
      442,
      433,
      433,
      433,
      433,
      433,
      433,
      433,
      433,
      433,
      433,
      433,
      433,
      430,
      430,
      430,
      430,
      430,
      430,
      430,
      430,
      428,
      428,
      428,
      428,
      428,
      428,
      429,
      429,
      429,
      429,
      429,
      430,
      432,
      432,
      432,
      432,
      431,
      431,
      431,
      431,
      431,
      431,
      423,
      423,
      423,
      423,
      424,
      424,
      424,
      418,
      418,
      418,
      418,
      415,
      415,
      415,
      415,
      415,
      415,
      415,
      415,
      410,
      410,
      410,
      408,
      408,
      408,
      408,
      403,
      403,
      403,
      403,
      403,
      403,
      403,
      406,
      406,
      406,
      404,
      404,
      404,
      404,
      404,
      404,
      404,
      404,
      404,
      391,
      391,
      389,
      389,
      389,
      389,
      389,
      389,
      389,
      389,
      389,
      383,
      383,
      383,
      383,
      383,
      384,
      384,
      384,
      384,
      384,
      390,
      390,
      390,
      390,
      390,
      390,
      390,
      390,
      390,
      390,
      395,
      395,
      395,
      395,
      395,
      395,
      394,
      394,
      394,
      392,
      392,
      392,
      392,
      392,
      393,
      393,
      393,
      393,
      393,
      393,
      393,
      393,
      393,
      393,
      393,
      394,
      394,
      394,
      394,
      394,
      394,
      394,
      394,
      394,
      394,
      394,
      394,
      395,
      395,
      395,
      395,
      398,
      395,
      395,
      395,
      395,
      396,
      396,
      396,
      397,
      397,
      397,
      397,
      397,
      397,
      405,
      405,
      405,
      406,
      406,
      406,
      406,
      406,
      406,
      407,
      407,
      407,
      405,
      405,
      405,
      405,
      406,
      406,
      406,
      406,
      409,
      409,
      409,
      409,
      410,
      409,
      409,
      409,
      409,
      409,
      412,
      412,
      412,
      412,
      412,
      416,
      416,
      416,
      416,
      416,
      416,
      416,
      414,
      414,
      414,
      414,
      414,
      413,
      413,
      413,
      413,
      413,
      415,
      415,
      415,
      415,
      414,
      414,
      414,
      414,
      414,
      413,
      413,
      413,
      413,
      413,
      413,
      413,
      413,
      413,
      413,
      412,
      412,
      412,
      411,
      411,
      411,
      411,
      411,
      411,
      411,
      411,
      411,
      410,
      410,
      410,
      410,
      410,
      411,
      411,
      411,
      411,
      411,
      411,
      411,
      411,
      411,
      411,
      411,
      411,
      411,
      411,
      412,
      412,
      412,
      412,
      412,
      412,
      412,
      412,
      415,
      415,
      415,
      415,
      416,
      416,
      417,
      417,
      417,
      417,
      417,
      417,
      417,
      417,
      416,
      416,
      416,
      416,
      416,
      416,
      416,
      416,
      416,
      422,
      422,
      422,
      422,
      422,
      421,
      421,
      421,
      421,
      421,
      421,
      421,
      421,
      421,
      421,
      421,
      421,
      421,
      421,
      421,
      421,
      421,
      421,
      421,
      421,
      421,
      421,
      423,
      423,
      423,
      423,
      435,
      435,
      435,
      435,
      432,
      432,
      432,
      432,
      433,
      433,
      433,
      433,
      433,
      433,
      433,
      433,
      433,
      433,
      433,
      434,
      434,
      434,
      434,
      434,
      434,
      437,
      437,
      437,
      437,
      437,
      441,
      441,
      441,
      441,
      441,
      443,
      443,
      443,
      443,
      443,
      442,
      442,
      442,
      442,
      442,
      442,
      454,
      454,
      454,
      454,
      462,
      462,
      462,
      448,
      448,
      437,
      437,
      437,
      437,
      437,
      334,
      335,
      335,
      335,
      335,
      335,
      289,
      289,
      292,
      292,
      292,
      292,
      280,
      280,
      280,
      249,
      250,
      250,
      250,
      250,
      236,
      236,
      236,
      236,
      241,
      241,
      241,
      241,
      241,
      183,
      183,
      183,
      183,
      174,
      174,
      155,
      155,
      155,
      155,
      155,
      155,
      153,
      153,
      153,
      153,
      153,
      153,
      153
    ],
    "swim:timestamps": [
      1761073961,
      1761073961,
      1761073961,
      1761073961,
      1761073961,
      1761073961,
      1761073961,
      1761073961,
      1761073961,
      1761073961,
      1761074322,
      1761074322,
      1761074322,
      1761074322,
      1761074322,
      1761074322,
      1761074322,
      1761074322,
      1761074322,
      1761074322,
      1761074502,
      1761074502,
      1761074502,
      1761074502,
      1761074502,
      1761074502,
      1761074502,
      1761074682,
      1761074682,
      1761074682,
      1761074682,
      1761074682,
      1761074682,
      1761074983,
      1761074983,
      1761074983,
      1761074983,
      1761075107,
      1761075107,
      1761075107,
      1761075107,
      1761075107,
      1761075107,
      1761075107,
      1761075163,
      1761075163,
      1761075163,
      1761075283,
      1761075283,
      1761075283,
      1761075283,
      1761075283,
      1761075283,
      1761075764,
      1761075764,
      1761075764,
      1761075764,
      1761075824,
      1761075824,
      1761075824,
      1761075824,
      1761075824,
      1761075884,
      1761075884,
      1761076004,
      1761076004,
      1761076004,
      1761076124,
      1761076124,
      1761076124,
      1761076124,
      1761076124,
      1761076184,
      1761076184,
      1761076184,
      1761076184,
      1761076184,
      1761076184,
      1761076778,
      1761076778,
      1761076778,
      1761076778,
      1761076778,
      1761077199,
      1761077199,
      1761077199,
      1761077199,
      1761077199,
      1761077206,
      1761077206,
      1761077266,
      1761077386,
      1761077386,
      1761077386,
      1761077386,
      1761077747,
      1761077747,
      1761077747,
      1761077807,
      1761077807,
      1761077807,
      1761077914,
      1761077914,
      1761077927,
      1761077927,
      1761077974,
      1761077974,
      1761078155,
      1761078155,
      1761078155,
      1761078155,
      1761078275,
      1761078275,
      1761078275,
      1761078275,
      1761078581,
      1761078581,
      1761078581,
      1761078641,
      1761078641,
      1761078641,
      1761078701,
      1761078701,
      1761078701,
      1761078701,
      1761078701,
      1761078755,
      1761078815,
      1761078815,
      1761078815,
      1761078815,
      1761079116,
      1761079116,
      1761079116,
      1761079116,
      1761079116,
      1761079116,
      1761079416,
      1761079416,
      1761079416,
      1761079416,
      1761079422,
      1761079422,
      1761079422,
      1761079536,
      1761079536,
      1761079536,
      1761079536,
      1761079777,
      1761079777,
      1761079777,
      1761079777,
      1761079777,
      1761079777,
      1761079777,
      1761079777,
      1761080083,
      1761080083,
      1761080083,
      1761080143,
      1761080143,
      1761080143,
      1761080143,
      1761080263,
      1761080263,
      1761080263,
      1761080263,
      1761080263,
      1761080263,
      1761080263,
      1761080678,
      1761080678,
      1761080678,
      1761080804,
      1761080804,
      1761080804,
      1761080804,
      1761080804,
      1761080804,
      1761080804,
      1761080804,
      1761080804,
      1761081579,
      1761081579,
      1761081639,
      1761081639,
      1761081639,
      1761081639,
      1761081639,
      1761081639,
      1761081639,
      1761081639,
      1761081639,
      1761082180,
      1761082180,
      1761082180,
      1761082180,
      1761082180,
      1761082300,
      1761082300,
      1761082300,
      1761082300,
      1761082300,
      1761082721,
      1761082721,
      1761082721,
      1761082721,
      1761082721,
      1761082721,
      1761082721,
      1761082721,
      1761082721,
      1761082721,
      1761083139,
      1761083139,
      1761083139,
      1761083139,
      1761083139,
      1761083139,
      1761083199,
      1761083199,
      1761083199,
      1761083319,
      1761083319,
      1761083319,
      1761083319,
      1761083319,
      1761083472,
      1761083472,
      1761083472,
      1761083592,
      1761083592,
      1761083592,
      1761083592,
      1761083592,
      1761083653,
      1761083653,
      1761083653,
      1761083893,
      1761083893,
      1761083893,
      1761083893,
      1761083893,
      1761083893,
      1761084013,
      1761084013,
      1761084133,
      1761084133,
      1761084133,
      1761084133,
      1761084314,
      1761084314,
      1761084314,
      1761084314,
      1761084460,
      1761084494,
      1761084494,
      1761084494,
      1761084494,
      1761084554,
      1761084554,
      1761084554,
      1761084614,
      1761084614,
      1761084614,
      1761084614,
      1761084614,
      1761084614,
      1761084761,
      1761084761,
      1761084761,
      1761085061,
      1761085061,
      1761085061,
      1761085061,
      1761085061,
      1761085061,
      1761085121,
      1761085121,
      1761085121,
      1761085215,
      1761085215,
      1761085215,
      1761085215,
      1761085455,
      1761085455,
      1761085455,
      1761085455,
      1761085542,
      1761085542,
      1761085542,
      1761085542,
      1761085662,
      1761085722,
      1761085722,
      1761085722,
      1761085722,
      1761085722,
      1761085936,
      1761085936,
      1761085936,
      1761085936,
      1761085936,
      1761086022,
      1761086022,
      1761086022,
      1761086022,
      1761086022,
      1761086022,
      1761086022,
      1761086563,
      1761086563,
      1761086563,
      1761086563,
      1761086563,
      1761086657,
      1761086657,
      1761086657,
      1761086657,
      1761086657,
      1761086683,
      1761086803,
      1761086803,
      1761086803,
      1761086838,
      1761086838,
      1761086838,
      1761086838,
      1761086838,
      1761086984,
      1761086984,
      1761086984,
      1761086984,
      1761086984,
      1761087138,
      1761087138,
      1761087138,
      1761087138,
      1761087138,
      1761087198,
      1761087198,
      1761087198,
      1761087284,
      1761087344,
      1761087375,
      1761087375,
      1761087375,
      1761087375,
      1761087404,
      1761087404,
      1761087404,
      1761087556,
      1761087556,
      1761087556,
      1761087556,
      1761087556,
      1761087736,
      1761087736,
      1761087736,
      1761087765,
      1761087765,
      1761087765,
      1761087765,
      1761087796,
      1761087796,
      1761087856,
      1761087856,
      1761087856,
      1761087856,
      1761087885,
      1761087945,
      1761087945,
      1761087976,
      1761087976,
      1761087976,
      1761087976,
      1761087976,
      1761087976,
      1761088065,
      1761088065,
      1761088065,
      1761088065,
      1761088097,
      1761088097,
      1761088125,
      1761088125,
      1761088185,
      1761088185,
      1761088185,
      1761088185,
      1761088185,
      1761088185,
      1761088998,
      1761088998,
      1761088998,
      1761088998,
      1761088998,
      1761088998,
      1761088998,
      1761088998,
      1761088998,
      1761089298,
      1761089298,
      1761089298,
      1761089359,
      1761089359,
      1761089419,
      1761089419,
      1761089419,
      1761089419,
      1761089419,
      1761089419,
      1761089419,
      1761089599,
      1761089599,
      1761089599,
      1761089599,
      1761089599,
      1761089599,
      1761089916,
      1761089916,
      1761089916,
      1761089916,
      1761089916,
      1761089959,
      1761089959,
      1761089959,
      1761089959,
      1761090096,
      1761090096,
      1761090096,
      1761090096,
      1761090276,
      1761090276,
      1761090276,
      1761090276,
      1761090440,
      1761090440,
      1761090440,
      1761090440,
      1761090500,
      1761090500,
      1761090500,
      1761090500,
      1761090500,
      1761090560,
      1761090577,
      1761090577,
      1761090620,
      1761090620,
      1761090620,
      1761090877,
      1761090877,
      1761090877,
      1761090877,
      1761090877,
      1761090877,
      1761091041,
      1761091041,
      1761091057,
      1761091057,
      1761091057,
      1761091298,
      1761091298,
      1761091298,
      1761091298,
      1761091298,
      1761091478,
      1761091478,
      1761091478,
      1761091478,
      1761091478,
      1761091658,
      1761091658,
      1761091658,
      1761091658,
      1761091658,
      1761091658,
      1761091898,
      1761091898,
      1761091898,
      1761091898,
      1761092042,
      1761092042,
      1761092042,
      1761092079,
      1761092079,
      1761092114,
      1761092114,
      1761092114,
      1761092114,
      1761092114,
      1761092354,
      1761092379,
      1761092379,
      1761092379,
      1761092379,
      1761092379,
      1761092534,
      1761092534,
      1761092559,
      1761092559,
      1761092559,
      1761092559,
      1761092594,
      1761092594,
      1761092594,
      1761092654,
      1761092714,
      1761092714,
      1761092714,
      1761092714,
      1761092774,
      1761092774,
      1761092774,
      1761092774,
      1761092980,
      1761092980,
      1761092980,
      1761092980,
      1761092980,
      1761093134,
      1761093134,
      1761093134,
      1761093160,
      1761093220,
      1761093220,
      1761093280,
      1761093280,
      1761093280,
      1761093280,
      1761093280,
      1761093280,
      1761093340,
      1761093340,
      1761093340,
      1761093340,
      1761093340,
      1761093340,
      1761093340
    ],
    "wof:geomhash": "bfcf77d650c895f79289922891e1c21b",
    "wof:id": 1981729023,
    "wof:repo": "sfomuseum-data-flights-2025-10"
  },
  "bbox": [
    -122.34527777777777,
    37.49305555555556,
    -77.50888888888889,
    43.49277777777778
  ],
  "geometry": {"coordinates":[[-77.50888888888889,38.95],[-77.50888888888889,38.95],[-77.50888888888889,38.95],[-77.50888888888889,38.95],[-77.50888888888889,38.95],[-77.50888888888889,38.95],[-77.50888888888889,38.95],[-77.50888888888889,38.95],[-77.50888888888889,38.95],[-77.50888888888889,38.95],[-77.7538888888889,39.30361111111111],[-77.7538888888889,39.30361111111111],[-77.7538888888889,39.30361111111111],[-77.7538888888889,39.30361111111111],[-77.7538888888889,39.30361111111111],[-77.7538888888889,39.30361111111111],[-77.7538888888889,39.30361111111111],[-77.7538888888889,39.30361111111111],[-77.7538888888889,39.30361111111111],[-77.7538888888889,39.30361111111111],[-77.89222222222223,39.54888888888889],[-77.89222222222223,39.54888888888889],[-77.89222222222223,39.54888888888889],[-77.89222222222223,39.54888888888889],[-77.89222222222223,39.54888888888889],[-77.89222222222223,39.54888888888889],[-77.89222222222223,39.54888888888889],[-78.26388888888889,39.66166666666666],[-78.26388888888889,39.66166666666666],[-78.26388888888889,39.66166666666666],[-78.26388888888889,39.66166666666666],[-78.26388888888889,39.66166666666666],[-78.26388888888889,39.66166666666666],[-78.935,39.862500000000004],[-78.935,39.862500000000004],[-78.935,39.862500000000004],[-78.935,39.862500000000004],[-79.2475,39.95444444444445],[-79.2475,39.95444444444445],[-79.2475,39.95444444444445],[-79.2475,39.95444444444445],[-79.2475,39.95444444444445],[-79.2475,39.95444444444445],[-79.2475,39.95444444444445],[-79.36222222222221,39.98777777777778],[-79.36222222222221,39.98777777777778],[-79.36222222222221,39.98777777777778],[-79.63,40.11361111111111],[-79.63,40.11361111111111],[-79.63,40.11361111111111],[-79.63,40.11361111111111],[-79.63,40.11361111111111],[-79.63,40.11361111111111],[-80.68416666666667,40.64388888888889],[-80.68416666666667,40.64388888888889],[-80.68416666666667,40.64388888888889],[-80.68416666666667,40.64388888888889],[-80.82333333333332,40.71277777777778],[-80.82333333333332,40.71277777777778],[-80.82333333333332,40.71277777777778],[-80.82333333333332,40.71277777777778],[-80.82333333333332,40.71277777777778],[-80.95916666666668,40.77972222222222],[-80.95916666666668,40.77972222222222],[-81.22222222222223,40.908055555555556],[-81.22222222222223,40.908055555555556],[-81.22222222222223,40.908055555555556],[-81.48861111111111,41.036944444444444],[-81.48861111111111,41.036944444444444],[-81.48861111111111,41.036944444444444],[-81.48861111111111,41.036944444444444],[-81.48861111111111,41.036944444444444],[-81.62305555555555,41.10166666666667],[-81.62305555555555,41.10166666666667],[-81.62305555555555,41.10166666666667],[-81.62305555555555,41.10166666666667],[-81.62305555555555,41.10166666666667],[-81.62305555555555,41.10166666666667],[-83.01055555555556,41.659444444444446],[-83.01055555555556,41.659444444444446],[-83.01055555555556,41.659444444444446],[-83.01055555555556,41.659444444444446],[-83.01055555555556,41.659444444444446],[-84.00972222222222,42.02111111111111],[-84.00972222222222,42.02111111111111],[-84.00972222222222,42.02111111111111],[-84.00972222222222,42.02111111111111],[-84.00972222222222,42.02111111111111],[-84.03888888888889,42.03638888888889],[-84.03888888888889,42.03638888888889],[-84.17500000000001,42.10888888888889],[-84.44583333333334,42.25083333333333],[-84.44583333333334,42.25083333333333],[-84.44583333333334,42.25083333333333],[-84.44583333333334,42.25083333333333],[-85.33277777777778,42.52638888888889],[-85.33277777777778,42.52638888888889],[-85.33277777777778,42.52638888888889],[-85.49388888888889,42.55722222222222],[-85.49388888888889,42.55722222222222],[-85.49388888888889,42.55722222222222],[-85.78083333333333,42.611111111111114],[-85.78083333333333,42.611111111111114],[-85.8111111111111,42.61666666666667],[-85.8111111111111,42.61666666666667],[-85.9388888888889,42.640277777777776],[-85.9388888888889,42.640277777777776],[-86.39861111111112,42.72416666666667],[-86.39861111111112,42.72416666666667],[-86.39861111111112,42.72416666666667],[-86.39861111111112,42.72416666666667],[-86.73305555555555,42.78361111111111],[-86.73305555555555,42.78361111111111],[-86.73305555555555,42.78361111111111],[-86.73305555555555,42.78361111111111],[-87.51222222222222,42.91833333333333],[-87.51222222222222,42.91833333333333],[-87.51222222222222,42.91833333333333],[-87.67055555555557,42.945277777777775],[-87.67055555555557,42.945277777777775],[-87.67055555555557,42.945277777777775],[-87.8325,42.97222222222222],[-87.8325,42.97222222222222],[-87.8325,42.97222222222222],[-87.8325,42.97222222222222],[-87.8325,42.97222222222222],[-87.99388888888889,42.99916666666667],[-88.1563888888889,43.02111111111111],[-88.1563888888889,43.02111111111111],[-88.1563888888889,43.02111111111111],[-88.1563888888889,43.02111111111111],[-88.965,43.12722222222222],[-88.965,43.12722222222222],[-88.965,43.12722222222222],[-88.965,43.12722222222222],[-88.965,43.12722222222222],[-88.965,43.12722222222222],[-89.73611111111111,43.22944444444445],[-89.73611111111111,43.22944444444445],[-89.73611111111111,43.22944444444445],[-89.73611111111111,43.22944444444445],[-89.76305555555555,43.23305555555556],[-89.76305555555555,43.23305555555556],[-89.76305555555555,43.23305555555556],[-90.04722222222222,43.269444444444446],[-90.04722222222222,43.269444444444446],[-90.04722222222222,43.269444444444446],[-90.04722222222222,43.269444444444446],[-90.68277777777779,43.348333333333336],[-90.68277777777779,43.348333333333336],[-90.68277777777779,43.348333333333336],[-90.68277777777779,43.348333333333336],[-90.68277777777779,43.348333333333336],[-90.68277777777779,43.348333333333336],[-90.68277777777779,43.348333333333336],[-90.68277777777779,43.348333333333336],[-91.48027777777779,43.44194444444444],[-91.48027777777779,43.44194444444444],[-91.48027777777779,43.44194444444444],[-91.63361111111112,43.45944444444445],[-91.63361111111112,43.45944444444445],[-91.63361111111112,43.45944444444445],[-91.63361111111112,43.45944444444445],[-91.93611111111112,43.49277777777778],[-91.93611111111112,43.49277777777778],[-91.93611111111112,43.49277777777778],[-91.93611111111112,43.49277777777778],[-91.93611111111112,43.49277777777778],[-91.93611111111112,43.49277777777778],[-91.93611111111112,43.49277777777778],[-93.00972222222222,43.394999999999996],[-93.00972222222222,43.394999999999996],[-93.00972222222222,43.394999999999996],[-93.30222222222221,43.356944444444444],[-93.30222222222221,43.356944444444444],[-93.30222222222221,43.356944444444444],[-93.30222222222221,43.356944444444444],[-93.30222222222221,43.356944444444444],[-93.30222222222221,43.356944444444444],[-93.30222222222221,43.356944444444444],[-93.30222222222221,43.356944444444444],[-93.30222222222221,43.356944444444444],[-95.20166666666667,43.03194444444444],[-95.20166666666667,43.03194444444444],[-95.34388888888888,43.006388888888885],[-95.34388888888888,43.006388888888885],[-95.34388888888888,43.006388888888885],[-95.34388888888888,43.006388888888885],[-95.34388888888888,43.006388888888885],[-95.34388888888888,43.006388888888885],[-95.34388888888888,43.006388888888885],[-95.34388888888888,43.006388888888885],[-95.34388888888888,43.006388888888885],[-96.60472222222222,42.769444444444446],[-96.60472222222222,42.769444444444446],[-96.60472222222222,42.769444444444446],[-96.60472222222222,42.769444444444446],[-96.60472222222222,42.769444444444446],[-96.88666666666667,42.714444444444446],[-96.88666666666667,42.714444444444446],[-96.88666666666667,42.714444444444446],[-96.88666666666667,42.714444444444446],[-96.88666666666667,42.714444444444446],[-97.89583333333334,42.51027777777778],[-97.89583333333334,42.51027777777778],[-97.89583333333334,42.51027777777778],[-97.89583333333334,42.51027777777778],[-97.89583333333334,42.51027777777778],[-97.89583333333334,42.51027777777778],[-97.89583333333334,42.51027777777778],[-97.89583333333334,42.51027777777778],[-97.89583333333334,42.51027777777778],[-97.89583333333334,42.51027777777778],[-98.89027777777778,42.299166666666665],[-98.89027777777778,42.299166666666665],[-98.89027777777778,42.299166666666665],[-98.89027777777778,42.299166666666665],[-98.89027777777778,42.299166666666665],[-98.89027777777778,42.299166666666665],[-99.03027777777778,42.26888888888889],[-99.03027777777778,42.26888888888889],[-99.03027777777778,42.26888888888889],[-99.31055555555555,42.2075],[-99.31055555555555,42.2075],[-99.31055555555555,42.2075],[-99.31055555555555,42.2075],[-99.31055555555555,42.2075],[-99.64222222222223,42.1325],[-99.64222222222223,42.1325],[-99.64222222222223,42.1325],[-99.9238888888889,42.06805555555556],[-99.9238888888889,42.06805555555556],[-99.9238888888889,42.06805555555556],[-99.9238888888889,42.06805555555556],[-99.9238888888889,42.06805555555556],[-100.065,42.036944444444444],[-100.065,42.036944444444444],[-100.065,42.036944444444444],[-100.63916666666667,41.90138888888889],[-100.63916666666667,41.90138888888889],[-100.63916666666667,41.90138888888889],[-100.63916666666667,41.90138888888889],[-100.63916666666667,41.90138888888889],[-100.63916666666667,41.90138888888889],[-100.91944444444445,41.835],[-100.91944444444445,41.835],[-101.2,41.76861111111111],[-101.2,41.76861111111111],[-101.2,41.76861111111111],[-101.2,41.76861111111111],[-101.61972222222222,41.66555555555556],[-101.61972222222222,41.66555555555556],[-101.61972222222222,41.66555555555556],[-101.61972222222222,41.66555555555556],[-101.96416666666667,41.58277777777778],[-102.04055555555556,41.5625],[-102.04055555555556,41.5625],[-102.04055555555556,41.5625],[-102.04055555555556,41.5625],[-102.18194444444445,41.52833333333333],[-102.18194444444445,41.52833333333333],[-102.18194444444445,41.52833333333333],[-102.32249999999999,41.49277777777778],[-102.32249999999999,41.49277777777778],[-102.32249999999999,41.49277777777778],[-102.32249999999999,41.49277777777778],[-102.32249999999999,41.49277777777778],[-102.32249999999999,41.49277777777778],[-102.66527777777779,41.40555555555555],[-102.66527777777779,41.40555555555555],[-102.66527777777779,41.40555555555555],[-103.3736111111111,41.22138888888889],[-103.3736111111111,41.22138888888889],[-103.3736111111111,41.22138888888889],[-103.3736111111111,41.22138888888889],[-103.3736111111111,41.22138888888889],[-103.3736111111111,41.22138888888889],[-103.51555555555555,41.18333333333333],[-103.51555555555555,41.18333333333333],[-103.51555555555555,41.18333333333333],[-103.74583333333334,41.121944444444445],[-103.74583333333334,41.121944444444445],[-103.74583333333334,41.121944444444445],[-103.74583333333334,41.121944444444445],[-104.3125,40.96888888888889],[-104.3125,40.96888888888889],[-104.3125,40.96888888888889],[-104.3125,40.96888888888889],[-104.50527777777778,40.915],[-104.50527777777778,40.915],[-104.50527777777778,40.915],[-104.50527777777778,40.915],[-104.7863888888889,40.83694444444445],[-104.92583333333334,40.797777777777775],[-104.92583333333334,40.797777777777775],[-104.92583333333334,40.797777777777775],[-104.92583333333334,40.797777777777775],[-104.92583333333334,40.797777777777775],[-105.43388888888889,40.652499999999996],[-105.43388888888889,40.652499999999996],[-105.43388888888889,40.652499999999996],[-105.43388888888889,40.652499999999996],[-105.43388888888889,40.652499999999996],[-105.65694444444445,40.58916666666667],[-105.65694444444445,40.58916666666667],[-105.65694444444445,40.58916666666667],[-105.65694444444445,40.58916666666667],[-105.65694444444445,40.58916666666667],[-105.65694444444445,40.58916666666667],[-105.65694444444445,40.58916666666667],[-106.93527777777778,40.29333333333333],[-106.93527777777778,40.29333333333333],[-106.93527777777778,40.29333333333333],[-106.93527777777778,40.29333333333333],[-106.93527777777778,40.29333333333333],[-107.15,40.24527777777778],[-107.15,40.24527777777778],[-107.15,40.24527777777778],[-107.15,40.24527777777778],[-107.15,40.24527777777778],[-107.22527777777778,40.22805555555556],[-107.49722222222222,40.16611111111111],[-107.49722222222222,40.16611111111111],[-107.49722222222222,40.16611111111111],[-107.58222222222221,40.14611111111111],[-107.58222222222221,40.14611111111111],[-107.58222222222221,40.14611111111111],[-107.58222222222221,40.14611111111111],[-107.58222222222221,40.14611111111111],[-107.92611111111111,40.0675],[-107.92611111111111,40.0675],[-107.92611111111111,40.0675],[-107.92611111111111,40.0675],[-107.92611111111111,40.0675],[-108.30666666666666,40.01111111111111],[-108.30666666666666,40.01111111111111],[-108.30666666666666,40.01111111111111],[-108.30666666666666,40.01111111111111],[-108.30666666666666,40.01111111111111],[-108.45138888888889,39.989444444444445],[-108.45138888888889,39.989444444444445],[-108.45138888888889,39.989444444444445],[-108.68111111111112,39.95472222222222],[-108.82527777777777,39.9325],[-108.88472222222222,39.92333333333333],[-108.88472222222222,39.92333333333333],[-108.88472222222222,39.92333333333333],[-108.88472222222222,39.92333333333333],[-108.96972222222223,39.91027777777778],[-108.96972222222223,39.91027777777778],[-108.96972222222223,39.91027777777778],[-109.31416666666667,39.85611111111111],[-109.31416666666667,39.85611111111111],[-109.31416666666667,39.85611111111111],[-109.31416666666667,39.85611111111111],[-109.31416666666667,39.85611111111111],[-109.74972222222222,39.78611111111111],[-109.74972222222222,39.78611111111111],[-109.74972222222222,39.78611111111111],[-109.83527777777778,39.77222222222222],[-109.83527777777778,39.77222222222222],[-109.83527777777778,39.77222222222222],[-109.83527777777778,39.77222222222222],[-109.89194444444445,39.76277777777778],[-109.89194444444445,39.76277777777778],[-110.03861111111111,39.73888888888889],[-110.03861111111111,39.73888888888889],[-110.03861111111111,39.73888888888889],[-110.03861111111111,39.73888888888889],[-110.12416666666665,39.724722222222226],[-110.26972222222223,39.70027777777778],[-110.26972222222223,39.70027777777778],[-110.32805555555555,39.690555555555555],[-110.32805555555555,39.690555555555555],[-110.32805555555555,39.690555555555555],[-110.32805555555555,39.690555555555555],[-110.32805555555555,39.690555555555555],[-110.32805555555555,39.690555555555555],[-110.56194444444444,39.651111111111106],[-110.56194444444444,39.651111111111106],[-110.56194444444444,39.651111111111106],[-110.56194444444444,39.651111111111106],[-110.65138888888889,39.635555555555555],[-110.65138888888889,39.635555555555555],[-110.70916666666668,39.62583333333333],[-110.70916666666668,39.62583333333333],[-110.85527777777777,39.600833333333334],[-110.85527777777777,39.600833333333334],[-110.85527777777777,39.600833333333334],[-110.85527777777777,39.600833333333334],[-110.85527777777777,39.600833333333334],[-110.85527777777777,39.600833333333334],[-112.79833333333333,39.23638888888889],[-112.79833333333333,39.23638888888889],[-112.79833333333333,39.23638888888889],[-112.79833333333333,39.23638888888889],[-112.79833333333333,39.23638888888889],[-112.79833333333333,39.23638888888889],[-112.79833333333333,39.23638888888889],[-112.79833333333333,39.23638888888889],[-112.79833333333333,39.23638888888889],[-113.54527777777777,39.06388888888888],[-113.54527777777777,39.06388888888888],[-113.54527777777777,39.06388888888888],[-113.68972222222223,39.030277777777776],[-113.68972222222223,39.030277777777776],[-113.83111111111111,38.99666666666667],[-113.83111111111111,38.99666666666667],[-113.83111111111111,38.99666666666667],[-113.83111111111111,38.99666666666667],[-113.83111111111111,38.99666666666667],[-113.83111111111111,38.99666666666667],[-113.83111111111111,38.99666666666667],[-114.26,38.89388888888889],[-114.26,38.89388888888889],[-114.26,38.89388888888889],[-114.26,38.89388888888889],[-114.26,38.89388888888889],[-114.26,38.89388888888889],[-114.99972222222222,38.713055555555556],[-114.99972222222222,38.713055555555556],[-114.99972222222222,38.713055555555556],[-114.99972222222222,38.713055555555556],[-114.99972222222222,38.713055555555556],[-115.11638888888888,38.683055555555555],[-115.11638888888888,38.683055555555555],[-115.11638888888888,38.683055555555555],[-115.11638888888888,38.683055555555555],[-115.44416666666667,38.60138888888889],[-115.44416666666667,38.60138888888889],[-115.44416666666667,38.60138888888889],[-115.44416666666667,38.60138888888889],[-115.88111111111111,38.48888888888889],[-115.88111111111111,38.48888888888889],[-115.88111111111111,38.48888888888889],[-115.88111111111111,38.48888888888889],[-116.25888888888889,38.390277777777776],[-116.25888888888889,38.390277777777776],[-116.25888888888889,38.390277777777776],[-116.25888888888889,38.390277777777776],[-116.40444444444445,38.35194444444445],[-116.40444444444445,38.35194444444445],[-116.40444444444445,38.35194444444445],[-116.40444444444445,38.35194444444445],[-116.40444444444445,38.35194444444445],[-116.54861111111111,38.31388888888888],[-116.6086111111111,38.297777777777775],[-116.6086111111111,38.297777777777775],[-116.69472222222223,38.275],[-116.69472222222223,38.275],[-116.69472222222223,38.275],[-117.32083333333333,38.10777777777778],[-117.32083333333333,38.10777777777778],[-117.32083333333333,38.10777777777778],[-117.32083333333333,38.10777777777778],[-117.32083333333333,38.10777777777778],[-117.32083333333333,38.10777777777778],[-117.73111111111112,38.0125],[-117.73111111111112,38.0125],[-117.76333333333334,38.00555555555555],[-117.76333333333334,38.00555555555555],[-117.76333333333334,38.00555555555555],[-118.38111111111111,37.93805555555555],[-118.38111111111111,37.93805555555555],[-118.38111111111111,37.93805555555555],[-118.38111111111111,37.93805555555555],[-118.38111111111111,37.93805555555555],[-118.84277777777777,37.886944444444445],[-118.84277777777777,37.886944444444445],[-118.84277777777777,37.886944444444445],[-118.84277777777777,37.886944444444445],[-118.84277777777777,37.886944444444445],[-119.31833333333333,37.831944444444446],[-119.31833333333333,37.831944444444446],[-119.31833333333333,37.831944444444446],[-119.31833333333333,37.831944444444446],[-119.31833333333333,37.831944444444446],[-119.31833333333333,37.831944444444446],[-119.94666666666667,37.756388888888885],[-119.94666666666667,37.756388888888885],[-119.94666666666667,37.756388888888885],[-119.94666666666667,37.756388888888885],[-120.31666666666666,37.71666666666667],[-120.31666666666666,37.71666666666667],[-120.31666666666666,37.71666666666667],[-120.42527777777778,37.696666666666665],[-120.42527777777778,37.696666666666665],[-120.5,37.68333333333333],[-120.5,37.68333333333333],[-120.5,37.68333333333333],[-120.5,37.68333333333333],[-120.5,37.68333333333333],[-121.05,37.61666666666667],[-121.08138888888888,37.61694444444444],[-121.08138888888888,37.61694444444444],[-121.08138888888888,37.61694444444444],[-121.08138888888888,37.61694444444444],[-121.08138888888888,37.61694444444444],[-121.36666666666666,37.583333333333336],[-121.36666666666666,37.583333333333336],[-121.39750000000001,37.577222222222225],[-121.39750000000001,37.577222222222225],[-121.39750000000001,37.577222222222225],[-121.39750000000001,37.577222222222225],[-121.46666666666667,37.56666666666667],[-121.46666666666667,37.56666666666667],[-121.46666666666667,37.56666666666667],[-121.56666666666666,37.55],[-121.65,37.55],[-121.65,37.55],[-121.65,37.55],[-121.65,37.55],[-121.73333333333333,37.516666666666666],[-121.73333333333333,37.516666666666666],[-121.73333333333333,37.516666666666666],[-121.73333333333333,37.516666666666666],[-121.97611111111111,37.49305555555556],[-121.97611111111111,37.49305555555556],[-121.97611111111111,37.49305555555556],[-121.97611111111111,37.49305555555556],[-121.97611111111111,37.49305555555556],[-122.18333333333334,37.55],[-122.18333333333334,37.55],[-122.18333333333334,37.55],[-122.19055555555556,37.56027777777778],[-122.24638888888889,37.57833333333333],[-122.24638888888889,37.57833333333333],[-122.29805555555555,37.59388888888889],[-122.29805555555555,37.59388888888889],[-122.29805555555555,37.59388888888889],[-122.29805555555555,37.59388888888889],[-122.29805555555555,37.59388888888889],[-122.29805555555555,37.59388888888889],[-122.34527777777777,37.608333333333334],[-122.34527777777777,37.608333333333334],[-122.34527777777777,37.608333333333334],[-122.34527777777777,37.608333333333334],[-122.34527777777777,37.608333333333334],[-122.34527777777777,37.608333333333334],[-122.34527777777777,37.608333333333334]],"type":"LineString"}
}
