{
  "id": 1981777289,
  "type": "Feature",
  "properties": {
    "geom:area": 0,
    "geom:bbox": "-122.358630,37.492140,-121.245380,37.613990",
    "geom:latitude": 37.54693493914781,
    "geom:longitude": -121.80694044070229,
    "src:alt_label": "swim-approach",
    "src:geom": "swim",
    "swim:elevations": [
      4860,
      4674,
      4596,
      4255,
      4172,
      4047,
      3976,
      3701,
      3355,
      3253,
      3144,
      3033,
      2863,
      2742,
      2556,
      2340,
      2181,
      2013,
      1969,
      1898,
      1787,
      1767,
      1548,
      1458,
      1412,
      1271,
      1087,
      1036,
      963,
      837,
      625,
      595,
      516,
      415,
      269,
      137,
      0
    ],
    "swim:geom": "approach",
    "swim:timestamps": [
      1761608187,
      1761608204,
      1761608210,
      1761608246,
      1761608256,
      1761608271,
      1761608286,
      1761608324,
      1761608365,
      1761608391,
      1761608412,
      1761608427,
      1761608454,
      1761608483,
      1761608516,
      1761608543,
      1761608566,
      1761608605,
      1761608617,
      1761608632,
      1761608664,
      1761608670,
      1761608702,
      1761608728,
      1761608745,
      1761608766,
      1761608787,
      1761608796,
      1761608817,
      1761608839,
      1761608878,
      1761608882,
      1761608930,
      1761608961,
      1761608985,
      1761609017,
      1761609047
    ],
    "wof:geomhash": "46e061f3ac12b8e866dabc0957360fdf",
    "wof:id": 1981777289,
    "wof:repo": "sfomuseum-data-flights-2025-10"
  },
  "bbox": [
    -122.35863,
    37.49214,
    -121.24538,
    37.61399
  ],
  "geometry": {"coordinates":[[-121.24538,37.59503],[-121.27642,37.59084],[-121.2871,37.58946],[-121.3513,37.58271],[-121.36889,37.5806],[-121.396,37.57746],[-121.42268,37.57428],[-121.48836,37.56665],[-121.55731,37.55856],[-121.60089,37.55346],[-121.63639,37.54803],[-121.66128,37.5419],[-121.70646,37.53109],[-121.75078,37.52057],[-121.7973,37.50932],[-121.83382,37.50064],[-121.86546,37.49333],[-121.91909,37.49214],[-121.93533,37.49254],[-121.95586,37.49304],[-121.99701,37.49783],[-122.00418,37.50015],[-122.04302,37.51263],[-122.0728,37.52223],[-122.08986,37.52764],[-122.11094,37.5345],[-122.13209,37.54141],[-122.14144,37.54449],[-122.16242,37.55125],[-122.18358,37.558],[-122.2184,37.56954],[-122.22246,37.57084],[-122.26604,37.58482],[-122.29324,37.59234],[-122.31273,37.59716],[-122.33738,37.60533],[-122.35863,37.61399]],"type":"LineString"}
}
