{
  "id": 1981737313,
  "type": "Feature",
  "properties": {
    "geom:area": 0,
    "geom:bbox": "-122.363410,37.492640,-121.246940,37.615610",
    "geom:latitude": 37.54344701890563,
    "geom:longitude": -121.81222748926137,
    "src:alt_label": "swim-approach",
    "src:geom": "swim",
    "swim:elevations": [
      4427,
      4068,
      3799,
      3513,
      3255,
      3192,
      3035,
      2949,
      2823,
      2593,
      2453,
      2176,
      2084,
      2059,
      1830,
      1670,
      1590,
      1411,
      1278,
      1044,
      938,
      867,
      784,
      592,
      402,
      326,
      216,
      92,
      0
    ],
    "swim:geom": "approach",
    "swim:timestamps": [
      1761129764,
      1761129804,
      1761129834,
      1761129865,
      1761129896,
      1761129902,
      1761129953,
      1761129971,
      1761129993,
      1761130032,
      1761130056,
      1761130108,
      1761130135,
      1761130141,
      1761130174,
      1761130219,
      1761130233,
      1761130272,
      1761130295,
      1761130332,
      1761130355,
      1761130367,
      1761130385,
      1761130421,
      1761130467,
      1761130487,
      1761130518,
      1761130556,
      1761130576
    ],
    "wof:geomhash": "6d05d1c92c21d19951ca601c45c58954",
    "wof:id": 1981737313,
    "wof:repo": "sfomuseum-data-flights-2025-10"
  },
  "bbox": [
    -122.36341,
    37.49264,
    -121.24694,
    37.61561
  ],
  "geometry": {"coordinates":[[-121.24694,37.59477],[-121.32844,37.58484],[-121.39043,37.57805],[-121.4546,37.57092],[-121.51663,37.56372],[-121.52793,37.56235],[-121.62525,37.54975],[-121.65639,37.54328],[-121.69156,37.5349],[-121.75441,37.51979],[-121.79021,37.51126],[-121.8653,37.49343],[-121.90576,37.49264],[-121.91448,37.49314],[-121.96374,37.49606],[-122.03097,37.49991],[-122.05209,37.50107],[-122.10335,37.50717],[-122.12808,37.51716],[-122.16498,37.53248],[-122.18762,37.54206],[-122.19899,37.54688],[-122.21595,37.55418],[-122.24936,37.56809],[-122.28479,37.58314],[-122.29951,37.58913],[-122.32146,37.59855],[-122.3485,37.60991],[-122.36341,37.61561]],"type":"LineString"}
}
