{
  "id": 1981801067,
  "type": "Feature",
  "properties": {
    "geom:area": 0,
    "geom:bbox": "-125.936111,36.744444,-122.400000,37.657778",
    "geom:latitude": 37.22437222503293,
    "geom:longitude": -124.1678569352323,
    "src:alt_label": "swim-path",
    "src:geom": "swim",
    "swim:altitudes": [
      "005",
      "005",
      "010",
      "010",
      "010",
      "023",
      "023",
      "023",
      "023",
      "023",
      "023",
      "023",
      "083",
      "083",
      "083",
      "129C",
      "129C",
      "129C",
      "140",
      "147C",
      "147C",
      "147C",
      "162C",
      "176C",
      "176C",
      "181",
      "181",
      "181",
      "181",
      "188C",
      "188C",
      "188C",
      "233",
      "233",
      "233",
      "233",
      "233",
      "233",
      "233",
      "233",
      "328",
      "328",
      "328",
      "328",
      "328",
      "328",
      "328",
      "328",
      "328",
      "328"
    ],
    "swim:geom": "path",
    "swim:speeds": [
      178,
      178,
      176,
      176,
      176,
      216,
      216,
      216,
      216,
      216,
      216,
      216,
      361,
      361,
      361,
      390,
      390,
      390,
      390,
      400,
      400,
      400,
      400,
      410,
      410,
      424,
      424,
      424,
      424,
      430,
      430,
      430,
      449,
      449,
      449,
      449,
      449,
      449,
      449,
      449,
      478,
      478,
      478,
      478,
      478,
      478,
      478,
      478,
      478,
      478
    ],
    "swim:timestamps": [
      1761763096,
      1761763096,
      1761763111,
      1761763111,
      1761763111,
      1761763171,
      1761763171,
      1761763171,
      1761763171,
      1761763171,
      1761763171,
      1761763171,
      1761763412,
      1761763412,
      1761763412,
      1761763569,
      1761763569,
      1761763569,
      1761763592,
      1761763629,
      1761763629,
      1761763629,
      1761763689,
      1761763749,
      1761763749,
      1761763772,
      1761763772,
      1761763772,
      1761763772,
      1761763809,
      1761763809,
      1761763809,
      1761764013,
      1761764013,
      1761764013,
      1761764013,
      1761764013,
      1761764013,
      1761764013,
      1761764013,
      1761764674,
      1761764674,
      1761764674,
      1761764674,
      1761764674,
      1761764674,
      1761764674,
      1761764674,
      1761764674,
      1761764674
    ],
    "wof:geomhash": "d09354b42b6bfc3195be14e66d4afc34",
    "wof:id": 1981801067,
    "wof:repo": "sfomuseum-data-flights-2025-10"
  },
  "bbox": [
    -125.93611111111112,
    36.74444444444445,
    -122.4,
    37.657777777777774
  ],
  "geometry": {"coordinates":[[-122.4,37.63333333333333],[-122.4,37.63333333333333],[-122.40166666666667,37.63],[-122.40166666666667,37.63],[-122.40166666666667,37.63],[-122.46333333333334,37.657777777777774],[-122.46333333333334,37.657777777777774],[-122.46333333333334,37.657777777777774],[-122.46333333333334,37.657777777777774],[-122.46333333333334,37.657777777777774],[-122.46333333333334,37.657777777777774],[-122.46333333333334,37.657777777777774],[-122.85833333333333,37.58277777777778],[-122.85833333333333,37.58277777777778],[-122.85833333333333,37.58277777777778],[-123.18333333333334,37.483333333333334],[-123.18333333333334,37.483333333333334],[-123.18333333333334,37.483333333333334],[-123.24055555555556,37.48222222222223],[-123.31666666666666,37.45],[-123.31666666666666,37.45],[-123.31666666666666,37.45],[-123.45,37.416666666666664],[-123.58333333333333,37.38333333333333],[-123.58333333333333,37.38333333333333],[-123.64833333333334,37.37361111111111],[-123.64833333333334,37.37361111111111],[-123.64833333333334,37.37361111111111],[-123.64833333333334,37.37361111111111],[-123.71666666666667,37.35],[-123.71666666666667,37.35],[-123.71666666666667,37.35],[-124.23055555555555,37.21527777777778],[-124.23055555555555,37.21527777777778],[-124.23055555555555,37.21527777777778],[-124.23055555555555,37.21527777777778],[-124.23055555555555,37.21527777777778],[-124.23055555555555,37.21527777777778],[-124.23055555555555,37.21527777777778],[-124.23055555555555,37.21527777777778],[-125.93611111111112,36.74444444444445],[-125.93611111111112,36.74444444444445],[-125.93611111111112,36.74444444444445],[-125.93611111111112,36.74444444444445],[-125.93611111111112,36.74444444444445],[-125.93611111111112,36.74444444444445],[-125.93611111111112,36.74444444444445],[-125.93611111111112,36.74444444444445],[-125.93611111111112,36.74444444444445],[-125.93611111111112,36.74444444444445]],"type":"LineString"}
}
