{
  "id": 1981801067,
  "type": "Feature",
  "properties": {
    "geom:area": 0,
    "geom:bbox": "-178.200000,1.360000,180.000000,37.670000",
    "geom:latitude": 25.28008749441468,
    "geom:longitude": 6.341951357573038,
    "src:alt_label": "swim-route",
    "src:geom": "swim",
    "swim:geom": "route",
    "wof:geomhash": "ae13377796baf05c68bd392391eafffc",
    "wof:id": 1981801067,
    "wof:repo": "sfomuseum-data-flights-2025-10"
  },
  "bbox": [
    -178.2,
    1.36,
    180,
    37.67
  ],
  "geometry": {"coordinates":[[[-122.38,37.62],[-122.5,37.67],[-122.51,37.67],[-122.61,37.65],[-122.61,37.65],[-122.66,37.64],[-122.73,37.62],[-122.75,37.61],[-122.86,37.59],[-122.86,37.58],[-122.97,37.56],[-123.06,37.53],[-123.46,37.43],[-123.47,37.43],[-123.71,37.36],[-123.91,37.31],[-124.01,37.28],[-124.19,37.24],[-124.2,37.23],[-124.28,37.21],[-124.44,37.17],[-124.8,37.07],[-125.28,36.94],[-125.65,36.84],[-125.83,36.78],[-126.92,36.46],[-126.93,36.46],[-126.93,36.46],[-130,36],[-132.04,35.67],[-134.06,35.3],[-135.06,35.1],[-140,34],[-150,33],[-153.71,32],[-160,30],[-164.62,28.73],[-170,27],[-175.48,26.54],[-177.29,26.34],[-178.2,26.23]],[[180,26],[179.19,25.94],[175.14,25.6],[170,25],[169.08,24.94],[164.53,24.54],[160,24],[154.99,22.59],[152.04,21.67],[152.03,21.67],[150.01,21],[150,21],[144.16,18.75],[140,17],[135.8,15.91],[130,14.25],[129.13,14.05],[127.4,13.65],[125.67,13.24],[123.95,12.81],[119.67,11.7],[118.91,11.22],[116.63,9.77],[115.11,8.8],[106.19,2.85],[105.85,2.62],[105.81,2.59],[105.54,2.41],[105.49,2.38],[105.27,2.23],[105.09,2.11],[104.91,1.99],[104.65,1.81],[104.52,1.71],[104.34,1.59],[104.3,1.57],[104.2,1.5],[104.13,1.45],[104.06,1.41],[103.99,1.36]]],"type":"MultiLineString"}
}
