{
  "id": 1981733173,
  "type": "Feature",
  "properties": {
    "date:cessation_lower": "2025-10-21",
    "date:cessation_upper": "2025-10-21",
    "date:inception_lower": "2025-10-21",
    "date:inception_upper": "2025-10-21",
    "edtf:cessation": "2025-10-21T20:50:00Z",
    "edtf:inception": "2025-10-21T02:23:50-07:00",
    "flysfo:actual_timestamp": -1,
    "flysfo:airline": "UA",
    "flysfo:base_airline": "",
    "flysfo:base_flight_number": "9031",
    "flysfo:date": "2025-10-21",
    "flysfo:estimated_timestamp": 1761062460,
    "flysfo:event": "D",
    "flysfo:flight_number": "UA2664",
    "flysfo:gate": "D5",
    "flysfo:journey": "SFO-BWI",
    "flysfo:scheduled_timestamp": 1761063000,
    "flysfo:timestamp": 1761063000,
    "geom:area": 0,
    "geom:bbox": "-122.370943,37.617990,-76.671070,39.181319",
    "geom:latitude": 38.3996545,
    "geom:longitude": -99.5210065,
    "iata:airline": "UA",
    "iata:base_airline": "",
    "icao:aircraft": "B39M",
    "icao:airline": "UAL",
    "icao:base_airline": "ANZ",
    "lbl:latitude": 37.616825,
    "lbl:longitude": -122.381021,
    "sfomuseum:aircraft_id": 1528104577,
    "sfomuseum:airline_id": 1159285413,
    "sfomuseum:arrival_id": 102532047,
    "sfomuseum:base_flight_id": "20251021-D-ANZ-9031",
    "sfomuseum:departure_id": 102527513,
    "sfomuseum:flight_id": "20251021-D-UAL-2664",
    "sfomuseum:flight_number": [
      "UAL2664",
      "UA2664"
    ],
    "sfomuseum:placetype": "flight",
    "src:geom": "flysfo",
    "src:geom_alt": [
      "swim-route",
      "swim-path",
      "swim-takeoff"
    ],
    "swim:tail_number": "N17564",
    "wof:belongsto": [
      1947304067,
      102527513,
      1947304595,
      102191575,
      85633793,
      102087579,
      85922583,
      554784711,
      85688637,
      1947304607,
      1947304591,
      102085387
    ],
    "wof:concordances": {
      "swim:flight_ref": "113892828",
      "swim:gufi": "KO55259300"
    },
    "wof:country": "US",
    "wof:created": 1761149774,
    "wof:geomhash": "ff243e97b2d4ce40e0a4accb79115371",
    "wof:hierarchy": [
      {
        "building_id": 1947304067,
        "campus_id": 102527513,
        "concourse_id": 1947304595,
        "continent_id": 102191575,
        "country_id": 85633793,
        "county_id": 102087579,
        "custom_id": 1981733173,
        "flight_id": 1981733173,
        "locality_id": 85922583,
        "postalcode_id": 554784711,
        "region_id": 85688637,
        "venue_id": 1947304607,
        "wing_id": 1947304591
      },
      {
        "building_id": 1947304067,
        "campus_id": 102527513,
        "concourse_id": 1947304595,
        "continent_id": 102191575,
        "country_id": 85633793,
        "county_id": 102085387,
        "custom_id": 1981733173,
        "flight_id": 1981733173,
        "region_id": 85688637,
        "venue_id": 1947304607,
        "wing_id": 1947304591
      }
    ],
    "wof:id": 1981733173,
    "wof:involves": [
      1159285413,
      1947304607,
      1159283697,
      1528104577,
      102532047,
      102527513
    ],
    "wof:lastmodified": 1761149894,
    "wof:name": "UA2664 (SFO-BWI)",
    "wof:parent_id": 1947304607,
    "wof:placetype": "custom",
    "wof:placetype_alt": [
      "flight"
    ],
    "wof:repo": "sfomuseum-data-flights-2025-10",
    "wof:superseded_by": [],
    "wof:supersedes": []
  },
  "bbox": [
    -122.370943,
    37.61799,
    -76.67107,
    39.181319
  ],
  "geometry": {"coordinates":[[-122.370943,37.61799],[-76.67107,39.181319]],"type":"MultiPoint"}
}
