{
  "id": 1981767613,
  "type": "Feature",
  "properties": {
    "geom:area": 0,
    "geom:bbox": "-122.542940,36.721330,-121.273430,37.666970",
    "geom:latitude": 37.21889355842491,
    "geom:longitude": -121.96725436946518,
    "src:alt_label": "swim-takeoff",
    "src:geom": "swim",
    "swim:elevations": [
      244,
      274,
      589,
      959,
      987,
      1261,
      1507,
      2118,
      2656,
      3106,
      3262,
      3342,
      3398,
      3892,
      4303,
      6637,
      6940,
      7456,
      7561,
      7905,
      8039,
      8298,
      8556,
      8645,
      8779,
      9277,
      9345
    ],
    "swim:geom": "takeoff",
    "swim:timestamps": [
      1761394466,
      1761394470,
      1761394491,
      1761394526,
      1761394530,
      1761394555,
      1761394571,
      1761394612,
      1761394647,
      1761394677,
      1761394701,
      1761394710,
      1761394718,
      1761394755,
      1761394785,
      1761394988,
      1761395018,
      1761395066,
      1761395076,
      1761395113,
      1761395135,
      1761395171,
      1761395215,
      1761395224,
      1761395251,
      1761395330,
      1761395340
    ],
    "wof:geomhash": "c8679a6fc187418db01ff521edcbc8f8",
    "wof:id": 1981767613,
    "wof:repo": "sfomuseum-data-flights-2025-10"
  },
  "bbox": [
    -122.54294,
    36.72133,
    -121.27343,
    37.66697
  ],
  "geometry": {"coordinates":[[-122.39764,37.63067],[-122.40128,37.63231],[-122.42033,37.63973],[-122.45397,37.6531],[-122.45825,37.65487],[-122.48794,37.66634],[-122.50941,37.66697],[-122.54294,37.63248],[-122.51893,37.5928],[-122.47726,37.5649],[-122.44267,37.5421],[-122.42854,37.53248],[-122.41607,37.52378],[-122.35755,37.48361],[-122.31019,37.45046],[-121.95917,37.20622],[-121.90146,37.16586],[-121.81136,37.10265],[-121.7922,37.08915],[-121.72254,37.03959],[-121.68084,37.01082],[-121.61119,36.96153],[-121.52511,36.89998],[-121.50655,36.88815],[-121.45319,36.85006],[-121.29303,36.73531],[-121.27343,36.72133]],"type":"LineString"}
}
