{
  "id": 1981808549,
  "type": "Feature",
  "properties": {
    "geom:area": 0,
    "geom:bbox": "-122.334444,33.649444,-84.275833,38.683333",
    "geom:latitude": 37.29893297512137,
    "geom:longitude": -103.19526873729188,
    "src:alt_label": "swim-path",
    "src:geom": "swim",
    "swim:altitudes": [
      "030",
      "056",
      "056",
      "119",
      "119",
      "119",
      "140",
      "140",
      "140",
      "164",
      "183",
      "183",
      "249",
      "249",
      "274",
      "323",
      "323",
      "323",
      "330C",
      "330C",
      "330C",
      "330C",
      "330C",
      "330C",
      "330C",
      "330C",
      "330C",
      "330C",
      "330C",
      "330C",
      "330C",
      "330C",
      "330C",
      "330C",
      "330C",
      "330C",
      "330C",
      "330C",
      "330C",
      "330C",
      "330C",
      "330C",
      "330C",
      "330C",
      "330C",
      "330C",
      "330C",
      "330C",
      "330C",
      "330C",
      "330C",
      "330C",
      "330C",
      "330C",
      "330C",
      "344",
      "344",
      "370C",
      "370C",
      "370C",
      "370C",
      "370C",
      "370C",
      "370C",
      "370C",
      "370C",
      "370C",
      "370C",
      "370C",
      "370C",
      "370C",
      "370C",
      "370C",
      "370C",
      "370C",
      "370C",
      "372C",
      "372C",
      "369C",
      "369C",
      "370",
      "370",
      "370",
      "370",
      "370",
      "370",
      "370",
      "370C",
      "370C",
      "370C",
      "370C",
      "370C",
      "370C",
      "370C",
      "370C",
      "370C",
      "370C",
      "370C",
      "370C",
      "370C",
      "370C",
      "370C",
      "370C",
      "370C",
      "370C",
      "370C",
      "370C",
      "370C",
      "370C",
      "370C",
      "370C",
      "370C",
      "370C",
      "370C",
      "370C",
      "370C",
      "370C",
      "370C",
      "370C",
      "370C",
      "370C",
      "370C",
      "370C",
      "370C",
      "370C",
      "370C",
      "370C",
      "370C",
      "370C",
      "370C",
      "370C",
      "370C",
      "370C",
      "370C",
      "370C",
      "370C",
      "370C",
      "370C",
      "370C",
      "370C",
      "370C",
      "370C",
      "370C",
      "370C",
      "370C",
      "370C",
      "370C",
      "370C",
      "370C",
      "370C",
      "370C",
      "370C",
      "370C",
      "370C",
      "370C",
      "370C",
      "370C",
      "370C",
      "370C",
      "370C",
      "370C",
      "370C",
      "370C",
      "370C",
      "370C",
      "370C",
      "370C",
      "370C",
      "370C",
      "370C",
      "370C",
      "370C",
      "370C",
      "370C",
      "370C",
      "370C",
      "370C",
      "370C",
      "370C",
      "370C",
      "370C",
      "370C",
      "370C",
      "370C",
      "370C",
      "370C",
      "370",
      "370",
      "349",
      "320",
      "320",
      "309",
      "290",
      "290",
      "275",
      "259",
      "236",
      "216",
      "187",
      "179",
      "179",
      "179",
      "164",
      "142",
      "110",
      "110",
      "108",
      "065",
      "065",
      "065",
      "045",
      "029",
      "023",
      "023",
      "015",
      "009",
      "009"
    ],
    "swim:geom": "path",
    "swim:speeds": [
      224,
      261,
      261,
      378,
      378,
      378,
      406,
      406,
      406,
      415,
      429,
      429,
      486,
      486,
      508,
      512,
      512,
      512,
      516,
      516,
      517,
      515,
      515,
      526,
      526,
      526,
      526,
      519,
      515,
      515,
      517,
      517,
      516,
      516,
      516,
      516,
      517,
      517,
      517,
      518,
      518,
      518,
      518,
      518,
      518,
      518,
      518,
      518,
      518,
      518,
      518,
      518,
      518,
      518,
      518,
      514,
      514,
      512,
      512,
      512,
      513,
      512,
      512,
      513,
      513,
      512,
      513,
      513,
      513,
      513,
      513,
      515,
      516,
      518,
      518,
      518,
      519,
      519,
      522,
      522,
      522,
      522,
      527,
      527,
      527,
      527,
      526,
      520,
      520,
      515,
      515,
      515,
      515,
      506,
      506,
      506,
      506,
      506,
      506,
      505,
      505,
      499,
      499,
      498,
      497,
      498,
      498,
      497,
      499,
      498,
      505,
      505,
      501,
      506,
      505,
      505,
      505,
      508,
      509,
      510,
      510,
      510,
      510,
      510,
      510,
      509,
      509,
      509,
      511,
      509,
      509,
      509,
      509,
      509,
      511,
      511,
      513,
      514,
      514,
      516,
      516,
      517,
      517,
      517,
      517,
      517,
      518,
      518,
      518,
      518,
      521,
      523,
      525,
      527,
      527,
      530,
      532,
      535,
      535,
      535,
      542,
      541,
      541,
      541,
      541,
      542,
      541,
      541,
      542,
      542,
      542,
      543,
      543,
      542,
      544,
      549,
      549,
      546,
      547,
      547,
      548,
      548,
      548,
      548,
      548,
      548,
      548,
      547,
      545,
      546,
      546,
      546,
      547,
      547,
      547,
      541,
      523,
      501,
      482,
      472,
      472,
      472,
      466,
      444,
      416,
      396,
      349,
      307,
      307,
      307,
      288,
      186,
      168,
      168,
      118,
      121,
      121
    ],
    "swim:timestamps": [
      1761887316,
      1761887376,
      1761887376,
      1761887556,
      1761887556,
      1761887556,
      1761887617,
      1761887617,
      1761887617,
      1761887677,
      1761887737,
      1761887737,
      1761887977,
      1761887977,
      1761888097,
      1761888332,
      1761888332,
      1761888332,
      1761888452,
      1761888452,
      1761888577,
      1761888757,
      1761888757,
      1761888872,
      1761888872,
      1761888872,
      1761888872,
      1761888932,
      1761888938,
      1761888938,
      1761889053,
      1761889053,
      1761889173,
      1761889235,
      1761889235,
      1761889235,
      1761889355,
      1761889355,
      1761889355,
      1761889538,
      1761889538,
      1761889593,
      1761889593,
      1761889593,
      1761889593,
      1761889593,
      1761889654,
      1761889654,
      1761889654,
      1761889953,
      1761890016,
      1761890016,
      1761890016,
      1761890016,
      1761890016,
      1761890376,
      1761890376,
      1761890616,
      1761890616,
      1761890616,
      1761890795,
      1761890917,
      1761890917,
      1761891107,
      1761891107,
      1761891407,
      1761891527,
      1761891527,
      1761891575,
      1761891588,
      1761891588,
      1761891708,
      1761891756,
      1761891828,
      1761891828,
      1761891828,
      1761891888,
      1761891888,
      1761891994,
      1761891994,
      1761892188,
      1761892188,
      1761892308,
      1761892308,
      1761892308,
      1761892308,
      1761892368,
      1761892488,
      1761892488,
      1761892728,
      1761892728,
      1761892728,
      1761892728,
      1761893028,
      1761893088,
      1761893088,
      1761893208,
      1761893208,
      1761893208,
      1761893268,
      1761893268,
      1761893448,
      1761893509,
      1761893569,
      1761893597,
      1761893629,
      1761893629,
      1761893659,
      1761893689,
      1761893716,
      1761893989,
      1761893989,
      1761894109,
      1761894529,
      1761894556,
      1761894589,
      1761894679,
      1761894859,
      1761895037,
      1761895278,
      1761895278,
      1761895278,
      1761895577,
      1761895697,
      1761895697,
      1761895817,
      1761895817,
      1761895937,
      1761896054,
      1761896114,
      1761896114,
      1761896114,
      1761896174,
      1761896174,
      1761896354,
      1761896354,
      1761896534,
      1761896540,
      1761896594,
      1761896834,
      1761896834,
      1761897014,
      1761897014,
      1761897020,
      1761897074,
      1761897134,
      1761897194,
      1761897254,
      1761897254,
      1761897254,
      1761897374,
      1761897494,
      1761897558,
      1761897614,
      1761897614,
      1761897734,
      1761897794,
      1761897974,
      1761897974,
      1761897974,
      1761898365,
      1761898515,
      1761898515,
      1761898575,
      1761898635,
      1761898725,
      1761898755,
      1761898755,
      1761898846,
      1761898875,
      1761898875,
      1761898995,
      1761898995,
      1761899026,
      1761899055,
      1761899086,
      1761899086,
      1761899235,
      1761899295,
      1761899295,
      1761899386,
      1761899386,
      1761899535,
      1761899566,
      1761899566,
      1761899595,
      1761899626,
      1761899715,
      1761899806,
      1761899866,
      1761899866,
      1761899895,
      1761899926,
      1761899926,
      1761899955,
      1761899986,
      1761900046,
      1761900086,
      1761900166,
      1761900176,
      1761900176,
      1761900176,
      1761900226,
      1761900286,
      1761900416,
      1761900476,
      1761900526,
      1761900646,
      1761900646,
      1761900646,
      1761900706,
      1761900826,
      1761900886,
      1761900886,
      1761900950,
      1761901006,
      1761901006
    ],
    "wof:geomhash": "fcb77292ae29cde8ae426bfbb1def20d",
    "wof:id": 1981808549,
    "wof:repo": "sfomuseum-data-flights-2025-10"
  },
  "bbox": [
    -122.33444444444444,
    33.64944444444444,
    -84.27583333333334,
    38.68333333333333
  ],
  "geometry": {"coordinates":[[-122.31333333333333,37.676944444444445],[-122.33444444444444,37.74027777777778],[-122.33444444444444,37.74027777777778],[-122.31805555555555,37.96027777777778],[-122.31805555555555,37.96027777777778],[-122.31805555555555,37.96027777777778],[-122.18194444444445,37.98027777777778],[-122.18194444444445,37.98027777777778],[-122.18194444444445,37.98027777777778],[-122.03555555555555,37.98972222222222],[-121.88583333333334,37.99],[-121.88583333333334,37.99],[-121.22555555555556,37.99111111111111],[-121.22555555555556,37.99111111111111],[-120.87583333333333,38.025555555555556],[-120.21388888888889,38.192499999999995],[-120.21388888888889,38.192499999999995],[-120.21388888888889,38.192499999999995],[-119.85111111111111,38.236111111111114],[-119.85111111111111,38.236111111111114],[-119.46666666666667,38.28472222222222],[-118.9213888888889,38.347500000000004],[-118.9213888888889,38.347500000000004],[-118.56277777777777,38.3875],[-118.56277777777777,38.3875],[-118.56277777777777,38.3875],[-118.56277777777777,38.3875],[-118.38333333333334,38.40694444444444],[-118.38333333333334,38.40694444444444],[-118.38333333333334,38.40694444444444],[-118.04138888888889,38.44361111111111],[-118.04138888888889,38.44361111111111],[-117.67694444444444,38.481388888888894],[-117.495,38.499722222222225],[-117.495,38.499722222222225],[-117.495,38.499722222222225],[-117.125,38.52916666666667],[-117.125,38.52916666666667],[-117.125,38.52916666666667],[-116.5675,38.55638888888888],[-116.5675,38.55638888888888],[-116.38555555555556,38.56472222222222],[-116.38555555555556,38.56472222222222],[-116.38555555555556,38.56472222222222],[-116.38555555555556,38.56472222222222],[-116.38555555555556,38.56472222222222],[-116.20333333333333,38.57277777777778],[-116.20333333333333,38.57277777777778],[-116.20333333333333,38.57277777777778],[-115.31722222222221,38.60805555555556],[-115.1275,38.61472222222223],[-115.1275,38.61472222222223],[-115.1275,38.61472222222223],[-115.1275,38.61472222222223],[-115.1275,38.61472222222223],[-114.035,38.64722222222222],[-114.035,38.64722222222222],[-113.30611111111111,38.663333333333334],[-113.30611111111111,38.663333333333334],[-113.30611111111111,38.663333333333334],[-112.75722222222223,38.67222222222222],[-112.39166666666668,38.67666666666666],[-112.39166666666668,38.67666666666666],[-111.80944444444444,38.68138888888889],[-111.80944444444444,38.68138888888889],[-110.88083333333333,38.68333333333333],[-110.51666666666667,38.68222222222222],[-110.51666666666667,38.68222222222222],[-110.36972222222222,38.68111111111111],[-110.33277777777778,38.68111111111111],[-110.33277777777778,38.68111111111111],[-109.96972222222223,38.67805555555555],[-109.82055555555556,38.67305555555555],[-109.6036111111111,38.660555555555554],[-109.6036111111111,38.660555555555554],[-109.6036111111111,38.660555555555554],[-109.4175,38.65],[-109.4175,38.65],[-109.08583333333333,38.62638888888889],[-109.08583333333333,38.62638888888889],[-108.50027777777778,38.60166666666667],[-108.50027777777778,38.60166666666667],[-108.12777777777777,38.57805555555556],[-108.12777777777777,38.57805555555556],[-108.12777777777777,38.57805555555556],[-108.12777777777777,38.57805555555556],[-107.94416666666667,38.566111111111105],[-107.57777777777777,38.536944444444444],[-107.57777777777777,38.536944444444444],[-106.84944444444444,38.486111111111114],[-106.84944444444444,38.486111111111114],[-106.84944444444444,38.486111111111114],[-106.84944444444444,38.486111111111114],[-105.94194444444445,38.413888888888884],[-105.7713888888889,38.39944444444444],[-105.7713888888889,38.39944444444444],[-105.41944444444445,38.36888888888889],[-105.41944444444445,38.36888888888889],[-105.41944444444445,38.36888888888889],[-105.24222222222222,38.35333333333333],[-105.24222222222222,38.35333333333333],[-104.70194444444445,38.31388888888888],[-104.52805555555555,38.30138888888889],[-104.35083333333333,38.28972222222222],[-104.27722222222222,38.285555555555554],[-104.17694444444444,38.28194444444444],[-104.17694444444444,38.28194444444444],[-104.10277777777777,38.27638888888889],[-103.99861111111112,38.27305555555555],[-103.92611111111111,38.26861111111111],[-103.14250000000001,38.225],[-103.14250000000001,38.225],[-102.79083333333332,38.203611111111115],[-101.56,38.041666666666664],[-101.4588888888889,38.02722222222222],[-101.38388888888889,38.01638888888889],[-101.10722222222222,37.975833333333334],[-100.61055555555555,37.89388888888889],[-100.09194444444444,37.777499999999996],[-99.40666666666667,37.62027777777778],[-99.40666666666667,37.62027777777778],[-99.40666666666667,37.62027777777778],[-98.52055555555556,37.40972222222222],[-98.18361111111112,37.3275],[-98.18361111111112,37.3275],[-97.84722222222221,37.24444444444445],[-97.84722222222221,37.24444444444445],[-97.5111111111111,37.16027777777778],[-97.21277777777777,37.08277777777778],[-97.04416666666667,37.040277777777774],[-97.04416666666667,37.040277777777774],[-97.04416666666667,37.040277777777774],[-96.87555555555555,36.9975],[-96.87555555555555,36.9975],[-96.36666666666666,36.865],[-96.36666666666666,36.865],[-95.86,36.72972222222222],[-95.82444444444444,36.72027777777778],[-95.68861111111111,36.683611111111105],[-95.00166666666667,36.49527777777778],[-95.00166666666667,36.49527777777778],[-94.49472222222222,36.35277777777778],[-94.49472222222222,36.35277777777778],[-94.49333333333334,36.3525],[-94.3236111111111,36.3075],[-94.15305555555557,36.270833333333336],[-93.98611111111111,36.23583333333333],[-93.8125,36.20027777777778],[-93.8125,36.20027777777778],[-93.8125,36.20027777777778],[-93.46611111111112,36.12722222222222],[-93.11611111111111,36.052499999999995],[-92.94055555555556,36.014722222222225],[-92.76166666666667,35.976111111111116],[-92.76166666666667,35.976111111111116],[-92.40916666666668,35.89861111111111],[-92.23166666666667,35.85944444444445],[-91.70277777777778,35.74027777777778],[-91.70277777777778,35.74027777777778],[-91.70277777777778,35.74027777777778],[-90.57027777777778,35.476111111111116],[-90.13361111111112,35.37083333333334],[-90.13361111111112,35.37083333333334],[-89.95861111111111,35.32805555555556],[-89.78083333333333,35.284166666666664],[-89.51361111111112,35.21888888888889],[-89.42555555555556,35.19611111111111],[-89.42555555555556,35.19611111111111],[-89.16250000000001,35.13166666666667],[-89.07249999999999,35.1075],[-89.07249999999999,35.1075],[-88.71805555555555,35.01694444444444],[-88.71805555555555,35.01694444444444],[-88.6363888888889,34.99583333333334],[-88.54222222222222,34.97166666666667],[-88.45777777777778,34.94972222222222],[-88.45777777777778,34.94972222222222],[-87.99944444444445,34.82972222222222],[-87.8236111111111,34.783055555555556],[-87.8236111111111,34.783055555555556],[-87.57444444444444,34.71666666666667],[-87.57444444444444,34.71666666666667],[-87.14666666666668,34.600833333333334],[-87.04222222222222,34.57222222222222],[-87.04222222222222,34.57222222222222],[-86.97055555555556,34.55277777777778],[-86.86472222222221,34.524166666666666],[-86.61805555555554,34.46083333333333],[-86.34027777777777,34.38777777777778],[-86.16361111111112,34.34055555555556],[-86.16361111111112,34.34055555555556],[-86.09444444444443,34.32222222222222],[-85.98972222222223,34.29527777777778],[-85.98972222222223,34.29527777777778],[-85.91722222222222,34.27638888888889],[-85.81472222222222,34.249722222222225],[-85.66416666666667,34.21055555555556],[-85.53333333333333,34.18333333333333],[-85.34777777777778,34.12694444444445],[-85.3,34.11666666666667],[-85.3,34.11666666666667],[-85.3,34.11666666666667],[-85.19972222222222,34.08861111111111],[-85.05972222222222,34.046388888888885],[-84.8,33.88333333333333],[-84.7,33.81666666666667],[-84.61527777777778,33.756388888888885],[-84.41361111111112,33.73277777777778],[-84.41361111111112,33.73277777777778],[-84.41361111111112,33.73277777777778],[-84.31861111111111,33.73305555555556],[-84.27583333333334,33.656666666666666],[-84.33305555555555,33.64944444444444],[-84.33305555555555,33.64944444444444],[-84.38333333333334,33.65],[-84.41666666666667,33.64944444444444],[-84.41666666666667,33.64944444444444]],"type":"LineString"}
}
