{
  "id": 1997542927,
  "type": "Feature",
  "properties": {
    "geom:area": 0,
    "geom:bbox": "-122.753350,37.414490,-122.085470,38.401420",
    "geom:latitude": 37.78755774084748,
    "geom:longitude": -122.45624817650197,
    "src:alt_label": "swim-approach",
    "src:geom": "swim",
    "swim:elevations": [
      7529,
      7179,
      6866,
      6723,
      6437,
      6352,
      5790,
      5653,
      5270,
      5160,
      4825,
      4440,
      4166,
      3877,
      3443,
      3355,
      3353,
      3353,
      3353,
      3353,
      3353,
      3353,
      3347,
      3284,
      3029,
      2749,
      2488,
      2103,
      1786,
      1698,
      1543,
      1395,
      1233,
      1154,
      973,
      914,
      812,
      632,
      487,
      437,
      381,
      264,
      244,
      62,
      95
    ],
    "swim:geom": "approach",
    "swim:timestamps": [
      1761901478,
      1761901513,
      1761901543,
      1761901555,
      1761901585,
      1761901593,
      1761901647,
      1761901660,
      1761901703,
      1761901724,
      1761901763,
      1761901794,
      1761901814,
      1761901835,
      1761901881,
      1761901918,
      1761901921,
      1761901953,
      1761901994,
      1761902015,
      1761902053,
      1761902070,
      1761902091,
      1761902100,
      1761902141,
      1761902175,
      1761902203,
      1761902246,
      1761902278,
      1761902296,
      1761902320,
      1761902351,
      1761902375,
      1761902419,
      1761902450,
      1761902486,
      1761902514,
      1761902548,
      1761902578,
      1761902594,
      1761902605,
      1761902636,
      1761902644,
      1761902688,
      1761902705
    ],
    "wof:geomhash": "b828089d3b8a55f99b2d3348473cb714",
    "wof:id": 1997542927,
    "wof:repo": "sfomuseum-data-flights-2025-10"
  },
  "bbox": [
    -122.75335,
    37.41449,
    -122.08547,
    38.40142
  ],
  "geometry": {"coordinates":[[-122.58603,38.40142],[-122.63949,38.34945],[-122.68635,38.30398],[-122.70475,38.2861],[-122.74606,38.24221],[-122.75335,38.22684],[-122.74019,38.13128],[-122.73358,38.10751],[-122.71196,38.03235],[-122.70197,37.99781],[-122.68271,37.93321],[-122.658,37.88664],[-122.63266,37.86129],[-122.60427,37.83422],[-122.54355,37.77695],[-122.49714,37.73303],[-122.49361,37.72965],[-122.45573,37.69419],[-122.40725,37.64887],[-122.38402,37.62685],[-122.34853,37.58693],[-122.33795,37.56809],[-122.3273,37.54388],[-122.32231,37.53317],[-122.29471,37.48723],[-122.27275,37.45168],[-122.25355,37.42337],[-122.19705,37.41449],[-122.15344,37.41738],[-122.12985,37.41874],[-122.1028,37.4254],[-122.08654,37.44985],[-122.08547,37.46973],[-122.11514,37.50097],[-122.14047,37.51972],[-122.17473,37.53444],[-122.20148,37.54579],[-122.23459,37.55964],[-122.26196,37.57124],[-122.2755,37.57691],[-122.28496,37.58096],[-122.30861,37.59082],[-122.31459,37.59332],[-122.34888,37.60773],[-122.36149,37.61347]],"type":"LineString"}
}
