{
  "id": 1981722991,
  "type": "Feature",
  "properties": {
    "geom:area": 0,
    "geom:bbox": "-122.365250,37.630140,-121.245100,37.965540",
    "geom:latitude": 37.83869263022159,
    "geom:longitude": -121.82008768719203,
    "src:alt_label": "swim-takeoff",
    "src:geom": "swim",
    "swim:elevations": [
      152,
      713,
      1017,
      1775,
      2318,
      2683,
      2986,
      3288,
      3368,
      3827,
      3996,
      4382,
      4894,
      5024,
      5710,
      6239,
      6343,
      6768,
      6991
    ],
    "swim:geom": "takeoff",
    "swim:timestamps": [
      1760961999,
      1760962041,
      1760962077,
      1760962126,
      1760962164,
      1760962192,
      1760962215,
      1760962247,
      1760962260,
      1760962307,
      1760962324,
      1760962359,
      1760962405,
      1760962416,
      1760962487,
      1760962548,
      1760962560,
      1760962608,
      1760962628
    ],
    "wof:geomhash": "a56e2d55d094b201b55cdaa35c453b1e",
    "wof:id": 1981722991,
    "wof:repo": "sfomuseum-data-flights-2025-10"
  },
  "bbox": [
    -122.36525,
    37.63014,
    -121.2451,
    37.96554
  ],
  "geometry": {"coordinates":[[-122.36525,37.63014],[-122.33547,37.65535],[-122.29328,37.67669],[-122.23027,37.70938],[-122.17831,37.73635],[-122.14004,37.75611],[-122.10663,37.7734],[-122.05821,37.79841],[-122.03835,37.80869],[-121.95014,37.83639],[-121.91751,37.84251],[-121.84385,37.85608],[-121.74629,37.87408],[-121.72329,37.87829],[-121.56962,37.90659],[-121.43064,37.93194],[-121.40272,37.93704],[-121.29233,37.95701],[-121.2451,37.96554]],"type":"LineString"}
}
