{
  "id": 1981694011,
  "type": "Feature",
  "properties": {
    "geom:area": 0,
    "geom:bbox": "-122.748900,37.366250,-122.123650,38.489100",
    "geom:latitude": 37.81482764386688,
    "geom:longitude": -122.46644616293996,
    "src:alt_label": "swim-approach",
    "src:geom": "swim",
    "swim:elevations": [
      7199,
      7038,
      6952,
      6774,
      6676,
      6315,
      6136,
      5690,
      5587,
      5340,
      4824,
      4787,
      4305,
      4133,
      3978,
      3934,
      3848,
      3693,
      3483,
      3384,
      3353,
      3297,
      3106,
      3041,
      2943,
      2839,
      2608,
      2524,
      2307,
      2154,
      1830,
      1829,
      1766,
      1539,
      1458,
      1254,
      1250,
      1219,
      1219,
      1219,
      964,
      945,
      915,
      823,
      627,
      533,
      377,
      258,
      145,
      120
    ],
    "swim:geom": "approach",
    "swim:timestamps": [
      1760688536,
      1760688567,
      1760688582,
      1760688618,
      1760688639,
      1760688680,
      1760688698,
      1760688741,
      1760688753,
      1760688782,
      1760688836,
      1760688840,
      1760688888,
      1760688911,
      1760688943,
      1760688968,
      1760689014,
      1760689040,
      1760689069,
      1760689091,
      1760689136,
      1760689160,
      1760689186,
      1760689194,
      1760689204,
      1760689220,
      1760689257,
      1760689269,
      1760689300,
      1760689325,
      1760689376,
      1760689390,
      1760689426,
      1760689467,
      1760689494,
      1760689527,
      1760689531,
      1760689588,
      1760689602,
      1760689620,
      1760689666,
      1760689708,
      1760689729,
      1760689749,
      1760689798,
      1760689818,
      1760689858,
      1760689884,
      1760689915,
      1760689923
    ],
    "wof:geomhash": "6a565ed57ee89d160334443feff3ada0",
    "wof:id": 1981694011,
    "wof:repo": "sfomuseum-data-flights-2025-10"
  },
  "bbox": [
    -122.7489,
    37.36625,
    -122.12365,
    38.4891
  ],
  "geometry": {"coordinates":[[-122.49481,38.4891],[-122.54354,38.44214],[-122.56711,38.41932],[-122.62455,38.36364],[-122.65612,38.333],[-122.71994,38.27079],[-122.7447,38.24329],[-122.7489,38.16512],[-122.74268,38.14439],[-122.72867,38.09283],[-122.70174,37.99887],[-122.69982,37.99216],[-122.67563,37.9104],[-122.64985,37.87776],[-122.60745,37.83791],[-122.57725,37.80915],[-122.52566,37.76016],[-122.49931,37.73525],[-122.46972,37.70723],[-122.44847,37.68723],[-122.404,37.6456],[-122.38029,37.62319],[-122.3596,37.59623],[-122.3551,37.58649],[-122.34885,37.57574],[-122.33811,37.55839],[-122.31372,37.51775],[-122.31077,37.50307],[-122.32562,37.46766],[-122.34005,37.44053],[-122.32516,37.38558],[-122.30832,37.37735],[-122.25959,37.37116],[-122.20576,37.36625],[-122.1781,37.37779],[-122.15343,37.3963],[-122.15176,37.39923],[-122.12909,37.44268],[-122.12365,37.45343],[-122.1249,37.46669],[-122.14017,37.49911],[-122.15986,37.52707],[-122.17838,37.5359],[-122.19617,37.54343],[-122.2389,37.56122],[-122.2563,37.56886],[-122.28942,37.58288],[-122.3093,37.59111],[-122.33264,37.60097],[-122.33909,37.60366]],"type":"LineString"}
}
