{
  "id": 1981801425,
  "type": "Feature",
  "properties": {
    "geom:area": 0,
    "geom:bbox": "-122.353910,37.640870,-122.235740,38.501150",
    "geom:latitude": 38.05250439267051,
    "geom:longitude": -122.25801722577478,
    "src:alt_label": "swim-takeoff",
    "src:geom": "swim",
    "swim:elevations": [
      353,
      891,
      1072,
      1260,
      1564,
      2150,
      2660,
      2976,
      3197,
      3292,
      3484,
      3966,
      4411,
      4501,
      4817,
      5163,
      5468,
      5639,
      6239,
      6547,
      6758
    ],
    "swim:geom": "takeoff",
    "swim:timestamps": [
      1761743932,
      1761743968,
      1761743995,
      1761744016,
      1761744042,
      1761744080,
      1761744111,
      1761744132,
      1761744170,
      1761744196,
      1761744211,
      1761744247,
      1761744278,
      1761744284,
      1761744311,
      1761744341,
      1761744373,
      1761744390,
      1761744444,
      1761744472,
      1761744495
    ],
    "wof:geomhash": "83176b8cce881e01ef4329391c2f26d2",
    "wof:id": 1981801425,
    "wof:repo": "sfomuseum-data-flights-2025-10"
  },
  "bbox": [
    -122.35391,
    37.64087,
    -122.23574,
    38.50115
  ],
  "geometry": {"coordinates":[[-122.35391,37.64087],[-122.32557,37.65692],[-122.30223,37.67047],[-122.28194,37.6852],[-122.275,37.71503],[-122.27168,37.76183],[-122.26774,37.80097],[-122.26632,37.82846],[-122.26419,37.88378],[-122.26063,37.92828],[-122.25864,37.95375],[-122.25401,38.01895],[-122.2502,38.07664],[-122.24943,38.08767],[-122.24606,38.13808],[-122.24215,38.19519],[-122.23796,38.25723],[-122.23574,38.29021],[-122.23661,38.39937],[-122.24235,38.45522],[-122.24703,38.50115]],"type":"LineString"}
}
