{
  "id": 1981556207,
  "type": "Feature",
  "properties": {
    "geom:area": 0,
    "geom:bbox": "-122.360500,37.636330,-122.074790,38.505830",
    "geom:latitude": 38.055914296865154,
    "geom:longitude": -122.21454499707961,
    "src:alt_label": "swim-takeoff",
    "src:geom": "swim",
    "swim:elevations": [
      335,
      426,
      684,
      1198,
      1719,
      2317,
      2389,
      3094,
      3244,
      3650,
      4128,
      4477,
      5020,
      5274,
      5617,
      5938,
      6311,
      6485,
      6635,
      7138
    ],
    "swim:geom": "takeoff",
    "swim:timestamps": [
      1759344926,
      1759344931,
      1759344965,
      1759345005,
      1759345040,
      1759345078,
      1759345081,
      1759345126,
      1759345146,
      1759345183,
      1759345221,
      1759345245,
      1759345286,
      1759345309,
      1759345344,
      1759345373,
      1759345406,
      1759345424,
      1759345440,
      1759345491
    ],
    "wof:geomhash": "84750e0d3481ccf98a47dadad81ba048",
    "wof:id": 1981556207,
    "wof:repo": "sfomuseum-data-flights-2025-10"
  },
  "bbox": [
    -122.3605,
    37.63633,
    -122.07479,
    38.50583
  ],
  "geometry": {"coordinates":[[-122.3605,37.63633],[-122.35684,37.63955],[-122.32218,37.65886],[-122.27501,37.68573],[-122.25608,37.72666],[-122.25476,37.77775],[-122.25457,37.78288],[-122.25249,37.84581],[-122.25149,37.87498],[-122.24889,37.93445],[-122.24614,38.00032],[-122.24447,38.04164],[-122.23064,38.11453],[-122.21472,38.1558],[-122.1902,38.2205],[-122.16863,38.27533],[-122.14356,38.33767],[-122.12918,38.3723],[-122.11618,38.40396],[-122.07479,38.50583]],"type":"LineString"}
}
