{
  "id": 1997544239,
  "type": "Feature",
  "properties": {
    "geom:area": 0,
    "geom:bbox": "-122.421667,37.650000,-122.119167,48.416111",
    "geom:latitude": 43.00409073644192,
    "geom:longitude": -122.20348107429416,
    "src:alt_label": "swim-path",
    "src:geom": "swim",
    "swim:altitudes": [
      "019",
      "019",
      "077",
      "077",
      "145",
      "145",
      "145",
      "190",
      "227",
      "253",
      "303",
      "304",
      "319",
      "349",
      "362",
      "380C",
      "380C",
      "380C",
      "380C",
      "380C",
      "380C",
      "380C",
      "380C",
      "380C",
      "380C",
      "380C",
      "380C",
      "380C",
      "380C",
      "380C",
      "380C",
      "380C",
      "380C",
      "380C",
      "380C",
      "380C",
      "380C",
      "380C",
      "380C",
      "380C",
      "380C",
      "380C",
      "380C",
      "380C",
      "380C",
      "380C",
      "380C",
      "380C",
      "380C",
      "380C",
      "380C",
      "380C",
      "380C",
      "380C",
      "380C",
      "380C",
      "380C",
      "380C",
      "380C",
      "380C",
      "380C",
      "380C",
      "380C",
      "380C",
      "380C",
      "291",
      "291",
      "200",
      "200",
      "179",
      "179"
    ],
    "swim:geom": "path",
    "swim:speeds": [
      172,
      172,
      269,
      269,
      332,
      332,
      332,
      361,
      385,
      392,
      420,
      417,
      426,
      432,
      432,
      427,
      407,
      406,
      406,
      410,
      412,
      412,
      412,
      412,
      413,
      415,
      416,
      416,
      416,
      416,
      417,
      419,
      419,
      419,
      420,
      422,
      422,
      422,
      422,
      423,
      423,
      431,
      431,
      431,
      431,
      435,
      435,
      435,
      433,
      433,
      439,
      439,
      441,
      442,
      442,
      440,
      436,
      436,
      436,
      442,
      442,
      443,
      445,
      445,
      445,
      453,
      453,
      418,
      418,
      396,
      396
    ],
    "swim:timestamps": [
      1761959029,
      1761959029,
      1761959197,
      1761959197,
      1761959378,
      1761959378,
      1761959378,
      1761959504,
      1761959618,
      1761959685,
      1761959858,
      1761959865,
      1761959926,
      1761960046,
      1761960098,
      1761960166,
      1761960458,
      1761960525,
      1761960525,
      1761960759,
      1761960879,
      1761960886,
      1761960886,
      1761961008,
      1761961126,
      1761961246,
      1761961306,
      1761961306,
      1761961306,
      1761961306,
      1761961359,
      1761961419,
      1761961419,
      1761961419,
      1761961479,
      1761961786,
      1761961786,
      1761961786,
      1761961786,
      1761961906,
      1761961906,
      1761962147,
      1761962147,
      1761962147,
      1761962147,
      1761962387,
      1761962387,
      1761962387,
      1761962627,
      1761962627,
      1761962988,
      1761962988,
      1761963048,
      1761963229,
      1761963229,
      1761963289,
      1761963470,
      1761963470,
      1761963470,
      1761963830,
      1761963830,
      1761963948,
      1761964128,
      1761964128,
      1761964128,
      1761964368,
      1761964368,
      1761964609,
      1761964609,
      1761964669,
      1761964669
    ],
    "wof:geomhash": "2585fec1ddca549489d7e0950a5ce6ce",
    "wof:id": 1997544239,
    "wof:repo": "sfomuseum-data-flights-2025-10"
  },
  "bbox": [
    -122.42166666666667,
    37.65,
    -122.11916666666666,
    48.41611111111111
  ],
  "geometry": {"coordinates":[[-122.35,37.65],[-122.35,37.65],[-122.2075,37.76305555555555],[-122.2075,37.76305555555555],[-122.16527777777779,38.01888888888889],[-122.16527777777779,38.01888888888889],[-122.16527777777779,38.01888888888889],[-122.12027777777777,38.2325],[-122.11916666666666,38.424166666666665],[-122.1275,38.55444444444444],[-122.13111111111111,38.885555555555555],[-122.1286111111111,38.899166666666666],[-122.13166666666666,39.01888888888889],[-122.13583333333334,39.26],[-122.13833333333334,39.36944444444445],[-122.13944444444445,39.496944444444445],[-122.14777777777779,40.038888888888884],[-122.14972222222222,40.17027777777778],[-122.14972222222222,40.17027777777778],[-122.1563888888889,40.62083333333334],[-122.15972222222223,40.849722222222226],[-122.15972222222223,40.850833333333334],[-122.15972222222223,40.850833333333334],[-122.16305555555556,41.07972222222222],[-122.16638888888889,41.30833333333333],[-122.17,41.547777777777775],[-122.17194444444445,41.66305555555555],[-122.17194444444445,41.66305555555555],[-122.17194444444445,41.66305555555555],[-122.17194444444445,41.66305555555555],[-122.17361111111111,41.78111111111111],[-122.17527777777778,41.89944444444444],[-122.17527777777778,41.89944444444444],[-122.17527777777778,41.89944444444444],[-122.17666666666668,41.99388888888889],[-122.1863888888889,42.60916666666667],[-122.1863888888889,42.60916666666667],[-122.1863888888889,42.60916666666667],[-122.1863888888889,42.60916666666667],[-122.19027777777778,42.844722222222224],[-122.19027777777778,42.844722222222224],[-122.19777777777779,43.31861111111112],[-122.19777777777779,43.31861111111112],[-122.19777777777779,43.31861111111112],[-122.19777777777779,43.31861111111112],[-122.20555555555556,43.80222222222222],[-122.20555555555556,43.80222222222222],[-122.20555555555556,43.80222222222222],[-122.21333333333334,44.282222222222224],[-122.21333333333334,44.282222222222224],[-122.22583333333334,45.0075],[-122.22583333333334,45.0075],[-122.22777777777777,45.130833333333335],[-122.23416666666667,45.49861111111111],[-122.23416666666667,45.49861111111111],[-122.23611111111111,45.619166666666665],[-122.24277777777777,45.980555555555554],[-122.24277777777777,45.980555555555554],[-122.24277777777777,45.980555555555554],[-122.25555555555556,46.72027777777778],[-122.25555555555556,46.72027777777778],[-122.26027777777777,46.96555555555556],[-122.26694444444445,47.336666666666666],[-122.26694444444445,47.336666666666666],[-122.26694444444445,47.336666666666666],[-122.27555555555556,47.845555555555556],[-122.27555555555556,47.845555555555556],[-122.39027777777778,48.30777777777777],[-122.39027777777778,48.30777777777777],[-122.42166666666667,48.41611111111111],[-122.42166666666667,48.41611111111111]],"type":"LineString"}
}
