{
  "id": 1981805845,
  "type": "Feature",
  "properties": {
    "geom:area": 0,
    "geom:bbox": "-122.300000,25.775833,-80.758611,37.731389",
    "geom:latitude": 32.585251289314016,
    "geom:longitude": -101.4461787147671,
    "src:alt_label": "swim-path",
    "src:geom": "swim",
    "swim:altitudes": [
      "060",
      "060",
      "060",
      "060",
      "060",
      "191",
      "191",
      "191",
      "191",
      "191",
      "191",
      "191",
      "191",
      "191",
      "191",
      "331",
      "331",
      "340C",
      "340C",
      "340C",
      "340C",
      "340C",
      "340C",
      "340C",
      "340C",
      "340C",
      "340C",
      "340C",
      "340C",
      "340C",
      "340C",
      "340C",
      "340C",
      "340C",
      "340C",
      "340C",
      "340C",
      "340C",
      "340C",
      "340C",
      "340C",
      "340C",
      "340C",
      "340C",
      "340C",
      "340C",
      "340C",
      "340C",
      "340C",
      "340C",
      "340C",
      "340C",
      "340C",
      "340C",
      "340C",
      "340C",
      "340C",
      "340C",
      "340C",
      "340C",
      "340C",
      "340C",
      "340C",
      "340C",
      "340C",
      "340C",
      "340C",
      "340C",
      "340C",
      "340C",
      "355",
      "355",
      "355",
      "355",
      "363",
      "363",
      "366",
      "372",
      "372",
      "372",
      "372",
      "380C",
      "380C",
      "380C",
      "380C",
      "380C",
      "380C",
      "380C",
      "380C",
      "380C",
      "380C",
      "380C",
      "380C",
      "380C",
      "380C",
      "380C",
      "380C",
      "380C",
      "380C",
      "380C",
      "380C",
      "380C",
      "380C",
      "380C",
      "380C",
      "380C",
      "380C",
      "380C",
      "380C",
      "380C",
      "380C",
      "380C",
      "380C",
      "380C",
      "380C",
      "380C",
      "380C",
      "380C",
      "380C",
      "380C",
      "380C",
      "380C",
      "380C",
      "380C",
      "380C",
      "380C",
      "380C",
      "380C",
      "380C",
      "380C",
      "380C",
      "380C",
      "380C",
      "380C",
      "380C",
      "380C",
      "380C",
      "380C",
      "380C",
      "380C",
      "380C",
      "380C",
      "380C",
      "380C",
      "380C",
      "380C",
      "380C",
      "380C",
      "380C",
      "380C",
      "380C",
      "380C",
      "380C",
      "380C",
      "380C",
      "380C",
      "380C",
      "380C",
      "380C",
      "380C",
      "380C",
      "380C",
      "380C",
      "380C",
      "380C",
      "380C",
      "380C",
      "380C",
      "380C",
      "380C",
      "380C",
      "380C",
      "380C",
      "380C",
      "380C",
      "380C",
      "380C",
      "380C",
      "380C",
      "380C",
      "380C",
      "380C",
      "380C",
      "380C",
      "380C",
      "380C",
      "380C",
      "380C",
      "380C",
      "380C",
      "380C",
      "380C",
      "380C",
      "380C",
      "380C",
      "380C",
      "380C",
      "380C",
      "380C",
      "380C",
      "380C",
      "380C",
      "380C",
      "380C",
      "380C",
      "380C",
      "380C",
      "380C",
      "380C",
      "380C",
      "380C",
      "380C",
      "380C",
      "380C",
      "380C",
      "380C",
      "380C",
      "380C",
      "380C",
      "380C",
      "380C",
      "380C",
      "380C",
      "380C",
      "380C",
      "380C",
      "380C",
      "380C",
      "380C",
      "380C",
      "380C",
      "380C",
      "380C",
      "380C",
      "380C",
      "380C",
      "380C",
      "380C",
      "380C",
      "380C",
      "380C",
      "380C",
      "380C",
      "380C",
      "380C",
      "380C",
      "380C",
      "380C",
      "380C",
      "380C",
      "380C",
      "380C",
      "380C",
      "380C",
      "380C",
      "380C",
      "380C",
      "380C",
      "380C",
      "380C",
      "380C",
      "380C",
      "380C",
      "380C",
      "380C",
      "380C",
      "380C",
      "380C",
      "380C",
      "380C",
      "380C",
      "380C",
      "380C",
      "380C",
      "380C",
      "380C",
      "380C",
      "380C",
      "380C",
      "380C",
      "380C",
      "380C",
      "380C",
      "380C",
      "380C",
      "380C",
      "380C",
      "380C",
      "380C",
      "380C",
      "380C",
      "380C",
      "380C",
      "380C",
      "380C",
      "380C",
      "380C",
      "380C",
      "380C",
      "380C",
      "380C",
      "380C",
      "380C",
      "380C",
      "380C",
      "380C",
      "380C",
      "380C",
      "380C",
      "380C",
      "380C",
      "380C",
      "380C",
      "380C",
      "380C",
      "380C",
      "380C",
      "380C",
      "380C",
      "380C",
      "380C",
      "380C",
      "380C",
      "380C",
      "380C",
      "380C",
      "380C",
      "380C",
      "380C",
      "380C",
      "380C",
      "380C",
      "380C",
      "380C",
      "380C",
      "380C",
      "380C",
      "380C",
      "380C",
      "380C",
      "380C",
      "380C",
      "380C",
      "380C",
      "380C",
      "380C",
      "380C",
      "380C",
      "380C",
      "380C",
      "380C",
      "380C",
      "380C",
      "380C",
      "380C",
      "380C",
      "380C",
      "380C",
      "380C",
      "380C",
      "380C",
      "380C",
      "380C",
      "380C",
      "380C",
      "380C",
      "380C",
      "380C",
      "380C",
      "380C",
      "380C",
      "380C",
      "380C",
      "380C",
      "380C",
      "380C",
      "380C",
      "380C",
      "380C",
      "380C",
      "380C",
      "380C",
      "380C",
      "380C",
      "380C",
      "380C",
      "380C",
      "380C",
      "380C",
      "380C",
      "380C",
      "380C",
      "380C",
      "380C",
      "380C",
      "380C",
      "380C",
      "380C",
      "380C",
      "380C",
      "380C",
      "380C",
      "380C",
      "380C",
      "380C",
      "380C",
      "380C",
      "380C",
      "380C",
      "380C",
      "380C",
      "380C",
      "380C",
      "380C",
      "380C",
      "380C",
      "380C",
      "380C",
      "380C",
      "380C",
      "380C",
      "380C",
      "380C",
      "380C",
      "380C",
      "380C",
      "380C",
      "380C",
      "380C",
      "380C",
      "380C",
      "380C",
      "380C",
      "380C",
      "380C",
      "380C",
      "380C",
      "380C",
      "380C",
      "380C",
      "380C",
      "380C",
      "365",
      "365",
      "365",
      "365",
      "365",
      "365",
      "360C",
      "360C",
      "360C",
      "360C",
      "360C",
      "360C",
      "360C",
      "360C",
      "360C",
      "360C",
      "360C",
      "360C",
      "360C",
      "360C",
      "360C",
      "360C",
      "360C",
      "341",
      "341",
      "341",
      "341",
      "341",
      "341",
      "341",
      "226",
      "226",
      "226",
      "226",
      "226",
      "160",
      "160",
      "160",
      "160",
      "110",
      "110",
      "108",
      "100",
      "100",
      "100",
      "100",
      "100",
      "100",
      "100",
      "100",
      "100",
      "089",
      "089",
      "089",
      "060",
      "060",
      "060",
      "049",
      "049",
      "049",
      "049",
      "011",
      "011",
      "011",
      "011",
      "011",
      "011",
      "011",
      "011",
      "011",
      "011"
    ],
    "swim:geom": "path",
    "swim:speeds": [
      254,
      254,
      254,
      254,
      254,
      347,
      347,
      347,
      347,
      347,
      347,
      347,
      347,
      347,
      347,
      397,
      397,
      401,
      401,
      402,
      401,
      397,
      397,
      397,
      397,
      397,
      398,
      398,
      398,
      395,
      395,
      408,
      408,
      408,
      408,
      408,
      406,
      408,
      408,
      409,
      409,
      409,
      409,
      409,
      409,
      409,
      409,
      409,
      409,
      409,
      409,
      408,
      408,
      408,
      408,
      407,
      407,
      403,
      403,
      403,
      403,
      403,
      400,
      400,
      400,
      400,
      400,
      400,
      400,
      400,
      401,
      401,
      401,
      401,
      399,
      399,
      400,
      400,
      400,
      400,
      400,
      399,
      399,
      399,
      395,
      395,
      395,
      395,
      395,
      395,
      395,
      394,
      394,
      394,
      394,
      395,
      396,
      396,
      396,
      396,
      396,
      396,
      396,
      396,
      396,
      396,
      401,
      401,
      401,
      401,
      401,
      401,
      403,
      403,
      403,
      403,
      403,
      405,
      405,
      405,
      405,
      405,
      405,
      405,
      405,
      405,
      405,
      405,
      405,
      405,
      405,
      404,
      404,
      404,
      405,
      405,
      405,
      405,
      405,
      405,
      405,
      405,
      405,
      405,
      405,
      406,
      406,
      406,
      407,
      407,
      407,
      407,
      407,
      407,
      407,
      409,
      409,
      409,
      409,
      409,
      411,
      411,
      411,
      407,
      407,
      407,
      407,
      407,
      407,
      407,
      407,
      407,
      399,
      399,
      399,
      399,
      399,
      399,
      400,
      400,
      400,
      400,
      400,
      400,
      400,
      402,
      402,
      402,
      403,
      403,
      403,
      403,
      404,
      404,
      404,
      404,
      404,
      404,
      404,
      404,
      404,
      403,
      403,
      403,
      403,
      403,
      403,
      403,
      403,
      403,
      402,
      402,
      402,
      402,
      402,
      402,
      402,
      402,
      402,
      402,
      402,
      402,
      402,
      402,
      404,
      404,
      404,
      404,
      404,
      404,
      404,
      404,
      400,
      400,
      401,
      401,
      401,
      401,
      400,
      400,
      400,
      400,
      400,
      402,
      402,
      402,
      399,
      399,
      399,
      399,
      399,
      402,
      402,
      402,
      401,
      401,
      401,
      401,
      399,
      399,
      399,
      399,
      397,
      397,
      397,
      397,
      397,
      396,
      396,
      396,
      396,
      397,
      397,
      397,
      397,
      398,
      398,
      400,
      400,
      400,
      400,
      400,
      402,
      402,
      402,
      402,
      402,
      402,
      402,
      404,
      404,
      404,
      403,
      403,
      403,
      403,
      403,
      403,
      402,
      402,
      402,
      393,
      393,
      393,
      393,
      393,
      393,
      393,
      393,
      393,
      398,
      398,
      398,
      398,
      398,
      398,
      394,
      394,
      395,
      395,
      395,
      395,
      395,
      395,
      397,
      397,
      397,
      397,
      397,
      407,
      407,
      407,
      407,
      407,
      406,
      406,
      406,
      405,
      405,
      404,
      404,
      404,
      404,
      404,
      403,
      403,
      403,
      403,
      404,
      404,
      404,
      404,
      406,
      406,
      406,
      406,
      406,
      406,
      406,
      404,
      404,
      404,
      404,
      405,
      405,
      405,
      405,
      405,
      405,
      402,
      402,
      402,
      402,
      402,
      401,
      401,
      401,
      401,
      401,
      401,
      401,
      401,
      400,
      400,
      400,
      400,
      400,
      400,
      400,
      400,
      400,
      400,
      400,
      400,
      399,
      399,
      399,
      399,
      399,
      399,
      399,
      399,
      399,
      399,
      395,
      395,
      394,
      394,
      394,
      394,
      394,
      394,
      394,
      393,
      393,
      393,
      393,
      393,
      393,
      393,
      393,
      393,
      405,
      405,
      405,
      404,
      405,
      405,
      405,
      405,
      405,
      407,
      407,
      407,
      407,
      393,
      393,
      393,
      393,
      388,
      388,
      388,
      412,
      412,
      412,
      412,
      412,
      412,
      414,
      414,
      417,
      419,
      419,
      419,
      419,
      419,
      419,
      419,
      420,
      420,
      420,
      420,
      420,
      420,
      420,
      428,
      428,
      428,
      428,
      428,
      428,
      428,
      340,
      340,
      340,
      340,
      340,
      297,
      297,
      297,
      297,
      267,
      267,
      267,
      265,
      265,
      265,
      262,
      262,
      262,
      262,
      262,
      262,
      271,
      271,
      271,
      258,
      258,
      258,
      235,
      235,
      235,
      235,
      151,
      151,
      151,
      151,
      151,
      151,
      151,
      151,
      151,
      151
    ],
    "swim:timestamps": [
      1761829310,
      1761829310,
      1761829310,
      1761829310,
      1761829310,
      1761829935,
      1761829935,
      1761829935,
      1761829935,
      1761829935,
      1761829935,
      1761829935,
      1761829935,
      1761829935,
      1761829935,
      1761830524,
      1761830524,
      1761830584,
      1761830584,
      1761830656,
      1761830716,
      1761830744,
      1761830744,
      1761830744,
      1761830744,
      1761830744,
      1761830864,
      1761830924,
      1761830924,
      1761831105,
      1761831105,
      1761831365,
      1761831425,
      1761831425,
      1761831425,
      1761831425,
      1761831437,
      1761831485,
      1761831786,
      1761831825,
      1761831825,
      1761831825,
      1761831886,
      1761831886,
      1761831918,
      1761832006,
      1761832006,
      1761832006,
      1761832098,
      1761832098,
      1761832098,
      1761832158,
      1761832158,
      1761832158,
      1761832158,
      1761832246,
      1761832246,
      1761832486,
      1761832486,
      1761832486,
      1761832486,
      1761832486,
      1761832667,
      1761832667,
      1761832667,
      1761832787,
      1761832787,
      1761832787,
      1761832787,
      1761832787,
      1761833027,
      1761833027,
      1761833027,
      1761833027,
      1761833087,
      1761833087,
      1761833108,
      1761833147,
      1761833147,
      1761833147,
      1761833147,
      1761833207,
      1761833207,
      1761833207,
      1761833448,
      1761833448,
      1761833529,
      1761833568,
      1761833568,
      1761833568,
      1761833568,
      1761833649,
      1761833649,
      1761833649,
      1761833649,
      1761833889,
      1761834070,
      1761834070,
      1761834070,
      1761834070,
      1761834070,
      1761834070,
      1761834070,
      1761834070,
      1761834070,
      1761834070,
      1761834490,
      1761834490,
      1761834490,
      1761834490,
      1761834490,
      1761834490,
      1761834550,
      1761834550,
      1761834550,
      1761834550,
      1761834550,
      1761834671,
      1761834671,
      1761834671,
      1761834671,
      1761834671,
      1761834731,
      1761834731,
      1761834731,
      1761834731,
      1761834731,
      1761834731,
      1761834731,
      1761834731,
      1761834731,
      1761835392,
      1761835392,
      1761835392,
      1761835452,
      1761835452,
      1761835452,
      1761835452,
      1761835452,
      1761835452,
      1761835512,
      1761835512,
      1761835512,
      1761835512,
      1761835512,
      1761835812,
      1761835812,
      1761835812,
      1761836167,
      1761836167,
      1761836167,
      1761836167,
      1761836167,
      1761836167,
      1761836167,
      1761836227,
      1761836227,
      1761836227,
      1761836227,
      1761836227,
      1761836347,
      1761836347,
      1761836353,
      1761836647,
      1761836647,
      1761836647,
      1761836647,
      1761836647,
      1761836647,
      1761836647,
      1761836647,
      1761836647,
      1761836894,
      1761836894,
      1761836948,
      1761836948,
      1761836948,
      1761836948,
      1761837128,
      1761837128,
      1761837128,
      1761837128,
      1761837128,
      1761837135,
      1761837135,
      1761837255,
      1761837255,
      1761837255,
      1761837315,
      1761837315,
      1761837315,
      1761837315,
      1761837495,
      1761837495,
      1761837495,
      1761837495,
      1761837495,
      1761837495,
      1761837495,
      1761837495,
      1761837495,
      1761838582,
      1761838582,
      1761838582,
      1761838582,
      1761838582,
      1761838582,
      1761838582,
      1761838582,
      1761838582,
      1761838762,
      1761838762,
      1761838762,
      1761838762,
      1761838762,
      1761839423,
      1761839423,
      1761839423,
      1761839423,
      1761839423,
      1761839423,
      1761839423,
      1761839423,
      1761839423,
      1761839663,
      1761839663,
      1761839663,
      1761839663,
      1761839663,
      1761839663,
      1761839663,
      1761839663,
      1761839987,
      1761839987,
      1761840084,
      1761840084,
      1761840084,
      1761840084,
      1761840107,
      1761840107,
      1761840107,
      1761840107,
      1761840107,
      1761840264,
      1761840264,
      1761840264,
      1761840348,
      1761840348,
      1761840348,
      1761840348,
      1761840348,
      1761840384,
      1761840384,
      1761840384,
      1761840505,
      1761840505,
      1761840505,
      1761840505,
      1761840768,
      1761840768,
      1761840768,
      1761840768,
      1761840985,
      1761840985,
      1761840985,
      1761840985,
      1761840985,
      1761841249,
      1761841309,
      1761841309,
      1761841309,
      1761841346,
      1761841346,
      1761841346,
      1761841346,
      1761841369,
      1761841369,
      1761841429,
      1761841429,
      1761841429,
      1761841429,
      1761841429,
      1761841526,
      1761841526,
      1761841526,
      1761841526,
      1761841526,
      1761841526,
      1761841526,
      1761841670,
      1761841670,
      1761841670,
      1761841706,
      1761841706,
      1761841706,
      1761841730,
      1761841730,
      1761841730,
      1761841790,
      1761841790,
      1761841790,
      1761842150,
      1761842150,
      1761842150,
      1761842150,
      1761842210,
      1761842210,
      1761842210,
      1761842210,
      1761842210,
      1761842451,
      1761842451,
      1761842451,
      1761842451,
      1761842451,
      1761842451,
      1761842631,
      1761842631,
      1761842691,
      1761842691,
      1761842691,
      1761842691,
      1761842691,
      1761842691,
      1761842751,
      1761842751,
      1761842751,
      1761842751,
      1761842751,
      1761843232,
      1761843232,
      1761843232,
      1761843232,
      1761843232,
      1761843352,
      1761843352,
      1761843352,
      1761843412,
      1761843412,
      1761843532,
      1761843532,
      1761843532,
      1761843532,
      1761843532,
      1761843592,
      1761843592,
      1761843592,
      1761843592,
      1761843712,
      1761843712,
      1761843712,
      1761843712,
      1761843893,
      1761843893,
      1761843893,
      1761843893,
      1761843893,
      1761843893,
      1761843893,
      1761844250,
      1761844250,
      1761844250,
      1761844250,
      1761844310,
      1761844310,
      1761844310,
      1761844310,
      1761844310,
      1761844310,
      1761844611,
      1761844611,
      1761844611,
      1761844611,
      1761844611,
      1761844731,
      1761844731,
      1761844731,
      1761844731,
      1761844731,
      1761844731,
      1761844731,
      1761844731,
      1761845211,
      1761845211,
      1761845211,
      1761845211,
      1761845211,
      1761845392,
      1761845392,
      1761845392,
      1761845392,
      1761845392,
      1761845392,
      1761845392,
      1761845692,
      1761845692,
      1761845692,
      1761845692,
      1761845692,
      1761845692,
      1761845692,
      1761845692,
      1761845692,
      1761845692,
      1761845993,
      1761845993,
      1761846053,
      1761846053,
      1761846053,
      1761846053,
      1761846113,
      1761846113,
      1761846113,
      1761846233,
      1761846233,
      1761846233,
      1761846353,
      1761846353,
      1761846353,
      1761846353,
      1761846353,
      1761846353,
      1761846954,
      1761846954,
      1761846954,
      1761847014,
      1761847074,
      1761847074,
      1761847074,
      1761847074,
      1761847134,
      1761847194,
      1761847194,
      1761847194,
      1761847194,
      1761847615,
      1761847615,
      1761847615,
      1761847615,
      1761847735,
      1761847735,
      1761847735,
      1761847915,
      1761847915,
      1761847915,
      1761847915,
      1761847915,
      1761847915,
      1761847975,
      1761847975,
      1761848160,
      1761848280,
      1761848280,
      1761848280,
      1761848280,
      1761848280,
      1761848280,
      1761848280,
      1761848340,
      1761848340,
      1761848521,
      1761848521,
      1761848521,
      1761848521,
      1761848521,
      1761848788,
      1761848788,
      1761848788,
      1761848788,
      1761848788,
      1761848788,
      1761848788,
      1761849121,
      1761849121,
      1761849121,
      1761849121,
      1761849121,
      1761849328,
      1761849328,
      1761849328,
      1761849328,
      1761849508,
      1761849508,
      1761849542,
      1761849628,
      1761849628,
      1761849628,
      1761849688,
      1761849688,
      1761849688,
      1761849688,
      1761849688,
      1761849688,
      1761849748,
      1761849748,
      1761849748,
      1761849963,
      1761849963,
      1761849963,
      1761850023,
      1761850023,
      1761850023,
      1761850023,
      1761850228,
      1761850228,
      1761850228,
      1761850228,
      1761850228,
      1761850228,
      1761850228,
      1761850228,
      1761850228,
      1761850228
    ],
    "wof:geomhash": "bc34b6d5234b82fd0f6951d58f136a7b",
    "wof:id": 1981805845,
    "wof:repo": "sfomuseum-data-flights-2025-10"
  },
  "bbox": [
    -122.3,
    25.77583333333333,
    -80.75861111111111,
    37.731388888888894
  ],
  "geometry": {"coordinates":[[-80.75861111111111,25.77583333333333],[-80.75861111111111,25.77583333333333],[-80.75861111111111,25.77583333333333],[-80.75861111111111,25.77583333333333],[-80.75861111111111,25.77583333333333],[-81.59194444444444,25.799722222222226],[-81.59194444444444,25.799722222222226],[-81.59194444444444,25.799722222222226],[-81.59194444444444,25.799722222222226],[-81.59194444444444,25.799722222222226],[-81.59194444444444,25.799722222222226],[-81.59194444444444,25.799722222222226],[-81.59194444444444,25.799722222222226],[-81.59194444444444,25.799722222222226],[-81.59194444444444,25.799722222222226],[-82.65055555555556,26.261666666666667],[-82.65055555555556,26.261666666666667],[-82.76361111111112,26.310555555555556],[-82.76361111111112,26.310555555555556],[-82.90027777777779,26.366111111111113],[-83.01166666666667,26.41333333333333],[-83.05472222222222,26.430833333333336],[-83.05472222222222,26.430833333333336],[-83.05472222222222,26.430833333333336],[-83.05472222222222,26.430833333333336],[-83.05472222222222,26.430833333333336],[-83.2786111111111,26.52611111111111],[-83.38833333333334,26.572777777777777],[-83.38833333333334,26.572777777777777],[-83.7213888888889,26.711944444444445],[-83.7213888888889,26.711944444444445],[-84.2286111111111,26.923055555555557],[-84.34138888888889,26.96972222222222],[-84.34138888888889,26.96972222222222],[-84.34138888888889,26.96972222222222],[-84.34138888888889,26.96972222222222],[-84.36583333333333,26.97972222222222],[-84.45805555555556,27.017777777777777],[-85.03694444444444,27.253333333333334],[-85.10499999999999,27.281388888888888],[-85.10499999999999,27.281388888888888],[-85.10499999999999,27.281388888888888],[-85.22222222222223,27.328333333333333],[-85.22222222222223,27.328333333333333],[-85.29277777777777,27.356944444444444],[-85.45666666666666,27.4225],[-85.45666666666666,27.4225],[-85.45666666666666,27.4225],[-85.64222222222223,27.496944444444445],[-85.64222222222223,27.496944444444445],[-85.64222222222223,27.496944444444445],[-85.75666666666666,27.542222222222225],[-85.75666666666666,27.542222222222225],[-85.75666666666666,27.542222222222225],[-85.75666666666666,27.542222222222225],[-85.92166666666667,27.6075],[-85.92166666666667,27.6075],[-86.38361111111112,27.789444444444445],[-86.38361111111112,27.789444444444445],[-86.38361111111112,27.789444444444445],[-86.38361111111112,27.789444444444445],[-86.38361111111112,27.789444444444445],[-86.72805555555556,27.92361111111111],[-86.72805555555556,27.92361111111111],[-86.72805555555556,27.92361111111111],[-86.95833333333334,28.01222222222222],[-86.95833333333334,28.01222222222222],[-86.95833333333334,28.01222222222222],[-86.95833333333334,28.01222222222222],[-86.95833333333334,28.01222222222222],[-87.42166666666667,28.19],[-87.42166666666667,28.19],[-87.42166666666667,28.19],[-87.42166666666667,28.19],[-87.53583333333333,28.233333333333334],[-87.53583333333333,28.233333333333334],[-87.58388888888888,28.25138888888889],[-87.65361111111112,28.278055555555554],[-87.65361111111112,28.278055555555554],[-87.65361111111112,28.278055555555554],[-87.65361111111112,28.278055555555554],[-87.76861111111111,28.321666666666665],[-87.76861111111111,28.321666666666665],[-87.76861111111111,28.321666666666665],[-88.22833333333334,28.49361111111111],[-88.22833333333334,28.49361111111111],[-88.3888888888889,28.553611111111113],[-88.45916666666668,28.579444444444444],[-88.45916666666668,28.579444444444444],[-88.45916666666668,28.579444444444444],[-88.45916666666668,28.579444444444444],[-88.61777777777777,28.638055555555557],[-88.61777777777777,28.638055555555557],[-88.61777777777777,28.638055555555557],[-88.61777777777777,28.638055555555557],[-89.0775,28.80666666666667],[-89.42805555555556,28.933611111111112],[-89.42805555555556,28.933611111111112],[-89.42805555555556,28.933611111111112],[-89.42805555555556,28.933611111111112],[-89.42805555555556,28.933611111111112],[-89.42805555555556,28.933611111111112],[-89.42805555555556,28.933611111111112],[-89.42805555555556,28.933611111111112],[-89.42805555555556,28.933611111111112],[-89.42805555555556,28.933611111111112],[-90.24305555555556,29.236944444444447],[-90.24305555555556,29.236944444444447],[-90.24305555555556,29.236944444444447],[-90.24305555555556,29.236944444444447],[-90.24305555555556,29.236944444444447],[-90.24305555555556,29.236944444444447],[-90.35694444444444,29.2875],[-90.35694444444444,29.2875],[-90.35694444444444,29.2875],[-90.35694444444444,29.2875],[-90.35694444444444,29.2875],[-90.5886111111111,29.39],[-90.5886111111111,29.39],[-90.5886111111111,29.39],[-90.5886111111111,29.39],[-90.5886111111111,29.39],[-90.70305555555557,29.44],[-90.70305555555557,29.44],[-90.70305555555557,29.44],[-90.70305555555557,29.44],[-90.70305555555557,29.44],[-90.70305555555557,29.44],[-90.70305555555557,29.44],[-90.70305555555557,29.44],[-90.70305555555557,29.44],[-91.98222222222222,29.961388888888887],[-91.98222222222222,29.961388888888887],[-91.98222222222222,29.961388888888887],[-92.10083333333333,30.008055555555554],[-92.10083333333333,30.008055555555554],[-92.10083333333333,30.008055555555554],[-92.10083333333333,30.008055555555554],[-92.10083333333333,30.008055555555554],[-92.10083333333333,30.008055555555554],[-92.21916666666667,30.054166666666667],[-92.21916666666667,30.054166666666667],[-92.21916666666667,30.054166666666667],[-92.21916666666667,30.054166666666667],[-92.21916666666667,30.054166666666667],[-92.81472222222222,30.284444444444446],[-92.81472222222222,30.284444444444446],[-92.81472222222222,30.284444444444446],[-93.53027777777778,30.55666666666667],[-93.53027777777778,30.55666666666667],[-93.53027777777778,30.55666666666667],[-93.53027777777778,30.55666666666667],[-93.53027777777778,30.55666666666667],[-93.53027777777778,30.55666666666667],[-93.53027777777778,30.55666666666667],[-93.65166666666667,30.602222222222224],[-93.65166666666667,30.602222222222224],[-93.65166666666667,30.602222222222224],[-93.65166666666667,30.602222222222224],[-93.65166666666667,30.602222222222224],[-93.89611111111111,30.69361111111111],[-93.89611111111111,30.69361111111111],[-93.88472222222222,30.689444444444444],[-94.50277777777778,30.91777777777778],[-94.50277777777778,30.91777777777778],[-94.50277777777778,30.91777777777778],[-94.50277777777778,30.91777777777778],[-94.50277777777778,30.91777777777778],[-94.50277777777778,30.91777777777778],[-94.50277777777778,30.91777777777778],[-94.50277777777778,30.91777777777778],[-94.50277777777778,30.91777777777778],[-94.98555555555555,31.093055555555555],[-94.98555555555555,31.093055555555555],[-95.08111111111111,31.1275],[-95.08111111111111,31.1275],[-95.08111111111111,31.1275],[-95.08111111111111,31.1275],[-95.45361111111112,31.260833333333334],[-95.45361111111112,31.260833333333334],[-95.45361111111112,31.260833333333334],[-95.45361111111112,31.260833333333334],[-95.45361111111112,31.260833333333334],[-95.46638888888889,31.265555555555554],[-95.46638888888889,31.265555555555554],[-95.70944444444444,31.351666666666667],[-95.70944444444444,31.351666666666667],[-95.70944444444444,31.351666666666667],[-95.83138888888888,31.39472222222222],[-95.83138888888888,31.39472222222222],[-95.83138888888888,31.39472222222222],[-95.83138888888888,31.39472222222222],[-96.17916666666667,31.51638888888889],[-96.17916666666667,31.51638888888889],[-96.17916666666667,31.51638888888889],[-96.17916666666667,31.51638888888889],[-96.17916666666667,31.51638888888889],[-96.17916666666667,31.51638888888889],[-96.17916666666667,31.51638888888889],[-96.17916666666667,31.51638888888889],[-96.17916666666667,31.51638888888889],[-98.41472222222222,32.269444444444446],[-98.41472222222222,32.269444444444446],[-98.41472222222222,32.269444444444446],[-98.41472222222222,32.269444444444446],[-98.41472222222222,32.269444444444446],[-98.41472222222222,32.269444444444446],[-98.41472222222222,32.269444444444446],[-98.41472222222222,32.269444444444446],[-98.41472222222222,32.269444444444446],[-98.76972222222223,32.38444444444444],[-98.76972222222223,32.38444444444444],[-98.76972222222223,32.38444444444444],[-98.76972222222223,32.38444444444444],[-98.76972222222223,32.38444444444444],[-100.14888888888889,32.81861111111112],[-100.14888888888889,32.81861111111112],[-100.14888888888889,32.81861111111112],[-100.14888888888889,32.81861111111112],[-100.14888888888889,32.81861111111112],[-100.14888888888889,32.81861111111112],[-100.14888888888889,32.81861111111112],[-100.14888888888889,32.81861111111112],[-100.14888888888889,32.81861111111112],[-100.65055555555556,32.97138888888889],[-100.65055555555556,32.97138888888889],[-100.65055555555556,32.97138888888889],[-100.65055555555556,32.97138888888889],[-100.65055555555556,32.97138888888889],[-100.65055555555556,32.97138888888889],[-100.65055555555556,32.97138888888889],[-100.65055555555556,32.97138888888889],[-101.30888888888889,33.16861111111111],[-101.30888888888889,33.16861111111111],[-101.50861111111111,33.2275],[-101.50861111111111,33.2275],[-101.50861111111111,33.2275],[-101.50861111111111,33.2275],[-101.55722222222222,33.2425],[-101.55722222222222,33.2425],[-101.55722222222222,33.2425],[-101.55722222222222,33.2425],[-101.55722222222222,33.2425],[-101.88666666666667,33.33777777777778],[-101.88666666666667,33.33777777777778],[-101.88666666666667,33.33777777777778],[-102.05888888888889,33.38777777777778],[-102.05888888888889,33.38777777777778],[-102.05888888888889,33.38777777777778],[-102.05888888888889,33.38777777777778],[-102.05888888888889,33.38777777777778],[-102.13972222222223,33.41083333333333],[-102.13972222222223,33.41083333333333],[-102.13972222222223,33.41083333333333],[-102.41666666666667,33.49027777777778],[-102.41666666666667,33.49027777777778],[-102.41666666666667,33.49027777777778],[-102.41666666666667,33.49027777777778],[-102.965,33.644999999999996],[-102.965,33.644999999999996],[-102.965,33.644999999999996],[-102.965,33.644999999999996],[-103.41388888888889,33.769444444444446],[-103.41388888888889,33.769444444444446],[-103.41388888888889,33.769444444444446],[-103.41388888888889,33.769444444444446],[-103.41388888888889,33.769444444444446],[-103.97222222222223,33.921388888888885],[-104.1,33.95583333333334],[-104.1,33.95583333333334],[-104.1,33.95583333333334],[-104.17,33.974444444444444],[-104.17,33.974444444444444],[-104.17,33.974444444444444],[-104.17,33.974444444444444],[-104.22638888888889,33.989444444444445],[-104.22638888888889,33.989444444444445],[-104.35416666666666,34.02361111111111],[-104.35416666666666,34.02361111111111],[-104.35416666666666,34.02361111111111],[-104.35416666666666,34.02361111111111],[-104.35416666666666,34.02361111111111],[-104.55361111111111,34.07666666666667],[-104.55361111111111,34.07666666666667],[-104.55361111111111,34.07666666666667],[-104.55361111111111,34.07666666666667],[-104.55361111111111,34.07666666666667],[-104.55361111111111,34.07666666666667],[-104.55361111111111,34.07666666666667],[-104.86944444444444,34.159444444444446],[-104.86944444444444,34.159444444444446],[-104.86944444444444,34.159444444444446],[-104.9413888888889,34.17805555555555],[-104.9413888888889,34.17805555555555],[-104.9413888888889,34.17805555555555],[-104.99555555555555,34.19222222222222],[-104.99555555555555,34.19222222222222],[-104.99555555555555,34.19222222222222],[-105.12666666666667,34.226111111111116],[-105.12666666666667,34.226111111111116],[-105.12666666666667,34.226111111111116],[-105.88361111111112,34.40694444444444],[-105.88361111111112,34.40694444444444],[-105.88361111111112,34.40694444444444],[-105.88361111111112,34.40694444444444],[-106.01611111111112,34.4325],[-106.01611111111112,34.4325],[-106.01611111111112,34.4325],[-106.01611111111112,34.4325],[-106.01611111111112,34.4325],[-106.54416666666667,34.5325],[-106.54416666666667,34.5325],[-106.54416666666667,34.5325],[-106.54416666666667,34.5325],[-106.54416666666667,34.5325],[-106.54416666666667,34.5325],[-106.92888888888889,34.60388888888889],[-106.92888888888889,34.60388888888889],[-107.05972222222222,34.62777777777778],[-107.05972222222222,34.62777777777778],[-107.05972222222222,34.62777777777778],[-107.05972222222222,34.62777777777778],[-107.05972222222222,34.62777777777778],[-107.05972222222222,34.62777777777778],[-107.19166666666668,34.651944444444446],[-107.19166666666668,34.651944444444446],[-107.19166666666668,34.651944444444446],[-107.19166666666668,34.651944444444446],[-107.19166666666668,34.651944444444446],[-108.26083333333334,34.84055555555556],[-108.26083333333334,34.84055555555556],[-108.26083333333334,34.84055555555556],[-108.26083333333334,34.84055555555556],[-108.26083333333334,34.84055555555556],[-108.52888888888889,34.88638888888889],[-108.52888888888889,34.88638888888889],[-108.52888888888889,34.88638888888889],[-108.66305555555556,34.90888888888889],[-108.66305555555556,34.90888888888889],[-108.93194444444445,34.95416666666667],[-108.93194444444445,34.95416666666667],[-108.93194444444445,34.95416666666667],[-108.93194444444445,34.95416666666667],[-108.93194444444445,34.95416666666667],[-109.06555555555555,34.976111111111116],[-109.06555555555555,34.976111111111116],[-109.06555555555555,34.976111111111116],[-109.06555555555555,34.976111111111116],[-109.33333333333333,35.019999999999996],[-109.33333333333333,35.019999999999996],[-109.33333333333333,35.019999999999996],[-109.33333333333333,35.019999999999996],[-109.74027777777778,35.085],[-109.74027777777778,35.085],[-109.74027777777778,35.085],[-109.74027777777778,35.085],[-109.74027777777778,35.085],[-109.74027777777778,35.085],[-109.74027777777778,35.085],[-110.54138888888889,35.23416666666667],[-110.54138888888889,35.23416666666667],[-110.54138888888889,35.23416666666667],[-110.54138888888889,35.23416666666667],[-110.67416666666666,35.26111111111111],[-110.67416666666666,35.26111111111111],[-110.67416666666666,35.26111111111111],[-110.67416666666666,35.26111111111111],[-110.67416666666666,35.26111111111111],[-110.67416666666666,35.26111111111111],[-111.32444444444444,35.38333333333333],[-111.32444444444444,35.38333333333333],[-111.32444444444444,35.38333333333333],[-111.32444444444444,35.38333333333333],[-111.32444444444444,35.38333333333333],[-111.58999999999999,35.433055555555555],[-111.58999999999999,35.433055555555555],[-111.58999999999999,35.433055555555555],[-111.58999999999999,35.433055555555555],[-111.58999999999999,35.433055555555555],[-111.58999999999999,35.433055555555555],[-111.58999999999999,35.433055555555555],[-111.58999999999999,35.433055555555555],[-112.67555555555556,35.63055555555555],[-112.67555555555556,35.63055555555555],[-112.67555555555556,35.63055555555555],[-112.67555555555556,35.63055555555555],[-112.67555555555556,35.63055555555555],[-113.07333333333332,35.7],[-113.07333333333332,35.7],[-113.07333333333332,35.7],[-113.07333333333332,35.7],[-113.07333333333332,35.7],[-113.07333333333332,35.7],[-113.07333333333332,35.7],[-113.74305555555556,35.814166666666665],[-113.74305555555556,35.814166666666665],[-113.74305555555556,35.814166666666665],[-113.74305555555556,35.814166666666665],[-113.74305555555556,35.814166666666665],[-113.74305555555556,35.814166666666665],[-113.74305555555556,35.814166666666665],[-113.74305555555556,35.814166666666665],[-113.74305555555556,35.814166666666665],[-113.74305555555556,35.814166666666665],[-114.40861111111111,35.92333333333333],[-114.40861111111111,35.92333333333333],[-114.53999999999999,35.94444444444444],[-114.53999999999999,35.94444444444444],[-114.53999999999999,35.94444444444444],[-114.53999999999999,35.94444444444444],[-114.67222222222223,35.96527777777778],[-114.67222222222223,35.96527777777778],[-114.67222222222223,35.96527777777778],[-114.92944444444444,36.025],[-114.92944444444444,36.025],[-114.92944444444444,36.025],[-115.16777777777779,36.12861111111111],[-115.16777777777779,36.12861111111111],[-115.16777777777779,36.12861111111111],[-115.16777777777779,36.12861111111111],[-115.16777777777779,36.12861111111111],[-115.16777777777779,36.12861111111111],[-116.38333333333334,36.64861111111111],[-116.38333333333334,36.64861111111111],[-116.38333333333334,36.64861111111111],[-116.50583333333333,36.69972222222222],[-116.63166666666666,36.75222222222222],[-116.63166666666666,36.75222222222222],[-116.63166666666666,36.75222222222222],[-116.63166666666666,36.75222222222222],[-116.75361111111111,36.809444444444445],[-116.84944444444444,36.89277777777778],[-116.84944444444444,36.89277777777778],[-116.84944444444444,36.89277777777778],[-116.84944444444444,36.89277777777778],[-117.50611111111111,37.481388888888894],[-117.50611111111111,37.481388888888894],[-117.50611111111111,37.481388888888894],[-117.50611111111111,37.481388888888894],[-117.68833333333333,37.64277777777778],[-117.68833333333333,37.64277777777778],[-117.68833333333333,37.64277777777778],[-118.06194444444444,37.731388888888894],[-118.06194444444444,37.731388888888894],[-118.06194444444444,37.731388888888894],[-118.06194444444444,37.731388888888894],[-118.06194444444444,37.731388888888894],[-118.06194444444444,37.731388888888894],[-118.20972222222223,37.73111111111111],[-118.20972222222223,37.73111111111111],[-118.65055555555556,37.72777777777778],[-118.95833333333334,37.724722222222226],[-118.95833333333334,37.724722222222226],[-118.95833333333334,37.724722222222226],[-118.95833333333334,37.724722222222226],[-118.95833333333334,37.724722222222226],[-118.95833333333334,37.724722222222226],[-118.95833333333334,37.724722222222226],[-119.10583333333332,37.72277777777778],[-119.10583333333332,37.72277777777778],[-119.54722222222222,37.71638888888889],[-119.54722222222222,37.71638888888889],[-119.54722222222222,37.71638888888889],[-119.54722222222222,37.71638888888889],[-119.54722222222222,37.71638888888889],[-120.2,37.7],[-120.2,37.7],[-120.2,37.7],[-120.2,37.7],[-120.2,37.7],[-120.2,37.7],[-120.2,37.7],[-120.9113888888889,37.63916666666667],[-120.9113888888889,37.63916666666667],[-120.9113888888889,37.63916666666667],[-120.9113888888889,37.63916666666667],[-120.9113888888889,37.63916666666667],[-121.31666666666666,37.583333333333336],[-121.31666666666666,37.583333333333336],[-121.31666666666666,37.583333333333336],[-121.31666666666666,37.583333333333336],[-121.6,37.56666666666667],[-121.6,37.56666666666667],[-121.64361111111111,37.56638888888889],[-121.78333333333333,37.6],[-121.78333333333333,37.6],[-121.78333333333333,37.6],[-121.88333333333334,37.61666666666667],[-121.88333333333334,37.61666666666667],[-121.88333333333334,37.61666666666667],[-121.88333333333334,37.61666666666667],[-121.88333333333334,37.61666666666667],[-121.88333333333334,37.61666666666667],[-121.9,37.55],[-121.9,37.55],[-121.9,37.55],[-122.01,37.466944444444444],[-122.01,37.466944444444444],[-122.01,37.466944444444444],[-122.08361111111111,37.49805555555556],[-122.08361111111111,37.49805555555556],[-122.08361111111111,37.49805555555556],[-122.08361111111111,37.49805555555556],[-122.3,37.583333333333336],[-122.3,37.583333333333336],[-122.3,37.583333333333336],[-122.3,37.583333333333336],[-122.3,37.583333333333336],[-122.3,37.583333333333336],[-122.3,37.583333333333336],[-122.3,37.583333333333336],[-122.3,37.583333333333336],[-122.3,37.583333333333336]],"type":"LineString"}
}
