{
  "id": 1981585047,
  "type": "Feature",
  "properties": {
    "geom:area": 0,
    "geom:bbox": "-122.479960,36.724140,-121.880400,37.612970",
    "geom:latitude": 37.181969843485646,
    "geom:longitude": -122.218197708097,
    "src:alt_label": "swim-approach",
    "src:geom": "swim",
    "swim:elevations": [
      5084,
      5044,
      4850,
      4611,
      4527,
      4271,
      3925,
      3890,
      3845,
      3801,
      3575,
      3391,
      3227,
      3046,
      3048,
      3048,
      3048,
      3048,
      3048,
      3048,
      3048,
      3048,
      2967,
      2773,
      2615,
      2407,
      2202,
      2100,
      2013,
      1944,
      1826,
      1829,
      1811,
      1643,
      1584,
      1551,
      1496,
      1359,
      1131,
      913,
      768,
      663,
      623,
      522,
      304,
      265,
      157,
      0,
      0
    ],
    "swim:geom": "approach",
    "swim:timestamps": [
      1759698255,
      1759698265,
      1759698296,
      1759698324,
      1759698335,
      1759698364,
      1759698412,
      1759698418,
      1759698424,
      1759698430,
      1759698467,
      1759698492,
      1759698519,
      1759698554,
      1759698594,
      1759698602,
      1759698626,
      1759698641,
      1759698674,
      1759698708,
      1759698746,
      1759698770,
      1759698788,
      1759698822,
      1759698850,
      1759698886,
      1759698923,
      1759698941,
      1759698958,
      1759698967,
      1759698995,
      1759699046,
      1759699055,
      1759699091,
      1759699106,
      1759699117,
      1759699146,
      1759699174,
      1759699207,
      1759699251,
      1759699272,
      1759699286,
      1759699290,
      1759699302,
      1759699347,
      1759699354,
      1759699391,
      1759699433,
      1759699436
    ],
    "wof:geomhash": "8c65a43bc9481bad09cff4d4749a83f8",
    "wof:id": 1981585047,
    "wof:repo": "sfomuseum-data-flights-2025-10"
  },
  "bbox": [
    -122.47996,
    36.72414,
    -121.8804,
    37.61297
  ],
  "geometry": {"coordinates":[[-121.8804,36.72414],[-121.89029,36.73797],[-121.90539,36.78302],[-121.91673,36.82305],[-121.92107,36.8394],[-121.93308,36.88117],[-121.9527,36.95068],[-121.9561,36.95901],[-121.96093,36.96684],[-121.96725,36.97394],[-122.02186,37.00022],[-122.06393,37.01517],[-122.10749,37.03038],[-122.16352,37.05042],[-122.22195,37.0714],[-122.23274,37.07531],[-122.2657,37.08727],[-122.28598,37.09471],[-122.33153,37.1114],[-122.37838,37.12867],[-122.4295,37.14741],[-122.46188,37.15973],[-122.47996,37.17619],[-122.47935,37.21464],[-122.47018,37.24501],[-122.45803,37.28529],[-122.43077,37.31766],[-122.40832,37.32323],[-122.38592,37.32913],[-122.37502,37.33329],[-122.34219,37.34678],[-122.28479,37.3754],[-122.27527,37.38123],[-122.23758,37.40347],[-122.22618,37.41564],[-122.22371,37.42599],[-122.22271,37.45405],[-122.2219,37.47945],[-122.22107,37.50664],[-122.23373,37.53891],[-122.24306,37.5528],[-122.25037,37.56191],[-122.25344,37.56454],[-122.26204,37.57003],[-122.29796,37.58578],[-122.30307,37.58795],[-122.32912,37.59945],[-122.35959,37.61199],[-122.36179,37.61297]],"type":"LineString"}
}
