{
  "id": 1981764033,
  "type": "Feature",
  "properties": {
    "geom:area": 0,
    "geom:bbox": "-122.758930,37.388040,-122.074420,38.466170",
    "geom:latitude": 37.80842528654127,
    "geom:longitude": -122.45484732036533,
    "src:alt_label": "swim-approach",
    "src:geom": "swim",
    "swim:elevations": [
      7620,
      7260,
      7237,
      6697,
      6604,
      6114,
      5731,
      5284,
      4816,
      4734,
      4394,
      3864,
      3431,
      3356,
      3353,
      3353,
      3353,
      3353,
      3350,
      3139,
      2959,
      2835,
      2835,
      2662,
      2534,
      2338,
      2236,
      2156,
      2068,
      1885,
      1782,
      1674,
      1606,
      1573,
      1456,
      1353,
      1207,
      1009,
      974,
      797,
      561,
      426,
      314,
      243,
      94,
      1
    ],
    "swim:geom": "approach",
    "swim:timestamps": [
      1761420323,
      1761420358,
      1761420361,
      1761420414,
      1761420423,
      1761420474,
      1761420518,
      1761420575,
      1761420627,
      1761420636,
      1761420678,
      1761420730,
      1761420791,
      1761420835,
      1761420849,
      1761420864,
      1761420892,
      1761420927,
      1761420953,
      1761420986,
      1761421013,
      1761421048,
      1761421051,
      1761421107,
      1761421131,
      1761421168,
      1761421192,
      1761421207,
      1761421228,
      1761421258,
      1761421277,
      1761421309,
      1761421328,
      1761421336,
      1761421361,
      1761421381,
      1761421405,
      1761421438,
      1761421448,
      1761421482,
      1761421524,
      1761421554,
      1761421586,
      1761421602,
      1761421646,
      1761421664
    ],
    "wof:geomhash": "23eb2549a40b889ca60a948893983e28",
    "wof:id": 1981764033,
    "wof:repo": "sfomuseum-data-flights-2025-10"
  },
  "bbox": [
    -122.75893,
    37.38804,
    -122.07442,
    38.46617
  ],
  "geometry": {"coordinates":[[-122.53156,38.46617],[-122.57803,38.41871],[-122.582,38.41463],[-122.65184,38.34306],[-122.66369,38.33089],[-122.72894,38.26429],[-122.75893,38.19646],[-122.73091,38.09747],[-122.70439,38.0086],[-122.70003,37.9935],[-122.67986,37.92411],[-122.62121,37.85007],[-122.53587,37.77023],[-122.48241,37.71942],[-122.46542,37.70354],[-122.44885,37.68795],[-122.41964,37.66033],[-122.38237,37.6251],[-122.35707,37.59806],[-122.33893,37.56013],[-122.32192,37.52925],[-122.29827,37.4911],[-122.29627,37.48797],[-122.26279,37.43517],[-122.24873,37.4134],[-122.20526,37.39692],[-122.17428,37.39152],[-122.15524,37.38804],[-122.12905,37.38868],[-122.10361,37.40933],[-122.08998,37.42401],[-122.07442,37.45104],[-122.08337,37.46687],[-122.088,37.47266],[-122.10294,37.49026],[-122.11792,37.50266],[-122.13825,37.51563],[-122.16815,37.53086],[-122.17732,37.53484],[-122.20948,37.54867],[-122.24889,37.5654],[-122.27487,37.57635],[-122.29869,37.58657],[-122.31124,37.59184],[-122.34341,37.60538],[-122.35709,37.61113]],"type":"LineString"}
}
