{
  "id": 1997539743,
  "type": "Feature",
  "properties": {
    "geom:area": 0,
    "geom:bbox": "-122.350000,37.526111,-88.108611,43.336944",
    "geom:latitude": 40.988582716530885,
    "geom:longitude": -105.34324974498624,
    "src:alt_label": "swim-path",
    "src:geom": "swim",
    "swim:altitudes": [
      "067",
      "067",
      "067",
      "118",
      "118",
      "188",
      "188",
      "209",
      "209",
      "209",
      "290",
      "290",
      "290",
      "328",
      "328",
      "328",
      "360C",
      "360C",
      "360C",
      "360C",
      "360C",
      "360C",
      "360C",
      "360C",
      "360C",
      "360C",
      "360C",
      "360C",
      "360C",
      "360C",
      "360C",
      "360C",
      "360C",
      "360C",
      "360C",
      "360C",
      "360C",
      "360C",
      "360C",
      "360C",
      "360C",
      "360C",
      "360C",
      "360C",
      "360C",
      "360C",
      "360C",
      "360C",
      "360C",
      "360C",
      "360C",
      "360C",
      "360C",
      "360C",
      "360C",
      "360C",
      "360C",
      "360C",
      "360C",
      "360C",
      "360C",
      "360C",
      "360C",
      "360C",
      "360C",
      "360C",
      "360C",
      "360C",
      "360C",
      "360C",
      "360C",
      "360C",
      "360C",
      "360C",
      "360C",
      "360C",
      "360C",
      "360C",
      "360C",
      "360C",
      "360C",
      "360C",
      "360C",
      "360C",
      "360C",
      "360C",
      "360C",
      "360C",
      "360C",
      "360C",
      "360C",
      "360C",
      "360C",
      "360C",
      "360C",
      "360C",
      "360C",
      "360C",
      "360C",
      "360C",
      "360C",
      "360C",
      "360C",
      "360C",
      "360C",
      "360C",
      "360C",
      "360C",
      "360C",
      "360C",
      "360C",
      "360C",
      "360C",
      "360C",
      "360C",
      "360C",
      "360C",
      "360C",
      "360C",
      "360C",
      "360C",
      "360C",
      "360C",
      "360C",
      "360C",
      "360C",
      "360C",
      "360C",
      "360C",
      "360C",
      "360C",
      "360C",
      "360C",
      "360C",
      "360C",
      "360C",
      "360C",
      "360C",
      "360C",
      "360C",
      "360C",
      "360C",
      "360C",
      "360C",
      "360C",
      "360C",
      "360C",
      "360C",
      "360C",
      "360C",
      "360C",
      "360C",
      "360C",
      "360C",
      "360C",
      "360C",
      "360C",
      "360C",
      "360C",
      "360C",
      "360C",
      "360C",
      "360C",
      "360C",
      "360C",
      "360C",
      "360C",
      "360C",
      "360C",
      "360C",
      "360C",
      "360C",
      "360C",
      "360C",
      "360C",
      "360C",
      "360C",
      "360C",
      "360C",
      "360C",
      "360C",
      "360C",
      "360C",
      "360C",
      "360C",
      "360C",
      "360C",
      "360C",
      "360C",
      "360C",
      "360C",
      "360C",
      "360C",
      "360C",
      "360C",
      "360C",
      "360C",
      "360C",
      "360C",
      "360C",
      "271",
      "236",
      "226",
      "226",
      "226",
      "226",
      "200",
      "200",
      "144",
      "129",
      "129",
      "099",
      "099",
      "099",
      "091",
      "034",
      "034",
      "034",
      "024",
      "002",
      "002"
    ],
    "swim:geom": "path",
    "swim:speeds": [
      245,
      245,
      245,
      295,
      295,
      355,
      355,
      363,
      363,
      363,
      391,
      391,
      391,
      395,
      395,
      395,
      396,
      396,
      398,
      398,
      398,
      398,
      398,
      401,
      408,
      408,
      408,
      408,
      408,
      408,
      408,
      411,
      411,
      415,
      415,
      415,
      415,
      415,
      415,
      415,
      417,
      417,
      417,
      420,
      420,
      420,
      420,
      420,
      426,
      426,
      426,
      430,
      430,
      430,
      425,
      425,
      425,
      425,
      425,
      426,
      426,
      427,
      428,
      428,
      428,
      428,
      428,
      428,
      437,
      437,
      437,
      437,
      432,
      432,
      432,
      432,
      432,
      432,
      447,
      447,
      447,
      447,
      447,
      456,
      457,
      457,
      457,
      456,
      456,
      456,
      448,
      448,
      448,
      456,
      456,
      456,
      456,
      456,
      458,
      458,
      471,
      471,
      471,
      471,
      474,
      474,
      474,
      474,
      474,
      469,
      469,
      470,
      470,
      470,
      472,
      472,
      472,
      475,
      475,
      475,
      461,
      461,
      461,
      461,
      461,
      468,
      468,
      468,
      468,
      469,
      469,
      469,
      470,
      470,
      468,
      468,
      468,
      468,
      469,
      469,
      469,
      466,
      466,
      466,
      466,
      466,
      465,
      465,
      464,
      464,
      464,
      464,
      464,
      464,
      465,
      465,
      465,
      466,
      475,
      475,
      471,
      471,
      471,
      472,
      472,
      471,
      471,
      471,
      470,
      470,
      470,
      470,
      470,
      470,
      455,
      455,
      455,
      455,
      453,
      452,
      451,
      451,
      478,
      478,
      478,
      478,
      478,
      478,
      479,
      479,
      442,
      442,
      442,
      442,
      442,
      440,
      439,
      439,
      439,
      440,
      430,
      391,
      377,
      377,
      377,
      377,
      375,
      375,
      335,
      320,
      320,
      301,
      301,
      301,
      298,
      190,
      190,
      190,
      186,
      148,
      148
    ],
    "swim:timestamps": [
      1761943331,
      1761943331,
      1761943331,
      1761943451,
      1761943451,
      1761943631,
      1761943631,
      1761943692,
      1761943692,
      1761943692,
      1761943992,
      1761943992,
      1761943992,
      1761944163,
      1761944163,
      1761944163,
      1761944463,
      1761944463,
      1761944523,
      1761944533,
      1761944533,
      1761944533,
      1761944533,
      1761944643,
      1761944944,
      1761944944,
      1761944944,
      1761944944,
      1761944944,
      1761945013,
      1761945013,
      1761945124,
      1761945124,
      1761945304,
      1761945314,
      1761945314,
      1761945424,
      1761945424,
      1761945424,
      1761945424,
      1761945605,
      1761945605,
      1761945605,
      1761945734,
      1761945734,
      1761945734,
      1761945734,
      1761945734,
      1761945965,
      1761945965,
      1761945965,
      1761946145,
      1761946145,
      1761946145,
      1761946326,
      1761946326,
      1761946326,
      1761946326,
      1761946326,
      1761946746,
      1761946746,
      1761946806,
      1761946866,
      1761946866,
      1761946866,
      1761946866,
      1761946866,
      1761946866,
      1761947616,
      1761947856,
      1761947856,
      1761947856,
      1761948098,
      1761948098,
      1761948098,
      1761948098,
      1761948098,
      1761948098,
      1761948521,
      1761948521,
      1761948521,
      1761948521,
      1761948521,
      1761948669,
      1761948701,
      1761948701,
      1761948701,
      1761948729,
      1761948729,
      1761948729,
      1761949241,
      1761949241,
      1761949241,
      1761949481,
      1761949481,
      1761949481,
      1761949481,
      1761949481,
      1761949599,
      1761949599,
      1761950383,
      1761950383,
      1761950383,
      1761950383,
      1761950503,
      1761950623,
      1761950623,
      1761950623,
      1761950623,
      1761951164,
      1761951164,
      1761951224,
      1761951224,
      1761951224,
      1761951284,
      1761951284,
      1761951284,
      1761951765,
      1761951765,
      1761951765,
      1761951945,
      1761951945,
      1761951945,
      1761952063,
      1761952063,
      1761952364,
      1761952364,
      1761952364,
      1761952364,
      1761952424,
      1761952424,
      1761952424,
      1761952665,
      1761952665,
      1761952842,
      1761952842,
      1761952842,
      1761952842,
      1761953083,
      1761953083,
      1761953083,
      1761953323,
      1761953323,
      1761953443,
      1761953443,
      1761953443,
      1761953563,
      1761953563,
      1761953623,
      1761953623,
      1761953744,
      1761953744,
      1761953744,
      1761953864,
      1761953924,
      1761953924,
      1761953924,
      1761953948,
      1761954129,
      1761954129,
      1761954164,
      1761954224,
      1761954224,
      1761954249,
      1761954249,
      1761954284,
      1761954284,
      1761954309,
      1761954344,
      1761954405,
      1761954405,
      1761954405,
      1761954405,
      1761954465,
      1761954525,
      1761954525,
      1761954525,
      1761954549,
      1761954585,
      1761954645,
      1761954669,
      1761954669,
      1761954789,
      1761954789,
      1761954825,
      1761954825,
      1761954849,
      1761954849,
      1761954885,
      1761954885,
      1761955090,
      1761955150,
      1761955150,
      1761955150,
      1761955150,
      1761955270,
      1761955330,
      1761955330,
      1761955330,
      1761955390,
      1761955930,
      1761956051,
      1761956071,
      1761956071,
      1761956071,
      1761956071,
      1761956171,
      1761956171,
      1761956366,
      1761956426,
      1761956426,
      1761956552,
      1761956552,
      1761956552,
      1761956591,
      1761956906,
      1761956906,
      1761956906,
      1761956966,
      1761957132,
      1761957132
    ],
    "wof:geomhash": "12ef31664e29ff8966376bb929f24ee6",
    "wof:id": 1997539743,
    "wof:repo": "sfomuseum-data-flights-2025-10"
  },
  "bbox": [
    -122.35,
    37.52611111111111,
    -88.1086111111111,
    43.33694444444445
  ],
  "geometry": {"coordinates":[[-88.1086111111111,42.01777777777777],[-88.1086111111111,42.01777777777777],[-88.1086111111111,42.01777777777777],[-88.30055555555555,42.05777777777777],[-88.30055555555555,42.05777777777777],[-88.66916666666667,42.135],[-88.66916666666667,42.135],[-88.79972222222221,42.16],[-88.79972222222221,42.16],[-88.79972222222221,42.16],[-89.51861111111111,42.14416666666666],[-89.51861111111111,42.14416666666666],[-89.51861111111111,42.14416666666666],[-89.94638888888889,42.13027777777778],[-89.94638888888889,42.13027777777778],[-89.94638888888889,42.13027777777778],[-90.68583333333333,42.10472222222222],[-90.68583333333333,42.10472222222222],[-90.83527777777778,42.098333333333336],[-90.83333333333333,42.098333333333336],[-90.83333333333333,42.098333333333336],[-90.83333333333333,42.098333333333336],[-90.83333333333333,42.098333333333336],[-91.13555555555556,42.08527777777778],[-91.87083333333332,42.223055555555554],[-91.87083333333332,42.223055555555554],[-91.87083333333332,42.223055555555554],[-91.87083333333332,42.223055555555554],[-91.87083333333332,42.223055555555554],[-92.01861111111111,42.25861111111111],[-92.01861111111111,42.25861111111111],[-92.28388888888888,42.32166666666667],[-92.28388888888888,42.32166666666667],[-92.73083333333334,42.42638888888889],[-92.75972222222222,42.433055555555555],[-92.75972222222222,42.433055555555555],[-93.02888888888889,42.49472222222222],[-93.02888888888889,42.49472222222222],[-93.02888888888889,42.49472222222222],[-93.02888888888889,42.49472222222222],[-93.48611111111111,42.58527777777778],[-93.48611111111111,42.58527777777778],[-93.48611111111111,42.58527777777778],[-93.82138888888889,42.64833333333333],[-93.82138888888889,42.64833333333333],[-93.82138888888889,42.64833333333333],[-93.82138888888889,42.64833333333333],[-93.82138888888889,42.64833333333333],[-94.41527777777779,42.75833333333333],[-94.41527777777779,42.75833333333333],[-94.41527777777779,42.75833333333333],[-94.91666666666667,42.84111111111111],[-94.91666666666667,42.84111111111111],[-94.91666666666667,42.84111111111111],[-95.3938888888889,42.895833333333336],[-95.3938888888889,42.895833333333336],[-95.3938888888889,42.895833333333336],[-95.3938888888889,42.895833333333336],[-95.3938888888889,42.895833333333336],[-96.50944444444444,43.01694444444444],[-96.50944444444444,43.01694444444444],[-96.6713888888889,43.03361111111111],[-96.83388888888888,43.05],[-96.83388888888888,43.05],[-96.83388888888888,43.05],[-96.83388888888888,43.05],[-96.83388888888888,43.05],[-96.83388888888888,43.05],[-98.86666666666666,43.235],[-99.53027777777778,43.2875],[-99.53027777777778,43.2875],[-99.53027777777778,43.2875],[-100.20305555555557,43.33694444444445],[-100.20305555555557,43.33694444444445],[-100.20305555555557,43.33694444444445],[-100.20305555555557,43.33694444444445],[-100.20305555555557,43.33694444444445],[-100.20305555555557,43.33694444444445],[-101.36444444444444,43.25833333333333],[-101.36444444444444,43.25833333333333],[-101.36444444444444,43.25833333333333],[-101.36444444444444,43.25833333333333],[-101.36444444444444,43.25833333333333],[-101.78194444444445,43.16694444444444],[-101.85333333333332,43.14388888888889],[-101.85333333333332,43.14388888888889],[-101.85333333333332,43.14388888888889],[-101.94166666666668,43.11527777777778],[-101.94166666666668,43.11527777777778],[-101.94166666666668,43.11527777777778],[-103.26166666666667,42.676944444444445],[-103.26166666666667,42.676944444444445],[-103.26166666666667,42.676944444444445],[-103.88527777777779,42.46138888888889],[-103.88527777777779,42.46138888888889],[-103.88527777777779,42.46138888888889],[-103.88527777777779,42.46138888888889],[-103.88527777777779,42.46138888888889],[-104.20027777777779,42.35111111111111],[-104.20027777777779,42.35111111111111],[-106.23555555555555,41.60777777777778],[-106.23555555555555,41.60777777777778],[-106.23555555555555,41.60777777777778],[-106.23555555555555,41.60777777777778],[-106.54138888888889,41.49166666666667],[-106.8611111111111,41.378055555555555],[-106.8611111111111,41.378055555555555],[-106.8611111111111,41.378055555555555],[-106.8611111111111,41.378055555555555],[-108.27027777777778,40.85416666666667],[-108.27027777777778,40.85416666666667],[-108.42583333333334,40.79472222222222],[-108.42583333333334,40.79472222222222],[-108.42583333333334,40.79472222222222],[-108.58055555555555,40.73527777777778],[-108.58055555555555,40.73527777777778],[-108.58055555555555,40.73527777777778],[-109.80972222222222,40.264722222222225],[-109.80972222222222,40.264722222222225],[-109.80972222222222,40.264722222222225],[-110.27555555555556,40.11194444444445],[-110.27555555555556,40.11194444444445],[-110.27555555555556,40.11194444444445],[-110.59305555555555,40.031666666666666],[-110.59305555555555,40.031666666666666],[-111.39194444444445,39.82527777777778],[-111.39194444444445,39.82527777777778],[-111.39194444444445,39.82527777777778],[-111.39194444444445,39.82527777777778],[-111.55166666666666,39.78333333333333],[-111.55166666666666,39.78333333333333],[-111.55166666666666,39.78333333333333],[-112.18416666666667,39.61388888888889],[-112.18416666666667,39.61388888888889],[-112.66083333333334,39.48361111111111],[-112.66083333333334,39.48361111111111],[-112.66083333333334,39.48361111111111],[-112.66083333333334,39.48361111111111],[-113.30499999999999,39.31166666666666],[-113.30499999999999,39.31166666666666],[-113.30499999999999,39.31166666666666],[-113.9413888888889,39.16277777777778],[-113.9413888888889,39.16277777777778],[-114.25888888888889,39.086666666666666],[-114.25888888888889,39.086666666666666],[-114.25888888888889,39.086666666666666],[-114.57333333333332,39.010555555555555],[-114.57333333333332,39.010555555555555],[-114.73305555555555,38.97138888888889],[-114.73305555555555,38.97138888888889],[-115.04555555555555,38.89416666666666],[-115.04555555555555,38.89416666666666],[-115.04555555555555,38.89416666666666],[-115.36166666666666,38.81472222222222],[-115.53361111111111,38.771388888888886],[-115.53361111111111,38.771388888888886],[-115.53361111111111,38.771388888888886],[-115.59694444444445,38.757222222222225],[-116.07805555555555,38.63138888888889],[-116.07805555555555,38.63138888888889],[-116.17083333333333,38.60722222222223],[-116.33083333333333,38.56527777777777],[-116.33083333333333,38.56527777777777],[-116.3938888888889,38.54888888888889],[-116.3938888888889,38.54888888888889],[-116.48805555555556,38.52388888888889],[-116.48805555555556,38.52388888888889],[-116.55194444444444,38.507222222222225],[-116.6463888888889,38.481944444444444],[-116.80277777777778,38.440555555555555],[-116.80277777777778,38.440555555555555],[-116.80277777777778,38.440555555555555],[-116.80277777777778,38.440555555555555],[-116.96000000000001,38.39805555555556],[-117.11055555555555,38.35777777777778],[-117.11055555555555,38.35777777777778],[-117.11055555555555,38.35777777777778],[-117.17500000000001,38.34027777777778],[-117.25722222222223,38.31805555555556],[-117.40444444444445,38.27777777777778],[-117.46722222222222,38.260555555555555],[-117.46722222222222,38.260555555555555],[-117.68083333333334,38.07638888888889],[-117.68083333333334,38.07638888888889],[-117.73055555555555,38.007777777777775],[-117.73055555555555,38.007777777777775],[-117.76527777777778,37.959722222222226],[-117.76527777777778,37.959722222222226],[-117.81416666666667,37.89277777777778],[-117.81416666666667,37.89277777777778],[-118.23111111111112,37.686388888888885],[-118.38444444444445,37.68833333333333],[-118.38444444444445,37.68833333333333],[-118.38444444444445,37.68833333333333],[-118.38444444444445,37.68833333333333],[-118.69583333333334,37.69194444444444],[-118.87055555555555,37.693888888888885],[-118.87055555555555,37.693888888888885],[-118.87055555555555,37.693888888888885],[-119.02333333333333,37.69555555555555],[-120.37833333333333,37.69916666666666],[-120.65722222222223,37.66972222222222],[-120.73333333333333,37.666666666666664],[-120.73333333333333,37.666666666666664],[-120.73333333333333,37.666666666666664],[-120.73333333333333,37.666666666666664],[-120.91805555555555,37.638333333333335],[-120.91805555555555,37.638333333333335],[-121.33333333333333,37.583333333333336],[-121.45,37.56666666666667],[-121.45,37.56666666666667],[-121.66666666666667,37.53333333333333],[-121.66666666666667,37.53333333333333],[-121.66666666666667,37.53333333333333],[-121.7286111111111,37.52611111111111],[-122.15,37.55],[-122.15,37.55],[-122.15,37.55],[-122.21666666666667,37.56666666666667],[-122.35,37.61027777777778],[-122.35,37.61027777777778]],"type":"LineString"}
}
