{
  "id": 1981767235,
  "type": "Feature",
  "properties": {
    "geom:area": 0,
    "geom:bbox": "-122.530000,30.190000,-97.670000,38.310000",
    "geom:latitude": 35.553081900912474,
    "geom:longitude": -109.85844191321357,
    "src:alt_label": "swim-route",
    "src:geom": "swim",
    "swim:geom": "route",
    "wof:geomhash": "4b925d0dfcf4b7b95d0f7b7c2a436a41",
    "wof:id": 1981767235,
    "wof:repo": "sfomuseum-data-flights-2025-10"
  },
  "bbox": [
    -122.53,
    30.19,
    -97.67,
    38.31
  ],
  "geometry": {"coordinates":[[-122.38,37.62],[-122.49,37.67],[-122.49,37.67],[-122.52,37.68],[-122.53,37.72],[-122.53,37.72],[-122.53,37.75],[-122.53,37.8],[-122.53,37.8],[-122.52,37.81],[-122.43,37.84],[-122.34,37.85],[-122.13,37.87],[-122.05,37.88],[-121.97,37.89],[-121.86,37.91],[-121.82,37.91],[-121.77,37.92],[-121.71,37.92],[-121.58,37.94],[-121.55,37.94],[-121.47,37.95],[-121.22,37.98],[-121.12,37.99],[-121.1,37.99],[-120.6,38.07],[-119.45,38.24],[-119.18,38.27],[-119.06,38.28],[-118.94,38.3],[-118.3,38.29],[-117.93,38.31],[-117.3,38.3],[-117.28,38.3],[-115.18,38.27],[-114.92,38.27],[-114.39,38.25],[-114.09,38.15],[-113.74,38.02],[-113.39,37.9],[-112.91,37.71],[-112.55,37.56],[-112.55,37.56],[-112.27,37.44],[-111.82,37.25],[-111.71,37.21],[-111.27,37],[-111.05,36.89],[-110.39,36.56],[-110.2,36.49],[-109.66,36.25],[-109.29,36.09],[-108.91,35.92],[-108.67,35.81],[-108.17,35.61],[-107.33,35.21],[-106.61,34.86],[-105.17,34.13],[-103.76,33.39],[-103.07,33.01],[-101.73,32.27],[-101.54,32.16],[-100.97,31.83],[-100.21,31.39],[-100.08,31.32],[-100.02,31.29],[-99.98,31.28],[-99.87,31.23],[-99.55,31.1],[-99.47,31.07],[-99.31,31.01],[-99.15,30.94],[-99.09,30.92],[-98.85,30.82],[-98.79,30.8],[-98.45,30.76],[-98.43,30.76],[-98.4,30.75],[-98.28,30.7],[-98.15,30.65],[-98.12,30.64],[-98.1,30.63],[-97.94,30.56],[-97.93,30.56],[-97.89,30.53],[-97.84,30.49],[-97.75,30.43],[-97.75,30.41],[-97.73,30.37],[-97.73,30.36],[-97.72,30.33],[-97.69,30.25],[-97.67,30.19]],"type":"LineString"}
}
