{
  "id": 1981755177,
  "type": "Feature",
  "properties": {
    "geom:area": 0,
    "geom:bbox": "-122.116667,33.471111,-117.893611,37.366667",
    "geom:latitude": 35.125623519203415,
    "geom:longitude": -120.22375772497396,
    "src:alt_label": "swim-path",
    "src:geom": "swim",
    "swim:altitudes": [
      "034",
      "158",
      "227",
      "262",
      "322",
      "322",
      "356",
      "360C",
      "360C",
      "360C",
      "360C",
      "360C",
      "341",
      "246",
      "246",
      "080",
      "062"
    ],
    "swim:geom": "path",
    "swim:speeds": [
      174,
      357,
      402,
      432,
      458,
      458,
      448,
      445,
      443,
      439,
      437,
      437,
      435,
      413,
      413,
      279,
      286
    ],
    "swim:timestamps": [
      1761365009,
      1761365369,
      1761365549,
      1761365670,
      1761365910,
      1761365910,
      1761366030,
      1761366090,
      1761366391,
      1761366608,
      1761366728,
      1761366811,
      1761367088,
      1761367328,
      1761367328,
      1761367967,
      1761368028
    ],
    "wof:geomhash": "6b152526b3c56343581aa71cfc8be824",
    "wof:id": 1981755177,
    "wof:repo": "sfomuseum-data-flights-2025-10"
  },
  "bbox": [
    -122.11666666666666,
    33.471111111111114,
    -117.89361111111111,
    37.36666666666667
  ],
  "geometry": {"coordinates":[[-117.89361111111111,33.60861111111111],[-118.37138888888889,33.471111111111114],[-118.6888888888889,33.66083333333333],[-118.88277777777778,33.835],[-119.29638888888888,34.20305555555556],[-119.29638888888888,34.20305555555556],[-119.505,34.386944444444445],[-119.61055555555555,34.474722222222226],[-120.13055555555555,34.894444444444446],[-120.50861111111111,35.20916666666667],[-120.71194444444444,35.38972222222222],[-120.85944444444443,35.52833333333333],[-121.25027777777778,35.971944444444446],[-121.58111111111111,36.35805555555556],[-121.58111111111111,36.35805555555556],[-122.08333333333333,37.28333333333333],[-122.11666666666666,37.36666666666667]],"type":"LineString"}
}
