{
  "id": 1981591399,
  "type": "Feature",
  "properties": {
    "geom:area": 0,
    "geom:bbox": "-122.367140,37.627220,-121.327530,38.375170",
    "geom:latitude": 38.009732200913206,
    "geom:longitude": -121.85522767029744,
    "src:alt_label": "swim-takeoff",
    "src:geom": "swim",
    "swim:elevations": [
      152,
      547,
      738,
      901,
      1079,
      1398,
      1928,
      2162,
      2378,
      2833,
      3133,
      3432,
      3579,
      3748,
      4136,
      4450,
      4624,
      4951,
      5225,
      5607,
      5823,
      6133,
      6492,
      6554,
      6774,
      6967
    ],
    "swim:geom": "takeoff",
    "swim:timestamps": [
      1759658726,
      1759658754,
      1759658777,
      1759658804,
      1759658838,
      1759658869,
      1759658903,
      1759658923,
      1759658942,
      1759658979,
      1759659010,
      1759659053,
      1759659077,
      1759659102,
      1759659139,
      1759659168,
      1759659182,
      1759659225,
      1759659254,
      1759659287,
      1759659306,
      1759659337,
      1759659380,
      1759659390,
      1759659424,
      1759659452
    ],
    "wof:geomhash": "2dac4c3023c454f7dc1a596939782e3f",
    "wof:id": 1981591399,
    "wof:repo": "sfomuseum-data-flights-2025-10"
  },
  "bbox": [
    -122.36714,
    37.62722,
    -121.32753,
    38.37517
  ],
  "geometry": {"coordinates":[[-122.36714,37.62722],[-122.35018,37.64315],[-122.33207,37.65399],[-122.30817,37.66691],[-122.27253,37.68686],[-122.23302,37.70766],[-122.19672,37.73724],[-122.17885,37.75703],[-122.16063,37.77682],[-122.12437,37.81651],[-122.09304,37.85075],[-122.03936,37.89836],[-122.00201,37.92342],[-121.9624,37.95002],[-121.8987,37.99317],[-121.85054,38.02609],[-121.82564,38.043],[-121.74905,38.09436],[-121.69765,38.12934],[-121.63662,38.16973],[-121.60072,38.19324],[-121.5445,38.23164],[-121.46629,38.2848],[-121.44754,38.29738],[-121.38294,38.34052],[-121.32753,38.37517]],"type":"LineString"}
}
