{
  "id": 1981655537,
  "type": "Feature",
  "properties": {
    "geom:area": 0,
    "geom:bbox": "-122.361060,37.491660,-121.276980,37.615440",
    "geom:latitude": 37.542054610520715,
    "geom:longitude": -121.8260342181068,
    "src:alt_label": "swim-approach",
    "src:geom": "swim",
    "swim:elevations": [
      4592,
      4542,
      4299,
      3884,
      3637,
      3471,
      3243,
      3163,
      2921,
      2877,
      2470,
      2428,
      2122,
      1962,
      1863,
      1682,
      1638,
      1474,
      1376,
      1167,
      1005,
      942,
      918,
      645,
      587,
      538,
      455,
      394,
      273,
      112,
      18
    ],
    "swim:geom": "approach",
    "swim:timestamps": [
      1760400927,
      1760400934,
      1760400962,
      1760401017,
      1760401047,
      1760401070,
      1760401103,
      1760401113,
      1760401164,
      1760401170,
      1760401228,
      1760401237,
      1760401288,
      1760401315,
      1760401333,
      1760401375,
      1760401381,
      1760401405,
      1760401420,
      1760401457,
      1760401489,
      1760401528,
      1760401531,
      1760401578,
      1760401587,
      1760401602,
      1760401617,
      1760401629,
      1760401661,
      1760401704,
      1760401731
    ],
    "wof:geomhash": "58b7eea7b9a31dd4de9420c17105b9b2",
    "wof:id": 1981655537,
    "wof:repo": "sfomuseum-data-flights-2025-10"
  },
  "bbox": [
    -122.36106,
    37.49166,
    -121.27698,
    37.61544
  ],
  "geometry": {"coordinates":[[-121.27698,37.59086],[-121.29125,37.58906],[-121.34789,37.58311],[-121.45507,37.57063],[-121.51121,37.56419],[-121.55297,37.55924],[-121.61119,37.55245],[-121.62807,37.54993],[-121.70827,37.53086],[-121.71721,37.52873],[-121.80241,37.50827],[-121.81481,37.50537],[-121.88122,37.49166],[-121.91799,37.49367],[-121.94207,37.49495],[-121.99873,37.49801],[-122.007,37.4985],[-122.03939,37.50034],[-122.05937,37.50153],[-122.10668,37.50849],[-122.14264,37.5232],[-122.18711,37.542],[-122.1905,37.54345],[-122.24081,37.56464],[-122.24974,37.56831],[-122.2639,37.57437],[-122.27743,37.58008],[-122.28711,37.58412],[-122.31111,37.59415],[-122.34201,37.60719],[-122.36106,37.61544]],"type":"LineString"}
}
