{
  "id": 1981739953,
  "type": "Feature",
  "properties": {
    "geom:area": 0,
    "geom:bbox": "-122.299444,37.670833,-111.975278,40.757778",
    "geom:latitude": 39.84471712868141,
    "geom:longitude": -117.21377683377261,
    "src:alt_label": "swim-path",
    "src:geom": "swim",
    "swim:altitudes": [
      "041",
      "041",
      "144",
      "144",
      "234",
      "234",
      "234",
      "234",
      "304",
      "319",
      "341",
      "341",
      "341",
      "370C",
      "370C",
      "370C",
      "370C",
      "370C",
      "370C",
      "370C",
      "370C",
      "370C",
      "370C",
      "370C",
      "370C",
      "370C",
      "370C",
      "370C",
      "370C",
      "370C",
      "370C",
      "370C",
      "370C",
      "370C",
      "370C",
      "328",
      "328",
      "328",
      "259",
      "259",
      "259",
      "174",
      "174",
      "174",
      "170C",
      "170",
      "170",
      "134",
      "134",
      "126",
      "126",
      "122",
      "117",
      "117",
      "113",
      "113",
      "090",
      "090",
      "078",
      "078",
      "078",
      "053",
      "053",
      "053"
    ],
    "swim:geom": "path",
    "swim:speeds": [
      190,
      190,
      353,
      353,
      402,
      402,
      402,
      402,
      454,
      453,
      432,
      432,
      432,
      421,
      421,
      435,
      445,
      449,
      451,
      451,
      457,
      451,
      451,
      451,
      450,
      449,
      449,
      448,
      448,
      448,
      452,
      452,
      452,
      452,
      452,
      460,
      460,
      460,
      458,
      458,
      458,
      412,
      412,
      412,
      402,
      336,
      336,
      334,
      334,
      327,
      327,
      329,
      249,
      249,
      244,
      244,
      230,
      230,
      220,
      220,
      220,
      147,
      147,
      147
    ],
    "swim:timestamps": [
      1761178399,
      1761178399,
      1761178700,
      1761178700,
      1761178940,
      1761178940,
      1761178940,
      1761178940,
      1761179240,
      1761179300,
      1761179360,
      1761179360,
      1761179360,
      1761179591,
      1761179591,
      1761179711,
      1761179961,
      1761180021,
      1761180072,
      1761180072,
      1761180081,
      1761180562,
      1761180733,
      1761180733,
      1761180793,
      1761180913,
      1761180922,
      1761181033,
      1761181102,
      1761181102,
      1761181273,
      1761181273,
      1761181454,
      1761181634,
      1761181634,
      1761181994,
      1761181994,
      1761181994,
      1761182175,
      1761182175,
      1761182175,
      1761182385,
      1761182385,
      1761182385,
      1761182415,
      1761182457,
      1761182457,
      1761182716,
      1761182716,
      1761182755,
      1761182755,
      1761182776,
      1761182878,
      1761182878,
      1761182896,
      1761182896,
      1761183016,
      1761183016,
      1761183136,
      1761183136,
      1761183136,
      1761183310,
      1761183310,
      1761183310
    ],
    "wof:geomhash": "a9f8069692535173163ea23fb2d2dfd4",
    "wof:id": 1981739953,
    "wof:repo": "sfomuseum-data-flights-2025-10"
  },
  "bbox": [
    -122.29944444444445,
    37.670833333333334,
    -111.97527777777778,
    40.757777777777775
  ],
  "geometry": {"coordinates":[[-122.29944444444445,37.670833333333334],[-122.29944444444445,37.670833333333334],[-121.93,37.93805555555555],[-121.93,37.93805555555555],[-121.53361111111111,38.23083333333334],[-121.53361111111111,38.23083333333334],[-121.53361111111111,38.23083333333334],[-121.53361111111111,38.23083333333334],[-120.94555555555556,38.61083333333333],[-120.81777777777778,38.68888888888888],[-120.69527777777778,38.763333333333335],[-120.69527777777778,38.763333333333335],[-120.69527777777778,38.763333333333335],[-120.23361111111112,39.043055555555554],[-120.23361111111112,39.043055555555554],[-119.98555555555555,39.191111111111105],[-119.45444444444445,39.50416666666667],[-119.32416666666666,39.580555555555556],[-119.215,39.635],[-119.215,39.635],[-119.17972222222222,39.640277777777776],[-117.935,39.96805555555556],[-117.5111111111111,40.075833333333335],[-117.5111111111111,40.075833333333335],[-117.35749999999999,40.114444444444445],[-117.05,40.191111111111105],[-117.01805555555555,40.19916666666666],[-116.74527777777777,40.26611111111111],[-116.56055555555555,40.31111111111111],[-116.56055555555555,40.31111111111111],[-116.1261111111111,40.41555555555556],[-116.1261111111111,40.41555555555556],[-115.65527777777778,40.52638888888889],[-115.18277777777779,40.63527777777778],[-115.18277777777779,40.63527777777778],[-114.17861111111111,40.718611111111116],[-114.17861111111111,40.718611111111116],[-114.17861111111111,40.718611111111116],[-113.68305555555555,40.72666666666667],[-113.68305555555555,40.72666666666667],[-113.68305555555555,40.72666666666667],[-113.09555555555555,40.73222222222223],[-113.09555555555555,40.73222222222223],[-113.09555555555555,40.73222222222223],[-113.04527777777777,40.72416666666667],[-112.9325,40.72944444444445],[-112.9325,40.72944444444445],[-112.43055555555556,40.736111111111114],[-112.43055555555556,40.736111111111114],[-112.33083333333333,40.75472222222222],[-112.33083333333333,40.75472222222222],[-112.29027777777777,40.757777777777775],[-112.12694444444443,40.730000000000004],[-112.12694444444443,40.730000000000004],[-112.10583333333332,40.71472222222223],[-112.10583333333332,40.71472222222223],[-112.07388888888889,40.593333333333334],[-112.07388888888889,40.593333333333334],[-111.97527777777778,40.57027777777778],[-111.97527777777778,40.57027777777778],[-111.97527777777778,40.57027777777778],[-111.99166666666667,40.72083333333334],[-111.99166666666667,40.72083333333334],[-111.99166666666667,40.72083333333334]],"type":"LineString"}
}
