{
  "id": 1981702717,
  "type": "Feature",
  "properties": {
    "geom:area": 0,
    "geom:bbox": "-122.358180,36.718380,-121.875560,37.611610",
    "geom:latitude": 37.210921213294235,
    "geom:longitude": -122.06784439018057,
    "src:alt_label": "swim-approach",
    "src:geom": "swim",
    "swim:elevations": [
      4729,
      4592,
      4362,
      4081,
      3878,
      3711,
      3256,
      3172,
      3037,
      2897,
      2816,
      2681,
      2511,
      2439,
      2408,
      2438,
      2438,
      2431,
      2315,
      1949,
      1804,
      1619,
      1480,
      1174,
      1037,
      780,
      615,
      494,
      425,
      291,
      146,
      66
    ],
    "swim:geom": "approach",
    "swim:timestamps": [
      1760798060,
      1760798075,
      1760798101,
      1760798138,
      1760798176,
      1760798196,
      1760798243,
      1760798256,
      1760798272,
      1760798299,
      1760798320,
      1760798363,
      1760798396,
      1760798420,
      1760798454,
      1760798480,
      1760798497,
      1760798525,
      1760798559,
      1760798599,
      1760798620,
      1760798645,
      1760798677,
      1760798725,
      1760798750,
      1760798780,
      1760798810,
      1760798833,
      1760798850,
      1760798886,
      1760798925,
      1760798961
    ],
    "wof:geomhash": "cb3217592ffa1ace1cf43a10a143c00f",
    "wof:id": 1981702717,
    "wof:repo": "sfomuseum-data-flights-2025-10"
  },
  "bbox": [
    -122.35818,
    36.71838,
    -121.87556,
    37.61161
  ],
  "geometry": {"coordinates":[[-121.87556,36.71838],[-121.89045,36.73971],[-121.90484,36.78152],[-121.92141,36.84023],[-121.93726,36.897],[-121.94515,36.92501],[-121.96775,36.99005],[-121.97459,37.00742],[-121.9829,37.02853],[-121.99638,37.06311],[-122.00676,37.09],[-122.02637,37.14034],[-122.04062,37.17675],[-122.05079,37.20264],[-122.06531,37.23975],[-122.07656,37.26846],[-122.08385,37.287],[-122.0957,37.31684],[-122.10994,37.35313],[-122.1254,37.39654],[-122.12555,37.41959],[-122.12366,37.44586],[-122.12889,37.47628],[-122.16218,37.5117],[-122.17934,37.53063],[-122.20689,37.54712],[-122.23601,37.56017],[-122.25859,37.56981],[-122.27541,37.57679],[-122.30584,37.58949],[-122.33322,37.60117],[-122.35818,37.61161]],"type":"LineString"}
}
