{
  "id": 1981780621,
  "type": "Feature",
  "properties": {
    "geom:area": 0,
    "geom:bbox": "-122.360500,36.720620,-121.877460,37.612920",
    "geom:latitude": 37.206695633977866,
    "geom:longitude": -122.07968624844855,
    "src:alt_label": "swim-approach",
    "src:geom": "swim",
    "swim:elevations": [
      4825,
      4737,
      4270,
      4173,
      3880,
      3701,
      3514,
      3109,
      2949,
      2907,
      2673,
      2560,
      2456,
      2198,
      2133,
      2134,
      2134,
      1963,
      1758,
      1697,
      1649,
      1387,
      1179,
      953,
      872,
      792,
      851,
      818,
      668,
      547,
      339,
      334,
      170,
      47,
      91
    ],
    "swim:geom": "approach",
    "swim:timestamps": [
      1761564381,
      1761564392,
      1761564445,
      1761564456,
      1761564495,
      1761564513,
      1761564535,
      1761564620,
      1761564656,
      1761564662,
      1761564701,
      1761564727,
      1761564755,
      1761564805,
      1761564818,
      1761564859,
      1761564877,
      1761564915,
      1761564949,
      1761564964,
      1761564970,
      1761565001,
      1761565035,
      1761565062,
      1761565083,
      1761565115,
      1761565138,
      1761565157,
      1761565182,
      1761565211,
      1761565256,
      1761565260,
      1761565303,
      1761565338,
      1761565350
    ],
    "wof:geomhash": "d54af8c93e370f006c62ec5dd52c09b8",
    "wof:id": 1981780621,
    "wof:repo": "sfomuseum-data-flights-2025-10"
  },
  "bbox": [
    -122.3605,
    36.72062,
    -121.87746,
    37.61292
  ],
  "geometry": {"coordinates":[[-121.87746,36.72062],[-121.88824,36.73515],[-121.91401,36.81314],[-121.91827,36.82833],[-121.93412,36.88508],[-121.9411,36.90991],[-121.94944,36.93993],[-121.98975,37.04611],[-122.00696,37.09037],[-122.00957,37.09708],[-122.02766,37.14304],[-122.0394,37.1728],[-122.05117,37.20313],[-122.09013,37.2421],[-122.1083,37.24545],[-122.14927,37.27063],[-122.15543,37.28818],[-122.14,37.32616],[-122.13461,37.35999],[-122.13956,37.37388],[-122.14161,37.3797],[-122.15235,37.41043],[-122.16363,37.44211],[-122.17246,37.4663],[-122.1798,37.48506],[-122.19063,37.51183],[-122.19796,37.52965],[-122.20631,37.54294],[-122.22748,37.55623],[-122.2542,37.56792],[-122.29415,37.58473],[-122.2979,37.58627],[-122.32849,37.59914],[-122.35242,37.60923],[-122.3605,37.61292]],"type":"LineString"}
}
