{
  "id": 1981740061,
  "type": "Feature",
  "properties": {
    "geom:area": 0,
    "geom:bbox": "-122.463889,33.290833,-111.803056,37.677778",
    "geom:latitude": 34.84380034961478,
    "geom:longitude": -117.38667478349011,
    "src:alt_label": "swim-path",
    "src:geom": "swim",
    "swim:altitudes": [
      "007",
      "038",
      "038",
      "038",
      "038",
      "101",
      "101",
      "112",
      "112",
      "112",
      "112",
      "170",
      "280",
      "303",
      "303",
      "303",
      "303",
      "342",
      "342",
      "346",
      "346",
      "350C",
      "350C",
      "350C",
      "351",
      "351",
      "390C",
      "390C",
      "390C",
      "390C",
      "390C",
      "390C",
      "390C",
      "390C",
      "390C",
      "390C",
      "390C",
      "390C",
      "390C",
      "390C",
      "390C",
      "390C",
      "390C",
      "390C",
      "390C",
      "390C",
      "390C",
      "390C",
      "390C",
      "390C",
      "390C",
      "390C",
      "390C",
      "390C",
      "390C",
      "390C",
      "390C",
      "390C",
      "390C",
      "390C",
      "390C",
      "374",
      "374",
      "344",
      "247",
      "235",
      "235",
      "235",
      "205",
      "205",
      "186",
      "186",
      "186",
      "139",
      "055",
      "045",
      "045",
      "045",
      "019",
      "019",
      "019"
    ],
    "swim:geom": "path",
    "swim:speeds": [
      155,
      189,
      189,
      189,
      189,
      306,
      306,
      303,
      303,
      303,
      303,
      417,
      484,
      491,
      491,
      491,
      491,
      495,
      495,
      495,
      495,
      496,
      496,
      496,
      488,
      488,
      479,
      484,
      484,
      490,
      490,
      490,
      490,
      499,
      496,
      496,
      494,
      494,
      492,
      492,
      487,
      487,
      487,
      487,
      491,
      491,
      491,
      491,
      491,
      491,
      491,
      503,
      503,
      505,
      505,
      506,
      510,
      504,
      503,
      503,
      503,
      501,
      501,
      499,
      487,
      489,
      489,
      489,
      480,
      480,
      427,
      427,
      427,
      345,
      209,
      215,
      215,
      215,
      134,
      134,
      134
    ],
    "swim:timestamps": [
      1761175931,
      1761175996,
      1761175996,
      1761175996,
      1761175996,
      1761176116,
      1761176116,
      1761176176,
      1761176176,
      1761176176,
      1761176176,
      1761176297,
      1761176543,
      1761176603,
      1761176603,
      1761176603,
      1761176603,
      1761176717,
      1761176717,
      1761176723,
      1761176723,
      1761176904,
      1761176904,
      1761176904,
      1761176957,
      1761176957,
      1761177144,
      1761177198,
      1761177198,
      1761177258,
      1761177258,
      1761177258,
      1761177258,
      1761177438,
      1761177685,
      1761177685,
      1761177799,
      1761177799,
      1761177865,
      1761177865,
      1761178165,
      1761178165,
      1761178165,
      1761178165,
      1761178706,
      1761178706,
      1761178706,
      1761178706,
      1761178886,
      1761178886,
      1761178886,
      1761179067,
      1761179067,
      1761179127,
      1761179127,
      1761179247,
      1761179253,
      1761179427,
      1761179433,
      1761179433,
      1761179433,
      1761179614,
      1761179614,
      1761179668,
      1761179848,
      1761179914,
      1761179914,
      1761179914,
      1761180094,
      1761180094,
      1761180154,
      1761180154,
      1761180154,
      1761180395,
      1761180935,
      1761180996,
      1761180996,
      1761180996,
      1761181176,
      1761181176,
      1761181176
    ],
    "wof:geomhash": "42780fe61a8447263c4b017a2596db35",
    "wof:id": 1981740061,
    "wof:repo": "sfomuseum-data-flights-2025-10"
  },
  "bbox": [
    -122.46388888888889,
    33.29083333333333,
    -111.80305555555556,
    37.67777777777778
  ],
  "geometry": {"coordinates":[[-122.36666666666666,37.63333333333333],[-122.36277777777777,37.6675],[-122.36277777777777,37.6675],[-122.36277777777777,37.6675],[-122.36277777777777,37.6675],[-122.46388888888889,37.67777777777778],[-122.46388888888889,37.67777777777778],[-122.43138888888889,37.598888888888894],[-122.43138888888889,37.598888888888894],[-122.43138888888889,37.598888888888894],[-122.43138888888889,37.598888888888894],[-122.31611111111111,37.409166666666664],[-121.80277777777778,37.058055555555555],[-121.66888888888889,36.97],[-121.66888888888889,36.97],[-121.66888888888889,36.97],[-121.66888888888889,36.97],[-121.40611111111112,36.84444444444445],[-121.40611111111112,36.84444444444445],[-121.3736111111111,36.830000000000005],[-121.3736111111111,36.830000000000005],[-120.91111111111111,36.64861111111111],[-120.91111111111111,36.64861111111111],[-120.91111111111111,36.64861111111111],[-120.78611111111111,36.6025],[-120.78611111111111,36.6025],[-120.39,36.31361111111111],[-120.29305555555555,36.23833333333334],[-120.29305555555555,36.23833333333334],[-120.1725,36.14388888888889],[-120.1725,36.14388888888889],[-120.1725,36.14388888888889],[-120.1725,36.14388888888889],[-119.79833333333333,35.85111111111111],[-119.28583333333333,35.44583333333333],[-119.28583333333333,35.44583333333333],[-119.06833333333333,35.27194444444444],[-119.06833333333333,35.27194444444444],[-118.92694444444444,35.15833333333333],[-118.92694444444444,35.15833333333333],[-118.35749999999999,34.69583333333333],[-118.35749999999999,34.69583333333333],[-118.35749999999999,34.69583333333333],[-118.35749999999999,34.69583333333333],[-117.02111111111111,34.17916666666667],[-117.02111111111111,34.17916666666667],[-117.02111111111111,34.17916666666667],[-117.02111111111111,34.17916666666667],[-116.55333333333333,34.0625],[-116.55333333333333,34.0625],[-116.55333333333333,34.0625],[-116.06944444444444,33.93944444444444],[-116.06944444444444,33.93944444444444],[-115.90722222222223,33.89805555555556],[-115.90722222222223,33.89805555555556],[-115.58305555555555,33.81388888888888],[-115.57666666666667,33.81222222222222],[-115.09972222222221,33.68666666666666],[-115.10222222222221,33.68722222222222],[-115.10222222222221,33.68722222222222],[-115.10222222222221,33.68722222222222],[-114.62222222222222,33.56888888888889],[-114.62222222222222,33.56888888888889],[-114.46083333333334,33.5375],[-113.97416666666666,33.44138888888889],[-113.81722222222221,33.409444444444446],[-113.81722222222221,33.409444444444446],[-113.81722222222221,33.409444444444446],[-113.34305555555555,33.31638888888889],[-113.34305555555555,33.31638888888889],[-113.20027777777779,33.293055555555554],[-113.20027777777779,33.293055555555554],[-113.20027777777779,33.293055555555554],[-112.70972222222223,33.29083333333333],[-111.85,33.35],[-111.80305555555556,33.37638888888889],[-111.80305555555556,33.37638888888889],[-111.80305555555556,33.37638888888889],[-111.95111111111112,33.42861111111111],[-111.95111111111112,33.42861111111111],[-111.95111111111112,33.42861111111111]],"type":"LineString"}
}
