{
  "id": 1981616351,
  "type": "Feature",
  "properties": {
    "geom:area": 0,
    "geom:bbox": "-122.543840,36.718290,-121.335130,37.668730",
    "geom:latitude": 37.205987101971274,
    "geom:longitude": -122.01795462725036,
    "src:alt_label": "swim-takeoff",
    "src:geom": "swim",
    "swim:elevations": [
      122,
      351,
      549,
      724,
      881,
      979,
      1266,
      1712,
      1920,
      2160,
      2599,
      2869,
      3205,
      3393,
      3465,
      3634,
      4135,
      4382,
      4729,
      5116,
      5461,
      5689,
      5970,
      6114,
      6465,
      6860,
      7013,
      7413,
      7565,
      7821,
      8090,
      8200,
      8522,
      8656,
      8813
    ],
    "swim:geom": "takeoff",
    "swim:timestamps": [
      1759966948,
      1759966969,
      1759967004,
      1759967031,
      1759967049,
      1759967064,
      1759967093,
      1759967129,
      1759967159,
      1759967180,
      1759967213,
      1759967234,
      1759967273,
      1759967303,
      1759967312,
      1759967327,
      1759967366,
      1759967387,
      1759967421,
      1759967451,
      1759967484,
      1759967508,
      1759967535,
      1759967550,
      1759967587,
      1759967632,
      1759967650,
      1759967696,
      1759967717,
      1759967751,
      1759967785,
      1759967800,
      1759967845,
      1759967876,
      1759967905
    ],
    "wof:geomhash": "ed0365f90b78324c9a94524551a55eb8",
    "wof:id": 1981616351,
    "wof:repo": "sfomuseum-data-flights-2025-10"
  },
  "bbox": [
    -122.54384,
    36.71829,
    -121.33513,
    37.66873
  ],
  "geometry": {"coordinates":[[-122.39161,37.62583],[-122.41081,37.63462],[-122.44607,37.65],[-122.47745,37.66327],[-122.50101,37.66873],[-122.52151,37.66461],[-122.54384,37.63846],[-122.52877,37.5982],[-122.51163,37.56354],[-122.49893,37.53752],[-122.47823,37.49843],[-122.4562,37.47772],[-122.40469,37.44496],[-122.36158,37.41696],[-122.34811,37.40823],[-122.32519,37.39341],[-122.26559,37.35527],[-122.23305,37.33417],[-122.18089,37.29878],[-122.13305,37.26593],[-122.08051,37.23013],[-122.04107,37.20344],[-121.99618,37.17306],[-121.97101,37.15596],[-121.90942,37.11387],[-121.83189,37.06089],[-121.80015,37.0392],[-121.71819,36.983],[-121.68073,36.95718],[-121.61856,36.91463],[-121.55706,36.8723],[-121.52967,36.85343],[-121.44691,36.79584],[-121.38814,36.75528],[-121.33513,36.71829]],"type":"LineString"}
}
