{
  "id": 1981576043,
  "type": "Feature",
  "properties": {
    "geom:area": 0,
    "geom:bbox": "-122.349510,37.644040,-121.253750,37.957010",
    "geom:latitude": 37.82320752777585,
    "geom:longitude": -121.81005313915506,
    "src:alt_label": "swim-takeoff",
    "src:geom": "swim",
    "swim:elevations": [
      515,
      716,
      1060,
      1220,
      1889,
      2013,
      2187,
      2745,
      2991,
      3313,
      3519,
      4032,
      4344,
      4655,
      4983,
      5476,
      5659,
      5796,
      6083,
      6497,
      6617,
      7056,
      7369,
      7431
    ],
    "swim:geom": "takeoff",
    "swim:timestamps": [
      1759490665,
      1759490677,
      1759490705,
      1759490735,
      1759490788,
      1759490796,
      1759490807,
      1759490844,
      1759490861,
      1759490902,
      1759490925,
      1759490964,
      1759490988,
      1759491009,
      1759491034,
      1759491079,
      1759491093,
      1759491105,
      1759491132,
      1759491171,
      1759491182,
      1759491226,
      1759491262,
      1759491275
    ],
    "wof:geomhash": "18e5562f96d739de6ccc5ec04ea12f09",
    "wof:id": 1981576043,
    "wof:repo": "sfomuseum-data-flights-2025-10"
  },
  "bbox": [
    -122.34951,
    37.64404,
    -121.25375,
    37.95701
  ],
  "geometry": {"coordinates":[[-122.34951,37.64404],[-122.33924,37.64929],[-122.31506,37.66211],[-122.28574,37.67903],[-122.22205,37.71404],[-122.21139,37.71987],[-122.19688,37.72738],[-122.14579,37.75067],[-122.11833,37.75751],[-122.04965,37.77364],[-122.0055,37.78378],[-121.92783,37.80161],[-121.87759,37.81341],[-121.8346,37.8235],[-121.7826,37.83566],[-121.68883,37.85748],[-121.65934,37.86423],[-121.63338,37.8702],[-121.57566,37.88353],[-121.48804,37.90352],[-121.46328,37.90913],[-121.36537,37.93155],[-121.28379,37.95018],[-121.25375,37.95701]],"type":"LineString"}
}
