{
  "id": 1981772039,
  "type": "Feature",
  "properties": {
    "geom:area": 0,
    "geom:bbox": "-122.333056,37.425278,-87.839167,42.163611",
    "geom:latitude": 40.19160874316129,
    "geom:longitude": -105.22734659736533,
    "src:alt_label": "swim-path",
    "src:geom": "swim",
    "swim:altitudes": [
      "012",
      "046",
      "046",
      "052",
      "070",
      "070",
      "070",
      "070",
      "150",
      "150",
      "150",
      "158",
      "204",
      "204",
      "204",
      "242",
      "242",
      "242",
      "242",
      "242",
      "242",
      "340",
      "340",
      "340",
      "340",
      "340",
      "360C",
      "360C",
      "360C",
      "360C",
      "360C",
      "360C",
      "360C",
      "360C",
      "360C",
      "360C",
      "360C",
      "360C",
      "360C",
      "360",
      "360",
      "360",
      "379C",
      "379C",
      "380C",
      "380C",
      "380C",
      "380C",
      "380C",
      "380C",
      "380C",
      "380C",
      "380C",
      "380C",
      "380C",
      "380C",
      "380C",
      "380C",
      "380C",
      "380C",
      "380C",
      "380C",
      "380C",
      "380C",
      "380C",
      "380C",
      "380C",
      "380C",
      "380C",
      "380C",
      "380C",
      "380C",
      "380C",
      "380C",
      "380C",
      "380C",
      "380C",
      "380C",
      "380C",
      "380C",
      "380C",
      "380C",
      "380C",
      "380C",
      "380C",
      "380C",
      "380C",
      "380C",
      "380C",
      "380C",
      "380C",
      "380C",
      "380C",
      "380C",
      "380C",
      "380C",
      "380C",
      "380C",
      "380C",
      "380C",
      "380C",
      "380C",
      "380C",
      "380C",
      "380C",
      "380C",
      "380C",
      "380C",
      "380C",
      "380C",
      "380C",
      "380C",
      "380C",
      "380C",
      "380C",
      "380C",
      "380C",
      "380C",
      "380C",
      "380C",
      "380C",
      "380C",
      "380C",
      "380C",
      "380C",
      "380C",
      "380C",
      "380C",
      "380C",
      "380C",
      "380C",
      "380C",
      "380C",
      "380C",
      "380C",
      "380C",
      "380C",
      "380C",
      "380C",
      "380C",
      "380C",
      "380C",
      "380C",
      "380C",
      "380C",
      "380C",
      "380C",
      "380C",
      "380C",
      "380C",
      "380C",
      "380C",
      "380C",
      "380C",
      "380C",
      "380C",
      "380C",
      "380C",
      "380C",
      "380C",
      "380C",
      "380C",
      "380C",
      "380C",
      "380C",
      "380C",
      "380C",
      "380C",
      "380C",
      "380C",
      "380C",
      "380C",
      "380C",
      "380C",
      "380C",
      "380C",
      "380C",
      "380C",
      "380C",
      "380C",
      "380C",
      "380C",
      "380C",
      "380C",
      "380C",
      "380C",
      "380C",
      "380C",
      "380C",
      "380C",
      "380C",
      "380C",
      "380C",
      "380C",
      "380C",
      "380C",
      "380C",
      "380C",
      "380C",
      "380C",
      "380C",
      "380C",
      "380C",
      "380C",
      "380C",
      "380C",
      "380C",
      "380C",
      "380C",
      "380C",
      "380C",
      "380C",
      "380C",
      "380C",
      "380C",
      "380C",
      "380C",
      "380C",
      "380C",
      "380C",
      "380C",
      "380C",
      "380C",
      "380C",
      "380C",
      "380C",
      "380C",
      "380C",
      "380C",
      "380C",
      "380C",
      "380C",
      "380C",
      "380C",
      "380C",
      "380C",
      "380C",
      "380C",
      "380C",
      "380C",
      "380C",
      "380C",
      "380C",
      "380C",
      "380C",
      "380C",
      "380C",
      "380C",
      "380C",
      "380C",
      "380C",
      "380C",
      "380C",
      "380C",
      "380C",
      "380C",
      "380C",
      "380C",
      "380C",
      "380C",
      "380C",
      "380C",
      "380C",
      "380C",
      "380C",
      "380C",
      "380C",
      "380C",
      "380C",
      "340C",
      "340C",
      "340C",
      "340C",
      "340C",
      "340C",
      "340C",
      "340C",
      "340C",
      "340C",
      "340",
      "340",
      "340",
      "315",
      "315",
      "315",
      "315",
      "315",
      "315",
      "244",
      "244",
      "209",
      "177",
      "177",
      "152",
      "140",
      "110",
      "110",
      "100",
      "100",
      "100",
      "100",
      "090",
      "090",
      "072",
      "072",
      "059",
      "030",
      "027",
      "027",
      "020",
      "010",
      "005"
    ],
    "swim:geom": "path",
    "swim:speeds": [
      168,
      205,
      205,
      273,
      272,
      272,
      272,
      272,
      326,
      326,
      326,
      355,
      457,
      457,
      457,
      487,
      487,
      487,
      487,
      487,
      487,
      510,
      510,
      510,
      510,
      510,
      480,
      480,
      480,
      480,
      480,
      483,
      482,
      482,
      482,
      482,
      482,
      482,
      481,
      480,
      480,
      480,
      480,
      480,
      483,
      480,
      481,
      481,
      481,
      480,
      480,
      481,
      481,
      481,
      481,
      481,
      481,
      476,
      476,
      476,
      474,
      474,
      476,
      476,
      468,
      468,
      468,
      468,
      468,
      466,
      466,
      466,
      466,
      459,
      459,
      459,
      459,
      463,
      458,
      459,
      459,
      459,
      459,
      461,
      461,
      461,
      461,
      460,
      460,
      460,
      460,
      456,
      456,
      454,
      454,
      454,
      454,
      452,
      452,
      452,
      441,
      441,
      441,
      441,
      433,
      430,
      430,
      430,
      428,
      432,
      430,
      430,
      424,
      422,
      422,
      420,
      414,
      416,
      416,
      416,
      416,
      407,
      407,
      406,
      406,
      405,
      405,
      405,
      404,
      404,
      404,
      404,
      407,
      393,
      401,
      398,
      397,
      397,
      397,
      397,
      389,
      394,
      394,
      388,
      388,
      388,
      389,
      389,
      389,
      388,
      388,
      388,
      389,
      389,
      389,
      389,
      395,
      395,
      395,
      395,
      395,
      393,
      396,
      395,
      395,
      395,
      385,
      385,
      385,
      384,
      384,
      386,
      386,
      386,
      386,
      387,
      387,
      389,
      389,
      389,
      389,
      388,
      385,
      385,
      385,
      385,
      386,
      386,
      384,
      384,
      384,
      383,
      383,
      384,
      383,
      383,
      383,
      383,
      383,
      383,
      382,
      382,
      382,
      382,
      382,
      382,
      384,
      384,
      378,
      378,
      378,
      378,
      378,
      378,
      376,
      376,
      376,
      376,
      376,
      376,
      376,
      376,
      376,
      376,
      378,
      378,
      378,
      378,
      380,
      380,
      380,
      380,
      379,
      383,
      383,
      387,
      387,
      382,
      382,
      382,
      382,
      382,
      383,
      383,
      386,
      386,
      386,
      386,
      386,
      386,
      386,
      386,
      398,
      398,
      398,
      398,
      398,
      398,
      398,
      401,
      401,
      401,
      401,
      363,
      363,
      363,
      363,
      363,
      363,
      438,
      438,
      438,
      439,
      367,
      367,
      372,
      372,
      372,
      374,
      364,
      364,
      365,
      345,
      345,
      345,
      345,
      345,
      345,
      312,
      312,
      297,
      276,
      276,
      280,
      280,
      229,
      229,
      226,
      225,
      225,
      225,
      273,
      273,
      226,
      226,
      213,
      175,
      177,
      177,
      168,
      130,
      130
    ],
    "swim:timestamps": [
      1761528344,
      1761528423,
      1761528423,
      1761528452,
      1761528483,
      1761528483,
      1761528483,
      1761528483,
      1761528664,
      1761528664,
      1761528664,
      1761528724,
      1761528904,
      1761528904,
      1761528904,
      1761529024,
      1761529024,
      1761529024,
      1761529024,
      1761529024,
      1761529024,
      1761529333,
      1761529333,
      1761529333,
      1761529333,
      1761529333,
      1761529453,
      1761529453,
      1761529453,
      1761529505,
      1761529505,
      1761529625,
      1761529745,
      1761529745,
      1761529745,
      1761529865,
      1761529865,
      1761529925,
      1761529993,
      1761530045,
      1761530045,
      1761530106,
      1761530234,
      1761530234,
      1761530286,
      1761530466,
      1761530534,
      1761530534,
      1761530534,
      1761530586,
      1761530835,
      1761530895,
      1761530895,
      1761530895,
      1761530895,
      1761530895,
      1761530895,
      1761531195,
      1761531195,
      1761531195,
      1761531255,
      1761531255,
      1761531375,
      1761531375,
      1761531555,
      1761531555,
      1761531555,
      1761531555,
      1761531555,
      1761531676,
      1761531676,
      1761531676,
      1761531676,
      1761531856,
      1761531856,
      1761531856,
      1761531856,
      1761531941,
      1761531976,
      1761532062,
      1761532062,
      1761532062,
      1761532062,
      1761532276,
      1761532276,
      1761532276,
      1761532276,
      1761532362,
      1761532362,
      1761532362,
      1761532362,
      1761532542,
      1761532542,
      1761532602,
      1761532602,
      1761532602,
      1761532602,
      1761532637,
      1761532637,
      1761532637,
      1761532963,
      1761532963,
      1761532963,
      1761532963,
      1761533083,
      1761533143,
      1761533143,
      1761533143,
      1761533203,
      1761533219,
      1761533340,
      1761533340,
      1761533400,
      1761533460,
      1761533460,
      1761533520,
      1761533564,
      1761533580,
      1761533580,
      1761533580,
      1761533580,
      1761533804,
      1761533804,
      1761533864,
      1761533864,
      1761533924,
      1761533924,
      1761533924,
      1761533984,
      1761534044,
      1761534044,
      1761534044,
      1761534119,
      1761534164,
      1761534179,
      1761534240,
      1761534300,
      1761534300,
      1761534300,
      1761534300,
      1761534585,
      1761534600,
      1761534600,
      1761534660,
      1761534660,
      1761534660,
      1761534705,
      1761534705,
      1761534705,
      1761534765,
      1761534765,
      1761534781,
      1761534961,
      1761534961,
      1761534961,
      1761534961,
      1761535186,
      1761535186,
      1761535186,
      1761535246,
      1761535246,
      1761535306,
      1761535323,
      1761535383,
      1761535383,
      1761535383,
      1761535606,
      1761535606,
      1761535606,
      1761535666,
      1761535666,
      1761535683,
      1761535743,
      1761535743,
      1761535743,
      1761535861,
      1761535861,
      1761536042,
      1761536042,
      1761536042,
      1761536042,
      1761536102,
      1761536162,
      1761536162,
      1761536222,
      1761536222,
      1761536342,
      1761536342,
      1761536447,
      1761536447,
      1761536447,
      1761536507,
      1761536507,
      1761536583,
      1761536688,
      1761536704,
      1761536808,
      1761536808,
      1761536808,
      1761536868,
      1761536943,
      1761536943,
      1761536943,
      1761537108,
      1761537288,
      1761537288,
      1761537485,
      1761537485,
      1761537545,
      1761537545,
      1761537545,
      1761537545,
      1761537545,
      1761537545,
      1761538026,
      1761538026,
      1761538026,
      1761538026,
      1761538026,
      1761538026,
      1761538263,
      1761538263,
      1761538263,
      1761538263,
      1761538443,
      1761538443,
      1761538443,
      1761538443,
      1761538683,
      1761538683,
      1761538683,
      1761538683,
      1761538744,
      1761538865,
      1761538865,
      1761538927,
      1761538927,
      1761539046,
      1761539046,
      1761539046,
      1761539046,
      1761539046,
      1761539344,
      1761539344,
      1761539464,
      1761539464,
      1761539584,
      1761539584,
      1761539584,
      1761539644,
      1761539644,
      1761539644,
      1761539949,
      1761539949,
      1761539949,
      1761539949,
      1761540065,
      1761540065,
      1761540065,
      1761540245,
      1761540245,
      1761540245,
      1761540245,
      1761540667,
      1761540667,
      1761540667,
      1761540667,
      1761540667,
      1761540667,
      1761541331,
      1761541331,
      1761541331,
      1761541391,
      1761541511,
      1761541511,
      1761541571,
      1761541571,
      1761541571,
      1761541631,
      1761541691,
      1761541691,
      1761541811,
      1761541942,
      1761541942,
      1761541942,
      1761541942,
      1761541942,
      1761541942,
      1761542189,
      1761542189,
      1761542315,
      1761542435,
      1761542435,
      1761542532,
      1761542592,
      1761542772,
      1761542772,
      1761542832,
      1761542909,
      1761542909,
      1761542909,
      1761543100,
      1761543100,
      1761543192,
      1761543192,
      1761543329,
      1761543493,
      1761543508,
      1761543508,
      1761543553,
      1761543629,
      1761543673
    ],
    "wof:geomhash": "30967ac57c6b8b18d6b280e647ef75e8",
    "wof:id": 1981772039,
    "wof:repo": "sfomuseum-data-flights-2025-10"
  },
  "bbox": [
    -122.33305555555555,
    37.42527777777777,
    -87.83916666666666,
    42.16361111111111
  ],
  "geometry": {"coordinates":[[-87.88333333333334,41.983333333333334],[-87.83916666666666,42.02333333333333],[-87.83916666666666,42.02333333333333],[-87.86666666666666,42.05],[-87.90611111111112,42.0775],[-87.90611111111112,42.0775],[-87.90611111111112,42.0775],[-87.90611111111112,42.0775],[-88.19333333333334,42.16361111111111],[-88.19333333333334,42.16361111111111],[-88.19333333333334,42.16361111111111],[-88.31861111111111,42.14],[-88.77916666666667,42.05277777777778],[-88.77916666666667,42.05277777777778],[-88.77916666666667,42.05277777777778],[-89.135,42.027499999999996],[-89.135,42.027499999999996],[-89.135,42.027499999999996],[-89.135,42.027499999999996],[-89.135,42.027499999999996],[-89.135,42.027499999999996],[-90.09305555555555,41.96361111111111],[-90.09305555555555,41.96361111111111],[-90.09305555555555,41.96361111111111],[-90.09305555555555,41.96361111111111],[-90.09305555555555,41.96361111111111],[-90.44666666666667,41.94027777777777],[-90.44666666666667,41.94027777777777],[-90.44666666666667,41.94027777777777],[-90.62388888888889,41.92833333333333],[-90.62388888888889,41.92833333333333],[-90.94833333333334,41.90416666666667],[-91.30638888888889,41.87638888888889],[-91.30638888888889,41.87638888888889],[-91.30638888888889,41.87638888888889],[-91.66472222222222,41.84722222222222],[-91.66472222222222,41.84722222222222],[-91.84166666666667,41.83361111111111],[-92.05833333333334,41.82222222222222],[-92.19805555555556,41.814166666666665],[-92.19805555555556,41.814166666666665],[-92.37916666666666,41.80305555555555],[-92.76944444444445,41.77833333333333],[-92.76944444444445,41.77833333333333],[-92.91222222222223,41.76888888888889],[-93.44722222222222,41.7325],[-93.66972222222223,41.72166666666667],[-93.66972222222223,41.72166666666667],[-93.66972222222223,41.72166666666667],[-93.80111111111111,41.71472222222223],[-94.54444444444444,41.67166666666667],[-94.72166666666666,41.66083333333333],[-94.72166666666666,41.66083333333333],[-94.72166666666666,41.66083333333333],[-94.72166666666666,41.66083333333333],[-94.72166666666666,41.66083333333333],[-94.72166666666666,41.66083333333333],[-95.60166666666666,41.602222222222224],[-95.60166666666666,41.602222222222224],[-95.60166666666666,41.602222222222224],[-95.76694444444445,41.590833333333336],[-95.76694444444445,41.590833333333336],[-96.1211111111111,41.56472222222222],[-96.1211111111111,41.56472222222222],[-96.66916666666667,41.5225],[-96.66916666666667,41.5225],[-96.66916666666667,41.5225],[-96.66916666666667,41.5225],[-96.66916666666667,41.5225],[-97.01138888888889,41.49472222222222],[-97.01138888888889,41.49472222222222],[-97.01138888888889,41.49472222222222],[-97.01138888888889,41.49472222222222],[-97.51694444444445,41.45166666666667],[-97.51694444444445,41.45166666666667],[-97.51694444444445,41.45166666666667],[-97.51694444444445,41.45166666666667],[-97.75638888888889,41.43055555555555],[-97.85194444444444,41.42222222222222],[-98.09305555555555,41.4],[-98.09305555555555,41.4],[-98.09305555555555,41.4],[-98.09305555555555,41.4],[-98.69611111111111,41.345555555555556],[-98.69611111111111,41.345555555555556],[-98.69611111111111,41.345555555555556],[-98.69611111111111,41.345555555555556],[-98.92694444444444,41.32472222222223],[-98.92694444444444,41.32472222222223],[-98.92694444444444,41.32472222222223],[-98.92694444444444,41.32472222222223],[-99.42416666666666,41.27777777777778],[-99.42416666666666,41.27777777777778],[-99.58444444444444,41.26222222222222],[-99.58444444444444,41.26222222222222],[-99.58444444444444,41.26222222222222],[-99.58444444444444,41.26222222222222],[-99.68972222222223,41.25194444444445],[-99.68972222222223,41.25194444444445],[-99.68972222222223,41.25194444444445],[-100.55305555555556,41.16361111111111],[-100.55305555555556,41.16361111111111],[-100.55305555555556,41.16361111111111],[-100.55305555555556,41.16361111111111],[-100.86444444444444,41.12972222222222],[-101.04972222222221,41.10944444444445],[-101.04972222222221,41.10944444444445],[-101.04972222222221,41.10944444444445],[-101.20444444444445,41.092222222222226],[-101.22555555555556,41.08916666666667],[-101.53472222222221,41.05277777777778],[-101.53472222222221,41.05277777777778],[-101.68555555555555,41.03583333333333],[-101.83722222222222,41.0175],[-101.83722222222222,41.0175],[-101.98722222222223,41],[-102.11027777777777,40.98583333333333],[-102.13527777777779,40.981388888888894],[-102.13527777777779,40.981388888888894],[-102.13527777777779,40.981388888888894],[-102.13527777777779,40.981388888888894],[-102.69805555555556,40.907222222222224],[-102.69805555555556,40.907222222222224],[-102.84444444444443,40.88722222222222],[-102.84444444444443,40.88722222222222],[-102.99027777777778,40.86694444444444],[-102.99027777777778,40.86694444444444],[-102.99027777777778,40.86694444444444],[-103.13583333333334,40.84666666666667],[-103.28027777777778,40.82638888888889],[-103.28027777777778,40.82638888888889],[-103.28027777777778,40.82638888888889],[-103.4525,40.80027777777777],[-103.5625,40.78611111111111],[-103.59333333333333,40.77972222222222],[-103.73361111111112,40.75972222222222],[-103.87472222222222,40.73916666666667],[-103.87472222222222,40.73916666666667],[-103.87472222222222,40.73916666666667],[-103.87472222222222,40.73916666666667],[-104.5461111111111,40.63972222222222],[-104.57694444444444,40.634166666666665],[-104.57694444444444,40.634166666666665],[-104.71694444444445,40.612500000000004],[-104.71694444444445,40.612500000000004],[-104.71694444444445,40.612500000000004],[-104.82416666666666,40.59666666666667],[-104.82416666666666,40.59666666666667],[-104.82416666666666,40.59666666666667],[-104.96305555555556,40.575],[-104.96305555555556,40.575],[-104.99083333333333,40.57],[-105.40722222222223,40.50277777777778],[-105.40722222222223,40.50277777777778],[-105.40722222222223,40.50277777777778],[-105.40722222222223,40.50277777777778],[-105.93805555555556,40.41694444444444],[-105.93805555555556,40.41694444444444],[-105.93805555555556,40.41694444444444],[-106.07833333333333,40.39361111111111],[-106.07833333333333,40.39361111111111],[-106.22583333333334,40.36888888888889],[-106.25222222222222,40.36277777777778],[-106.3913888888889,40.340833333333336],[-106.3913888888889,40.340833333333336],[-106.3913888888889,40.340833333333336],[-106.90833333333335,40.25111111111111],[-106.90833333333335,40.25111111111111],[-106.90833333333335,40.25111111111111],[-107.04277777777777,40.227222222222224],[-107.04277777777777,40.227222222222224],[-107.07194444444444,40.22138888888889],[-107.20916666666668,40.19611111111111],[-107.20916666666668,40.19611111111111],[-107.20916666666668,40.19611111111111],[-107.48361111111112,40.1475],[-107.48361111111112,40.1475],[-107.8938888888889,40.07333333333334],[-107.8938888888889,40.07333333333334],[-107.8938888888889,40.07333333333334],[-107.8938888888889,40.07333333333334],[-108.02472222222222,40.052499999999995],[-108.16694444444445,40.032222222222224],[-108.16694444444445,40.032222222222224],[-108.30305555555556,40.011944444444445],[-108.30305555555556,40.011944444444445],[-108.57638888888889,39.97083333333334],[-108.57638888888889,39.97083333333334],[-108.81555555555555,39.93388888888889],[-108.81555555555555,39.93388888888889],[-108.81555555555555,39.93388888888889],[-108.95,39.913333333333334],[-108.95,39.913333333333334],[-109.11305555555555,39.88777777777778],[-109.35499999999999,39.849722222222226],[-109.40805555555556,39.84111111111111],[-109.62277777777777,39.806666666666665],[-109.62277777777777,39.806666666666665],[-109.62277777777777,39.806666666666665],[-109.7575,39.785],[-109.94666666666667,39.75388888888889],[-109.94666666666667,39.75388888888889],[-109.94666666666667,39.75388888888889],[-110.29555555555555,39.69611111111111],[-110.69916666666667,39.6275],[-110.69916666666667,39.6275],[-111.1563888888889,39.54805555555556],[-111.1563888888889,39.54805555555556],[-111.28888888888889,39.52472222222222],[-111.28888888888889,39.52472222222222],[-111.28888888888889,39.52472222222222],[-111.28888888888889,39.52472222222222],[-111.28888888888889,39.52472222222222],[-111.28888888888889,39.52472222222222],[-112.33194444444445,39.335],[-112.33194444444445,39.335],[-112.33194444444445,39.335],[-112.33194444444445,39.335],[-112.33194444444445,39.335],[-112.33194444444445,39.335],[-112.84944444444444,39.224444444444444],[-112.84944444444444,39.224444444444444],[-112.84944444444444,39.224444444444444],[-112.84944444444444,39.224444444444444],[-113.2375,39.13583333333333],[-113.2375,39.13583333333333],[-113.2375,39.13583333333333],[-113.2375,39.13583333333333],[-113.76,39.013333333333335],[-113.76,39.013333333333335],[-113.76,39.013333333333335],[-113.76,39.013333333333335],[-113.88861111111112,38.98277777777778],[-114.15333333333334,38.919444444444444],[-114.15333333333334,38.919444444444444],[-114.28333333333333,38.888333333333335],[-114.28333333333333,38.888333333333335],[-114.5436111111111,38.825],[-114.5436111111111,38.825],[-114.5436111111111,38.825],[-114.5436111111111,38.825],[-114.5436111111111,38.825],[-115.19472222222223,38.66361111111111],[-115.19472222222223,38.66361111111111],[-115.44472222222223,38.60027777777778],[-115.44472222222223,38.60027777777778],[-115.70527777777778,38.53388888888889],[-115.70527777777778,38.53388888888889],[-115.70527777777778,38.53388888888889],[-115.83583333333333,38.500277777777775],[-115.83583333333333,38.500277777777775],[-115.83583333333333,38.500277777777775],[-116.52666666666667,38.319722222222225],[-116.52666666666667,38.319722222222225],[-116.52666666666667,38.319722222222225],[-116.52666666666667,38.319722222222225],[-116.76666666666667,38.255833333333335],[-116.76666666666667,38.255833333333335],[-116.76666666666667,38.255833333333335],[-117.16944444444445,38.14694444444444],[-117.16944444444445,38.14694444444444],[-117.16944444444445,38.14694444444444],[-117.16944444444445,38.14694444444444],[-118.07138888888889,37.97166666666667],[-118.07138888888889,37.97166666666667],[-118.07138888888889,37.97166666666667],[-118.07138888888889,37.97166666666667],[-118.07138888888889,37.97166666666667],[-118.07138888888889,37.97166666666667],[-119.1863888888889,37.77305555555555],[-119.1863888888889,37.77305555555555],[-119.1863888888889,37.77305555555555],[-119.23916666666666,37.68472222222222],[-119.495,37.63305555555556],[-119.495,37.63305555555556],[-119.5825,37.71],[-119.5825,37.71],[-119.5825,37.71],[-119.65222222222222,37.77472222222222],[-119.74805555555555,37.84111111111111],[-119.74805555555555,37.84111111111111],[-119.99472222222222,37.80638888888888],[-120.26666666666667,37.733333333333334],[-120.26666666666667,37.733333333333334],[-120.26666666666667,37.733333333333334],[-120.26666666666667,37.733333333333334],[-120.26666666666667,37.733333333333334],[-120.26666666666667,37.733333333333334],[-120.73333333333333,37.666666666666664],[-120.73333333333333,37.666666666666664],[-120.95,37.63333333333333],[-121.15,37.6],[-121.15,37.6],[-121.30472222222222,37.587500000000006],[-121.40138888888889,37.57694444444445],[-121.64333333333335,37.54833333333333],[-121.64333333333335,37.54833333333333],[-121.70361111111112,37.58583333333333],[-121.8,37.6],[-121.8,37.6],[-121.8,37.6],[-121.86666666666666,37.5],[-121.86666666666666,37.5],[-121.88916666666667,37.42527777777777],[-121.88916666666667,37.42527777777777],[-122.03333333333333,37.483333333333334],[-122.19638888888889,37.545833333333334],[-122.21666666666667,37.55],[-122.21666666666667,37.55],[-122.24888888888889,37.56805555555556],[-122.3,37.583333333333336],[-122.33305555555555,37.60333333333333]],"type":"LineString"}
}
