{
  "id": 1981751525,
  "type": "Feature",
  "properties": {
    "geom:area": 0,
    "geom:bbox": "-122.355130,37.491640,-121.247190,37.612710",
    "geom:latitude": 37.54685477914217,
    "geom:longitude": -121.80597626946198,
    "src:alt_label": "swim-approach",
    "src:geom": "swim",
    "swim:elevations": [
      4960,
      3489,
      3172,
      3077,
      2992,
      2690,
      2484,
      2436,
      2438,
      2268,
      2129,
      2044,
      1838,
      1829,
      1568,
      1477,
      1251,
      1068,
      873,
      834,
      668,
      610,
      523,
      392,
      333,
      143,
      124,
      30,
      38
    ],
    "swim:geom": "approach",
    "swim:timestamps": [
      1761346257,
      1761346388,
      1761346430,
      1761346460,
      1761346477,
      1761346504,
      1761346528,
      1761346540,
      1761346581,
      1761346614,
      1761346646,
      1761346663,
      1761346702,
      1761346722,
      1761346767,
      1761346775,
      1761346806,
      1761346840,
      1761346875,
      1761346885,
      1761346917,
      1761346926,
      1761346974,
      1761347007,
      1761347023,
      1761347067,
      1761347070,
      1761347098,
      1761347101
    ],
    "wof:geomhash": "ef6c963f2f1de2c3c42fc93205ce805d",
    "wof:id": 1981751525,
    "wof:repo": "sfomuseum-data-flights-2025-10"
  },
  "bbox": [
    -122.35513,
    37.49164,
    -121.24719,
    37.61271
  ],
  "geometry": {"coordinates":[[-121.24719,37.59495],[-121.48944,37.56677],[-121.56242,37.55825],[-121.61094,37.55261],[-121.63721,37.54795],[-121.67656,37.5384],[-121.71315,37.52977],[-121.73151,37.52534],[-121.78945,37.51158],[-121.83126,37.50142],[-121.87234,37.492],[-121.89433,37.49164],[-121.94325,37.49281],[-121.96897,37.49348],[-122.0253,37.50686],[-122.03537,37.51019],[-122.07353,37.52266],[-122.11409,37.5358],[-122.15503,37.54904],[-122.16587,37.55253],[-122.19884,37.56317],[-122.20788,37.56612],[-122.25382,37.58094],[-122.2809,37.58903],[-122.29424,37.59285],[-122.33042,37.60348],[-122.33278,37.60419],[-122.35311,37.6118],[-122.35513,37.61271]],"type":"LineString"}
}
