{
  "id": 1981558425,
  "type": "Feature",
  "properties": {
    "geom:area": 0,
    "geom:bbox": "-122.527930,37.622440,-122.296680,38.516870",
    "geom:latitude": 38.01926036011938,
    "geom:longitude": -122.3746703565304,
    "src:alt_label": "swim-takeoff",
    "src:geom": "swim",
    "swim:elevations": [
      122,
      623,
      831,
      1074,
      1232,
      1398,
      1672,
      2043,
      2391,
      2555,
      3257,
      3396,
      3513,
      3915,
      4386,
      4588,
      5208,
      5255,
      5393,
      5688,
      6105,
      6246,
      6441,
      6901,
      7016
    ],
    "swim:geom": "takeoff",
    "swim:timestamps": [
      1759346411,
      1759346453,
      1759346473,
      1759346499,
      1759346523,
      1759346545,
      1759346577,
      1759346601,
      1759346631,
      1759346643,
      1759346697,
      1759346712,
      1759346733,
      1759346769,
      1759346806,
      1759346824,
      1759346878,
      1759346884,
      1759346900,
      1759346927,
      1759346965,
      1759346982,
      1759347005,
      1759347053,
      1759347063
    ],
    "wof:geomhash": "dd9178611aaf2fc591f7f9b3ee505f66",
    "wof:id": 1981558425,
    "wof:repo": "sfomuseum-data-flights-2025-10"
  },
  "bbox": [
    -122.52793,
    37.62244,
    -122.29668,
    38.51687
  ],
  "geometry": {"coordinates":[[-122.38389,37.62244],[-122.41633,37.6369],[-122.43187,37.64374],[-122.4524,37.65245],[-122.47455,37.66188],[-122.49806,37.67205],[-122.52652,37.70178],[-122.52793,37.73281],[-122.52692,37.77299],[-122.52218,37.78958],[-122.44458,37.83636],[-122.42382,37.85379],[-122.40269,37.88484],[-122.36569,37.94389],[-122.32686,38.00556],[-122.30777,38.03608],[-122.29728,38.13633],[-122.29724,38.14925],[-122.29718,38.17977],[-122.29718,38.23342],[-122.29707,38.31137],[-122.29714,38.34606],[-122.29701,38.39349],[-122.29668,38.49463],[-122.29668,38.51687]],"type":"LineString"}
}
