{
  "id": 1981760011,
  "type": "Feature",
  "properties": {
    "geom:area": 0,
    "geom:bbox": "-122.530000,37.620000,4.760000,68.070000",
    "geom:latitude": 60.48688370148714,
    "geom:longitude": -61.46569024925537,
    "src:alt_label": "swim-route",
    "src:geom": "swim",
    "swim:geom": "route",
    "wof:geomhash": "a3b8151a8c30b2a56a5127560c4ddabe",
    "wof:id": 1981760011,
    "wof:repo": "sfomuseum-data-flights-2025-10"
  },
  "bbox": [
    -122.53,
    37.62,
    4.76,
    68.07
  ],
  "geometry": {"coordinates":[[-122.38,37.62],[-122.5,37.67],[-122.51,37.68],[-122.52,37.68],[-122.53,37.75],[-122.53,37.76],[-122.53,37.79],[-122.53,37.8],[-122.47,37.83],[-122.46,37.83],[-122.43,37.84],[-122.36,37.89],[-122.2,38],[-122.12,38.06],[-122.04,38.11],[-121.9,38.2],[-121.88,38.22],[-121.68,38.36],[-121.68,38.36],[-121.55,38.44],[-121.55,38.44],[-121.52,38.46],[-121.43,38.51],[-121.28,38.61],[-121.27,38.61],[-121.2,38.65],[-121.13,38.69],[-121.06,38.73],[-120.86,38.85],[-120.33,39.15],[-120.11,39.27],[-119.78,39.52],[-119.62,39.71],[-119.44,39.9],[-119.28,40.07],[-119.1,40.26],[-118.84,40.52],[-118.74,40.63],[-117.32,42.05],[-116.85,42.51],[-115.87,43.44],[-114.41,44.74],[-114.08,45.02],[-113.44,45.63],[-112.68,46.33],[-112.07,46.88],[-111.41,47.45],[-111.07,47.85],[-110.17,48.82],[-109.99,49],[-109.93,49.06],[-109,50],[-108.18,50.98],[-108.02,51.35],[-107.4,52.15],[-105.42,54.53],[-105,55],[-103.45,56.35],[-101.79,57.69],[-100,59],[-99.98,59.01],[-98.66,59.82],[-98.33,59.9],[-96.42,61.07],[-95.23,61.68],[-94,62.27],[-92.72,62.86],[-90,64],[-88.44,64.38],[-86.83,64.74],[-83.5,65.41],[-80,66],[-78.25,66.29],[-60.77,67.96],[-60.74,67.96],[-55.37,68.07],[-50,68],[-47.42,67.81],[-40,67],[-32.66,66.34],[-30,66],[-20,63],[-13.41,61.21],[-10,60.06],[-4.23,57.69],[-3.75,57.47],[-1.6,56.4],[-0.54,55.84],[0.77,55.11],[1.73,54.54],[1.8,54.5],[2.29,54.2],[2.49,54.08],[2.54,54.05],[2.92,53.81],[3,53.76],[3.29,53.58],[3.34,53.54],[3.55,53.41],[3.56,53.4],[3.75,53.24],[4.04,52.98],[4.19,52.84],[4.39,52.66],[4.43,52.62],[4.54,52.52],[4.62,52.45],[4.69,52.38],[4.76,52.31]],"type":"LineString"}
}
