{
  "id": 1981763585,
  "type": "Feature",
  "properties": {
    "geom:area": 0,
    "geom:bbox": "-122.674600,37.541130,-122.119880,38.489910",
    "geom:latitude": 37.87762871044866,
    "geom:longitude": -122.47589595299704,
    "src:alt_label": "swim-approach",
    "src:geom": "swim",
    "swim:elevations": [
      7977,
      7725,
      7388,
      7284,
      6724,
      6497,
      6155,
      5841,
      5496,
      5166,
      4894,
      4628,
      4300,
      3921,
      3601,
      3368,
      3355,
      3349,
      3235,
      2926,
      2819,
      2480,
      2219,
      2026,
      1757,
      1503,
      1109,
      1087,
      914,
      914,
      904,
      782,
      638,
      523,
      376,
      241,
      74,
      0
    ],
    "swim:geom": "approach",
    "swim:timestamps": [
      1761377096,
      1761377120,
      1761377151,
      1761377160,
      1761377214,
      1761377236,
      1761377270,
      1761377299,
      1761377333,
      1761377363,
      1761377390,
      1761377413,
      1761377446,
      1761377486,
      1761377518,
      1761377544,
      1761377555,
      1761377602,
      1761377614,
      1761377647,
      1761377662,
      1761377696,
      1761377726,
      1761377746,
      1761377775,
      1761377802,
      1761377847,
      1761377850,
      1761377886,
      1761377911,
      1761377961,
      1761377991,
      1761378018,
      1761378042,
      1761378075,
      1761378106,
      1761378145,
      1761378163
    ],
    "wof:geomhash": "229ddd0aba5194b123d6a437aa1fb29b",
    "wof:id": 1981763585,
    "wof:repo": "sfomuseum-data-flights-2025-10"
  },
  "bbox": [
    -122.6746,
    37.54113,
    -122.11988,
    38.48991
  ],
  "geometry": {"coordinates":[[-122.67454,38.48991],[-122.6746,38.44467],[-122.67406,38.38719],[-122.67407,38.37185],[-122.6741,38.27447],[-122.67405,38.23726],[-122.67386,38.17826],[-122.67363,38.12875],[-122.67352,38.07142],[-122.67328,38.02165],[-122.67319,37.97881],[-122.67329,37.94383],[-122.66267,37.89397],[-122.61323,37.84243],[-122.56927,37.80122],[-122.53506,37.76955],[-122.52107,37.75642],[-122.45922,37.71508],[-122.44032,37.71024],[-122.38888,37.6971],[-122.36606,37.69129],[-122.31669,37.67841],[-122.27274,37.6665],[-122.24437,37.65882],[-122.20526,37.64635],[-122.17132,37.63158],[-122.12138,37.60335],[-122.11988,37.6005],[-122.12717,37.56628],[-122.13862,37.54653],[-122.18725,37.54113],[-122.21394,37.55333],[-122.2389,37.56369],[-122.26179,37.57341],[-122.29031,37.58555],[-122.31448,37.5956],[-122.34527,37.60861],[-122.3598,37.6146]],"type":"LineString"}
}
