{
  "id": 1981805921,
  "type": "Feature",
  "properties": {
    "geom:area": 0,
    "geom:bbox": "-122.338333,35.885556,-115.397778,38.008889",
    "geom:latitude": 37.324470195147676,
    "geom:longitude": -118.68145782502383,
    "src:alt_label": "swim-path",
    "src:geom": "swim",
    "swim:altitudes": [
      "111",
      "111",
      "111",
      "111",
      "111",
      "114",
      "114",
      "114",
      "114",
      "114",
      "114",
      "114",
      "114",
      "114",
      "114",
      "226",
      "226",
      "226",
      "244",
      "244",
      "244",
      "261",
      "261",
      "261",
      "261",
      "261",
      "261",
      "261",
      "261",
      "318C",
      "318C",
      "318C",
      "318C",
      "320C",
      "320C",
      "320C",
      "320C",
      "320C",
      "320C",
      "320C",
      "320C",
      "320C",
      "320C",
      "320C",
      "320C",
      "320C",
      "320C",
      "320C",
      "320C",
      "320C",
      "320C",
      "320C",
      "320C",
      "320C",
      "320C",
      "320C",
      "320C",
      "320C",
      "320C",
      "320C",
      "320C",
      "320C",
      "320C",
      "320C",
      "320C",
      "320C",
      "320C",
      "320C",
      "320C",
      "320C",
      "320C",
      "320C",
      "320C",
      "320C",
      "320C",
      "320C",
      "320C",
      "320C",
      "320C",
      "320C",
      "320C",
      "320C",
      "320C",
      "320C",
      "320C",
      "320C",
      "320C",
      "320C",
      "320C",
      "320C",
      "320C",
      "320C",
      "320C",
      "320C",
      "320C",
      "320C",
      "320C",
      "320C",
      "243",
      "243",
      "243",
      "160",
      "160",
      "160",
      "160",
      "160",
      "159",
      "159",
      "159",
      "142",
      "142",
      "142",
      "142",
      "142",
      "126",
      "126",
      "126",
      "126",
      "126",
      "126",
      "013",
      "013",
      "013",
      "013",
      "013",
      "013",
      "013",
      "004",
      "004",
      "004",
      "004"
    ],
    "swim:geom": "path",
    "swim:speeds": [
      297,
      297,
      297,
      297,
      297,
      295,
      295,
      295,
      295,
      295,
      295,
      295,
      295,
      295,
      295,
      406,
      406,
      406,
      422,
      422,
      422,
      432,
      432,
      432,
      432,
      432,
      432,
      432,
      432,
      425,
      425,
      425,
      425,
      409,
      409,
      409,
      409,
      415,
      415,
      415,
      415,
      409,
      409,
      392,
      392,
      392,
      392,
      392,
      392,
      391,
      391,
      391,
      391,
      391,
      391,
      391,
      391,
      391,
      392,
      392,
      392,
      392,
      392,
      392,
      392,
      392,
      392,
      391,
      391,
      391,
      404,
      404,
      404,
      404,
      404,
      404,
      404,
      404,
      404,
      405,
      405,
      405,
      404,
      404,
      404,
      404,
      403,
      403,
      403,
      403,
      403,
      403,
      403,
      403,
      403,
      403,
      403,
      403,
      387,
      387,
      387,
      339,
      339,
      339,
      339,
      339,
      342,
      342,
      342,
      317,
      317,
      317,
      317,
      317,
      314,
      314,
      314,
      314,
      314,
      314,
      162,
      162,
      162,
      162,
      162,
      162,
      162,
      155,
      155,
      155,
      155
    ],
    "swim:timestamps": [
      1761838205,
      1761838205,
      1761838205,
      1761838205,
      1761838205,
      1761838325,
      1761838325,
      1761838325,
      1761838325,
      1761838325,
      1761838325,
      1761838325,
      1761838325,
      1761838325,
      1761838325,
      1761838626,
      1761838626,
      1761838626,
      1761838686,
      1761838686,
      1761838686,
      1761838746,
      1761838746,
      1761838746,
      1761838746,
      1761838746,
      1761838746,
      1761838746,
      1761838746,
      1761838926,
      1761838926,
      1761838926,
      1761838926,
      1761839064,
      1761839064,
      1761839064,
      1761839064,
      1761839107,
      1761839107,
      1761839107,
      1761839107,
      1761839124,
      1761839124,
      1761839287,
      1761839287,
      1761839287,
      1761839287,
      1761839287,
      1761839287,
      1761839587,
      1761839587,
      1761839587,
      1761839587,
      1761839605,
      1761839605,
      1761839605,
      1761839605,
      1761839605,
      1761839647,
      1761839647,
      1761839828,
      1761839828,
      1761839828,
      1761839828,
      1761839828,
      1761839828,
      1761839828,
      1761839905,
      1761839905,
      1761839905,
      1761840085,
      1761840085,
      1761840085,
      1761840085,
      1761840085,
      1761840085,
      1761840085,
      1761840085,
      1761840085,
      1761840566,
      1761840566,
      1761840566,
      1761840626,
      1761840626,
      1761840626,
      1761840626,
      1761840686,
      1761840686,
      1761840686,
      1761840686,
      1761840686,
      1761840686,
      1761840686,
      1761840686,
      1761840866,
      1761840866,
      1761840866,
      1761840866,
      1761841167,
      1761841167,
      1761841167,
      1761841389,
      1761841389,
      1761841389,
      1761841389,
      1761841389,
      1761841407,
      1761841407,
      1761841407,
      1761841467,
      1761841467,
      1761841467,
      1761841467,
      1761841467,
      1761841527,
      1761841527,
      1761841527,
      1761841527,
      1761841527,
      1761841527,
      1761842284,
      1761842284,
      1761842284,
      1761842284,
      1761842284,
      1761842284,
      1761842284,
      1761842368,
      1761842368,
      1761842368,
      1761842368
    ],
    "wof:geomhash": "85f82822dff12d0f93966f9f288f4719",
    "wof:id": 1981805921,
    "wof:repo": "sfomuseum-data-flights-2025-10"
  },
  "bbox": [
    -122.33833333333332,
    35.885555555555555,
    -115.39777777777779,
    38.00888888888889
  ],
  "geometry": {"coordinates":[[-115.39777777777779,35.885555555555555],[-115.39777777777779,35.885555555555555],[-115.39777777777779,35.885555555555555],[-115.39777777777779,35.885555555555555],[-115.39777777777779,35.885555555555555],[-115.59888888888888,35.88972222222222],[-115.59888888888888,35.88972222222222],[-115.59888888888888,35.88972222222222],[-115.59888888888888,35.88972222222222],[-115.59888888888888,35.88972222222222],[-115.59888888888888,35.88972222222222],[-115.59888888888888,35.88972222222222],[-115.59888888888888,35.88972222222222],[-115.59888888888888,35.88972222222222],[-115.59888888888888,35.88972222222222],[-116.15444444444445,36.07],[-116.15444444444445,36.07],[-116.15444444444445,36.07],[-116.25472222222223,36.15138888888889],[-116.25472222222223,36.15138888888889],[-116.25472222222223,36.15138888888889],[-116.36055555555555,36.236111111111114],[-116.36055555555555,36.236111111111114],[-116.36055555555555,36.236111111111114],[-116.36055555555555,36.236111111111114],[-116.36055555555555,36.236111111111114],[-116.36055555555555,36.236111111111114],[-116.36055555555555,36.236111111111114],[-116.36055555555555,36.236111111111114],[-116.66916666666667,36.495],[-116.66916666666667,36.495],[-116.66916666666667,36.495],[-116.66916666666667,36.495],[-116.88527777777779,36.68555555555555],[-116.88527777777779,36.68555555555555],[-116.88527777777779,36.68555555555555],[-116.88527777777779,36.68555555555555],[-116.95138888888889,36.75083333333333],[-116.95138888888889,36.75083333333333],[-116.95138888888889,36.75083333333333],[-116.95138888888889,36.75083333333333],[-116.97055555555556,36.77777777777778],[-116.97055555555556,36.77777777777778],[-117.13444444444445,37.030277777777776],[-117.13444444444445,37.030277777777776],[-117.13444444444445,37.030277777777776],[-117.13444444444445,37.030277777777776],[-117.13444444444445,37.030277777777776],[-117.13444444444445,37.030277777777776],[-117.44333333333334,37.516666666666666],[-117.44333333333334,37.516666666666666],[-117.44333333333334,37.516666666666666],[-117.44333333333334,37.516666666666666],[-117.46833333333333,37.55638888888888],[-117.46833333333333,37.55638888888888],[-117.46833333333333,37.55638888888888],[-117.46833333333333,37.55638888888888],[-117.46833333333333,37.55638888888888],[-117.50527777777778,37.615],[-117.50527777777778,37.615],[-117.69277777777778,37.909444444444446],[-117.69277777777778,37.909444444444446],[-117.69277777777778,37.909444444444446],[-117.69277777777778,37.909444444444446],[-117.69277777777778,37.909444444444446],[-117.69277777777778,37.909444444444446],[-117.69277777777778,37.909444444444446],[-117.82916666666667,38.00888888888889],[-117.82916666666667,38.00888888888889],[-117.82916666666667,38.00888888888889],[-118.25222222222222,37.97027777777778],[-118.25222222222222,37.97027777777778],[-118.25222222222222,37.97027777777778],[-118.25222222222222,37.97027777777778],[-118.25222222222222,37.97027777777778],[-118.25222222222222,37.97027777777778],[-118.25222222222222,37.97027777777778],[-118.25222222222222,37.97027777777778],[-118.25222222222222,37.97027777777778],[-119.37222222222222,37.83444444444444],[-119.37222222222222,37.83444444444444],[-119.37222222222222,37.83444444444444],[-119.51138888888889,37.81666666666667],[-119.51138888888889,37.81666666666667],[-119.51138888888889,37.81666666666667],[-119.51138888888889,37.81666666666667],[-119.65194444444445,37.79861111111111],[-119.65194444444445,37.79861111111111],[-119.65194444444445,37.79861111111111],[-119.65194444444445,37.79861111111111],[-119.65194444444445,37.79861111111111],[-119.65194444444445,37.79861111111111],[-119.65194444444445,37.79861111111111],[-119.65194444444445,37.79861111111111],[-120.07,37.74388888888889],[-120.07,37.74388888888889],[-120.07,37.74388888888889],[-120.07,37.74388888888889],[-120.76888888888888,37.656388888888884],[-120.76888888888888,37.656388888888884],[-120.76888888888888,37.656388888888884],[-121.23333333333333,37.6],[-121.23333333333333,37.6],[-121.23333333333333,37.6],[-121.23333333333333,37.6],[-121.23333333333333,37.6],[-121.25472222222223,37.594166666666666],[-121.25472222222223,37.594166666666666],[-121.25472222222223,37.594166666666666],[-121.36,37.57],[-121.36,37.57],[-121.36,37.57],[-121.36,37.57],[-121.36,37.57],[-121.39527777777778,37.48861111111111],[-121.39527777777778,37.48861111111111],[-121.39527777777778,37.48861111111111],[-121.39527777777778,37.48861111111111],[-121.39527777777778,37.48861111111111],[-121.39527777777778,37.48861111111111],[-122.28333333333333,37.583333333333336],[-122.28333333333333,37.583333333333336],[-122.28333333333333,37.583333333333336],[-122.28333333333333,37.583333333333336],[-122.28333333333333,37.583333333333336],[-122.28333333333333,37.583333333333336],[-122.28333333333333,37.583333333333336],[-122.33833333333332,37.60333333333333],[-122.33833333333332,37.60333333333333],[-122.33833333333332,37.60333333333333],[-122.33833333333332,37.60333333333333]],"type":"LineString"}
}
