{
  "id": 1981729817,
  "type": "Feature",
  "properties": {
    "geom:area": 0,
    "geom:bbox": "-122.469120,36.730520,-121.311640,37.706540",
    "geom:latitude": 37.213976802128926,
    "geom:longitude": -121.99787038756074,
    "src:alt_label": "swim-takeoff",
    "src:geom": "swim",
    "swim:elevations": [
      350,
      405,
      714,
      779,
      1507,
      1942,
      2428,
      2868,
      3178,
      3293,
      3648,
      4134,
      4241,
      4885,
      5347,
      5781,
      6146,
      6334,
      6765,
      6951,
      7405,
      7651,
      7707,
      8180,
      8434,
      8849,
      9196,
      9582,
      9927,
      10279
    ],
    "swim:geom": "takeoff",
    "swim:timestamps": [
      1761049827,
      1761049834,
      1761049883,
      1761049892,
      1761049945,
      1761049970,
      1761050004,
      1761050039,
      1761050065,
      1761050079,
      1761050126,
      1761050153,
      1761050163,
      1761050208,
      1761050238,
      1761050267,
      1761050300,
      1761050319,
      1761050363,
      1761050381,
      1761050421,
      1761050456,
      1761050470,
      1761050532,
      1761050560,
      1761050608,
      1761050638,
      1761050678,
      1761050720,
      1761050765
    ],
    "wof:geomhash": "3bd7e21b6920ee07cfed76f7717e5757",
    "wof:id": 1981729817,
    "wof:repo": "sfomuseum-data-flights-2025-10"
  },
  "bbox": [
    -122.46912,
    36.73052,
    -121.31164,
    37.70654
  ],
  "geometry": {"coordinates":[[-122.3615,37.64403],[-122.36166,37.64918],[-122.36545,37.69703],[-122.37249,37.70654],[-122.44283,37.69943],[-122.45226,37.66997],[-122.45836,37.62936],[-122.46294,37.58561],[-122.46693,37.55227],[-122.46912,37.53243],[-122.44727,37.46779],[-122.40602,37.44111],[-122.39034,37.43196],[-122.31949,37.38895],[-122.27157,37.3583],[-122.22622,37.32894],[-122.17423,37.29523],[-122.14206,37.27452],[-122.06667,37.22555],[-122.03555,37.20545],[-121.96478,37.15956],[-121.90279,37.11889],[-121.87732,37.10187],[-121.75902,37.02534],[-121.70301,36.98813],[-121.61064,36.92751],[-121.55144,36.88837],[-121.47552,36.83812],[-121.39585,36.78572],[-121.31164,36.73052]],"type":"LineString"}
}
