{
  "id": 1981657203,
  "type": "Feature",
  "properties": {
    "geom:area": 0,
    "geom:bbox": "-122.849660,37.286790,-122.065620,38.504550",
    "geom:latitude": 37.73467736669263,
    "geom:longitude": -122.4018784025625,
    "src:alt_label": "swim-approach",
    "src:geom": "swim",
    "swim:elevations": [
      7549,
      7180,
      7009,
      6938,
      6435,
      6271,
      6155,
      6095,
      6025,
      5897,
      5621,
      5307,
      5066,
      4798,
      4734,
      4508,
      4463,
      4112,
      3954,
      3901,
      3834,
      3661,
      3488,
      3353,
      3353,
      3353,
      3353,
      3353,
      3353,
      3353,
      3353,
      3353,
      3353,
      3353,
      3292,
      3154,
      3024,
      2982,
      2822,
      2742,
      2743,
      2743,
      2743,
      2743,
      2743,
      2743,
      2743,
      2679,
      2518,
      2350,
      2254,
      2075,
      2039,
      1968,
      1881,
      1681,
      1528,
      1495,
      1320,
      1029,
      997,
      950,
      788,
      508,
      367,
      242,
      106,
      90,
      1
    ],
    "swim:geom": "approach",
    "swim:timestamps": [
      1760365604,
      1760365647,
      1760365668,
      1760365683,
      1760365737,
      1760365762,
      1760365786,
      1760365797,
      1760365817,
      1760365833,
      1760365867,
      1760365894,
      1760365944,
      1760365977,
      1760365987,
      1760366034,
      1760366040,
      1760366089,
      1760366120,
      1760366130,
      1760366142,
      1760366179,
      1760366208,
      1760366248,
      1760366270,
      1760366287,
      1760366305,
      1760366318,
      1760366342,
      1760366377,
      1760366403,
      1760366458,
      1760366472,
      1760366481,
      1760366513,
      1760366538,
      1760366570,
      1760366591,
      1760366618,
      1760366637,
      1760366648,
      1760366657,
      1760366690,
      1760366721,
      1760366753,
      1760366776,
      1760366800,
      1760366831,
      1760366863,
      1760366898,
      1760366918,
      1760366967,
      1760366985,
      1760367002,
      1760367027,
      1760367056,
      1760367086,
      1760367095,
      1760367135,
      1760367169,
      1760367177,
      1760367185,
      1760367213,
      1760367268,
      1760367298,
      1760367325,
      1760367357,
      1760367363,
      1760367378
    ],
    "wof:geomhash": "87a6d2e07078b6fbebd34dd2365243c2",
    "wof:id": 1981657203,
    "wof:repo": "sfomuseum-data-flights-2025-10"
  },
  "bbox": [
    -122.84966,
    37.28679,
    -122.06562,
    38.50455
  ],
  "geometry": {"coordinates":[[-122.84966,38.50455],[-122.83051,38.43927],[-122.82111,38.40738],[-122.81444,38.38482],[-122.7911,38.30485],[-122.77689,38.2678],[-122.74815,38.237],[-122.73483,38.2242],[-122.71146,38.20198],[-122.69151,38.1838],[-122.64931,38.14572],[-122.61487,38.116],[-122.541,38.07001],[-122.49279,38.04035],[-122.4774,38.03087],[-122.40944,37.98862],[-122.40084,37.98331],[-122.36174,37.9277],[-122.3632,37.8868],[-122.36325,37.87351],[-122.36341,37.85789],[-122.36507,37.80982],[-122.36678,37.77345],[-122.36934,37.72163],[-122.37066,37.69381],[-122.37175,37.67206],[-122.37291,37.64962],[-122.37378,37.63333],[-122.37499,37.60452],[-122.35487,37.56819],[-122.33437,37.5422],[-122.292,37.48917],[-122.28199,37.47624],[-122.27525,37.46785],[-122.26206,37.43493],[-122.26109,37.40863],[-122.25901,37.37436],[-122.26505,37.35357],[-122.27679,37.32804],[-122.28506,37.30915],[-122.29029,37.29827],[-122.29715,37.29083],[-122.33697,37.28679],[-122.37507,37.29782],[-122.39656,37.32914],[-122.40085,37.35688],[-122.38249,37.38317],[-122.33806,37.39115],[-122.29453,37.37524],[-122.24588,37.3582],[-122.21544,37.36167],[-122.14083,37.38398],[-122.11468,37.3917],[-122.09146,37.40124],[-122.07413,37.42682],[-122.06562,37.46093],[-122.08424,37.49189],[-122.09173,37.49908],[-122.13262,37.51866],[-122.16824,37.534],[-122.1762,37.53742],[-122.18363,37.54054],[-122.2125,37.55266],[-122.26769,37.57597],[-122.29291,37.58657],[-122.31488,37.59579],[-122.33956,37.60616],[-122.34433,37.60821],[-122.35619,37.61328]],"type":"LineString"}
}
