{
  "id": 1981658981,
  "type": "Feature",
  "properties": {
    "geom:area": 0,
    "geom:bbox": "-122.765170,37.345950,-122.093770,38.515850",
    "geom:latitude": 37.7913766146546,
    "geom:longitude": -122.46664277454877,
    "src:alt_label": "swim-approach",
    "src:geom": "swim",
    "swim:elevations": [
      7335,
      7258,
      7072,
      6994,
      6861,
      6793,
      6611,
      6499,
      6282,
      6177,
      6025,
      5951,
      5674,
      5623,
      5096,
      4831,
      4538,
      4459,
      4366,
      4111,
      3882,
      3603,
      3429,
      3353,
      3353,
      3353,
      3353,
      3353,
      3353,
      3353,
      3079,
      2865,
      2854,
      2654,
      2580,
      2417,
      2131,
      2098,
      1849,
      1830,
      1704,
      1524,
      1445,
      1271,
      1179,
      994,
      974,
      964,
      837,
      748,
      594,
      458,
      216,
      178,
      93,
      0
    ],
    "swim:geom": "approach",
    "swim:timestamps": [
      1760368346,
      1760368361,
      1760368400,
      1760368415,
      1760368440,
      1760368455,
      1760368491,
      1760368512,
      1760368554,
      1760368576,
      1760368607,
      1760368622,
      1760368648,
      1760368656,
      1760368701,
      1760368730,
      1760368767,
      1760368779,
      1760368788,
      1760368819,
      1760368852,
      1760368887,
      1760368907,
      1760368926,
      1760368959,
      1760368976,
      1760368988,
      1760369020,
      1760369062,
      1760369081,
      1760369127,
      1760369157,
      1760369161,
      1760369188,
      1760369209,
      1760369228,
      1760369277,
      1760369283,
      1760369337,
      1760369340,
      1760369356,
      1760369394,
      1760369420,
      1760369439,
      1760369473,
      1760369511,
      1760369515,
      1760369520,
      1760369542,
      1760369559,
      1760369589,
      1760369611,
      1760369662,
      1760369674,
      1760369692,
      1760369716
    ],
    "wof:geomhash": "970324b772b334d6ae9c97136e256c6f",
    "wof:id": 1981658981,
    "wof:repo": "sfomuseum-data-flights-2025-10"
  },
  "bbox": [
    -122.76517,
    37.34595,
    -122.09377,
    38.51585
  ],
  "geometry": {"coordinates":[[-122.75078,38.51585],[-122.75203,38.49336],[-122.75553,38.43316],[-122.7569,38.41013],[-122.7592,38.37173],[-122.76047,38.34867],[-122.76339,38.29514],[-122.76517,38.26414],[-122.76084,38.20204],[-122.75169,38.17009],[-122.73873,38.12512],[-122.73229,38.10331],[-122.72123,38.06571],[-122.71816,38.05423],[-122.7,37.99039],[-122.68826,37.95105],[-122.67101,37.90178],[-122.66014,37.88767],[-122.6501,37.87805],[-122.61449,37.84455],[-122.5788,37.81048],[-122.53914,37.77296],[-122.51576,37.75112],[-122.49471,37.73111],[-122.45871,37.69712],[-122.44004,37.67901],[-122.42714,37.66611],[-122.39229,37.63341],[-122.35624,37.58723],[-122.34247,37.56521],[-122.30998,37.51199],[-122.28903,37.47796],[-122.2861,37.47315],[-122.26669,37.44142],[-122.25224,37.41785],[-122.23877,37.39602],[-122.19315,37.34821],[-122.18359,37.34595],[-122.11686,37.37891],[-122.11563,37.38247],[-122.10902,37.40228],[-122.09377,37.44569],[-122.09983,37.47109],[-122.11212,37.48746],[-122.13413,37.51541],[-122.17068,37.53506],[-122.17491,37.5368],[-122.17989,37.53886],[-122.20256,37.54854],[-122.21982,37.5558],[-122.25068,37.56877],[-122.27202,37.57779],[-122.31795,37.59708],[-122.32809,37.60134],[-122.34319,37.60771],[-122.36463,37.61716]],"type":"LineString"}
}
