{
  "id": 1981780225,
  "type": "Feature",
  "properties": {
    "geom:area": 0,
    "geom:bbox": "-122.761210,37.295180,-122.141430,38.506360",
    "geom:latitude": 37.77087098252582,
    "geom:longitude": -122.46563939499467,
    "src:alt_label": "swim-approach",
    "src:geom": "swim",
    "swim:elevations": [
      7468,
      7407,
      7180,
      7133,
      6922,
      6708,
      6269,
      6095,
      5814,
      5440,
      5406,
      5392,
      5034,
      4623,
      4324,
      4087,
      3833,
      3741,
      3403,
      3355,
      3353,
      3353,
      3353,
      3353,
      3353,
      3198,
      3147,
      3051,
      2911,
      2839,
      2672,
      2468,
      2390,
      2377,
      2166,
      2061,
      1929,
      1844,
      1611,
      1553,
      1404,
      1386,
      1197,
      1165,
      1112,
      871,
      790,
      698,
      60
    ],
    "swim:geom": "approach",
    "swim:timestamps": [
      1761584846,
      1761584851,
      1761584876,
      1761584880,
      1761584903,
      1761584924,
      1761584968,
      1761584986,
      1761585016,
      1761585053,
      1761585057,
      1761585065,
      1761585096,
      1761585137,
      1761585171,
      1761585199,
      1761585234,
      1761585245,
      1761585293,
      1761585309,
      1761585321,
      1761585358,
      1761585366,
      1761585404,
      1761585442,
      1761585475,
      1761585482,
      1761585506,
      1761585538,
      1761585550,
      1761585584,
      1761585622,
      1761585658,
      1761585664,
      1761585715,
      1761585739,
      1761585767,
      1761585781,
      1761585835,
      1761585851,
      1761585897,
      1761585901,
      1761585949,
      1761585954,
      1761585966,
      1761586014,
      1761586034,
      1761586061,
      1761586207
    ],
    "wof:geomhash": "65958780ec42a1e8c8464e45f973da29",
    "wof:id": 1981780225,
    "wof:repo": "sfomuseum-data-flights-2025-10"
  },
  "bbox": [
    -122.76121,
    37.29518,
    -122.14143,
    38.50636
  ],
  "geometry": {"coordinates":[[-122.6885,38.50636],[-122.69093,38.49758],[-122.70427,38.45017],[-122.70673,38.44143],[-122.71849,38.39937],[-122.72979,38.35927],[-122.75253,38.27758],[-122.76121,38.24615],[-122.75749,38.18939],[-122.73701,38.12095],[-122.73492,38.11361],[-122.73087,38.09934],[-122.71444,38.04212],[-122.693,37.96788],[-122.67565,37.90977],[-122.64005,37.86864],[-122.59208,37.8236],[-122.5771,37.80919],[-122.51114,37.74643],[-122.49132,37.72763],[-122.47799,37.71496],[-122.43735,37.67705],[-122.42975,37.66985],[-122.3899,37.63239],[-122.35331,37.59428],[-122.33377,37.55656],[-122.32944,37.54789],[-122.31423,37.51995],[-122.29354,37.48528],[-122.28482,37.47117],[-122.27369,37.43186],[-122.28459,37.38688],[-122.29574,37.34459],[-122.29732,37.33805],[-122.2586,37.29518],[-122.22896,37.30437],[-122.19916,37.32098],[-122.18328,37.33017],[-122.14943,37.3805],[-122.14143,37.39592],[-122.14536,37.44184],[-122.14598,37.44608],[-122.15187,37.48848],[-122.1535,37.49188],[-122.16038,37.50005],[-122.19372,37.53159],[-122.20801,37.54441],[-122.2322,37.55945],[-122.34916,37.60789]],"type":"LineString"}
}
