{
  "id": 1981682653,
  "type": "Feature",
  "properties": {
    "geom:area": 0,
    "geom:bbox": "-122.357890,37.491290,-121.254010,37.613780",
    "geom:latitude": 37.54653393107929,
    "geom:longitude": -121.81083980646126,
    "src:alt_label": "swim-approach",
    "src:geom": "swim",
    "swim:elevations": [
      4507,
      4127,
      3984,
      3573,
      3467,
      3136,
      3105,
      2959,
      2710,
      2497,
      2462,
      2271,
      2134,
      2010,
      1945,
      1789,
      1566,
      1427,
      1219,
      1047,
      857,
      684,
      610,
      517,
      361,
      249,
      176,
      40
    ],
    "swim:geom": "approach",
    "swim:timestamps": [
      1760616344,
      1760616384,
      1760616400,
      1760616445,
      1760616457,
      1760616504,
      1760616513,
      1760616547,
      1760616583,
      1760616618,
      1760616638,
      1760616675,
      1760616705,
      1760616733,
      1760616752,
      1760616790,
      1760616825,
      1760616854,
      1760616890,
      1760616918,
      1760616954,
      1760616987,
      1760617007,
      1760617023,
      1760617063,
      1760617088,
      1760617110,
      1760617148
    ],
    "wof:geomhash": "189b8030ff0b6a9aac91c0093758c7e0",
    "wof:id": 1981682653,
    "wof:repo": "sfomuseum-data-flights-2025-10"
  },
  "bbox": [
    -122.35789,
    37.49129,
    -121.25401,
    37.61378
  ],
  "geometry": {"coordinates":[[-121.25401,37.59401],[-121.33431,37.58417],[-121.36612,37.58073],[-121.45392,37.57089],[-121.47767,37.56809],[-121.56598,37.55771],[-121.58252,37.55575],[-121.64029,37.54716],[-121.69872,37.53318],[-121.75498,37.5198],[-121.78611,37.51221],[-121.84011,37.49919],[-121.88337,37.49129],[-121.92201,37.49195],[-121.94649,37.49259],[-121.99521,37.49704],[-122.03792,37.51081],[-122.07272,37.52223],[-122.11497,37.53589],[-122.14625,37.54601],[-122.18527,37.55857],[-122.21941,37.56955],[-122.23921,37.57592],[-122.25475,37.58101],[-122.28959,37.59119],[-122.30999,37.59727],[-122.32771,37.60261],[-122.35789,37.61378]],"type":"LineString"}
}
