{
  "id": 1997542777,
  "type": "Feature",
  "properties": {
    "geom:area": 0,
    "geom:bbox": "-123.501100,36.950730,-122.110380,37.612080",
    "geom:latitude": 37.265320727468556,
    "geom:longitude": -122.67703414135461,
    "src:alt_label": "swim-approach",
    "src:geom": "swim",
    "swim:elevations": [
      5942,
      5889,
      5547,
      4979,
      4880,
      4682,
      4584,
      4079,
      3778,
      3578,
      3350,
      3260,
      3198,
      3147,
      3045,
      3048,
      3048,
      3048,
      3048,
      3048,
      3048,
      3022,
      2766,
      2569,
      2456,
      2438,
      2424,
      2352,
      2097,
      2074,
      1836,
      1829,
      1829,
      1829,
      1829,
      1829,
      1829,
      1829,
      1644,
      1468,
      1446,
      1431,
      1365,
      1251,
      966,
      886,
      678,
      620,
      522,
      486,
      339,
      182,
      124,
      3,
      45
    ],
    "swim:geom": "approach",
    "swim:timestamps": [
      1761945118,
      1761945124,
      1761945166,
      1761945235,
      1761945246,
      1761945267,
      1761945276,
      1761945327,
      1761945356,
      1761945378,
      1761945405,
      1761945414,
      1761945426,
      1761945444,
      1761945478,
      1761945490,
      1761945523,
      1761945543,
      1761945588,
      1761945598,
      1761945611,
      1761945642,
      1761945684,
      1761945717,
      1761945738,
      1761945777,
      1761945781,
      1761945800,
      1761945837,
      1761945840,
      1761945882,
      1761945915,
      1761945958,
      1761945964,
      1761945976,
      1761946016,
      1761946025,
      1761946062,
      1761946107,
      1761946132,
      1761946140,
      1761946146,
      1761946180,
      1761946207,
      1761946257,
      1761946273,
      1761946308,
      1761946323,
      1761946347,
      1761946353,
      1761946396,
      1761946436,
      1761946453,
      1761946478,
      1761946481
    ],
    "wof:geomhash": "4095c82bcdd9c20b58c898be61d70aae",
    "wof:id": 1997542777,
    "wof:repo": "sfomuseum-data-flights-2025-10"
  },
  "bbox": [
    -123.5011,
    36.95073,
    -122.11038,
    37.61208
  ],
  "geometry": {"coordinates":[[-123.5011,36.95073],[-123.48957,36.9564],[-123.41083,36.99558],[-123.28075,37.05696],[-123.26172,37.06616],[-123.22411,37.08439],[-123.20816,37.09203],[-123.11935,37.13482],[-123.06958,37.15894],[-123.03346,37.17626],[-122.98868,37.19762],[-122.97384,37.20473],[-122.95412,37.21413],[-122.92574,37.22777],[-122.87486,37.25197],[-122.85683,37.25844],[-122.80765,37.27066],[-122.77968,37.2773],[-122.71498,37.29235],[-122.70029,37.29578],[-122.68167,37.30014],[-122.63704,37.30947],[-122.57655,37.29346],[-122.53212,37.27644],[-122.5039,37.26542],[-122.45197,37.24596],[-122.44539,37.2448],[-122.41862,37.24667],[-122.36733,37.25654],[-122.36313,37.25737],[-122.3045,37.26924],[-122.25884,37.27873],[-122.20076,37.29077],[-122.19248,37.29245],[-122.17532,37.29581],[-122.12708,37.31669],[-122.1231,37.326],[-122.11856,37.3662],[-122.11418,37.41468],[-122.11158,37.44269],[-122.1109,37.45058],[-122.11038,37.45708],[-122.12038,37.49011],[-122.13973,37.50981],[-122.17855,37.53613],[-122.19325,37.54216],[-122.22314,37.55484],[-122.23599,37.56031],[-122.25633,37.56884],[-122.26138,37.57097],[-122.29618,37.58558],[-122.32604,37.59815],[-122.33926,37.60382],[-122.35766,37.61135],[-122.36013,37.61208]],"type":"LineString"}
}
