{
  "id": 1981720401,
  "type": "Feature",
  "properties": {
    "geom:area": 0,
    "geom:bbox": "-122.333333,34.426944,-119.858333,37.600000",
    "geom:latitude": 35.99700027213577,
    "geom:longitude": -121.26502585184338,
    "src:alt_label": "swim-path",
    "src:geom": "swim",
    "swim:altitudes": [
      "005",
      "005",
      "005",
      "005",
      "014",
      "014",
      "014",
      "014",
      "014",
      "014",
      "014",
      "014",
      "167",
      "167",
      "167",
      "167",
      "167",
      "220C",
      "220C",
      "220C",
      "220C",
      "220C",
      "220C",
      "220C",
      "220C",
      "220C",
      "220C",
      "220C",
      "220C",
      "220C",
      "220C",
      "220C",
      "220C",
      "220C",
      "220C",
      "220",
      "220",
      "220",
      "220",
      "220",
      "220",
      "220",
      "220",
      "220",
      "166",
      "166",
      "166",
      "145",
      "145",
      "145",
      "145",
      "115",
      "115",
      "105",
      "105",
      "105",
      "105",
      "090",
      "090",
      "088",
      "088",
      "079",
      "079",
      "054",
      "044",
      "044",
      "041",
      "041",
      "041",
      "041",
      "031",
      "031",
      "031",
      "031",
      "031",
      "030",
      "030",
      "006",
      "006",
      "006",
      "006",
      "006",
      "006"
    ],
    "swim:geom": "path",
    "swim:speeds": [
      147,
      147,
      147,
      147,
      153,
      153,
      153,
      153,
      153,
      153,
      153,
      153,
      357,
      357,
      357,
      357,
      357,
      385,
      385,
      385,
      385,
      384,
      384,
      384,
      384,
      384,
      378,
      378,
      378,
      378,
      378,
      378,
      378,
      378,
      378,
      410,
      410,
      410,
      410,
      410,
      410,
      410,
      410,
      410,
      372,
      372,
      372,
      324,
      324,
      324,
      324,
      276,
      276,
      247,
      247,
      247,
      247,
      244,
      244,
      240,
      240,
      249,
      249,
      235,
      228,
      228,
      219,
      219,
      219,
      219,
      195,
      195,
      195,
      195,
      195,
      191,
      191,
      146,
      146,
      146,
      146,
      146,
      146
    ],
    "swim:timestamps": [
      1761000513,
      1761000513,
      1761000513,
      1761000513,
      1761000537,
      1761000537,
      1761000537,
      1761000537,
      1761000537,
      1761000537,
      1761000537,
      1761000537,
      1761000843,
      1761000843,
      1761000843,
      1761000843,
      1761000843,
      1761001023,
      1761001023,
      1761001023,
      1761001023,
      1761001077,
      1761001077,
      1761001077,
      1761001077,
      1761001077,
      1761001438,
      1761001438,
      1761001438,
      1761001438,
      1761001438,
      1761001438,
      1761001438,
      1761001438,
      1761001438,
      1761001924,
      1761001924,
      1761001924,
      1761001924,
      1761001924,
      1761001924,
      1761001924,
      1761001924,
      1761001924,
      1761002285,
      1761002285,
      1761002285,
      1761002358,
      1761002358,
      1761002358,
      1761002358,
      1761002484,
      1761002484,
      1761002544,
      1761002544,
      1761002544,
      1761002544,
      1761002645,
      1761002645,
      1761002664,
      1761002664,
      1761002724,
      1761002724,
      1761002886,
      1761002946,
      1761002946,
      1761002964,
      1761002964,
      1761002964,
      1761002964,
      1761003066,
      1761003066,
      1761003066,
      1761003066,
      1761003066,
      1761003084,
      1761003084,
      1761003264,
      1761003264,
      1761003264,
      1761003264,
      1761003264,
      1761003264
    ],
    "wof:geomhash": "c72bb5ac0f0d5e84a3250c6dfef8e811",
    "wof:id": 1981720401,
    "wof:repo": "sfomuseum-data-flights-2025-10"
  },
  "bbox": [
    -122.33333333333333,
    34.426944444444445,
    -119.85833333333333,
    37.6
  ],
  "geometry": {"coordinates":[[-119.85833333333333,34.42777777777778],[-119.85833333333333,34.42777777777778],[-119.85833333333333,34.42777777777778],[-119.85833333333333,34.42777777777778],[-119.8786111111111,34.426944444444445],[-119.8786111111111,34.426944444444445],[-119.8786111111111,34.426944444444445],[-119.8786111111111,34.426944444444445],[-119.8786111111111,34.426944444444445],[-119.8786111111111,34.426944444444445],[-119.8786111111111,34.426944444444445],[-119.8786111111111,34.426944444444445],[-120.28388888888888,34.603611111111114],[-120.28388888888888,34.603611111111114],[-120.28388888888888,34.603611111111114],[-120.28388888888888,34.603611111111114],[-120.28388888888888,34.603611111111114],[-120.48,34.87361111111111],[-120.48,34.87361111111111],[-120.48,34.87361111111111],[-120.48,34.87361111111111],[-120.53305555555555,34.94638888888888],[-120.53305555555555,34.94638888888888],[-120.53305555555555,34.94638888888888],[-120.53305555555555,34.94638888888888],[-120.53305555555555,34.94638888888888],[-120.92944444444444,35.48555555555556],[-120.92944444444444,35.48555555555556],[-120.92944444444444,35.48555555555556],[-120.92944444444444,35.48555555555556],[-120.92944444444444,35.48555555555556],[-120.92944444444444,35.48555555555556],[-120.92944444444444,35.48555555555556],[-120.92944444444444,35.48555555555556],[-120.92944444444444,35.48555555555556],[-121.51777777777778,36.26],[-121.51777777777778,36.26],[-121.51777777777778,36.26],[-121.51777777777778,36.26],[-121.51777777777778,36.26],[-121.51777777777778,36.26],[-121.51777777777778,36.26],[-121.51777777777778,36.26],[-121.51777777777778,36.26],[-121.92166666666667,36.83888888888889],[-121.92166666666667,36.83888888888889],[-121.92166666666667,36.83888888888889],[-121.95,36.95],[-121.95,36.95],[-121.95,36.95],[-121.95,36.95],[-122.01666666666667,37.11666666666667],[-122.01666666666667,37.11666666666667],[-122.06666666666666,37.18333333333333],[-122.06666666666666,37.18333333333333],[-122.06666666666666,37.18333333333333],[-122.06666666666666,37.18333333333333],[-122.19805555555556,37.223055555555554],[-122.19805555555556,37.223055555555554],[-122.21666666666667,37.233333333333334],[-122.21666666666667,37.233333333333334],[-122.28333333333333,37.28333333333333],[-122.28333333333333,37.28333333333333],[-122.20194444444445,37.397777777777776],[-122.12777777777777,37.416666666666664],[-122.12777777777777,37.416666666666664],[-122.11666666666666,37.43333333333333],[-122.11666666666666,37.43333333333333],[-122.11666666666666,37.43333333333333],[-122.11666666666666,37.43333333333333],[-122.14750000000001,37.515],[-122.14750000000001,37.515],[-122.14750000000001,37.515],[-122.14750000000001,37.515],[-122.14750000000001,37.515],[-122.16666666666667,37.53333333333333],[-122.16666666666667,37.53333333333333],[-122.33333333333333,37.6],[-122.33333333333333,37.6],[-122.33333333333333,37.6],[-122.33333333333333,37.6],[-122.33333333333333,37.6],[-122.33333333333333,37.6]],"type":"LineString"}
}
