{
  "id": 1981798271,
  "type": "Feature",
  "properties": {
    "geom:area": 0,
    "geom:bbox": "-122.300000,37.666667,-88.166667,43.096944",
    "geom:latitude": 41.840877209992854,
    "geom:longitude": -105.50800372014511,
    "src:alt_label": "swim-path",
    "src:geom": "swim",
    "swim:altitudes": [
      "025",
      "025",
      "025",
      "025",
      "025",
      "025",
      "025",
      "128",
      "128",
      "128",
      "128",
      "128",
      "128",
      "242",
      "242",
      "242",
      "259",
      "259",
      "259",
      "259",
      "286",
      "286",
      "286",
      "317",
      "317",
      "357",
      "357",
      "357",
      "357",
      "357",
      "366",
      "366",
      "370C",
      "370C",
      "370C",
      "370C",
      "370C",
      "370C",
      "370C",
      "370C",
      "370C",
      "370C",
      "370C",
      "370C",
      "370C",
      "370C",
      "370C",
      "370C",
      "370C",
      "370C",
      "370C",
      "370C",
      "370C",
      "370C",
      "370C",
      "370C",
      "370C",
      "370C",
      "370C",
      "370C",
      "370C",
      "370C",
      "370C",
      "370C",
      "370C",
      "370C",
      "370C",
      "370C",
      "370C",
      "370C",
      "370C",
      "370C",
      "370C",
      "370C",
      "370C",
      "370C",
      "370C",
      "370C",
      "370C",
      "370C",
      "370C",
      "370C",
      "370C",
      "370C",
      "370C",
      "370C",
      "370C",
      "370C",
      "370C",
      "370C",
      "370C",
      "370C",
      "370C",
      "370C",
      "370C",
      "370C",
      "370C",
      "370C",
      "370C",
      "370C",
      "370C",
      "370C",
      "370C",
      "370C",
      "370C",
      "370C",
      "370C",
      "370C",
      "370C",
      "370C",
      "370C",
      "370C",
      "370C",
      "370C",
      "370C",
      "370C",
      "370C",
      "370C",
      "370C",
      "370C",
      "370C",
      "370C",
      "370C",
      "370C",
      "370C",
      "370C",
      "370C",
      "370C",
      "370C",
      "370C",
      "370C",
      "370C",
      "370C",
      "370C",
      "370C",
      "370C",
      "370C",
      "370C",
      "370C",
      "370C",
      "370C",
      "370C",
      "370C",
      "370C",
      "370C",
      "370C",
      "370C",
      "370C",
      "370C",
      "370C",
      "370C",
      "370C",
      "370C",
      "370C",
      "370C",
      "380",
      "380",
      "380",
      "380",
      "389C",
      "389C",
      "390C",
      "390C",
      "390C",
      "390C",
      "390C",
      "390C",
      "390C",
      "390C",
      "390C",
      "390C",
      "390C",
      "390C",
      "390C",
      "390C",
      "390C",
      "390C",
      "390C",
      "390C",
      "390C",
      "390C",
      "390C",
      "390C",
      "390C",
      "390C",
      "390C",
      "390C",
      "390C",
      "390C",
      "390C",
      "390C",
      "390C",
      "390C",
      "390C",
      "390C",
      "390C",
      "390C",
      "390C",
      "390C",
      "390C",
      "390C",
      "390C",
      "390C",
      "390C",
      "390C",
      "390C",
      "390C",
      "390C",
      "390C",
      "390C",
      "390C",
      "390C",
      "390C",
      "390C",
      "390C",
      "390C",
      "390C",
      "390C",
      "390C",
      "390C",
      "390C",
      "390C",
      "390C",
      "390C",
      "390C",
      "390C",
      "390C",
      "390C",
      "377",
      "370C",
      "370C",
      "370C",
      "370C",
      "370C",
      "370C",
      "370C",
      "370C",
      "370C",
      "370C",
      "370C",
      "370C",
      "370C",
      "370C",
      "370C",
      "370C",
      "370C",
      "370C",
      "370C",
      "370C",
      "370C",
      "370C",
      "370C",
      "370C",
      "370C",
      "370C",
      "370C",
      "370C",
      "370C",
      "370C",
      "370",
      "370",
      "370",
      "370",
      "370",
      "370",
      "370",
      "370",
      "370",
      "370",
      "370",
      "370",
      "370",
      "251",
      "251",
      "227",
      "227",
      "227",
      "227",
      "196",
      "196",
      "160",
      "160",
      "160",
      "137",
      "137",
      "110",
      "105",
      "105",
      "105",
      "085",
      "085",
      "085",
      "085",
      "085",
      "044",
      "040",
      "040",
      "040",
      "040",
      "040",
      "040",
      "040"
    ],
    "swim:geom": "path",
    "swim:speeds": [
      225,
      225,
      225,
      225,
      225,
      225,
      225,
      370,
      370,
      370,
      370,
      370,
      370,
      448,
      448,
      448,
      459,
      459,
      459,
      459,
      482,
      482,
      482,
      486,
      486,
      488,
      488,
      488,
      488,
      488,
      487,
      488,
      488,
      488,
      488,
      488,
      490,
      490,
      490,
      490,
      490,
      490,
      491,
      490,
      490,
      491,
      491,
      492,
      492,
      493,
      495,
      495,
      497,
      497,
      497,
      497,
      497,
      497,
      499,
      500,
      500,
      500,
      500,
      500,
      500,
      500,
      500,
      500,
      501,
      501,
      503,
      503,
      504,
      504,
      504,
      504,
      504,
      504,
      504,
      504,
      505,
      505,
      505,
      505,
      506,
      506,
      506,
      506,
      507,
      507,
      512,
      512,
      512,
      514,
      514,
      514,
      514,
      514,
      514,
      514,
      514,
      518,
      518,
      518,
      518,
      518,
      518,
      518,
      520,
      520,
      520,
      520,
      523,
      523,
      523,
      523,
      524,
      524,
      524,
      524,
      526,
      526,
      526,
      526,
      526,
      526,
      526,
      526,
      526,
      526,
      526,
      525,
      525,
      523,
      523,
      526,
      526,
      526,
      525,
      525,
      525,
      525,
      525,
      525,
      525,
      525,
      526,
      526,
      526,
      526,
      526,
      527,
      527,
      528,
      528,
      526,
      526,
      526,
      526,
      525,
      525,
      527,
      527,
      528,
      528,
      528,
      528,
      528,
      522,
      518,
      518,
      518,
      518,
      519,
      519,
      519,
      516,
      516,
      516,
      517,
      517,
      514,
      514,
      514,
      514,
      514,
      514,
      514,
      512,
      512,
      512,
      511,
      511,
      511,
      511,
      511,
      510,
      510,
      510,
      510,
      510,
      510,
      510,
      509,
      509,
      509,
      509,
      508,
      508,
      508,
      508,
      505,
      505,
      505,
      488,
      484,
      484,
      484,
      484,
      480,
      480,
      480,
      480,
      472,
      472,
      472,
      472,
      472,
      456,
      460,
      462,
      461,
      461,
      467,
      467,
      467,
      467,
      467,
      467,
      468,
      468,
      468,
      468,
      468,
      468,
      467,
      467,
      467,
      467,
      467,
      467,
      467,
      466,
      466,
      465,
      465,
      465,
      465,
      465,
      463,
      463,
      463,
      462,
      462,
      464,
      464,
      464,
      467,
      467,
      467,
      467,
      467,
      459,
      459,
      452,
      452,
      452,
      452,
      434,
      434,
      401,
      401,
      401,
      388,
      388,
      274,
      274,
      274,
      274,
      290,
      290,
      290,
      290,
      290,
      256,
      247,
      247,
      200,
      200,
      189,
      189,
      189
    ],
    "swim:timestamps": [
      1761774317,
      1761774317,
      1761774317,
      1761774317,
      1761774317,
      1761774317,
      1761774317,
      1761774562,
      1761774562,
      1761774562,
      1761774562,
      1761774562,
      1761774562,
      1761774863,
      1761774863,
      1761774863,
      1761774923,
      1761774923,
      1761774923,
      1761774923,
      1761775043,
      1761775043,
      1761775043,
      1761775163,
      1761775163,
      1761775343,
      1761775343,
      1761775343,
      1761775343,
      1761775343,
      1761775395,
      1761775403,
      1761775515,
      1761775515,
      1761775515,
      1761775515,
      1761775644,
      1761775644,
      1761775644,
      1761775764,
      1761775764,
      1761775764,
      1761776116,
      1761776124,
      1761776124,
      1761776184,
      1761776184,
      1761776236,
      1761776236,
      1761776297,
      1761776365,
      1761776365,
      1761776477,
      1761776477,
      1761776485,
      1761776485,
      1761776485,
      1761776485,
      1761776657,
      1761776725,
      1761776725,
      1761776725,
      1761776725,
      1761776725,
      1761776725,
      1761776777,
      1761776777,
      1761776777,
      1761776837,
      1761776837,
      1761777078,
      1761777078,
      1761777138,
      1761777138,
      1761777138,
      1761777138,
      1761777198,
      1761777198,
      1761777198,
      1761777258,
      1761777318,
      1761777318,
      1761777318,
      1761777318,
      1761777450,
      1761777450,
      1761777450,
      1761777450,
      1761777510,
      1761777510,
      1761777751,
      1761777751,
      1761777751,
      1761777871,
      1761777871,
      1761777871,
      1761777871,
      1761778111,
      1761778111,
      1761778111,
      1761778111,
      1761778472,
      1761778472,
      1761778472,
      1761778472,
      1761778472,
      1761778472,
      1761778472,
      1761778592,
      1761778592,
      1761778592,
      1761778592,
      1761779013,
      1761779013,
      1761779013,
      1761779013,
      1761779074,
      1761779074,
      1761779074,
      1761779074,
      1761779194,
      1761779194,
      1761779194,
      1761779194,
      1761779194,
      1761779194,
      1761779424,
      1761779424,
      1761779424,
      1761779424,
      1761779424,
      1761779484,
      1761779484,
      1761779604,
      1761779604,
      1761779735,
      1761779735,
      1761779735,
      1761779844,
      1761779844,
      1761779844,
      1761779844,
      1761779975,
      1761779975,
      1761779975,
      1761779975,
      1761780085,
      1761780085,
      1761780085,
      1761780085,
      1761780095,
      1761780145,
      1761780145,
      1761780216,
      1761780216,
      1761780505,
      1761780505,
      1761780505,
      1761780505,
      1761780565,
      1761780565,
      1761780686,
      1761780686,
      1761780746,
      1761780746,
      1761780746,
      1761780746,
      1761780746,
      1761780926,
      1761781106,
      1761781106,
      1761781106,
      1761781106,
      1761781248,
      1761781248,
      1761781248,
      1761781407,
      1761781407,
      1761781407,
      1761781428,
      1761781428,
      1761781488,
      1761781488,
      1761781527,
      1761781527,
      1761781527,
      1761781549,
      1761781549,
      1761781647,
      1761781647,
      1761781647,
      1761781729,
      1761781789,
      1761781789,
      1761781789,
      1761781789,
      1761781827,
      1761781827,
      1761781827,
      1761782067,
      1761782067,
      1761782067,
      1761782149,
      1761782188,
      1761782188,
      1761782188,
      1761782188,
      1761782330,
      1761782330,
      1761782330,
      1761782330,
      1761782450,
      1761782450,
      1761782450,
      1761783111,
      1761783171,
      1761783171,
      1761783171,
      1761783171,
      1761783291,
      1761783291,
      1761783291,
      1761783291,
      1761783531,
      1761783531,
      1761783531,
      1761783531,
      1761783531,
      1761783952,
      1761784012,
      1761784037,
      1761784132,
      1761784132,
      1761784252,
      1761784252,
      1761784252,
      1761784252,
      1761784312,
      1761784372,
      1761784398,
      1761784398,
      1761784398,
      1761784458,
      1761784458,
      1761784518,
      1761784613,
      1761784613,
      1761784613,
      1761784613,
      1761784613,
      1761784638,
      1761784638,
      1761784698,
      1761784698,
      1761784758,
      1761784758,
      1761784758,
      1761784878,
      1761784878,
      1761785059,
      1761785059,
      1761785059,
      1761785153,
      1761785153,
      1761785239,
      1761785239,
      1761785239,
      1761785299,
      1761785299,
      1761785299,
      1761785299,
      1761785299,
      1761785599,
      1761785599,
      1761785659,
      1761785659,
      1761785659,
      1761785659,
      1761785719,
      1761785719,
      1761785786,
      1761785786,
      1761785786,
      1761785840,
      1761785840,
      1761785966,
      1761786020,
      1761786020,
      1761786020,
      1761786140,
      1761786140,
      1761786140,
      1761786140,
      1761786140,
      1761786320,
      1761786380,
      1761786380,
      1761786440,
      1761786440,
      1761786446,
      1761786446,
      1761786446
    ],
    "wof:geomhash": "533e8081faf566b8c39cb2844f72e687",
    "wof:id": 1981798271,
    "wof:repo": "sfomuseum-data-flights-2025-10"
  },
  "bbox": [
    -122.3,
    37.666666666666664,
    -88.16666666666667,
    43.096944444444446
  ],
  "geometry": {"coordinates":[[-122.3,37.666666666666664],[-122.3,37.666666666666664],[-122.3,37.666666666666664],[-122.3,37.666666666666664],[-122.3,37.666666666666664],[-122.3,37.666666666666664],[-122.3,37.666666666666664],[-122.0325,37.90361111111111],[-122.0325,37.90361111111111],[-122.0325,37.90361111111111],[-122.0325,37.90361111111111],[-122.0325,37.90361111111111],[-122.0325,37.90361111111111],[-121.47083333333333,38.28194444444444],[-121.47083333333333,38.28194444444444],[-121.47083333333333,38.28194444444444],[-121.34666666666666,38.36388888888889],[-121.34666666666666,38.36388888888889],[-121.34666666666666,38.36388888888889],[-121.34666666666666,38.36388888888889],[-121.08666666666666,38.52333333333333],[-121.08666666666666,38.52333333333333],[-121.08666666666666,38.52333333333333],[-120.81638888888888,38.689722222222215],[-120.81638888888888,38.689722222222215],[-120.40472222222223,38.939722222222215],[-120.40472222222223,38.939722222222215],[-120.40472222222223,38.939722222222215],[-120.40472222222223,38.939722222222215],[-120.40472222222223,38.939722222222215],[-120.28027777777778,39.0125],[-120.26777777777778,39.02194444444444],[-120.00277777777778,39.17972222222222],[-120.00277777777778,39.17972222222222],[-120.00277777777778,39.17972222222222],[-120.00277777777778,39.17972222222222],[-119.69250000000001,39.36416666666667],[-119.69250000000001,39.36416666666667],[-119.69250000000001,39.36416666666667],[-119.41277777777778,39.52861111111111],[-119.41277777777778,39.52861111111111],[-119.41277777777778,39.52861111111111],[-118.56444444444445,39.97944444444445],[-118.56194444444444,39.980555555555554],[-118.56194444444444,39.980555555555554],[-118.4038888888889,40.04472222222222],[-118.4038888888889,40.04472222222222],[-118.2425,40.09638888888889],[-118.2425,40.09638888888889],[-118.07666666666667,40.14861111111111],[-117.9063888888889,40.20166666666667],[-117.9063888888889,40.20166666666667],[-117.57277777777777,40.305277777777775],[-117.57277777777777,40.305277777777775],[-117.57277777777777,40.305277777777775],[-117.57277777777777,40.305277777777775],[-117.57277777777777,40.305277777777775],[-117.57277777777777,40.305277777777775],[-117.06666666666666,40.45944444444445],[-116.88916666666667,40.513333333333335],[-116.88916666666667,40.513333333333335],[-116.88916666666667,40.513333333333335],[-116.88916666666667,40.513333333333335],[-116.88916666666667,40.513333333333335],[-116.88916666666667,40.513333333333335],[-116.75055555555555,40.555],[-116.75055555555555,40.555],[-116.75055555555555,40.555],[-116.57777777777777,40.60611111111111],[-116.57777777777777,40.60611111111111],[-115.88944444444445,40.80777777777777],[-115.88944444444445,40.80777777777777],[-115.71916666666667,40.856944444444444],[-115.71916666666667,40.856944444444444],[-115.71916666666667,40.856944444444444],[-115.71916666666667,40.856944444444444],[-115.54472222222222,40.906666666666666],[-115.54472222222222,40.906666666666666],[-115.54472222222222,40.906666666666666],[-115.37249999999999,40.95583333333334],[-115.19972222222222,41.004444444444445],[-115.19972222222222,41.004444444444445],[-115.19972222222222,41.004444444444445],[-115.19972222222222,41.004444444444445],[-114.81527777777778,41.111666666666665],[-114.81527777777778,41.111666666666665],[-114.81527777777778,41.111666666666665],[-114.81527777777778,41.111666666666665],[-114.63055555555555,41.16277777777778],[-114.63055555555555,41.16277777777778],[-113.91111111111111,41.32972222222222],[-113.91111111111111,41.32972222222222],[-113.91111111111111,41.32972222222222],[-113.54277777777777,41.39555555555555],[-113.54277777777777,41.39555555555555],[-113.54277777777777,41.39555555555555],[-113.54277777777777,41.39555555555555],[-112.79916666666666,41.52444444444444],[-112.79916666666666,41.52444444444444],[-112.79916666666666,41.52444444444444],[-112.79916666666666,41.52444444444444],[-111.67222222222223,41.71],[-111.67222222222223,41.71],[-111.67222222222223,41.71],[-111.67222222222223,41.71],[-111.67222222222223,41.71],[-111.67222222222223,41.71],[-111.67222222222223,41.71],[-111.29138888888889,41.769444444444446],[-111.29138888888889,41.769444444444446],[-111.29138888888889,41.769444444444446],[-111.29138888888889,41.769444444444446],[-109.97638888888889,41.965833333333336],[-109.97638888888889,41.965833333333336],[-109.97638888888889,41.965833333333336],[-109.97638888888889,41.965833333333336],[-109.78416666666666,41.99305555555556],[-109.78416666666666,41.99305555555556],[-109.78416666666666,41.99305555555556],[-109.78416666666666,41.99305555555556],[-109.39416666666668,42.0475],[-109.39416666666668,42.0475],[-109.39416666666668,42.0475],[-109.39416666666668,42.0475],[-109.39416666666668,42.0475],[-109.39416666666668,42.0475],[-108.61694444444444,42.151666666666664],[-108.61694444444444,42.151666666666664],[-108.61694444444444,42.151666666666664],[-108.61694444444444,42.151666666666664],[-108.61694444444444,42.151666666666664],[-108.42333333333333,42.17666666666666],[-108.42333333333333,42.17666666666666],[-108.0375,42.22555555555556],[-108.0375,42.22555555555556],[-107.64722222222223,42.27388888888889],[-107.64722222222223,42.27388888888889],[-107.64722222222223,42.27388888888889],[-107.26083333333334,42.32],[-107.26083333333334,42.32],[-107.26083333333334,42.32],[-107.26083333333334,42.32],[-106.87138888888889,42.36527777777778],[-106.87138888888889,42.36527777777778],[-106.87138888888889,42.36527777777778],[-106.87138888888889,42.36527777777778],[-106.50361111111111,42.406666666666666],[-106.50361111111111,42.406666666666666],[-106.50361111111111,42.406666666666666],[-106.50361111111111,42.406666666666666],[-106.46305555555556,42.41111111111111],[-106.3086111111111,42.42805555555555],[-106.3086111111111,42.42805555555555],[-106.07166666666666,42.45388888888889],[-106.07166666666666,42.45388888888889],[-105.13305555555554,42.55027777777777],[-105.13305555555554,42.55027777777777],[-105.13305555555554,42.55027777777777],[-105.13305555555554,42.55027777777777],[-104.93555555555555,42.569722222222225],[-104.93555555555555,42.569722222222225],[-104.53083333333333,42.60805555555556],[-104.53083333333333,42.60805555555556],[-104.32666666666667,42.626666666666665],[-104.32666666666667,42.626666666666665],[-104.32666666666667,42.626666666666665],[-104.32666666666667,42.626666666666665],[-104.32666666666667,42.626666666666665],[-103.73944444444444,42.678888888888885],[-103.15861111111111,42.7275],[-103.15861111111111,42.7275],[-103.15861111111111,42.7275],[-103.15861111111111,42.7275],[-102.7038888888889,42.76027777777778],[-102.7038888888889,42.76027777777778],[-102.7038888888889,42.76027777777778],[-102.1888888888889,42.80138888888889],[-102.1888888888889,42.80138888888889],[-102.1888888888889,42.80138888888889],[-102.12888888888888,42.80638888888888],[-102.12888888888888,42.80638888888888],[-101.93305555555555,42.819722222222225],[-101.93305555555555,42.819722222222225],[-101.80166666666666,42.82888888888889],[-101.80166666666666,42.82888888888889],[-101.80166666666666,42.82888888888889],[-101.73861111111111,42.83305555555556],[-101.73861111111111,42.83305555555556],[-101.43833333333333,42.85305555555556],[-101.43833333333333,42.85305555555556],[-101.43833333333333,42.85305555555556],[-101.16305555555556,42.87083333333334],[-100.97500000000001,42.8825],[-100.97500000000001,42.8825],[-100.97500000000001,42.8825],[-100.97500000000001,42.8825],[-100.85972222222222,42.88972222222222],[-100.85972222222222,42.88972222222222],[-100.85972222222222,42.88972222222222],[-100.0911111111111,42.933055555555555],[-100.0911111111111,42.933055555555555],[-100.0911111111111,42.933055555555555],[-99.81972222222223,42.9475],[-99.70472222222223,42.953611111111115],[-99.70472222222223,42.953611111111115],[-99.70472222222223,42.953611111111115],[-99.70472222222223,42.953611111111115],[-99.23583333333333,42.975833333333334],[-99.23583333333333,42.975833333333334],[-99.23583333333333,42.975833333333334],[-99.23583333333333,42.975833333333334],[-98.85305555555556,42.99305555555556],[-98.85305555555556,42.99305555555556],[-98.85305555555556,42.99305555555556],[-96.81333333333333,43.061388888888885],[-96.63111111111111,43.06583333333333],[-96.63111111111111,43.06583333333333],[-96.63111111111111,43.06583333333333],[-96.63111111111111,43.06583333333333],[-96.27083333333333,43.07361111111111],[-96.27083333333333,43.07361111111111],[-96.27083333333333,43.07361111111111],[-96.27083333333333,43.07361111111111],[-95.55833333333334,43.08583333333333],[-95.55833333333334,43.08583333333333],[-95.55833333333334,43.08583333333333],[-95.55833333333334,43.08583333333333],[-95.55833333333334,43.08583333333333],[-94.32583333333334,43.096111111111114],[-94.15,43.096944444444446],[-94.07888888888888,43.096944444444446],[-93.79916666666666,43.09583333333334],[-93.79916666666666,43.09583333333334],[-93.44861111111112,43.07],[-93.44861111111112,43.07],[-93.44861111111112,43.07],[-93.44861111111112,43.07],[-93.27305555555556,43.04833333333333],[-93.09888888888888,43.026666666666664],[-93.03055555555555,43.018055555555556],[-93.03055555555555,43.018055555555556],[-93.03055555555555,43.018055555555556],[-92.85499999999999,42.99583333333334],[-92.85499999999999,42.99583333333334],[-92.68277777777779,42.973888888888894],[-92.40277777777779,42.9375],[-92.40277777777779,42.9375],[-92.40277777777779,42.9375],[-92.40277777777779,42.9375],[-92.40277777777779,42.9375],[-92.33416666666666,42.92833333333333],[-92.33416666666666,42.92833333333333],[-92.16083333333334,42.905277777777776],[-92.16083333333334,42.905277777777776],[-91.98944444444444,42.882222222222225],[-91.98944444444444,42.882222222222225],[-91.98944444444444,42.882222222222225],[-91.6388888888889,42.83416666666667],[-91.6388888888889,42.83416666666667],[-91.11166666666666,42.75944444444445],[-91.11166666666666,42.75944444444445],[-91.11166666666666,42.75944444444445],[-90.83638888888889,42.719722222222224],[-90.83638888888889,42.719722222222224],[-90.59722222222221,42.68444444444444],[-90.59722222222221,42.68444444444444],[-90.59722222222221,42.68444444444444],[-90.4225,42.65833333333333],[-90.4225,42.65833333333333],[-90.4225,42.65833333333333],[-90.4225,42.65833333333333],[-90.4225,42.65833333333333],[-89.58472222222221,42.528888888888886],[-89.58472222222221,42.528888888888886],[-89.41833333333334,42.5025],[-89.41833333333334,42.5025],[-89.41833333333334,42.5025],[-89.41833333333334,42.5025],[-89.25722222222223,42.47666666666667],[-89.25722222222223,42.47666666666667],[-89.06666666666666,42.45],[-89.06666666666666,42.45],[-89.06666666666666,42.45],[-88.96444444444445,42.42916666666667],[-88.96444444444445,42.42916666666667],[-88.7,42.38333333333333],[-88.62194444444444,42.37416666666667],[-88.62194444444444,42.37416666666667],[-88.62194444444444,42.37416666666667],[-88.52444444444444,42.2425],[-88.52444444444444,42.2425],[-88.52444444444444,42.2425],[-88.52444444444444,42.2425],[-88.52444444444444,42.2425],[-88.31861111111111,42.07638888888889],[-88.24388888888889,42.03444444444444],[-88.24388888888889,42.03444444444444],[-88.18222222222222,42],[-88.18222222222222,42],[-88.16666666666667,42],[-88.16666666666667,42],[-88.16666666666667,42]],"type":"LineString"}
}
