{
  "id": 1997546845,
  "type": "Feature",
  "properties": {
    "geom:area": 0,
    "geom:bbox": "-122.366667,37.633333,-87.540833,41.966667",
    "geom:latitude": 39.44425891401822,
    "geom:longitude": -104.74931607805769,
    "src:alt_label": "swim-path",
    "src:geom": "swim",
    "swim:altitudes": [
      "004",
      "004",
      "004",
      "052",
      "086",
      "086",
      "086",
      "116",
      "116",
      "116",
      "175",
      "175",
      "175",
      "175",
      "283",
      "283",
      "291",
      "291",
      "291",
      "291",
      "314",
      "314",
      "330C",
      "330C",
      "330C",
      "330C",
      "330C",
      "330C",
      "330C",
      "330C",
      "330C",
      "330C",
      "330C",
      "330C",
      "330C",
      "330C",
      "330C",
      "330C",
      "330C",
      "330C",
      "330C",
      "330C",
      "330C",
      "330C",
      "330C",
      "330C",
      "330C",
      "330C",
      "329C",
      "329C",
      "329C",
      "329C",
      "329C",
      "329C",
      "330C",
      "330C",
      "330C",
      "330C",
      "330C",
      "330C",
      "330C",
      "330C",
      "330C",
      "330C",
      "330C",
      "330C",
      "330C",
      "330C",
      "330C",
      "330C",
      "330C",
      "330C",
      "330C",
      "330C",
      "330C",
      "330C",
      "330C",
      "330C",
      "330C",
      "330C",
      "330C",
      "330C",
      "329C",
      "329C",
      "329C",
      "330C",
      "330C",
      "330C",
      "330C",
      "330C",
      "330C",
      "330C",
      "330C",
      "330C",
      "330C",
      "330C",
      "330C",
      "330C",
      "330C",
      "330C",
      "330C",
      "330C",
      "330C",
      "330C",
      "330C",
      "330C",
      "330C",
      "330C",
      "330C",
      "329C",
      "329C",
      "329C",
      "330C",
      "330C",
      "329C",
      "329C",
      "329C",
      "330C",
      "330C",
      "330C",
      "330C",
      "330C",
      "330C",
      "330C",
      "330C",
      "330C",
      "330C",
      "330C",
      "330C",
      "330C",
      "330C",
      "330C",
      "330C",
      "330C",
      "330C",
      "330C",
      "330C",
      "330C",
      "330C",
      "330C",
      "330C",
      "330C",
      "330C",
      "330C",
      "330C",
      "330C",
      "330C",
      "330C",
      "330C",
      "330C",
      "330C",
      "330C",
      "330C",
      "330C",
      "330C",
      "330C",
      "330C",
      "330C",
      "330C",
      "330C",
      "330C",
      "330C",
      "330C",
      "330C",
      "330C",
      "330C",
      "330C",
      "330C",
      "330C",
      "330C",
      "330C",
      "330C",
      "330C",
      "330C",
      "310C",
      "310C",
      "310C",
      "310C",
      "310C",
      "310C",
      "310C",
      "310C",
      "310C",
      "310C",
      "310C",
      "310C",
      "310C",
      "310C",
      "310C",
      "310C",
      "310C",
      "309C",
      "309C",
      "310C",
      "310C",
      "310C",
      "310C",
      "310C",
      "310C",
      "310C",
      "310C",
      "310C",
      "310C",
      "310",
      "310",
      "309",
      "309",
      "309",
      "305",
      "249",
      "249",
      "249",
      "241",
      "241",
      "241",
      "212",
      "212",
      "212",
      "167",
      "167",
      "167",
      "167",
      "120",
      "120",
      "120",
      "100",
      "100",
      "100",
      "100",
      "069",
      "069",
      "050",
      "044",
      "034",
      "034",
      "034",
      "024",
      "024",
      "024"
    ],
    "swim:geom": "path",
    "swim:speeds": [
      164,
      164,
      164,
      271,
      278,
      278,
      278,
      351,
      351,
      351,
      426,
      426,
      426,
      426,
      432,
      432,
      435,
      435,
      435,
      435,
      434,
      434,
      431,
      431,
      431,
      430,
      434,
      434,
      430,
      430,
      430,
      430,
      429,
      430,
      431,
      431,
      429,
      427,
      427,
      427,
      428,
      428,
      427,
      427,
      427,
      429,
      429,
      429,
      424,
      424,
      424,
      424,
      424,
      424,
      428,
      428,
      428,
      428,
      431,
      431,
      431,
      431,
      431,
      431,
      454,
      454,
      454,
      478,
      478,
      478,
      478,
      490,
      494,
      494,
      494,
      494,
      494,
      495,
      495,
      495,
      496,
      496,
      508,
      508,
      508,
      509,
      509,
      510,
      510,
      510,
      510,
      508,
      508,
      504,
      504,
      504,
      504,
      504,
      505,
      503,
      499,
      499,
      499,
      499,
      501,
      503,
      503,
      503,
      503,
      504,
      504,
      504,
      503,
      503,
      500,
      500,
      500,
      501,
      501,
      501,
      500,
      500,
      500,
      500,
      500,
      501,
      501,
      503,
      503,
      503,
      503,
      504,
      504,
      509,
      509,
      508,
      506,
      507,
      507,
      507,
      508,
      509,
      509,
      508,
      508,
      508,
      508,
      508,
      508,
      508,
      508,
      508,
      508,
      509,
      509,
      509,
      509,
      509,
      509,
      509,
      508,
      508,
      508,
      509,
      509,
      509,
      509,
      509,
      513,
      513,
      513,
      513,
      513,
      513,
      476,
      476,
      476,
      476,
      476,
      476,
      476,
      476,
      475,
      475,
      475,
      483,
      483,
      504,
      506,
      506,
      506,
      502,
      502,
      504,
      504,
      504,
      504,
      506,
      506,
      506,
      508,
      508,
      508,
      509,
      509,
      506,
      506,
      506,
      495,
      443,
      443,
      443,
      436,
      436,
      436,
      435,
      435,
      435,
      407,
      407,
      407,
      407,
      369,
      369,
      369,
      306,
      306,
      306,
      306,
      298,
      298,
      281,
      208,
      168,
      168,
      168,
      161,
      161,
      161
    ],
    "swim:timestamps": [
      1761919332,
      1761919332,
      1761919332,
      1761919500,
      1761919586,
      1761919586,
      1761919586,
      1761919706,
      1761919706,
      1761919706,
      1761919946,
      1761919946,
      1761919946,
      1761919946,
      1761920426,
      1761920426,
      1761920546,
      1761920546,
      1761920546,
      1761920546,
      1761920666,
      1761920666,
      1761920786,
      1761920786,
      1761920859,
      1761920979,
      1761921099,
      1761921099,
      1761921147,
      1761921267,
      1761921267,
      1761921339,
      1761921387,
      1761921460,
      1761921627,
      1761921640,
      1761921760,
      1761921867,
      1761922000,
      1761922000,
      1761922121,
      1761922121,
      1761922241,
      1761922241,
      1761922241,
      1761922722,
      1761922722,
      1761922722,
      1761923083,
      1761923083,
      1761923083,
      1761923083,
      1761923083,
      1761923083,
      1761923383,
      1761923383,
      1761923383,
      1761923383,
      1761923684,
      1761923684,
      1761923684,
      1761923684,
      1761923684,
      1761923684,
      1761923924,
      1761923924,
      1761923924,
      1761924225,
      1761924225,
      1761924225,
      1761924225,
      1761924525,
      1761924598,
      1761924598,
      1761924598,
      1761924598,
      1761924598,
      1761924642,
      1761924642,
      1761924642,
      1761924702,
      1761924702,
      1761925198,
      1761925198,
      1761925198,
      1761925258,
      1761925258,
      1761925379,
      1761925379,
      1761925379,
      1761925379,
      1761925499,
      1761925499,
      1761925679,
      1761925679,
      1761925679,
      1761925739,
      1761925739,
      1761925799,
      1761925859,
      1761925919,
      1761925919,
      1761925919,
      1761925919,
      1761925979,
      1761926280,
      1761926280,
      1761926280,
      1761926280,
      1761926340,
      1761926340,
      1761926340,
      1761926460,
      1761926460,
      1761926580,
      1761926580,
      1761926580,
      1761926881,
      1761926881,
      1761926881,
      1761927001,
      1761927046,
      1761927046,
      1761927107,
      1761927107,
      1761927167,
      1761927227,
      1761927361,
      1761927361,
      1761927361,
      1761927361,
      1761927421,
      1761927421,
      1761927467,
      1761927467,
      1761927587,
      1761927602,
      1761927647,
      1761927647,
      1761927722,
      1761927881,
      1761927888,
      1761927888,
      1761927902,
      1761927902,
      1761927948,
      1761927948,
      1761927962,
      1761928001,
      1761928001,
      1761928001,
      1761928061,
      1761928061,
      1761928128,
      1761928128,
      1761928188,
      1761928188,
      1761928188,
      1761928262,
      1761928262,
      1761928602,
      1761928602,
      1761928602,
      1761928722,
      1761928722,
      1761928722,
      1761928722,
      1761928722,
      1761929083,
      1761929083,
      1761929083,
      1761929083,
      1761929083,
      1761929083,
      1761929584,
      1761929584,
      1761929584,
      1761929684,
      1761929684,
      1761929684,
      1761929684,
      1761929684,
      1761929704,
      1761929704,
      1761929704,
      1761929808,
      1761929808,
      1761930108,
      1761930349,
      1761930349,
      1761930349,
      1761930469,
      1761930469,
      1761930606,
      1761930606,
      1761930606,
      1761930606,
      1761930649,
      1761930649,
      1761930649,
      1761930709,
      1761930709,
      1761930709,
      1761930786,
      1761930786,
      1761930950,
      1761930950,
      1761930950,
      1761931086,
      1761931310,
      1761931310,
      1761931310,
      1761931327,
      1761931327,
      1761931327,
      1761931430,
      1761931430,
      1761931430,
      1761931567,
      1761931567,
      1761931567,
      1761931567,
      1761931731,
      1761931731,
      1761931731,
      1761931987,
      1761931987,
      1761931987,
      1761931987,
      1761932278,
      1761932278,
      1761932408,
      1761932704,
      1761932764,
      1761932764,
      1761932764,
      1761932824,
      1761932824,
      1761932824
    ],
    "wof:geomhash": "67f92a59d9e1d9d8453372a9c8633764",
    "wof:id": 1997546845,
    "wof:repo": "sfomuseum-data-flights-2025-10"
  },
  "bbox": [
    -122.36666666666666,
    37.63333333333333,
    -87.54083333333332,
    41.96666666666667
  ],
  "geometry": {"coordinates":[[-122.36666666666666,37.63333333333333],[-122.36666666666666,37.63333333333333],[-122.36666666666666,37.63333333333333],[-122.21666666666667,37.71666666666667],[-122.1086111111111,37.7725],[-122.1086111111111,37.7725],[-122.1086111111111,37.7725],[-121.91166666666668,37.843333333333334],[-121.91166666666668,37.843333333333334],[-121.91166666666668,37.843333333333334],[-121.34805555555555,37.947222222222216],[-121.34805555555555,37.947222222222216],[-121.34805555555555,37.947222222222216],[-121.34805555555555,37.947222222222216],[-120.19111111111111,38.12972222222222],[-120.19111111111111,38.12972222222222],[-119.88805555555557,38.17388888888889],[-119.88805555555557,38.17388888888889],[-119.88805555555557,38.17388888888889],[-119.88805555555557,38.17388888888889],[-119.58583333333333,38.212500000000006],[-119.58583333333333,38.212500000000006],[-119.27388888888889,38.24277777777778],[-119.27388888888889,38.24277777777778],[-119.09583333333333,38.25888888888889],[-118.79583333333333,38.2875],[-118.4961111111111,38.31472222222222],[-118.4961111111111,38.31472222222222],[-118.37277777777777,38.32555555555556],[-118.07333333333332,38.35138888888889],[-118.07333333333332,38.35138888888889],[-117.90277777777779,38.36611111111111],[-117.77916666666667,38.37638888888889],[-117.59694444444445,38.39111111111111],[-117.16666666666667,38.42527777777777],[-117.1375,38.427499999999995],[-116.83388888888888,38.45888888888889],[-116.5611111111111,38.49333333333333],[-116.23555555555555,38.53388888888889],[-116.23555555555555,38.53388888888889],[-115.93305555555555,38.57027777777778],[-115.93305555555555,38.57027777777778],[-115.63388888888889,38.60583333333334],[-115.63388888888889,38.60583333333334],[-115.63388888888889,38.60583333333334],[-114.43166666666667,38.73972222222222],[-114.43166666666667,38.73972222222222],[-114.43166666666667,38.73972222222222],[-113.52916666666667,38.83222222222223],[-113.52916666666667,38.83222222222223],[-113.52916666666667,38.83222222222223],[-113.52916666666667,38.83222222222223],[-113.52916666666667,38.83222222222223],[-113.52916666666667,38.83222222222223],[-112.77333333333333,38.90416666666667],[-112.77333333333333,38.90416666666667],[-112.77333333333333,38.90416666666667],[-112.77333333333333,38.90416666666667],[-112.01055555555556,38.97138888888889],[-112.01055555555556,38.97138888888889],[-112.01055555555556,38.97138888888889],[-112.01055555555556,38.97138888888889],[-112.01055555555556,38.97138888888889],[-112.01055555555556,38.97138888888889],[-111.3786111111111,39.02333333333333],[-111.3786111111111,39.02333333333333],[-111.3786111111111,39.02333333333333],[-110.55583333333333,39.08583333333333],[-110.55583333333333,39.08583333333333],[-110.55583333333333,39.08583333333333],[-110.55583333333333,39.08583333333333],[-109.69,39.14527777777778],[-109.44222222222223,39.16111111111111],[-109.44222222222223,39.16111111111111],[-109.44222222222223,39.16111111111111],[-109.44222222222223,39.16111111111111],[-109.44222222222223,39.16111111111111],[-109.33527777777778,39.16777777777777],[-109.33527777777778,39.16777777777777],[-109.33527777777778,39.16777777777777],[-109.1613888888889,39.17833333333333],[-109.1613888888889,39.17833333333333],[-107.66055555555556,39.25888888888889],[-107.66055555555556,39.25888888888889],[-107.66055555555556,39.25888888888889],[-107.48111111111112,39.26722222222222],[-107.48111111111112,39.26722222222222],[-107.11777777777777,39.283055555555556],[-107.11777777777777,39.283055555555556],[-107.11777777777777,39.283055555555556],[-107.11777777777777,39.283055555555556],[-106.755,39.29805555555556],[-106.755,39.29805555555556],[-106.21583333333334,39.31805555555556],[-106.21583333333334,39.31805555555556],[-106.21583333333334,39.31805555555556],[-106.02083333333333,39.32472222222223],[-106.02083333333333,39.32472222222223],[-105.83805555555556,39.330555555555556],[-105.65972222222223,39.336111111111116],[-105.48,39.34138888888889],[-105.48,39.34138888888889],[-105.48,39.34138888888889],[-105.48,39.34138888888889],[-105.30277777777778,39.34638888888889],[-104.41833333333334,39.36694444444444],[-104.41833333333334,39.36694444444444],[-104.41833333333334,39.36694444444444],[-104.41833333333334,39.36694444444444],[-104.23777777777778,39.37027777777778],[-104.23777777777778,39.37027777777778],[-104.23777777777778,39.37027777777778],[-103.87916666666666,39.376111111111115],[-103.87916666666666,39.376111111111115],[-103.52111111111111,39.38111111111111],[-103.52111111111111,39.38111111111111],[-103.52111111111111,39.38111111111111],[-102.62638888888888,39.38777777777778],[-102.62638888888888,39.38777777777778],[-102.62638888888888,39.38777777777778],[-102.24361111111111,39.388888888888886],[-102.12777777777777,39.38861111111111],[-102.12777777777777,39.38861111111111],[-101.94611111111111,39.38805555555555],[-101.94611111111111,39.38805555555555],[-101.76527777777778,39.38777777777778],[-101.58749999999999,39.401111111111106],[-101.16888888888889,39.450833333333335],[-101.16888888888889,39.450833333333335],[-101.16888888888889,39.450833333333335],[-101.16888888888889,39.450833333333335],[-100.99,39.47166666666667],[-100.99,39.47166666666667],[-100.87249999999999,39.48527777777778],[-100.87249999999999,39.48527777777778],[-100.5125,39.52611111111111],[-100.45194444444445,39.533055555555556],[-100.33,39.546388888888885],[-100.33,39.546388888888885],[-100.09222222222222,39.572500000000005],[-99.60777777777777,39.62361111111111],[-99.60777777777777,39.62361111111111],[-99.60777777777777,39.62361111111111],[-99.56972222222223,39.6275],[-99.56972222222223,39.6275],[-99.4263888888889,39.64222222222222],[-99.4263888888889,39.64222222222222],[-99.38861111111112,39.64611111111111],[-99.24277777777777,39.66083333333333],[-99.24277777777777,39.66083333333333],[-99.24277777777777,39.66083333333333],[-99.06166666666667,39.67916666666667],[-99.06166666666667,39.67916666666667],[-98.8825,39.696666666666665],[-98.8825,39.696666666666665],[-98.70111111111112,39.71416666666667],[-98.70111111111112,39.71416666666667],[-98.70111111111112,39.71416666666667],[-98.4825,39.734722222222224],[-98.4825,39.734722222222224],[-97.42722222222223,39.82888888888889],[-97.42722222222223,39.82888888888889],[-97.42722222222223,39.82888888888889],[-97.08277777777778,39.8575],[-97.08277777777778,39.8575],[-97.08277777777778,39.8575],[-97.08277777777778,39.8575],[-97.08277777777778,39.8575],[-95.98388888888888,39.931666666666665],[-95.98388888888888,39.931666666666665],[-95.98388888888888,39.931666666666665],[-95.98388888888888,39.931666666666665],[-95.98388888888888,39.931666666666665],[-95.98388888888888,39.931666666666665],[-94.55722222222222,39.91555555555556],[-94.55722222222222,39.91555555555556],[-94.55722222222222,39.91555555555556],[-94.2525,39.95194444444445],[-94.2525,39.95194444444445],[-94.2525,39.95194444444445],[-94.2525,39.95194444444445],[-94.2525,39.95194444444445],[-94.21916666666667,39.95583333333334],[-94.21916666666667,39.95583333333334],[-94.21916666666667,39.95583333333334],[-93.90611111111112,39.992222222222225],[-93.90611111111112,39.992222222222225],[-93.06166666666667,40.186388888888885],[-92.37638888888888,40.370555555555555],[-92.37638888888888,40.370555555555555],[-92.37638888888888,40.370555555555555],[-92.00555555555556,40.468611111111116],[-92.00555555555556,40.468611111111116],[-91.62249999999999,40.56805555555556],[-91.62249999999999,40.56805555555556],[-91.62249999999999,40.56805555555556],[-91.62249999999999,40.56805555555556],[-91.48166666666667,40.60416666666667],[-91.48166666666667,40.60416666666667],[-91.48166666666667,40.60416666666667],[-91.30499999999999,40.649166666666666],[-91.30499999999999,40.649166666666666],[-91.30499999999999,40.649166666666666],[-91.08444444444444,40.70472222222222],[-91.08444444444444,40.70472222222222],[-90.62666666666667,40.81944444444445],[-90.62666666666667,40.81944444444445],[-90.62666666666667,40.81944444444445],[-90.21805555555555,40.95277777777778],[-89.65444444444445,41.13861111111111],[-89.65444444444445,41.13861111111111],[-89.65444444444445,41.13861111111111],[-89.59666666666666,41.1575],[-89.59666666666666,41.1575],[-89.59666666666666,41.1575],[-89.36944444444444,41.24861111111111],[-89.36944444444444,41.24861111111111],[-89.36944444444444,41.24861111111111],[-89.04583333333333,41.37861111111111],[-89.04583333333333,41.37861111111111],[-89.04583333333333,41.37861111111111],[-89.04583333333333,41.37861111111111],[-88.7,41.516666666666666],[-88.7,41.516666666666666],[-88.7,41.516666666666666],[-88.24166666666667,41.75],[-88.24166666666667,41.75],[-88.24166666666667,41.75],[-88.24166666666667,41.75],[-87.76666666666667,41.88333333333333],[-87.76666666666667,41.88333333333333],[-87.54083333333332,41.88444444444444],[-87.65,41.96666666666667],[-87.71666666666667,41.96666666666667],[-87.71666666666667,41.96666666666667],[-87.71666666666667,41.96666666666667],[-87.76666666666667,41.96666666666667],[-87.76666666666667,41.96666666666667],[-87.76666666666667,41.96666666666667]],"type":"LineString"}
}
