{
  "id": 1981784879,
  "type": "Feature",
  "properties": {
    "geom:area": 0,
    "geom:bbox": "-122.343889,37.647500,-77.458889,42.235278",
    "geom:latitude": 41.05242489161084,
    "geom:longitude": -99.99580735405614,
    "src:alt_label": "swim-path",
    "src:geom": "swim",
    "swim:altitudes": [
      "019",
      "019",
      "019",
      "037",
      "037",
      "037",
      "037",
      "037",
      "109",
      "109",
      "109",
      "109",
      "109",
      "142",
      "142",
      "142",
      "142",
      "142",
      "142",
      "142",
      "212",
      "212",
      "212",
      "212",
      "237",
      "237",
      "237",
      "237",
      "237",
      "237",
      "295",
      "295",
      "310C",
      "310C",
      "310C",
      "310C",
      "310C",
      "310C",
      "310C",
      "310C",
      "310C",
      "310C",
      "310C",
      "310C",
      "310C",
      "310C",
      "310C",
      "310C",
      "310C",
      "310C",
      "310C",
      "310C",
      "310C",
      "310C",
      "310C",
      "310C",
      "310C",
      "310C",
      "310C",
      "310C",
      "310C",
      "310C",
      "310C",
      "310C",
      "310C",
      "310C",
      "310C",
      "310C",
      "310C",
      "310C",
      "310C",
      "310C",
      "310C",
      "310C",
      "310C",
      "310C",
      "310C",
      "310C",
      "310C",
      "310C",
      "310C",
      "310C",
      "310C",
      "310C",
      "310C",
      "310C",
      "310C",
      "310C",
      "310C",
      "310C",
      "310C",
      "310C",
      "310C",
      "310C",
      "310C",
      "310C",
      "310C",
      "310C",
      "310C",
      "310C",
      "310C",
      "310C",
      "310C",
      "310C",
      "310C",
      "310C",
      "310C",
      "310C",
      "310C",
      "310C",
      "310C",
      "310C",
      "310C",
      "310C",
      "310C",
      "310C",
      "350C",
      "350C",
      "350C",
      "350C",
      "350C",
      "350C",
      "350C",
      "350C",
      "350C",
      "350C",
      "350C",
      "350C",
      "350C",
      "350C",
      "350C",
      "350C",
      "350C",
      "350C",
      "350C",
      "350C",
      "350C",
      "350C",
      "350C",
      "350C",
      "350C",
      "350C",
      "350C",
      "350C",
      "350C",
      "350C",
      "350C",
      "350C",
      "350C",
      "350C",
      "350C",
      "350C",
      "350C",
      "350C",
      "350C",
      "350C",
      "350C",
      "350C",
      "350C",
      "350C",
      "350C",
      "350C",
      "350C",
      "350C",
      "350C",
      "350C",
      "350C",
      "350C",
      "350C",
      "350C",
      "350C",
      "350C",
      "350C",
      "350C",
      "350C",
      "350C",
      "350C",
      "350C",
      "350C",
      "350C",
      "350C",
      "350C",
      "350C",
      "350C",
      "350C",
      "350C",
      "350C",
      "350C",
      "350C",
      "350C",
      "350C",
      "350C",
      "350C",
      "350C",
      "350C",
      "350C",
      "350C",
      "350C",
      "350C",
      "350C",
      "350C",
      "350C",
      "350C",
      "350C",
      "350C",
      "350C",
      "350C",
      "350C",
      "350C",
      "350C",
      "350C",
      "350C",
      "350C",
      "350C",
      "350C",
      "350C",
      "350C",
      "350C",
      "350C",
      "350C",
      "350C",
      "350C",
      "350C",
      "350C",
      "350C",
      "350C",
      "350C",
      "350C",
      "350C",
      "350C",
      "350C",
      "350C",
      "350C",
      "350C",
      "350C",
      "350C",
      "350C",
      "350C",
      "350C",
      "350C",
      "350C",
      "350C",
      "350C",
      "350C",
      "350C",
      "350C",
      "350C",
      "350C",
      "350C",
      "350C",
      "350C",
      "350C",
      "350C",
      "350C",
      "350C",
      "350C",
      "350C",
      "350C",
      "359",
      "359",
      "359",
      "359",
      "370C",
      "370C",
      "370C",
      "370C",
      "370C",
      "370C",
      "370C",
      "370C",
      "370C",
      "370C",
      "370C",
      "370C",
      "370C",
      "370C",
      "370C",
      "370C",
      "370C",
      "370C",
      "370C",
      "370C",
      "370C",
      "370C",
      "370C",
      "370C",
      "370C",
      "370C",
      "370C",
      "370C",
      "370C",
      "370C",
      "370C",
      "370C",
      "370C",
      "370C",
      "370C",
      "370C",
      "370C",
      "370C",
      "370C",
      "370C",
      "370C",
      "370C",
      "370C",
      "370C",
      "370C",
      "370C",
      "370C",
      "370C",
      "370C",
      "370C",
      "370C",
      "370C",
      "370C",
      "370C",
      "370C",
      "370C",
      "370C",
      "370C",
      "370C",
      "370C",
      "370C",
      "370C",
      "370C",
      "370C",
      "370C",
      "370C",
      "370C",
      "370C",
      "370C",
      "370C",
      "370C",
      "370C",
      "370C",
      "370C",
      "370C",
      "370C",
      "370C",
      "370C",
      "370C",
      "370C",
      "370C",
      "370C",
      "370C",
      "370C",
      "370C",
      "370C",
      "370C",
      "370C",
      "370C",
      "370C",
      "370C",
      "370C",
      "370C",
      "370C",
      "370C",
      "370C",
      "370C",
      "370C",
      "370C",
      "370C",
      "370C",
      "370C",
      "370C",
      "370C",
      "370C",
      "370C",
      "370C",
      "370C",
      "370C",
      "370C",
      "370C",
      "370C",
      "370C",
      "370C",
      "370C",
      "370C",
      "370C",
      "370C",
      "370C",
      "370C",
      "370C",
      "370C",
      "370C",
      "370C",
      "370C",
      "370C",
      "370C",
      "370C",
      "370C",
      "370C",
      "370C",
      "370C",
      "370C",
      "370C",
      "370C",
      "370C",
      "370C",
      "370C",
      "370C",
      "370C",
      "370C",
      "370C",
      "370C",
      "370C",
      "370C",
      "370C",
      "370C",
      "370C",
      "370C",
      "370C",
      "370C",
      "370C",
      "370C",
      "370C",
      "370C",
      "370C",
      "370C",
      "370C",
      "370C",
      "370C",
      "370C",
      "370C",
      "370C",
      "370C",
      "370C",
      "370C",
      "370C",
      "370C",
      "370C",
      "370C",
      "370C",
      "370C",
      "370C",
      "370C",
      "370C",
      "370C",
      "370C",
      "370C",
      "370C",
      "370C",
      "370C",
      "370C",
      "370C",
      "370C",
      "370C",
      "370C",
      "370C",
      "370C",
      "370C",
      "370C",
      "370C",
      "370C",
      "370C",
      "370C",
      "370C",
      "370C",
      "370C",
      "370C",
      "370C",
      "370C",
      "370C",
      "370C",
      "370C",
      "370C",
      "370C",
      "370C",
      "370C",
      "370C",
      "370C",
      "370C",
      "370C",
      "370C",
      "370C",
      "370C",
      "370C",
      "370C",
      "370C",
      "370C",
      "370C",
      "370C",
      "370C",
      "370C",
      "370C",
      "370C",
      "370C",
      "370C",
      "370C",
      "370C",
      "370C",
      "370C",
      "370C",
      "370C",
      "370C",
      "370C",
      "370C",
      "370C",
      "370C",
      "370",
      "370",
      "370",
      "370",
      "370",
      "370",
      "370",
      "370",
      "370",
      "370",
      "370",
      "370",
      "370",
      "370",
      "370",
      "370",
      "331",
      "331",
      "331",
      "331",
      "331",
      "243",
      "243",
      "243",
      "243",
      "243",
      "186",
      "186",
      "186",
      "155",
      "155",
      "131",
      "131",
      "116",
      "110",
      "109",
      "109",
      "109",
      "095",
      "095",
      "090",
      "088",
      "088",
      "088",
      "088",
      "060",
      "060",
      "060",
      "060",
      "060",
      "060",
      "060",
      "060",
      "050",
      "050",
      "050",
      "050",
      "050",
      "050",
      "020",
      "020",
      "020",
      "020",
      "020",
      "007",
      "007",
      "002",
      "002",
      "002",
      "002"
    ],
    "swim:geom": "path",
    "swim:speeds": [
      173,
      173,
      173,
      185,
      185,
      185,
      185,
      185,
      296,
      296,
      296,
      296,
      296,
      386,
      386,
      386,
      386,
      386,
      386,
      386,
      449,
      449,
      449,
      449,
      483,
      483,
      483,
      483,
      483,
      483,
      510,
      510,
      510,
      510,
      509,
      509,
      517,
      517,
      516,
      518,
      518,
      518,
      518,
      518,
      518,
      519,
      519,
      519,
      519,
      519,
      519,
      525,
      525,
      525,
      525,
      525,
      525,
      525,
      531,
      531,
      531,
      531,
      541,
      541,
      541,
      541,
      541,
      541,
      546,
      546,
      546,
      546,
      546,
      546,
      541,
      541,
      541,
      541,
      541,
      541,
      543,
      543,
      543,
      545,
      545,
      545,
      545,
      545,
      545,
      545,
      545,
      538,
      538,
      538,
      538,
      538,
      541,
      541,
      541,
      541,
      546,
      546,
      546,
      550,
      550,
      550,
      550,
      550,
      550,
      550,
      550,
      551,
      551,
      551,
      551,
      551,
      555,
      555,
      555,
      555,
      555,
      554,
      554,
      554,
      554,
      554,
      551,
      551,
      551,
      551,
      548,
      548,
      548,
      548,
      548,
      548,
      540,
      540,
      540,
      540,
      540,
      540,
      540,
      540,
      540,
      540,
      540,
      541,
      541,
      541,
      541,
      541,
      541,
      542,
      542,
      542,
      544,
      544,
      544,
      544,
      544,
      544,
      544,
      544,
      544,
      544,
      544,
      544,
      543,
      543,
      543,
      543,
      543,
      543,
      540,
      540,
      540,
      539,
      539,
      538,
      538,
      538,
      534,
      534,
      534,
      534,
      534,
      534,
      534,
      530,
      530,
      530,
      530,
      530,
      530,
      530,
      530,
      530,
      530,
      524,
      524,
      524,
      524,
      524,
      524,
      524,
      524,
      524,
      524,
      524,
      524,
      524,
      525,
      525,
      525,
      525,
      525,
      529,
      529,
      529,
      530,
      530,
      530,
      530,
      530,
      530,
      531,
      531,
      531,
      531,
      531,
      531,
      531,
      530,
      530,
      530,
      530,
      530,
      530,
      530,
      530,
      528,
      525,
      525,
      525,
      525,
      525,
      525,
      525,
      514,
      514,
      514,
      514,
      508,
      508,
      506,
      506,
      506,
      501,
      501,
      501,
      501,
      488,
      488,
      486,
      486,
      486,
      486,
      486,
      484,
      484,
      484,
      484,
      484,
      484,
      485,
      485,
      485,
      483,
      483,
      483,
      483,
      483,
      486,
      486,
      486,
      486,
      486,
      486,
      487,
      487,
      487,
      488,
      488,
      488,
      489,
      489,
      489,
      482,
      482,
      482,
      482,
      482,
      482,
      477,
      477,
      477,
      477,
      477,
      475,
      475,
      475,
      475,
      475,
      475,
      475,
      475,
      475,
      476,
      476,
      476,
      476,
      476,
      476,
      476,
      476,
      476,
      476,
      476,
      476,
      476,
      476,
      477,
      477,
      477,
      477,
      481,
      481,
      481,
      481,
      481,
      481,
      480,
      480,
      480,
      480,
      480,
      480,
      480,
      480,
      482,
      482,
      482,
      482,
      482,
      481,
      481,
      481,
      481,
      481,
      481,
      481,
      481,
      481,
      481,
      480,
      480,
      480,
      480,
      479,
      479,
      479,
      479,
      479,
      479,
      478,
      478,
      478,
      469,
      469,
      469,
      469,
      469,
      469,
      469,
      473,
      473,
      473,
      473,
      473,
      473,
      473,
      473,
      473,
      473,
      473,
      473,
      473,
      473,
      472,
      472,
      472,
      472,
      472,
      472,
      473,
      473,
      473,
      473,
      473,
      473,
      473,
      470,
      470,
      470,
      470,
      469,
      469,
      469,
      469,
      469,
      469,
      469,
      467,
      467,
      467,
      464,
      467,
      467,
      467,
      469,
      469,
      469,
      469,
      466,
      466,
      466,
      466,
      466,
      466,
      466,
      466,
      466,
      466,
      466,
      466,
      466,
      469,
      469,
      469,
      469,
      469,
      469,
      469,
      472,
      472,
      472,
      472,
      472,
      472,
      472,
      473,
      473,
      473,
      473,
      474,
      474,
      474,
      474,
      474,
      474,
      471,
      471,
      471,
      471,
      471,
      471,
      471,
      471,
      471,
      471,
      471,
      472,
      472,
      472,
      472,
      472,
      474,
      474,
      474,
      476,
      479,
      477,
      477,
      481,
      483,
      483,
      483,
      483,
      486,
      486,
      488,
      490,
      490,
      490,
      490,
      491,
      491,
      491,
      492,
      492,
      492,
      492,
      492,
      492,
      493,
      493,
      493,
      493,
      493,
      472,
      472,
      472,
      472,
      472,
      373,
      373,
      373,
      362,
      362,
      353,
      353,
      346,
      324,
      308,
      308,
      308,
      277,
      277,
      277,
      277,
      277,
      277,
      277,
      238,
      238,
      238,
      238,
      238,
      245,
      245,
      245,
      223,
      223,
      223,
      223,
      223,
      223,
      179,
      179,
      179,
      181,
      181,
      137,
      137,
      139,
      139,
      139,
      139
    ],
    "swim:timestamps": [
      1761610572,
      1761610572,
      1761610572,
      1761610632,
      1761610632,
      1761610632,
      1761610632,
      1761610632,
      1761610813,
      1761610813,
      1761610813,
      1761610813,
      1761610813,
      1761610933,
      1761610933,
      1761610933,
      1761610933,
      1761610933,
      1761610933,
      1761610933,
      1761611173,
      1761611173,
      1761611173,
      1761611173,
      1761611293,
      1761611293,
      1761611293,
      1761611293,
      1761611293,
      1761611293,
      1761611569,
      1761611569,
      1761611629,
      1761611629,
      1761611654,
      1761611654,
      1761611714,
      1761611714,
      1761611750,
      1761611774,
      1761611774,
      1761611774,
      1761611774,
      1761611810,
      1761611810,
      1761611894,
      1761611894,
      1761611894,
      1761611894,
      1761611894,
      1761611894,
      1761612291,
      1761612291,
      1761612291,
      1761612291,
      1761612291,
      1761612291,
      1761612291,
      1761612411,
      1761612411,
      1761612411,
      1761612411,
      1761612471,
      1761612471,
      1761612471,
      1761612471,
      1761612471,
      1761612471,
      1761612651,
      1761612651,
      1761612651,
      1761612651,
      1761612651,
      1761612651,
      1761612891,
      1761612891,
      1761612891,
      1761612891,
      1761612891,
      1761612891,
      1761613035,
      1761613035,
      1761613035,
      1761613132,
      1761613132,
      1761613132,
      1761613132,
      1761613132,
      1761613132,
      1761613132,
      1761613132,
      1761613973,
      1761613973,
      1761613973,
      1761613973,
      1761613973,
      1761614033,
      1761614033,
      1761614033,
      1761614033,
      1761614093,
      1761614093,
      1761614093,
      1761614154,
      1761614154,
      1761614154,
      1761614154,
      1761614154,
      1761614154,
      1761614154,
      1761614154,
      1761614214,
      1761614214,
      1761614214,
      1761614214,
      1761614214,
      1761614571,
      1761614571,
      1761614571,
      1761614571,
      1761614571,
      1761614631,
      1761614631,
      1761614631,
      1761614631,
      1761614631,
      1761614752,
      1761614752,
      1761614752,
      1761614752,
      1761614872,
      1761614872,
      1761614872,
      1761614872,
      1761614872,
      1761614872,
      1761615172,
      1761615172,
      1761615172,
      1761615198,
      1761615198,
      1761615198,
      1761615198,
      1761615258,
      1761615258,
      1761615258,
      1761615258,
      1761615473,
      1761615473,
      1761615499,
      1761615499,
      1761615499,
      1761615499,
      1761615533,
      1761615533,
      1761615533,
      1761615739,
      1761615739,
      1761615773,
      1761615799,
      1761615799,
      1761615833,
      1761615833,
      1761615833,
      1761615833,
      1761615894,
      1761615894,
      1761615894,
      1761615919,
      1761615919,
      1761615919,
      1761615954,
      1761615954,
      1761615954,
      1761616099,
      1761616099,
      1761616099,
      1761616135,
      1761616135,
      1761616195,
      1761616195,
      1761616220,
      1761616400,
      1761616400,
      1761616400,
      1761616400,
      1761616400,
      1761616400,
      1761616400,
      1761616700,
      1761616700,
      1761616700,
      1761616700,
      1761616700,
      1761616700,
      1761616700,
      1761616700,
      1761616700,
      1761616700,
      1761617181,
      1761617181,
      1761617181,
      1761617181,
      1761617181,
      1761617241,
      1761617241,
      1761617241,
      1761617241,
      1761617301,
      1761617301,
      1761617301,
      1761617301,
      1761617361,
      1761617361,
      1761617361,
      1761617361,
      1761617361,
      1761617481,
      1761617481,
      1761617481,
      1761617671,
      1761617671,
      1761617671,
      1761617671,
      1761617671,
      1761617671,
      1761617731,
      1761617731,
      1761617731,
      1761617731,
      1761617731,
      1761617731,
      1761617731,
      1761617971,
      1761617971,
      1761617971,
      1761618022,
      1761618022,
      1761618091,
      1761618091,
      1761618091,
      1761618152,
      1761618262,
      1761618262,
      1761618262,
      1761618262,
      1761618262,
      1761618272,
      1761618272,
      1761618332,
      1761618332,
      1761618332,
      1761618332,
      1761618392,
      1761618392,
      1761618443,
      1761618443,
      1761618443,
      1761618572,
      1761618572,
      1761618572,
      1761618572,
      1761618632,
      1761618632,
      1761618692,
      1761618692,
      1761618692,
      1761618692,
      1761618692,
      1761618752,
      1761618752,
      1761618752,
      1761618752,
      1761618752,
      1761618752,
      1761618872,
      1761618872,
      1761618872,
      1761619052,
      1761619052,
      1761619052,
      1761619052,
      1761619052,
      1761619173,
      1761619173,
      1761619173,
      1761619173,
      1761619173,
      1761619173,
      1761619233,
      1761619233,
      1761619233,
      1761619293,
      1761619293,
      1761619293,
      1761619413,
      1761619413,
      1761619413,
      1761619533,
      1761619533,
      1761619533,
      1761619533,
      1761619533,
      1761619533,
      1761619653,
      1761619653,
      1761619653,
      1761619653,
      1761619653,
      1761619773,
      1761619773,
      1761619773,
      1761619773,
      1761619773,
      1761619773,
      1761619773,
      1761619773,
      1761619773,
      1761620013,
      1761620013,
      1761620013,
      1761620013,
      1761620013,
      1761620013,
      1761620013,
      1761620056,
      1761620056,
      1761620056,
      1761620056,
      1761620056,
      1761620116,
      1761620116,
      1761620237,
      1761620237,
      1761620237,
      1761620237,
      1761620494,
      1761620494,
      1761620494,
      1761620537,
      1761620597,
      1761620597,
      1761620614,
      1761620614,
      1761620614,
      1761620614,
      1761620614,
      1761620614,
      1761620614,
      1761620614,
      1761620794,
      1761620837,
      1761620837,
      1761620837,
      1761620837,
      1761620897,
      1761620897,
      1761620897,
      1761620897,
      1761620957,
      1761620957,
      1761620957,
      1761620957,
      1761620957,
      1761620957,
      1761621095,
      1761621095,
      1761621095,
      1761621095,
      1761621138,
      1761621138,
      1761621138,
      1761621155,
      1761621155,
      1761621155,
      1761621198,
      1761621198,
      1761621198,
      1761621438,
      1761621438,
      1761621438,
      1761621438,
      1761621438,
      1761621438,
      1761621438,
      1761621678,
      1761621678,
      1761621678,
      1761621678,
      1761621678,
      1761621678,
      1761621678,
      1761621678,
      1761621678,
      1761621678,
      1761621978,
      1761621978,
      1761621978,
      1761621978,
      1761622038,
      1761622038,
      1761622038,
      1761622038,
      1761622038,
      1761622038,
      1761622098,
      1761622098,
      1761622098,
      1761622159,
      1761622159,
      1761622159,
      1761622159,
      1761622399,
      1761622399,
      1761622399,
      1761622399,
      1761622459,
      1761622459,
      1761622459,
      1761622459,
      1761622459,
      1761622459,
      1761622459,
      1761622519,
      1761622519,
      1761622519,
      1761622576,
      1761622583,
      1761622583,
      1761622583,
      1761622636,
      1761622636,
      1761622636,
      1761622636,
      1761622763,
      1761622763,
      1761622763,
      1761622763,
      1761622763,
      1761622763,
      1761622816,
      1761622816,
      1761622884,
      1761622884,
      1761622884,
      1761622884,
      1761622884,
      1761623057,
      1761623057,
      1761623057,
      1761623057,
      1761623057,
      1761623057,
      1761623057,
      1761623304,
      1761623304,
      1761623304,
      1761623304,
      1761623304,
      1761623304,
      1761623304,
      1761623420,
      1761623420,
      1761623420,
      1761623420,
      1761623480,
      1761623480,
      1761623480,
      1761623480,
      1761623480,
      1761623480,
      1761623720,
      1761623720,
      1761623720,
      1761623720,
      1761623720,
      1761623720,
      1761623720,
      1761623779,
      1761623779,
      1761623779,
      1761623779,
      1761623839,
      1761623839,
      1761623839,
      1761623839,
      1761623839,
      1761623959,
      1761623959,
      1761623959,
      1761624140,
      1761624265,
      1761624283,
      1761624283,
      1761624325,
      1761624385,
      1761624385,
      1761624403,
      1761624403,
      1761624498,
      1761624498,
      1761624523,
      1761624644,
      1761624644,
      1761624644,
      1761624644,
      1761624797,
      1761624797,
      1761624797,
      1761624857,
      1761624857,
      1761624857,
      1761624857,
      1761624857,
      1761624857,
      1761625038,
      1761625038,
      1761625038,
      1761625038,
      1761625038,
      1761625237,
      1761625237,
      1761625237,
      1761625237,
      1761625237,
      1761625407,
      1761625407,
      1761625407,
      1761625519,
      1761625519,
      1761625605,
      1761625605,
      1761625664,
      1761625698,
      1761625724,
      1761625724,
      1761625724,
      1761625820,
      1761625820,
      1761625844,
      1761625902,
      1761625902,
      1761625902,
      1761625902,
      1761626145,
      1761626145,
      1761626145,
      1761626145,
      1761626145,
      1761626205,
      1761626205,
      1761626205,
      1761626265,
      1761626265,
      1761626265,
      1761626265,
      1761626265,
      1761626265,
      1761626442,
      1761626442,
      1761626442,
      1761626499,
      1761626499,
      1761626643,
      1761626643,
      1761626744,
      1761626744,
      1761626744,
      1761626744
    ],
    "wof:geomhash": "3ff391e714bb183b947921cefcff0a7b",
    "wof:id": 1981784879,
    "wof:repo": "sfomuseum-data-flights-2025-10"
  },
  "bbox": [
    -122.34388888888888,
    37.6475,
    -77.4588888888889,
    42.23527777777778
  ],
  "geometry": {"coordinates":[[-122.34388888888888,37.6475],[-122.34388888888888,37.6475],[-122.34388888888888,37.6475],[-122.2936111111111,37.67611111111111],[-122.2936111111111,37.67611111111111],[-122.2936111111111,37.67611111111111],[-122.2936111111111,37.67611111111111],[-122.2936111111111,37.67611111111111],[-122.0975,37.846944444444446],[-122.0975,37.846944444444446],[-122.0975,37.846944444444446],[-122.0975,37.846944444444446],[-122.0975,37.846944444444446],[-121.91277777777778,37.98444444444444],[-121.91277777777778,37.98444444444444],[-121.91277777777778,37.98444444444444],[-121.91277777777778,37.98444444444444],[-121.91277777777778,37.98444444444444],[-121.91277777777778,37.98444444444444],[-121.91277777777778,37.98444444444444],[-121.45361111111112,38.29333333333333],[-121.45361111111112,38.29333333333333],[-121.45361111111112,38.29333333333333],[-121.45361111111112,38.29333333333333],[-121.19638888888889,38.455555555555556],[-121.19638888888889,38.455555555555556],[-121.19638888888889,38.455555555555556],[-121.19638888888889,38.455555555555556],[-121.19638888888889,38.455555555555556],[-121.19638888888889,38.455555555555556],[-120.57527777777777,38.837500000000006],[-120.57527777777777,38.837500000000006],[-120.43222222222222,38.92388888888889],[-120.43222222222222,38.92388888888889],[-120.3536111111111,38.97027777777778],[-120.3536111111111,38.97027777777778],[-120.2075,39.05777777777777],[-120.2075,39.05777777777777],[-120.13916666666667,39.09916666666667],[-120.04861111111111,39.153055555555554],[-120.04861111111111,39.153055555555554],[-120.04861111111111,39.153055555555554],[-120.04861111111111,39.153055555555554],[-119.99166666666667,39.18805555555555],[-119.99166666666667,39.18805555555555],[-119.75416666666666,39.32777777777778],[-119.75416666666666,39.32777777777778],[-119.75416666666666,39.32777777777778],[-119.75416666666666,39.32777777777778],[-119.75416666666666,39.32777777777778],[-119.75416666666666,39.32777777777778],[-118.78555555555555,39.88722222222222],[-118.78555555555555,39.88722222222222],[-118.78555555555555,39.88722222222222],[-118.78555555555555,39.88722222222222],[-118.78555555555555,39.88722222222222],[-118.78555555555555,39.88722222222222],[-118.78555555555555,39.88722222222222],[-118.44500000000001,40.02777777777778],[-118.44500000000001,40.02777777777778],[-118.44500000000001,40.02777777777778],[-118.44500000000001,40.02777777777778],[-118.27305555555556,40.08861111111111],[-118.27305555555556,40.08861111111111],[-118.27305555555556,40.08861111111111],[-118.27305555555556,40.08861111111111],[-118.27305555555556,40.08861111111111],[-118.27305555555556,40.08861111111111],[-117.70305555555557,40.21527777777778],[-117.70305555555557,40.21527777777778],[-117.70305555555557,40.21527777777778],[-117.70305555555557,40.21527777777778],[-117.70305555555557,40.21527777777778],[-117.70305555555557,40.21527777777778],[-116.94555555555556,40.37138888888889],[-116.94555555555556,40.37138888888889],[-116.94555555555556,40.37138888888889],[-116.94555555555556,40.37138888888889],[-116.94555555555556,40.37138888888889],[-116.94555555555556,40.37138888888889],[-116.46305555555556,40.466944444444444],[-116.46305555555556,40.466944444444444],[-116.46305555555556,40.466944444444444],[-116.15861111111111,40.52583333333333],[-116.15861111111111,40.52583333333333],[-116.15861111111111,40.52583333333333],[-116.15861111111111,40.52583333333333],[-116.15861111111111,40.52583333333333],[-116.15861111111111,40.52583333333333],[-116.15861111111111,40.52583333333333],[-116.15861111111111,40.52583333333333],[-113.49333333333334,41.00555555555555],[-113.49333333333334,41.00555555555555],[-113.49333333333334,41.00555555555555],[-113.49333333333334,41.00555555555555],[-113.49333333333334,41.00555555555555],[-113.29777777777778,41.03805555555555],[-113.29777777777778,41.03805555555555],[-113.29777777777778,41.03805555555555],[-113.29777777777778,41.03805555555555],[-113.10083333333333,41.07055555555556],[-113.10083333333333,41.07055555555556],[-113.10083333333333,41.07055555555556],[-112.90027777777779,41.10305555555556],[-112.90027777777779,41.10305555555556],[-112.90027777777779,41.10305555555556],[-112.90027777777779,41.10305555555556],[-112.90027777777779,41.10305555555556],[-112.90027777777779,41.10305555555556],[-112.90027777777779,41.10305555555556],[-112.90027777777779,41.10305555555556],[-112.70083333333334,41.135],[-112.70083333333334,41.135],[-112.70083333333334,41.135],[-112.70083333333334,41.135],[-112.70083333333334,41.135],[-111.53999999999999,41.31388888888888],[-111.53999999999999,41.31388888888888],[-111.53999999999999,41.31388888888888],[-111.53999999999999,41.31388888888888],[-111.53999999999999,41.31388888888888],[-111.33666666666666,41.34388888888889],[-111.33666666666666,41.34388888888889],[-111.33666666666666,41.34388888888889],[-111.33666666666666,41.34388888888889],[-111.33666666666666,41.34388888888889],[-110.9388888888889,41.401666666666664],[-110.9388888888889,41.401666666666664],[-110.9388888888889,41.401666666666664],[-110.9388888888889,41.401666666666664],[-110.52722222222222,41.459722222222226],[-110.52722222222222,41.459722222222226],[-110.52722222222222,41.459722222222226],[-110.52722222222222,41.459722222222226],[-110.52722222222222,41.459722222222226],[-110.52722222222222,41.459722222222226],[-109.54055555555556,41.5925],[-109.54055555555556,41.5925],[-109.54055555555556,41.5925],[-109.46444444444445,41.6025],[-109.46444444444445,41.6025],[-109.46444444444445,41.6025],[-109.46444444444445,41.6025],[-109.26194444444444,41.62861111111111],[-109.26194444444444,41.62861111111111],[-109.26194444444444,41.62861111111111],[-109.26194444444444,41.62861111111111],[-108.53944444444444,41.718333333333334],[-108.53944444444444,41.718333333333334],[-108.4625,41.7275],[-108.4625,41.7275],[-108.4625,41.7275],[-108.4625,41.7275],[-108.34277777777777,41.74166666666667],[-108.34277777777777,41.74166666666667],[-108.34277777777777,41.74166666666667],[-107.66222222222223,41.82083333333334],[-107.66222222222223,41.82083333333334],[-107.54027777777777,41.83444444444444],[-107.46194444444444,41.84305555555556],[-107.46194444444444,41.84305555555556],[-107.34333333333333,41.85638888888889],[-107.34333333333333,41.85638888888889],[-107.34333333333333,41.85638888888889],[-107.34333333333333,41.85638888888889],[-107.13944444444445,41.87861111111111],[-107.13944444444445,41.87861111111111],[-107.13944444444445,41.87861111111111],[-107.06416666666667,41.88666666666666],[-107.06416666666667,41.88666666666666],[-107.06416666666667,41.88666666666666],[-106.94,41.9],[-106.94,41.9],[-106.94,41.9],[-106.46111111111111,41.94972222222222],[-106.46111111111111,41.94972222222222],[-106.46111111111111,41.94972222222222],[-106.37277777777777,41.95888888888889],[-106.37277777777777,41.95888888888889],[-106.17361111111111,41.978611111111114],[-106.17361111111111,41.978611111111114],[-106.05527777777777,41.99027777777778],[-105.46666666666667,42.04666666666667],[-105.46666666666667,42.04666666666667],[-105.46666666666667,42.04666666666667],[-105.46666666666667,42.04666666666667],[-105.46666666666667,42.04666666666667],[-105.46666666666667,42.04666666666667],[-105.46666666666667,42.04666666666667],[-104.4875,42.10805555555556],[-104.4875,42.10805555555556],[-104.4875,42.10805555555556],[-104.4875,42.10805555555556],[-104.4875,42.10805555555556],[-104.4875,42.10805555555556],[-104.4875,42.10805555555556],[-104.4875,42.10805555555556],[-104.4875,42.10805555555556],[-104.4875,42.10805555555556],[-102.92611111111111,42.171388888888885],[-102.92611111111111,42.171388888888885],[-102.92611111111111,42.171388888888885],[-102.92611111111111,42.171388888888885],[-102.92611111111111,42.171388888888885],[-102.73194444444445,42.17777777777778],[-102.73194444444445,42.17777777777778],[-102.73194444444445,42.17777777777778],[-102.73194444444445,42.17777777777778],[-102.53416666666666,42.18388888888889],[-102.53416666666666,42.18388888888889],[-102.53416666666666,42.18388888888889],[-102.53416666666666,42.18388888888889],[-102.3386111111111,42.18944444444444],[-102.3386111111111,42.18944444444444],[-102.3386111111111,42.18944444444444],[-102.3386111111111,42.18944444444444],[-102.3386111111111,42.18944444444444],[-101.9263888888889,42.20055555555556],[-101.9263888888889,42.20055555555556],[-101.9263888888889,42.20055555555556],[-101.30222222222221,42.214444444444446],[-101.30222222222221,42.214444444444446],[-101.30222222222221,42.214444444444446],[-101.30222222222221,42.214444444444446],[-101.30222222222221,42.214444444444446],[-101.30222222222221,42.214444444444446],[-101.10194444444444,42.2175],[-101.10194444444444,42.2175],[-101.10194444444444,42.2175],[-101.10194444444444,42.2175],[-101.10194444444444,42.2175],[-101.10194444444444,42.2175],[-101.10194444444444,42.2175],[-100.30222222222221,42.22916666666667],[-100.30222222222221,42.22916666666667],[-100.30222222222221,42.22916666666667],[-100.13611111111112,42.23083333333334],[-100.13611111111112,42.23083333333334],[-99.9025,42.2325],[-99.9025,42.2325],[-99.9025,42.2325],[-99.705,42.23388888888889],[-99.35305555555556,42.235],[-99.35305555555556,42.235],[-99.35305555555556,42.235],[-99.35305555555556,42.235],[-99.35305555555556,42.235],[-99.3111111111111,42.23527777777778],[-99.3111111111111,42.23527777777778],[-99.11749999999999,42.23444444444444],[-99.11749999999999,42.23444444444444],[-99.11749999999999,42.23444444444444],[-99.11749999999999,42.23444444444444],[-98.92861111111111,42.23083333333334],[-98.92861111111111,42.23083333333334],[-98.7786111111111,42.22805555555556],[-98.7786111111111,42.22805555555556],[-98.7786111111111,42.22805555555556],[-98.40111111111112,42.22083333333334],[-98.40111111111112,42.22083333333334],[-98.40111111111112,42.22083333333334],[-98.40111111111112,42.22083333333334],[-98.21861111111112,42.216944444444444],[-98.21861111111112,42.216944444444444],[-98.0375,42.212500000000006],[-98.0375,42.212500000000006],[-98.0375,42.212500000000006],[-98.0375,42.212500000000006],[-98.0375,42.212500000000006],[-97.85666666666665,42.20805555555556],[-97.85666666666665,42.20805555555556],[-97.85666666666665,42.20805555555556],[-97.85666666666665,42.20805555555556],[-97.85666666666665,42.20805555555556],[-97.85666666666665,42.20805555555556],[-97.47805555555556,42.1975],[-97.47805555555556,42.1975],[-97.47805555555556,42.1975],[-96.9363888888889,42.180277777777775],[-96.9363888888889,42.180277777777775],[-96.9363888888889,42.180277777777775],[-96.9363888888889,42.180277777777775],[-96.9363888888889,42.180277777777775],[-96.57222222222222,42.16722222222222],[-96.57222222222222,42.16722222222222],[-96.57222222222222,42.16722222222222],[-96.57222222222222,42.16722222222222],[-96.57222222222222,42.16722222222222],[-96.57222222222222,42.16722222222222],[-96.39,42.16027777777778],[-96.39,42.16027777777778],[-96.39,42.16027777777778],[-96.20694444444445,42.153055555555554],[-96.20694444444445,42.153055555555554],[-96.20694444444445,42.153055555555554],[-95.83972222222222,42.1375],[-95.83972222222222,42.1375],[-95.83972222222222,42.1375],[-95.4786111111111,42.12111111111111],[-95.4786111111111,42.12111111111111],[-95.4786111111111,42.12111111111111],[-95.4786111111111,42.12111111111111],[-95.4786111111111,42.12111111111111],[-95.4786111111111,42.12111111111111],[-95.12333333333332,42.10388888888889],[-95.12333333333332,42.10388888888889],[-95.12333333333332,42.10388888888889],[-95.12333333333332,42.10388888888889],[-95.12333333333332,42.10388888888889],[-94.76944444444445,42.08555555555556],[-94.76944444444445,42.08555555555556],[-94.76944444444445,42.08555555555556],[-94.76944444444445,42.08555555555556],[-94.76944444444445,42.08555555555556],[-94.76944444444445,42.08555555555556],[-94.76944444444445,42.08555555555556],[-94.76944444444445,42.08555555555556],[-94.76944444444445,42.08555555555556],[-94.06166666666667,42.045833333333334],[-94.06166666666667,42.045833333333334],[-94.06166666666667,42.045833333333334],[-94.06166666666667,42.045833333333334],[-94.06166666666667,42.045833333333334],[-94.06166666666667,42.045833333333334],[-94.06166666666667,42.045833333333334],[-93.94888888888889,42.038888888888884],[-93.94888888888889,42.038888888888884],[-93.94888888888889,42.038888888888884],[-93.94888888888889,42.038888888888884],[-93.94888888888889,42.038888888888884],[-93.77305555555556,42.02833333333333],[-93.77305555555556,42.02833333333333],[-93.41916666666667,42.005833333333335],[-93.41916666666667,42.005833333333335],[-93.41916666666667,42.005833333333335],[-93.41916666666667,42.005833333333335],[-92.63666666666667,41.95194444444445],[-92.63666666666667,41.95194444444445],[-92.63666666666667,41.95194444444445],[-92.5286111111111,41.94416666666666],[-92.35249999999999,41.93111111111111],[-92.35249999999999,41.93111111111111],[-92.28055555555555,41.92583333333333],[-92.28055555555555,41.92583333333333],[-92.28055555555555,41.92583333333333],[-92.28055555555555,41.92583333333333],[-92.28055555555555,41.92583333333333],[-92.28055555555555,41.92583333333333],[-92.28055555555555,41.92583333333333],[-92.28055555555555,41.92583333333333],[-91.74944444444445,41.88444444444444],[-91.6086111111111,41.868611111111115],[-91.6086111111111,41.868611111111115],[-91.6086111111111,41.868611111111115],[-91.6086111111111,41.868611111111115],[-91.43055555555556,41.84861111111111],[-91.43055555555556,41.84861111111111],[-91.43055555555556,41.84861111111111],[-91.43055555555556,41.84861111111111],[-91.25527777777778,41.82916666666667],[-91.25527777777778,41.82916666666667],[-91.25527777777778,41.82916666666667],[-91.25527777777778,41.82916666666667],[-91.25527777777778,41.82916666666667],[-91.25527777777778,41.82916666666667],[-90.86861111111111,41.78472222222222],[-90.86861111111111,41.78472222222222],[-90.86861111111111,41.78472222222222],[-90.86861111111111,41.78472222222222],[-90.73083333333334,41.76916666666666],[-90.73083333333334,41.76916666666666],[-90.73083333333334,41.76916666666666],[-90.69472222222223,41.763888888888886],[-90.69472222222223,41.763888888888886],[-90.69472222222223,41.763888888888886],[-90.55111111111111,41.74805555555556],[-90.55111111111111,41.74805555555556],[-90.55111111111111,41.74805555555556],[-89.89027777777778,41.66777777777777],[-89.89027777777778,41.66777777777777],[-89.89027777777778,41.66777777777777],[-89.89027777777778,41.66777777777777],[-89.89027777777778,41.66777777777777],[-89.89027777777778,41.66777777777777],[-89.89027777777778,41.66777777777777],[-89.20055555555555,41.57972222222222],[-89.20055555555555,41.57972222222222],[-89.20055555555555,41.57972222222222],[-89.20055555555555,41.57972222222222],[-89.20055555555555,41.57972222222222],[-89.20055555555555,41.57972222222222],[-89.20055555555555,41.57972222222222],[-89.20055555555555,41.57972222222222],[-89.20055555555555,41.57972222222222],[-89.20055555555555,41.57972222222222],[-88.33944444444444,41.46333333333334],[-88.33944444444444,41.46333333333334],[-88.33944444444444,41.46333333333334],[-88.33944444444444,41.46333333333334],[-88.16833333333334,41.43944444444444],[-88.16833333333334,41.43944444444444],[-88.16833333333334,41.43944444444444],[-88.16833333333334,41.43944444444444],[-88.16833333333334,41.43944444444444],[-88.16833333333334,41.43944444444444],[-87.98027777777779,41.41305555555555],[-87.98027777777779,41.41305555555555],[-87.98027777777779,41.41305555555555],[-87.80777777777777,41.388333333333335],[-87.80777777777777,41.388333333333335],[-87.80777777777777,41.388333333333335],[-87.80777777777777,41.388333333333335],[-87.125,41.28777777777778],[-87.125,41.28777777777778],[-87.125,41.28777777777778],[-87.125,41.28777777777778],[-86.95805555555556,41.2625],[-86.95805555555556,41.2625],[-86.95805555555556,41.2625],[-86.95805555555556,41.2625],[-86.95805555555556,41.2625],[-86.95805555555556,41.2625],[-86.95805555555556,41.2625],[-86.79027777777777,41.23694444444445],[-86.79027777777777,41.23694444444445],[-86.79027777777777,41.23694444444445],[-86.63527777777779,41.21333333333334],[-86.63333333333334,41.21277777777778],[-86.63333333333334,41.21277777777778],[-86.63333333333334,41.21277777777778],[-86.46777777777778,41.18083333333333],[-86.46777777777778,41.18083333333333],[-86.46777777777778,41.18083333333333],[-86.46777777777778,41.18083333333333],[-86.13777777777779,41.11],[-86.13777777777779,41.11],[-86.13777777777779,41.11],[-86.13777777777779,41.11],[-86.13777777777779,41.11],[-86.13777777777779,41.11],[-85.97583333333334,41.075833333333335],[-85.97583333333334,41.075833333333335],[-85.77916666666667,41.03361111111111],[-85.77916666666667,41.03361111111111],[-85.77916666666667,41.03361111111111],[-85.77916666666667,41.03361111111111],[-85.77916666666667,41.03361111111111],[-85.31861111111111,40.933055555555555],[-85.31861111111111,40.933055555555555],[-85.31861111111111,40.933055555555555],[-85.31861111111111,40.933055555555555],[-85.31861111111111,40.933055555555555],[-85.31861111111111,40.933055555555555],[-85.31861111111111,40.933055555555555],[-84.65138888888889,40.781666666666666],[-84.65138888888889,40.781666666666666],[-84.65138888888889,40.781666666666666],[-84.65138888888889,40.781666666666666],[-84.65138888888889,40.781666666666666],[-84.65138888888889,40.781666666666666],[-84.65138888888889,40.781666666666666],[-84.29444444444444,40.69888888888889],[-84.29444444444444,40.69888888888889],[-84.29444444444444,40.69888888888889],[-84.29444444444444,40.69888888888889],[-84.12916666666666,40.66],[-84.12916666666666,40.66],[-84.12916666666666,40.66],[-84.12916666666666,40.66],[-84.12916666666666,40.66],[-84.12916666666666,40.66],[-83.47527777777778,40.50333333333333],[-83.47527777777778,40.50333333333333],[-83.47527777777778,40.50333333333333],[-83.47527777777778,40.50333333333333],[-83.47527777777778,40.50333333333333],[-83.47527777777778,40.50333333333333],[-83.47527777777778,40.50333333333333],[-83.33166666666666,40.468333333333334],[-83.33166666666666,40.468333333333334],[-83.33166666666666,40.468333333333334],[-83.33166666666666,40.468333333333334],[-83.16666666666667,40.42805555555555],[-83.16666666666667,40.42805555555555],[-83.16666666666667,40.42805555555555],[-83.16666666666667,40.42805555555555],[-83.16666666666667,40.42805555555555],[-82.83555555555554,40.34583333333334],[-82.83555555555554,40.34583333333334],[-82.83555555555554,40.34583333333334],[-82.33972222222222,40.221111111111114],[-81.99138888888889,40.13166666666667],[-81.9563888888889,40.12138888888889],[-81.9563888888889,40.12138888888889],[-81.82555555555555,40.08916666666667],[-81.6538888888889,40.04972222222222],[-81.6538888888889,40.04972222222222],[-81.62166666666666,40.04194444444444],[-81.62166666666666,40.04194444444444],[-81.35333333333332,39.97833333333333],[-81.35333333333332,39.97833333333333],[-81.28555555555555,39.96222222222222],[-80.94916666666667,39.88055555555555],[-80.94916666666667,39.88055555555555],[-80.94916666666667,39.88055555555555],[-80.94916666666667,39.88055555555555],[-80.51333333333334,39.77333333333333],[-80.51333333333334,39.77333333333333],[-80.51333333333334,39.77333333333333],[-80.34388888888888,39.73111111111111],[-80.34388888888888,39.73111111111111],[-80.34388888888888,39.73111111111111],[-80.34388888888888,39.73111111111111],[-80.34388888888888,39.73111111111111],[-80.34388888888888,39.73111111111111],[-79.84027777777777,39.60388888888889],[-79.84027777777777,39.60388888888889],[-79.84027777777777,39.60388888888889],[-79.84027777777777,39.60388888888889],[-79.84027777777777,39.60388888888889],[-79.2775,39.458333333333336],[-79.2775,39.458333333333336],[-79.2775,39.458333333333336],[-79.2775,39.458333333333336],[-79.2775,39.458333333333336],[-78.85,39.36666666666667],[-78.85,39.36666666666667],[-78.85,39.36666666666667],[-78.60972222222222,39.33166666666667],[-78.60972222222222,39.33166666666667],[-78.43333333333334,39.3],[-78.43333333333334,39.3],[-78.32916666666667,39.26722222222222],[-78.26333333333334,39.23277777777778],[-78.23111111111112,39.215833333333336],[-78.23111111111112,39.215833333333336],[-78.23111111111112,39.215833333333336],[-78.0936111111111,39.143055555555556],[-78.0936111111111,39.143055555555556],[-78.06555555555555,39.12833333333333],[-77.97666666666667,39.081388888888895],[-77.97666666666667,39.081388888888895],[-77.97666666666667,39.081388888888895],[-77.97666666666667,39.081388888888895],[-77.65,38.95],[-77.65,38.95],[-77.65,38.95],[-77.65,38.95],[-77.65,38.95],[-77.60305555555556,38.91361111111111],[-77.60305555555556,38.91361111111111],[-77.60305555555556,38.91361111111111],[-77.56666666666666,38.85],[-77.56666666666666,38.85],[-77.56666666666666,38.85],[-77.56666666666666,38.85],[-77.56666666666666,38.85],[-77.56666666666666,38.85],[-77.47833333333334,38.77388888888889],[-77.47833333333334,38.77388888888889],[-77.47833333333334,38.77388888888889],[-77.46666666666667,38.81666666666667],[-77.46666666666667,38.81666666666667],[-77.46666666666667,38.916666666666664],[-77.46666666666667,38.916666666666664],[-77.4588888888889,38.980000000000004],[-77.4588888888889,38.980000000000004],[-77.4588888888889,38.980000000000004],[-77.4588888888889,38.980000000000004]],"type":"LineString"}
}
