{
  "id": 1981659479,
  "type": "Feature",
  "properties": {
    "geom:area": 0,
    "geom:bbox": "-122.765590,37.442070,-122.080800,38.483840",
    "geom:latitude": 37.81280604818367,
    "geom:longitude": -122.47657605296895,
    "src:alt_label": "swim-approach",
    "src:geom": "swim",
    "swim:elevations": [
      7315,
      7315,
      7315,
      7218,
      7175,
      6992,
      6788,
      6635,
      6453,
      6339,
      6005,
      5766,
      5671,
      5102,
      5055,
      4946,
      4939,
      4830,
      4748,
      4497,
      4230,
      4052,
      3720,
      3701,
      3644,
      3446,
      3353,
      3353,
      3353,
      3320,
      3262,
      2996,
      2783,
      2685,
      2496,
      2385,
      2230,
      2043,
      1897,
      1561,
      1477,
      1269,
      1170,
      1126,
      1058,
      912,
      741,
      698,
      515,
      421,
      259,
      197,
      119,
      0
    ],
    "swim:geom": "approach",
    "swim:timestamps": [
      1760382985,
      1760382997,
      1760383014,
      1760383039,
      1760383052,
      1760383103,
      1760383130,
      1760383146,
      1760383167,
      1760383179,
      1760383219,
      1760383248,
      1760383260,
      1760383317,
      1760383324,
      1760383348,
      1760383351,
      1760383372,
      1760383385,
      1760383421,
      1760383457,
      1760383481,
      1760383528,
      1760383531,
      1760383540,
      1760383569,
      1760383609,
      1760383627,
      1760383674,
      1760383701,
      1760383722,
      1760383762,
      1760383795,
      1760383813,
      1760383855,
      1760383870,
      1760383890,
      1760383912,
      1760383931,
      1760383970,
      1760383995,
      1760384024,
      1760384065,
      1760384073,
      1760384084,
      1760384111,
      1760384152,
      1760384160,
      1760384202,
      1760384227,
      1760384262,
      1760384276,
      1760384293,
      1760384314
    ],
    "wof:geomhash": "a929f4463ab8f05f6a0a56349fed94bb",
    "wof:id": 1981659479,
    "wof:repo": "sfomuseum-data-flights-2025-10"
  },
  "bbox": [
    -122.76559,
    37.44207,
    -122.0808,
    38.48384
  ],
  "geometry": {"coordinates":[[-122.73591,38.48384],[-122.73597,38.46642],[-122.73875,38.44366],[-122.74358,38.40761],[-122.74603,38.3906],[-122.75568,38.31871],[-122.76056,38.28086],[-122.76338,38.25794],[-122.76559,38.22872],[-122.76353,38.21219],[-122.74854,38.15908],[-122.737,38.1201],[-122.73231,38.104],[-122.71023,38.02802],[-122.70772,38.01928],[-122.69861,37.98767],[-122.6975,37.98392],[-122.68975,37.95652],[-122.68552,37.94165],[-122.66884,37.89748],[-122.6323,37.86054],[-122.60645,37.83636],[-122.55557,37.78862],[-122.55232,37.78559],[-122.54266,37.77649],[-122.51213,37.74735],[-122.46823,37.70606],[-122.44893,37.68793],[-122.39677,37.63889],[-122.3679,37.61175],[-122.35368,37.58961],[-122.33258,37.54736],[-122.31167,37.51236],[-122.29925,37.49404],[-122.24526,37.47178],[-122.22489,37.4662],[-122.19663,37.45833],[-122.16681,37.44959],[-122.14063,37.44207],[-122.09239,37.45562],[-122.0808,37.48179],[-122.1006,37.50553],[-122.14419,37.52376],[-122.15241,37.52725],[-122.16449,37.53242],[-122.18969,37.54306],[-122.22315,37.55715],[-122.22932,37.55976],[-122.26371,37.57428],[-122.28447,37.583],[-122.31318,37.59514],[-122.32424,37.59975],[-122.33843,37.60563],[-122.35519,37.61273]],"type":"LineString"}
}
