{
  "id": 1981636829,
  "type": "Feature",
  "properties": {
    "geom:area": 0,
    "geom:bbox": "-122.553890,36.719360,-122.324750,37.717270",
    "geom:latitude": 37.24623093519928,
    "geom:longitude": -122.47278794484278,
    "src:alt_label": "swim-takeoff",
    "src:geom": "swim",
    "swim:elevations": [
      152,
      369,
      631,
      965,
      1419,
      1882,
      2006,
      2331,
      2521,
      3152,
      3336,
      3477,
      3994,
      4850,
      5078,
      5175,
      5246,
      5907,
      6300,
      6671,
      6972,
      7081,
      7277,
      7603,
      7770,
      8316,
      8705,
      8812,
      9266,
      9513
    ],
    "swim:geom": "takeoff",
    "swim:timestamps": [
      1760124237,
      1760124257,
      1760124291,
      1760124316,
      1760124357,
      1760124387,
      1760124396,
      1760124411,
      1760124420,
      1760124445,
      1760124457,
      1760124483,
      1760124514,
      1760124560,
      1760124576,
      1760124585,
      1760124600,
      1760124650,
      1760124681,
      1760124714,
      1760124747,
      1760124756,
      1760124774,
      1760124807,
      1760124825,
      1760124865,
      1760124895,
      1760124903,
      1760124942,
      1760124965
    ],
    "wof:geomhash": "f740d5662ce3f729ee547c350300bb14",
    "wof:id": 1981636829,
    "wof:repo": "sfomuseum-data-flights-2025-10"
  },
  "bbox": [
    -122.55389,
    36.71936,
    -122.32475,
    37.71727
  ],
  "geometry": {"coordinates":[[-122.36883,37.62908],[-122.3627,37.64368],[-122.36432,37.67238],[-122.36595,37.69618],[-122.40924,37.71727],[-122.44371,37.69803],[-122.44848,37.6877],[-122.44832,37.66861],[-122.45006,37.65719],[-122.45857,37.62616],[-122.46235,37.61154],[-122.46968,37.57612],[-122.47692,37.52865],[-122.48825,37.45547],[-122.49258,37.42947],[-122.49505,37.41482],[-122.49951,37.38926],[-122.51448,37.30094],[-122.52381,37.24527],[-122.53421,37.18382],[-122.54483,37.12046],[-122.5478,37.10292],[-122.55389,37.06669],[-122.55146,37.00083],[-122.53413,36.96546],[-122.47944,36.89126],[-122.43913,36.83618],[-122.42827,36.82148],[-122.36461,36.75661],[-122.32475,36.71936]],"type":"LineString"}
}
