{
  "id": 1981759981,
  "type": "Feature",
  "properties": {
    "geom:area": 0,
    "geom:bbox": "-159.833333,17.083333,-122.524722,37.662500",
    "geom:latitude": 27.900282094599245,
    "geom:longitude": -141.56259541521874,
    "src:alt_label": "swim-path",
    "src:geom": "swim",
    "swim:altitudes": [
      "038",
      "140",
      "186",
      "260",
      "284",
      "300",
      "320",
      "320",
      "328",
      "338C",
      "340C",
      "340",
      "340",
      "340",
      "340",
      "340",
      "340",
      "340",
      "340",
      "340",
      "340",
      "340",
      "340",
      "340",
      "340",
      "340",
      "340",
      "340",
      "340",
      "341C",
      "341C",
      "350C",
      "357C",
      "357C",
      "360",
      "360",
      "360",
      "360",
      "360",
      "360",
      "360",
      "360",
      "360",
      "360",
      "360",
      "360",
      "360",
      "360",
      "360",
      "360",
      "360",
      "360",
      "360",
      "360",
      "360",
      "360"
    ],
    "swim:geom": "path",
    "swim:speeds": [
      226,
      346,
      361,
      414,
      432,
      456,
      462,
      462,
      461,
      460,
      459,
      540,
      540,
      540,
      530,
      530,
      520,
      520,
      520,
      510,
      510,
      510,
      510,
      510,
      500,
      500,
      500,
      500,
      500,
      490,
      490,
      500,
      490,
      490,
      490,
      490,
      490,
      490,
      490,
      490,
      490,
      490,
      490,
      490,
      490,
      490,
      490,
      490,
      490,
      490,
      490,
      500,
      490,
      490,
      480,
      480
    ],
    "swim:timestamps": [
      1761373477,
      1761373838,
      1761374018,
      1761374438,
      1761374618,
      1761374798,
      1761374978,
      1761374978,
      1761375038,
      1761375158,
      1761375278,
      1761386765,
      1761386825,
      1761386825,
      1761387129,
      1761387426,
      1761387486,
      1761387546,
      1761387546,
      1761387666,
      1761387726,
      1761387786,
      1761387967,
      1761388087,
      1761388147,
      1761388207,
      1761388207,
      1761388507,
      1761388567,
      1761388687,
      1761388687,
      1761388747,
      1761388808,
      1761388808,
      1761389168,
      1761389288,
      1761389348,
      1761389408,
      1761389468,
      1761389528,
      1761389588,
      1761389649,
      1761389708,
      1761389769,
      1761389769,
      1761389889,
      1761389949,
      1761390069,
      1761390228,
      1761390310,
      1761390408,
      1761390468,
      1761390610,
      1761390670,
      1761390790,
      1761390790
    ],
    "wof:geomhash": "f6cdf4c12b1cf96b9ad8a1d9d174186a",
    "wof:id": 1981759981,
    "wof:repo": "sfomuseum-data-flights-2025-10"
  },
  "bbox": [
    -159.83333333333334,
    17.083333333333332,
    -122.52472222222222,
    37.6625
  ],
  "geometry": {"coordinates":[[-122.52472222222222,37.6625],[-123.04444444444444,37.40694444444444],[-123.38055555555555,37.272777777777776],[-124.0761111111111,36.7575],[-124.38416666666667,36.499722222222225],[-124.70361111111112,36.22972222222222],[-125.08277777777778,35.99916666666667],[-125.08277777777778,35.99916666666667],[-125.21361111111112,35.92472222222222],[-125.47027777777778,35.77777777777778],[-125.72555555555556,35.63055555555555],[-152.21666666666667,23],[-152.35,22.933333333333334],[-152.35,22.933333333333334],[-153.01666666666668,22.5],[-153.66666666666666,22.05],[-153.8,21.966666666666665],[-153.91666666666666,21.883333333333333],[-153.91666666666666,21.883333333333333],[-154.16666666666666,21.7],[-154.28333333333333,21.616666666666667],[-154.4,21.533333333333335],[-154.76666666666668,21.283333333333335],[-155.01666666666668,21.116666666666667],[-155.13333333333333,21.016666666666666],[-155.25,20.933333333333334],[-155.25,20.933333333333334],[-155.83333333333334,20.516666666666666],[-155.95,20.433333333333334],[-156.18333333333334,20.266666666666666],[-156.18333333333334,20.266666666666666],[-156.3,20.166666666666668],[-156.41666666666666,20.083333333333332],[-156.41666666666666,20.083333333333332],[-157.1,19.583333333333332],[-157.33333333333334,19.416666666666668],[-157.45,19.333333333333332],[-157.55,19.25],[-157.66666666666666,19.166666666666668],[-157.78333333333333,19.083333333333332],[-157.9,19],[-158,18.916666666666668],[-158.11666666666667,18.816666666666666],[-158.23333333333332,18.733333333333334],[-158.23333333333332,18.733333333333334],[-158.45,18.566666666666666],[-158.56666666666666,18.483333333333334],[-158.78333333333333,18.316666666666666],[-159.08333333333334,18.1],[-159.23333333333332,17.966666666666665],[-159.4,17.833333333333332],[-159.51666666666668,17.75],[-159.66666666666666,17.45],[-159.71666666666667,17.316666666666666],[-159.83333333333334,17.083333333333332],[-159.83333333333334,17.083333333333332]],"type":"LineString"}
}
