{
  "id": 1981567041,
  "type": "Feature",
  "properties": {
    "geom:area": 0,
    "geom:bbox": "-122.573790,37.628280,-121.276830,37.971290",
    "geom:latitude": 37.86097347031603,
    "geom:longitude": -122.02449055490891,
    "src:alt_label": "swim-takeoff",
    "src:geom": "swim",
    "swim:elevations": [
      213,
      693,
      914,
      914,
      1038,
      1351,
      1776,
      2121,
      2458,
      2854,
      3162,
      3339,
      3684,
      3828,
      4189,
      4605,
      4774,
      5273,
      5344,
      5685,
      6039,
      6217,
      6523,
      6630,
      7056,
      7175,
      7442,
      7595,
      7734
    ],
    "swim:geom": "takeoff",
    "swim:timestamps": [
      1759450811,
      1759450848,
      1759450886,
      1759450892,
      1759450948,
      1759450972,
      1759451005,
      1759451035,
      1759451062,
      1759451093,
      1759451118,
      1759451136,
      1759451178,
      1759451190,
      1759451226,
      1759451273,
      1759451291,
      1759451336,
      1759451342,
      1759451384,
      1759451422,
      1759451443,
      1759451483,
      1759451495,
      1759451547,
      1759451565,
      1759451598,
      1759451616,
      1759451640
    ],
    "wof:geomhash": "1b0005f0e20bdbf0ac803f807544fbcf",
    "wof:id": 1981567041,
    "wof:repo": "sfomuseum-data-flights-2025-10"
  },
  "bbox": [
    -122.57379,
    37.62828,
    -121.27683,
    37.97129
  ],
  "geometry": {"coordinates":[[-122.39733,37.62828],[-122.43054,37.64258],[-122.46661,37.6582],[-122.47292,37.661],[-122.52959,37.69907],[-122.54825,37.72293],[-122.57379,37.75694],[-122.57339,37.79429],[-122.54095,37.81884],[-122.48793,37.8268],[-122.44595,37.83149],[-122.41427,37.83498],[-122.33617,37.84506],[-122.31294,37.84812],[-122.24196,37.85649],[-122.14387,37.86857],[-122.1065,37.87315],[-122.00849,37.88511],[-121.99528,37.88668],[-121.90151,37.89798],[-121.81394,37.90847],[-121.76487,37.91439],[-121.6688,37.92582],[-121.63968,37.92925],[-121.51094,37.94421],[-121.46585,37.94947],[-121.38307,37.95911],[-121.33766,37.96441],[-121.27683,37.97129]],"type":"LineString"}
}
