{
  "id": 1981755385,
  "type": "Feature",
  "properties": {
    "geom:area": 0,
    "geom:bbox": "-122.297778,37.491944,-81.734722,44.563889",
    "geom:latitude": 41.903947569261184,
    "geom:longitude": -102.16072726462669,
    "src:alt_label": "swim-path",
    "src:geom": "swim",
    "swim:altitudes": [
      "289",
      "289",
      "289",
      "289",
      "320C",
      "320C",
      "320C",
      "320C",
      "320C",
      "320C",
      "320C",
      "320C",
      "320C",
      "320C",
      "320C",
      "320C",
      "320C",
      "320C",
      "320C",
      "320C",
      "320C",
      "320C",
      "320C",
      "320C",
      "320C",
      "320C",
      "320C",
      "320C",
      "320C",
      "320C",
      "320C",
      "320C",
      "320C",
      "320C",
      "320C",
      "320C",
      "320C",
      "320C",
      "320C",
      "320C",
      "320C",
      "320C",
      "320C",
      "320C",
      "320C",
      "320C",
      "320C",
      "320C",
      "320C",
      "320C",
      "320C",
      "320C",
      "320C",
      "320C",
      "320C",
      "320C",
      "320C",
      "320C",
      "320C",
      "320C",
      "320C",
      "320C",
      "320C",
      "320C",
      "320C",
      "320C",
      "320C",
      "320C",
      "320C",
      "336",
      "336",
      "336",
      "340C",
      "340C",
      "340C",
      "340C",
      "340C",
      "340C",
      "340C",
      "340C",
      "340C",
      "340C",
      "340C",
      "340C",
      "340C",
      "340C",
      "340C",
      "340C",
      "340C",
      "340C",
      "340C",
      "340C",
      "340C",
      "340C",
      "340C",
      "340C",
      "340C",
      "340C",
      "340C",
      "340C",
      "340C",
      "340C",
      "340C",
      "340C",
      "340C",
      "340C",
      "340C",
      "340C",
      "340C",
      "340C",
      "340C",
      "340C",
      "340C",
      "340C",
      "340C",
      "340C",
      "340C",
      "340C",
      "340C",
      "340C",
      "340C",
      "340C",
      "340C",
      "340C",
      "340C",
      "340C",
      "340C",
      "340C",
      "340C",
      "340C",
      "340C",
      "340C",
      "340C",
      "340C",
      "340C",
      "340C",
      "340C",
      "340C",
      "340C",
      "340C",
      "340C",
      "340C",
      "340C",
      "340C",
      "340C",
      "340C",
      "340C",
      "340C",
      "340C",
      "340C",
      "340C",
      "340C",
      "340C",
      "340C",
      "340C",
      "340C",
      "340C",
      "340C",
      "340C",
      "340C",
      "340C",
      "340C",
      "340C",
      "340C",
      "340C",
      "340C",
      "340C",
      "340C",
      "340C",
      "340C",
      "340C",
      "340C",
      "340C",
      "340C",
      "340C",
      "340C",
      "340C",
      "340C",
      "340C",
      "340C",
      "340C",
      "340C",
      "340C",
      "340C",
      "340C",
      "340C",
      "340C",
      "340C",
      "340C",
      "340C",
      "340C",
      "340C",
      "340C",
      "340C",
      "340C",
      "340C",
      "340C",
      "340C",
      "340C",
      "340C",
      "340C",
      "340C",
      "340C",
      "340C",
      "340C",
      "340C",
      "340C",
      "340C",
      "340C",
      "340C",
      "340C",
      "340C",
      "340C",
      "340C",
      "340",
      "340",
      "340",
      "332",
      "332",
      "320C",
      "320C",
      "320C",
      "320C",
      "319",
      "308",
      "308",
      "308",
      "261",
      "261",
      "261",
      "261",
      "261",
      "221",
      "152",
      "152",
      "152",
      "152",
      "152",
      "152",
      "114",
      "114",
      "069",
      "069",
      "069",
      "069",
      "063",
      "063",
      "060",
      "060",
      "029",
      "029",
      "029",
      "029",
      "029",
      "020",
      "011",
      "011"
    ],
    "swim:geom": "path",
    "swim:speeds": [
      432,
      432,
      432,
      432,
      425,
      425,
      424,
      424,
      424,
      424,
      425,
      425,
      425,
      425,
      425,
      424,
      424,
      406,
      406,
      406,
      407,
      407,
      407,
      407,
      407,
      407,
      408,
      412,
      415,
      415,
      416,
      416,
      417,
      417,
      420,
      420,
      420,
      420,
      423,
      423,
      426,
      426,
      427,
      427,
      427,
      428,
      429,
      433,
      433,
      434,
      434,
      438,
      438,
      438,
      438,
      438,
      436,
      436,
      436,
      436,
      446,
      446,
      446,
      446,
      446,
      446,
      444,
      444,
      444,
      443,
      443,
      443,
      436,
      436,
      441,
      439,
      439,
      443,
      443,
      443,
      443,
      449,
      449,
      449,
      451,
      451,
      451,
      447,
      454,
      457,
      457,
      458,
      461,
      461,
      467,
      467,
      468,
      470,
      470,
      473,
      473,
      475,
      475,
      474,
      474,
      474,
      474,
      473,
      474,
      474,
      479,
      479,
      479,
      477,
      477,
      477,
      482,
      482,
      482,
      485,
      485,
      485,
      484,
      485,
      485,
      486,
      486,
      486,
      493,
      493,
      493,
      493,
      496,
      496,
      497,
      497,
      497,
      498,
      498,
      498,
      498,
      498,
      498,
      498,
      499,
      499,
      499,
      498,
      498,
      498,
      498,
      498,
      498,
      498,
      498,
      499,
      499,
      500,
      503,
      503,
      503,
      504,
      504,
      504,
      504,
      503,
      503,
      503,
      503,
      503,
      498,
      498,
      498,
      499,
      494,
      494,
      494,
      487,
      487,
      487,
      487,
      486,
      486,
      484,
      484,
      484,
      484,
      485,
      485,
      485,
      485,
      483,
      483,
      483,
      483,
      483,
      483,
      481,
      481,
      479,
      479,
      474,
      474,
      474,
      469,
      464,
      464,
      463,
      461,
      461,
      461,
      461,
      454,
      454,
      453,
      453,
      453,
      454,
      454,
      456,
      456,
      458,
      458,
      455,
      439,
      439,
      439,
      395,
      395,
      395,
      395,
      395,
      382,
      352,
      352,
      352,
      352,
      352,
      352,
      323,
      323,
      254,
      254,
      254,
      254,
      252,
      252,
      251,
      251,
      205,
      205,
      205,
      205,
      205,
      178,
      155,
      155
    ],
    "swim:timestamps": [
      1761305978,
      1761305978,
      1761305978,
      1761305978,
      1761306518,
      1761306518,
      1761306759,
      1761306759,
      1761306759,
      1761306759,
      1761306879,
      1761306879,
      1761306939,
      1761306939,
      1761306939,
      1761306999,
      1761306999,
      1761307720,
      1761307720,
      1761307720,
      1761307780,
      1761307780,
      1761307900,
      1761307900,
      1761307900,
      1761307900,
      1761308080,
      1761308381,
      1761308561,
      1761308561,
      1761308621,
      1761308621,
      1761308681,
      1761308681,
      1761308801,
      1761308801,
      1761308801,
      1761308801,
      1761309041,
      1761309041,
      1761309162,
      1761309222,
      1761309342,
      1761309342,
      1761309342,
      1761309462,
      1761309642,
      1761309762,
      1761309762,
      1761309823,
      1761309823,
      1761310063,
      1761310063,
      1761310123,
      1761310123,
      1761310123,
      1761310363,
      1761310363,
      1761310964,
      1761310964,
      1761311264,
      1761311264,
      1761311264,
      1761311325,
      1761311325,
      1761311325,
      1761311565,
      1761311565,
      1761311565,
      1761311745,
      1761311745,
      1761311745,
      1761312264,
      1761312264,
      1761312526,
      1761312565,
      1761312565,
      1761312646,
      1761312646,
      1761312646,
      1761312646,
      1761312797,
      1761312797,
      1761312827,
      1761312857,
      1761312857,
      1761312857,
      1761312865,
      1761312986,
      1761313106,
      1761313106,
      1761313127,
      1761313247,
      1761313247,
      1761313367,
      1761313367,
      1761313406,
      1761313466,
      1761313466,
      1761313518,
      1761313518,
      1761313578,
      1761313578,
      1761313758,
      1761313758,
      1761313818,
      1761313818,
      1761313878,
      1761314067,
      1761314127,
      1761314179,
      1761314179,
      1761314179,
      1761314187,
      1761314187,
      1761314187,
      1761314428,
      1761314548,
      1761314548,
      1761314599,
      1761314599,
      1761314599,
      1761314668,
      1761314728,
      1761314728,
      1761314780,
      1761314780,
      1761314788,
      1761315029,
      1761315029,
      1761315029,
      1761315029,
      1761315260,
      1761315260,
      1761315326,
      1761315380,
      1761315440,
      1761315446,
      1761315446,
      1761315500,
      1761315500,
      1761315507,
      1761315507,
      1761315507,
      1761315567,
      1761315627,
      1761315627,
      1761315687,
      1761315741,
      1761315747,
      1761315747,
      1761315807,
      1761315807,
      1761315861,
      1761315861,
      1761315921,
      1761315921,
      1761315981,
      1761316101,
      1761316101,
      1761316107,
      1761316161,
      1761316161,
      1761316161,
      1761316161,
      1761316408,
      1761316408,
      1761316408,
      1761316408,
      1761316408,
      1761316582,
      1761316582,
      1761316648,
      1761316768,
      1761317189,
      1761317189,
      1761317189,
      1761317369,
      1761317369,
      1761317490,
      1761317490,
      1761317550,
      1761317550,
      1761317730,
      1761317730,
      1761317730,
      1761317730,
      1761317910,
      1761317910,
      1761317910,
      1761317910,
      1761318151,
      1761318151,
      1761318211,
      1761318211,
      1761318211,
      1761318211,
      1761318391,
      1761318391,
      1761318451,
      1761318451,
      1761318812,
      1761318812,
      1761318812,
      1761318967,
      1761319052,
      1761319052,
      1761319087,
      1761319112,
      1761319112,
      1761319112,
      1761319112,
      1761319353,
      1761319353,
      1761319448,
      1761319448,
      1761319448,
      1761319508,
      1761319508,
      1761319628,
      1761319628,
      1761319808,
      1761319808,
      1761320048,
      1761320108,
      1761320108,
      1761320108,
      1761320259,
      1761320259,
      1761320259,
      1761320259,
      1761320259,
      1761320379,
      1761320589,
      1761320589,
      1761320589,
      1761320589,
      1761320589,
      1761320589,
      1761320709,
      1761320709,
      1761320949,
      1761320949,
      1761320949,
      1761320949,
      1761320979,
      1761320979,
      1761321010,
      1761321010,
      1761321190,
      1761321190,
      1761321190,
      1761321190,
      1761321190,
      1761321250,
      1761321310,
      1761321310
    ],
    "wof:geomhash": "b7107489edaec59173a3c827b5e0bdf9",
    "wof:id": 1981755385,
    "wof:repo": "sfomuseum-data-flights-2025-10"
  },
  "bbox": [
    -122.29777777777778,
    37.49194444444444,
    -81.73472222222222,
    44.56388888888888
  ],
  "geometry": {"coordinates":[[-81.73472222222222,44.32972222222222],[-81.73472222222222,44.32972222222222],[-81.73472222222222,44.32972222222222],[-81.73472222222222,44.32972222222222],[-83.17166666666667,44.50694444444444],[-83.17166666666667,44.50694444444444],[-83.8275,44.52583333333333],[-83.8275,44.52583333333333],[-83.8275,44.52583333333333],[-83.8275,44.52583333333333],[-84.15805555555556,44.53361111111111],[-84.15805555555556,44.53361111111111],[-84.32472222222222,44.5375],[-84.32472222222222,44.5375],[-84.32472222222222,44.5375],[-84.48722222222223,44.54083333333333],[-84.48722222222223,44.54083333333333],[-86.39777777777779,44.56305555555555],[-86.39777777777779,44.56305555555555],[-86.39777777777779,44.56305555555555],[-86.55666666666666,44.56361111111111],[-86.55666666666666,44.56361111111111],[-86.87555555555555,44.56388888888888],[-86.87555555555555,44.56388888888888],[-86.87555555555555,44.56388888888888],[-86.87555555555555,44.56388888888888],[-87.35111111111111,44.5625],[-88.14472222222223,44.55583333333333],[-88.62388888888889,44.52583333333333],[-88.62388888888889,44.52583333333333],[-88.78333333333333,44.51444444444444],[-88.78333333333333,44.51444444444444],[-88.97888888888889,44.500277777777775],[-88.97888888888889,44.500277777777775],[-89.30166666666666,44.475833333333334],[-89.30166666666666,44.475833333333334],[-89.30166666666666,44.475833333333334],[-89.30166666666666,44.475833333333334],[-89.95111111111112,44.42444444444444],[-89.95111111111112,44.42444444444444],[-90.27944444444444,44.39666666666667],[-90.44444444444444,44.382777777777775],[-90.77222222222223,44.353611111111114],[-90.77222222222223,44.353611111111114],[-90.77222222222223,44.353611111111114],[-91.09777777777778,44.32416666666667],[-91.59083333333332,44.27722222222222],[-91.9238888888889,44.24444444444445],[-91.9238888888889,44.24444444444445],[-92.09138888888889,44.2275],[-92.09138888888889,44.2275],[-92.76472222222222,44.15694444444444],[-92.76472222222222,44.15694444444444],[-92.93194444444445,44.138888888888886],[-92.93194444444445,44.138888888888886],[-92.93194444444445,44.138888888888886],[-93.59916666666666,44.06388888888888],[-93.59916666666666,44.06388888888888],[-95.22694444444444,43.86361111111111],[-95.22694444444444,43.86361111111111],[-96.0675,43.75055555555556],[-96.0675,43.75055555555556],[-96.0675,43.75055555555556],[-96.2363888888889,43.727222222222224],[-96.2363888888889,43.727222222222224],[-96.2363888888889,43.727222222222224],[-96.9113888888889,43.634166666666665],[-96.9113888888889,43.634166666666665],[-96.9113888888889,43.634166666666665],[-97.41305555555556,43.57361111111111],[-97.41305555555556,43.57361111111111],[-97.41305555555556,43.57361111111111],[-98.84722222222221,43.403888888888886],[-98.84722222222221,43.403888888888886],[-99.58083333333333,43.316944444444445],[-99.67777777777778,43.30361111111111],[-99.67777777777778,43.30361111111111],[-99.87972222222221,43.28],[-99.87972222222221,43.28],[-99.87972222222221,43.28],[-99.87972222222221,43.28],[-100.31583333333333,43.21222222222222],[-100.31583333333333,43.21222222222222],[-100.38166666666666,43.200833333333335],[-100.48277777777778,43.18277777777777],[-100.48277777777778,43.18277777777777],[-100.48277777777778,43.18277777777777],[-100.49527777777777,43.17833333333333],[-100.83111111111111,43.11833333333333],[-101.17,43.05694444444444],[-101.17,43.05694444444444],[-101.22944444444444,43.04805555555556],[-101.56972222222223,42.985],[-101.56972222222223,42.985],[-101.91333333333334,42.919999999999995],[-101.91333333333334,42.919999999999995],[-102.02666666666667,42.89416666666666],[-102.20027777777779,42.86138888888889],[-102.20027777777779,42.86138888888889],[-102.37388888888889,42.83111111111111],[-102.37388888888889,42.83111111111111],[-102.54777777777778,42.79694444444444],[-102.54777777777778,42.79694444444444],[-103.06777777777778,42.69305555555555],[-103.06777777777778,42.69305555555555],[-103.23916666666666,42.658055555555556],[-103.23916666666666,42.658055555555556],[-103.41027777777778,42.62305555555555],[-103.92500000000001,42.515277777777776],[-104.09472222222222,42.471111111111114],[-104.26416666666667,42.41611111111111],[-104.26416666666667,42.41611111111111],[-104.26416666666667,42.41611111111111],[-104.26194444444444,42.41583333333333],[-104.26194444444444,42.41583333333333],[-104.26194444444444,42.41583333333333],[-104.935,42.19972222222222],[-105.26611111111112,42.091944444444444],[-105.26611111111112,42.091944444444444],[-105.39944444444446,42.04805555555556],[-105.39944444444446,42.04805555555556],[-105.39944444444446,42.04805555555556],[-105.59833333333333,41.98027777777778],[-105.76416666666667,41.92583333333333],[-105.76416666666667,41.92583333333333],[-105.89777777777779,41.88138888888889],[-105.89777777777779,41.88138888888889],[-105.93083333333334,41.87027777777778],[-106.58138888888888,41.621944444444445],[-106.58138888888888,41.621944444444445],[-106.58138888888888,41.621944444444445],[-106.58138888888888,41.621944444444445],[-107.22222222222223,41.368611111111115],[-107.22222222222223,41.368611111111115],[-107.38666666666667,41.30277777777778],[-107.54694444444445,41.238055555555555],[-107.7088888888889,41.1725],[-107.71166666666667,41.171388888888885],[-107.71166666666667,41.171388888888885],[-107.87194444444444,41.10611111111111],[-107.87194444444444,41.10611111111111],[-107.87194444444444,41.10611111111111],[-107.87194444444444,41.10611111111111],[-107.87194444444444,41.10611111111111],[-108.03333333333333,41.04],[-108.19527777777778,40.973055555555554],[-108.19527777777778,40.973055555555554],[-108.35638888888889,40.906388888888884],[-108.51666666666667,40.84],[-108.51666666666667,40.84],[-108.51666666666667,40.84],[-108.67722222222223,40.7725],[-108.67722222222223,40.7725],[-108.83,40.708333333333336],[-108.83,40.708333333333336],[-108.99055555555556,40.640277777777776],[-108.99055555555556,40.640277777777776],[-109.14888888888889,40.573055555555555],[-109.46638888888889,40.43694444444444],[-109.46638888888889,40.43694444444444],[-109.46944444444445,40.43555555555555],[-109.6261111111111,40.367777777777775],[-109.6261111111111,40.367777777777775],[-109.6261111111111,40.367777777777775],[-109.6261111111111,40.367777777777775],[-110.30027777777778,40.08972222222222],[-110.30027777777778,40.08972222222222],[-110.30027777777778,40.08972222222222],[-110.30027777777778,40.08972222222222],[-110.30027777777778,40.08972222222222],[-110.75888888888889,39.93083333333333],[-110.75888888888889,39.93083333333333],[-110.95472222222223,39.86222222222222],[-111.28388888888888,39.74583333333334],[-112.40416666666667,39.33972222222222],[-112.40416666666667,39.33972222222222],[-112.40416666666667,39.33972222222222],[-112.90111111111112,39.21277777777778],[-112.90111111111112,39.21277777777778],[-113.23527777777778,39.13611111111111],[-113.23527777777778,39.13611111111111],[-113.39972222222222,39.09805555555556],[-113.39972222222222,39.09805555555556],[-113.89527777777778,38.981388888888894],[-113.89527777777778,38.981388888888894],[-113.89527777777778,38.981388888888894],[-113.89527777777778,38.981388888888894],[-114.39361111111111,38.86138888888889],[-114.39361111111111,38.86138888888889],[-114.39361111111111,38.86138888888889],[-114.39361111111111,38.86138888888889],[-115.04888888888888,38.7],[-115.04888888888888,38.7],[-115.215,38.65833333333333],[-115.215,38.65833333333333],[-115.215,38.65833333333333],[-115.215,38.65833333333333],[-115.69472222222223,38.53666666666666],[-115.69472222222223,38.53666666666666],[-115.85472222222222,38.495555555555555],[-115.85472222222222,38.495555555555555],[-116.81388888888888,38.24305555555556],[-116.81388888888888,38.24305555555556],[-116.81388888888888,38.24305555555556],[-117.22944444444444,38.13055555555555],[-117.4538888888889,38.077222222222225],[-117.4538888888889,38.077222222222225],[-117.51555555555555,38.062777777777775],[-117.60694444444444,38.04138888888889],[-117.60694444444444,38.04138888888889],[-117.60694444444444,38.04138888888889],[-117.60694444444444,38.04138888888889],[-118.205,37.95722222222223],[-118.205,37.95722222222223],[-118.45916666666668,37.92972222222222],[-118.45916666666668,37.92972222222222],[-118.45916666666668,37.92972222222222],[-118.61694444444444,37.91222222222222],[-118.61694444444444,37.91222222222222],[-118.93611111111112,37.87638888888889],[-118.93611111111112,37.87638888888889],[-119.43722222222223,37.81805555555556],[-119.43722222222223,37.81805555555556],[-120.06805555555555,37.74138888888889],[-120.22,37.72222222222222],[-120.22,37.72222222222222],[-120.22,37.72222222222222],[-120.58333333333333,37.68333333333333],[-120.58333333333333,37.68333333333333],[-120.58333333333333,37.68333333333333],[-120.58333333333333,37.68333333333333],[-120.58333333333333,37.68333333333333],[-120.85,37.65],[-121.28611111111111,37.58972222222222],[-121.28611111111111,37.58972222222222],[-121.28611111111111,37.58972222222222],[-121.28611111111111,37.58972222222222],[-121.28611111111111,37.58972222222222],[-121.28611111111111,37.58972222222222],[-121.51777777777778,37.56361111111111],[-121.51777777777778,37.56361111111111],[-121.89500000000001,37.49194444444444],[-121.89500000000001,37.49194444444444],[-121.89500000000001,37.49194444444444],[-121.89500000000001,37.49194444444444],[-121.93333333333334,37.5],[-121.93333333333334,37.5],[-121.98277777777778,37.496944444444445],[-121.98277777777778,37.496944444444445],[-122.19388888888889,37.544444444444444],[-122.19388888888889,37.544444444444444],[-122.19388888888889,37.544444444444444],[-122.19388888888889,37.544444444444444],[-122.19388888888889,37.544444444444444],[-122.24916666666667,37.56805555555556],[-122.29777777777778,37.58861111111111],[-122.29777777777778,37.58861111111111]],"type":"LineString"}
}
