{
  "id": 1981788367,
  "type": "Feature",
  "properties": {
    "geom:area": 0,
    "geom:bbox": "-122.380000,37.490000,-70.800000,43.860000",
    "geom:latitude": 42.10990760437377,
    "geom:longitude": -96.63556876141948,
    "src:alt_label": "swim-route",
    "src:geom": "swim",
    "swim:geom": "route",
    "wof:geomhash": "8ab7904b21e5be7b9e1ee64c9ac799e7",
    "wof:id": 1981788367,
    "wof:repo": "sfomuseum-data-flights-2025-10"
  },
  "bbox": [
    -122.38,
    37.49,
    -70.8,
    43.86
  ],
  "geometry": {"coordinates":[[-71.01,42.36],[-70.98,42.41],[-70.98,42.42],[-70.97,42.44],[-70.96,42.44],[-70.95,42.44],[-70.93,42.45],[-70.92,42.45],[-70.86,42.46],[-70.85,42.46],[-70.85,42.46],[-70.8,42.51],[-70.81,42.55],[-70.83,42.58],[-71.05,42.68],[-71.15,42.72],[-71.2,42.75],[-71.28,42.78],[-71.37,42.8],[-71.45,42.82],[-71.82,42.89],[-71.9,42.9],[-74.35,43.35],[-76.12,43.64],[-76.72,43.73],[-76.72,43.73],[-78.72,43.69],[-78.86,43.68],[-79.04,43.67],[-79.35,43.65],[-80.23,43.68],[-81.05,43.7],[-82.14,43.72],[-82.14,43.72],[-82.15,43.72],[-82.82,43.68],[-84.94,43.45],[-85,43.45],[-87,43.49],[-88,43.5],[-90.83,43.62],[-91.52,43.64],[-92.09,43.65],[-92.95,43.67],[-93.81,43.67],[-94.45,43.68],[-96.37,43.66],[-96.78,43.65],[-98.38,43.77],[-99.99,43.86],[-101.14,43.62],[-101.65,43.52],[-105.2,42.68],[-105.23,42.68],[-105.72,42.44],[-107.68,41.46],[-109.11,40.71],[-109.49,40.5],[-109.86,40.3],[-110.13,40.15],[-110.25,40.11],[-111.75,39.58],[-112.51,39.3],[-113.32,39.12],[-117.27,38.14],[-117.77,38],[-118.76,37.9],[-119.1,37.86],[-119.82,37.77],[-119.92,37.76],[-120.02,37.75],[-120.31,37.71],[-120.4,37.7],[-120.4,37.7],[-120.57,37.68],[-120.69,37.67],[-120.75,37.66],[-120.79,37.65],[-120.8,37.65],[-120.96,37.63],[-121,37.63],[-121.01,37.63],[-121.07,37.62],[-121.17,37.61],[-121.26,37.59],[-121.39,37.58],[-121.41,37.58],[-121.6,37.55],[-121.61,37.55],[-121.62,37.55],[-121.72,37.53],[-121.8,37.51],[-121.88,37.49],[-121.89,37.49],[-122.01,37.53],[-122.08,37.54],[-122.18,37.57],[-122.18,37.57],[-122.28,37.59],[-122.33,37.61],[-122.36,37.61],[-122.38,37.62]],"type":"LineString"}
}
