{
  "id": 1981794099,
  "type": "Feature",
  "properties": {
    "geom:area": 0,
    "geom:bbox": "-122.341111,35.636944,-81.662500,39.302222",
    "geom:latitude": 38.41918227133572,
    "geom:longitude": -101.7645360092725,
    "src:alt_label": "swim-path",
    "src:geom": "swim",
    "swim:altitudes": [
      "178",
      "178",
      "178",
      "190",
      "190",
      "190",
      "190",
      "200",
      "200",
      "200",
      "226",
      "226",
      "226",
      "226",
      "226",
      "226",
      "258",
      "258",
      "258",
      "258",
      "295",
      "295",
      "312",
      "312",
      "312",
      "312",
      "312",
      "312",
      "320C",
      "320C",
      "320C",
      "320C",
      "320C",
      "320C",
      "320C",
      "320C",
      "320C",
      "320C",
      "320C",
      "320C",
      "320C",
      "320C",
      "320C",
      "320C",
      "320C",
      "320C",
      "320C",
      "320C",
      "320C",
      "320C",
      "321C",
      "320C",
      "320C",
      "320C",
      "327",
      "327",
      "327",
      "327",
      "327",
      "329",
      "329",
      "329",
      "335",
      "337",
      "337",
      "340C",
      "340C",
      "340C",
      "340C",
      "340C",
      "340C",
      "340C",
      "340C",
      "340C",
      "340C",
      "340C",
      "340C",
      "340C",
      "340C",
      "340C",
      "340C",
      "340C",
      "340C",
      "340C",
      "340C",
      "340C",
      "340C",
      "340C",
      "340C",
      "340C",
      "340C",
      "340C",
      "340C",
      "340C",
      "340C",
      "340C",
      "340C",
      "340C",
      "340C",
      "340C",
      "340C",
      "340C",
      "340C",
      "340C",
      "340C",
      "340C",
      "340C",
      "340C",
      "340C",
      "340C",
      "340C",
      "340C",
      "340C",
      "340C",
      "340C",
      "340C",
      "340C",
      "340C",
      "340C",
      "340C",
      "340C",
      "340C",
      "340C",
      "340C",
      "340C",
      "340C",
      "340C",
      "340C",
      "340C",
      "340C",
      "340C",
      "340C",
      "340C",
      "340C",
      "340C",
      "340C",
      "340C",
      "340C",
      "340C",
      "340C",
      "340C",
      "340C",
      "340C",
      "340C",
      "340C",
      "340C",
      "340C",
      "340C",
      "340C",
      "340C",
      "340C",
      "340C",
      "340C",
      "340C",
      "340C",
      "340C",
      "340C",
      "340C",
      "340C",
      "340C",
      "340C",
      "340C",
      "340C",
      "340C",
      "340C",
      "340C",
      "340C",
      "340C",
      "340C",
      "340C",
      "340C",
      "341C",
      "340C",
      "340C",
      "340C",
      "340C",
      "340C",
      "340C",
      "340C",
      "340C",
      "340C",
      "340C",
      "340C",
      "340C",
      "340C",
      "340C",
      "340C",
      "340C",
      "340C",
      "340C",
      "340C",
      "340C",
      "340C",
      "340C",
      "340C",
      "340C",
      "340C",
      "340C",
      "340C",
      "340C",
      "340C",
      "340C",
      "340C",
      "340C",
      "340C",
      "340C",
      "340C",
      "340C",
      "340C",
      "340C",
      "340C",
      "340C",
      "340C",
      "340C",
      "340C",
      "340C",
      "340C",
      "340C",
      "340C",
      "340C",
      "340C",
      "340C",
      "340C",
      "340C",
      "340C",
      "340C",
      "340C",
      "340C",
      "340C",
      "340C",
      "340C",
      "340C",
      "340C",
      "340C",
      "340C",
      "340C",
      "340C",
      "340C",
      "340C",
      "340C",
      "340C",
      "340C",
      "340C",
      "340C",
      "340C",
      "340C",
      "340C",
      "340C",
      "340C",
      "340C",
      "340C",
      "340C",
      "340C",
      "340C",
      "340C",
      "340C",
      "340C",
      "340C",
      "340C",
      "340C",
      "340C",
      "340C",
      "340C",
      "340C",
      "340C",
      "340C",
      "340C",
      "340C",
      "340C",
      "340C",
      "340C",
      "340C",
      "340C",
      "340C",
      "340C",
      "340C",
      "340C",
      "340C",
      "340C",
      "340C",
      "340C",
      "340C",
      "340C",
      "340C",
      "340C",
      "340C",
      "340C",
      "340C",
      "341C",
      "341C",
      "341C",
      "340C",
      "340C",
      "340C",
      "340C",
      "340C",
      "340C",
      "340C",
      "340C",
      "340C",
      "340C",
      "340C",
      "340C",
      "340C",
      "340C",
      "340C",
      "340C",
      "340C",
      "340C",
      "340C",
      "340C",
      "340C",
      "340C",
      "340C",
      "340C",
      "340C",
      "340C",
      "340C",
      "340C",
      "340C",
      "340C",
      "340C",
      "340C",
      "340C",
      "340C",
      "340C",
      "340C",
      "340C",
      "340C",
      "340C",
      "340C",
      "340C",
      "340C",
      "340C",
      "340C",
      "340C",
      "340C",
      "340C",
      "340C",
      "341C",
      "340C",
      "340C",
      "340C",
      "340C",
      "340C",
      "340C",
      "340C",
      "340C",
      "340C",
      "340C",
      "340C",
      "340C",
      "340",
      "340",
      "340",
      "340",
      "340",
      "311",
      "311",
      "311",
      "311",
      "285",
      "267",
      "262",
      "220",
      "220",
      "220",
      "199",
      "199",
      "178",
      "178",
      "178",
      "159",
      "149",
      "149",
      "131",
      "131",
      "130",
      "130",
      "099",
      "099",
      "086",
      "086",
      "076",
      "076",
      "076",
      "065",
      "049",
      "049",
      "049",
      "049",
      "018",
      "009",
      "009",
      "009",
      "004",
      "004",
      "004",
      "004",
      "004",
      "003",
      "003"
    ],
    "swim:geom": "path",
    "swim:speeds": [
      352,
      352,
      352,
      377,
      377,
      377,
      377,
      397,
      397,
      397,
      458,
      458,
      458,
      458,
      458,
      458,
      475,
      475,
      475,
      475,
      466,
      466,
      469,
      469,
      469,
      469,
      469,
      469,
      479,
      479,
      479,
      479,
      479,
      493,
      493,
      493,
      493,
      493,
      466,
      466,
      466,
      466,
      466,
      466,
      466,
      466,
      466,
      468,
      468,
      468,
      476,
      477,
      477,
      473,
      472,
      472,
      472,
      472,
      472,
      470,
      470,
      470,
      469,
      470,
      470,
      474,
      474,
      476,
      476,
      476,
      476,
      476,
      475,
      475,
      475,
      474,
      474,
      475,
      475,
      474,
      474,
      474,
      473,
      473,
      473,
      472,
      472,
      472,
      469,
      469,
      469,
      466,
      466,
      466,
      466,
      457,
      457,
      457,
      457,
      457,
      457,
      457,
      448,
      448,
      448,
      448,
      447,
      447,
      448,
      448,
      448,
      448,
      448,
      448,
      448,
      438,
      438,
      437,
      437,
      437,
      437,
      436,
      436,
      436,
      436,
      438,
      438,
      439,
      439,
      438,
      438,
      437,
      437,
      437,
      437,
      437,
      437,
      436,
      436,
      436,
      436,
      436,
      433,
      433,
      434,
      434,
      434,
      434,
      434,
      434,
      435,
      435,
      435,
      436,
      436,
      435,
      435,
      434,
      434,
      434,
      434,
      428,
      428,
      425,
      425,
      425,
      425,
      425,
      426,
      426,
      426,
      430,
      429,
      429,
      429,
      428,
      428,
      428,
      420,
      420,
      420,
      420,
      420,
      420,
      420,
      420,
      420,
      420,
      420,
      420,
      420,
      420,
      420,
      416,
      416,
      416,
      416,
      414,
      415,
      415,
      415,
      415,
      414,
      412,
      412,
      414,
      414,
      414,
      414,
      414,
      414,
      414,
      414,
      415,
      415,
      414,
      414,
      417,
      417,
      419,
      419,
      419,
      419,
      415,
      414,
      414,
      415,
      417,
      417,
      417,
      417,
      417,
      419,
      419,
      417,
      417,
      417,
      417,
      418,
      418,
      418,
      417,
      417,
      417,
      417,
      417,
      418,
      418,
      418,
      419,
      419,
      418,
      418,
      417,
      417,
      417,
      417,
      418,
      418,
      418,
      418,
      418,
      418,
      417,
      417,
      417,
      416,
      416,
      416,
      416,
      417,
      417,
      420,
      420,
      420,
      425,
      425,
      424,
      424,
      424,
      424,
      424,
      424,
      424,
      428,
      428,
      428,
      428,
      430,
      430,
      430,
      425,
      425,
      425,
      426,
      426,
      426,
      422,
      422,
      422,
      420,
      420,
      418,
      418,
      418,
      418,
      416,
      416,
      417,
      421,
      421,
      421,
      418,
      421,
      421,
      421,
      421,
      421,
      420,
      420,
      420,
      420,
      420,
      421,
      421,
      420,
      420,
      420,
      420,
      420,
      420,
      420,
      420,
      422,
      422,
      424,
      424,
      424,
      424,
      426,
      425,
      425,
      422,
      422,
      422,
      423,
      423,
      423,
      422,
      422,
      422,
      422,
      422,
      422,
      422,
      422,
      422,
      426,
      426,
      426,
      426,
      427,
      414,
      414,
      385,
      385,
      385,
      378,
      378,
      372,
      372,
      372,
      364,
      322,
      322,
      312,
      312,
      314,
      314,
      299,
      299,
      292,
      292,
      266,
      266,
      266,
      255,
      221,
      221,
      221,
      221,
      158,
      146,
      146,
      149,
      143,
      143,
      143,
      143,
      143,
      144,
      144
    ],
    "swim:timestamps": [
      1761777928,
      1761777928,
      1761777928,
      1761777988,
      1761777988,
      1761777988,
      1761777988,
      1761778048,
      1761778048,
      1761778048,
      1761778168,
      1761778168,
      1761778168,
      1761778168,
      1761778168,
      1761778168,
      1761778349,
      1761778349,
      1761778349,
      1761778349,
      1761778648,
      1761778648,
      1761778769,
      1761778769,
      1761778769,
      1761778769,
      1761778769,
      1761778769,
      1761778949,
      1761778949,
      1761778949,
      1761778949,
      1761778949,
      1761779222,
      1761779222,
      1761779222,
      1761779222,
      1761779222,
      1761779462,
      1761779462,
      1761779462,
      1761779462,
      1761779550,
      1761779550,
      1761779550,
      1761779550,
      1761779550,
      1761779642,
      1761779642,
      1761779642,
      1761779702,
      1761779823,
      1761779823,
      1761779910,
      1761780003,
      1761780003,
      1761780003,
      1761780003,
      1761780003,
      1761780030,
      1761780030,
      1761780030,
      1761780091,
      1761780123,
      1761780123,
      1761780211,
      1761780211,
      1761780243,
      1761780243,
      1761780271,
      1761780271,
      1761780271,
      1761780424,
      1761780424,
      1761780424,
      1761780571,
      1761780571,
      1761780604,
      1761780604,
      1761780631,
      1761780631,
      1761780631,
      1761780664,
      1761780664,
      1761780664,
      1761780724,
      1761780724,
      1761780724,
      1761780992,
      1761780992,
      1761780992,
      1761781085,
      1761781085,
      1761781085,
      1761781085,
      1761781745,
      1761781745,
      1761781745,
      1761781745,
      1761781745,
      1761781745,
      1761781745,
      1761781986,
      1761781986,
      1761781986,
      1761781986,
      1761782046,
      1761782046,
      1761782286,
      1761782286,
      1761782286,
      1761782286,
      1761782286,
      1761782286,
      1761782286,
      1761782827,
      1761782827,
      1761782947,
      1761782947,
      1761782947,
      1761782947,
      1761783007,
      1761783007,
      1761783007,
      1761783007,
      1761783368,
      1761783368,
      1761783428,
      1761783428,
      1761783488,
      1761783488,
      1761783668,
      1761783668,
      1761783668,
      1761783668,
      1761783668,
      1761783668,
      1761783789,
      1761783789,
      1761783789,
      1761783789,
      1761783789,
      1761784374,
      1761784374,
      1761784435,
      1761784435,
      1761784435,
      1761784435,
      1761784435,
      1761784435,
      1761784615,
      1761784615,
      1761784615,
      1761784870,
      1761784870,
      1761784930,
      1761784930,
      1761784990,
      1761784990,
      1761784990,
      1761784990,
      1761785095,
      1761785095,
      1761785336,
      1761785336,
      1761785336,
      1761785336,
      1761785336,
      1761785351,
      1761785351,
      1761785351,
      1761785516,
      1761785576,
      1761785576,
      1761785576,
      1761785636,
      1761785636,
      1761785636,
      1761785937,
      1761785937,
      1761785937,
      1761786117,
      1761786117,
      1761786177,
      1761786177,
      1761786177,
      1761786177,
      1761786297,
      1761786297,
      1761786297,
      1761786297,
      1761786297,
      1761786297,
      1761786718,
      1761786718,
      1761786718,
      1761786718,
      1761786838,
      1761786898,
      1761786898,
      1761786898,
      1761786898,
      1761787230,
      1761787258,
      1761787258,
      1761787290,
      1761787290,
      1761787351,
      1761787411,
      1761787411,
      1761787439,
      1761787471,
      1761787499,
      1761787559,
      1761787559,
      1761787619,
      1761787739,
      1761787859,
      1761787859,
      1761787951,
      1761787951,
      1761787951,
      1761787951,
      1761788132,
      1761788160,
      1761788160,
      1761788220,
      1761788340,
      1761788340,
      1761788340,
      1761788492,
      1761788492,
      1761788520,
      1761788520,
      1761788552,
      1761788552,
      1761788552,
      1761788672,
      1761788760,
      1761788760,
      1761788760,
      1761788793,
      1761788820,
      1761788820,
      1761788820,
      1761789001,
      1761789033,
      1761789033,
      1761789033,
      1761789093,
      1761789093,
      1761789214,
      1761789214,
      1761789274,
      1761789334,
      1761789334,
      1761789334,
      1761789394,
      1761789394,
      1761789394,
      1761789481,
      1761789481,
      1761789481,
      1761789574,
      1761789574,
      1761789574,
      1761789695,
      1761789695,
      1761789755,
      1761789755,
      1761789876,
      1761789876,
      1761789996,
      1761789996,
      1761789996,
      1761790116,
      1761790116,
      1761790297,
      1761790297,
      1761790297,
      1761790297,
      1761790297,
      1761790357,
      1761790357,
      1761790597,
      1761790597,
      1761790597,
      1761790597,
      1761790654,
      1761790654,
      1761790654,
      1761790774,
      1761790774,
      1761790774,
      1761790955,
      1761790955,
      1761790955,
      1761791136,
      1761791136,
      1761791136,
      1761791196,
      1761791196,
      1761791256,
      1761791256,
      1761791256,
      1761791256,
      1761791316,
      1761791376,
      1761791436,
      1761791478,
      1761791478,
      1761791478,
      1761791496,
      1761791538,
      1761791538,
      1761791659,
      1761791659,
      1761791659,
      1761791677,
      1761791677,
      1761791677,
      1761791797,
      1761791797,
      1761791839,
      1761791839,
      1761791977,
      1761791977,
      1761791977,
      1761791977,
      1761791977,
      1761792037,
      1761792079,
      1761792079,
      1761792338,
      1761792338,
      1761792398,
      1761792398,
      1761792398,
      1761792398,
      1761792499,
      1761792578,
      1761792578,
      1761792800,
      1761792800,
      1761792800,
      1761792920,
      1761792920,
      1761793040,
      1761793160,
      1761793160,
      1761793160,
      1761793160,
      1761793340,
      1761793340,
      1761793340,
      1761793340,
      1761793400,
      1761793520,
      1761793520,
      1761793520,
      1761793520,
      1761793580,
      1761793619,
      1761793632,
      1761793761,
      1761793761,
      1761793761,
      1761793821,
      1761793821,
      1761793881,
      1761793881,
      1761793881,
      1761793941,
      1761794001,
      1761794001,
      1761794052,
      1761794052,
      1761794061,
      1761794061,
      1761794181,
      1761794181,
      1761794241,
      1761794241,
      1761794301,
      1761794301,
      1761794301,
      1761794361,
      1761794481,
      1761794481,
      1761794481,
      1761794481,
      1761794661,
      1761794712,
      1761794712,
      1761794721,
      1761794772,
      1761794772,
      1761794772,
      1761794772,
      1761794772,
      1761794782,
      1761794782
    ],
    "wof:geomhash": "5944e2f49df5203181a7b8efec0d90fc",
    "wof:id": 1981794099,
    "wof:repo": "sfomuseum-data-flights-2025-10"
  },
  "bbox": [
    -122.3411111111111,
    35.636944444444445,
    -81.66250000000001,
    39.30222222222222
  ],
  "geometry": {"coordinates":[[-81.66250000000001,35.636944444444445],[-81.66250000000001,35.636944444444445],[-81.66250000000001,35.636944444444445],[-81.77444444444444,35.68527777777778],[-81.77444444444444,35.68527777777778],[-81.77444444444444,35.68527777777778],[-81.77444444444444,35.68527777777778],[-81.89277777777778,35.73638888888889],[-81.89277777777778,35.73638888888889],[-81.89277777777778,35.73638888888889],[-82.08944444444444,35.92611111111111],[-82.08944444444444,35.92611111111111],[-82.08944444444444,35.92611111111111],[-82.08944444444444,35.92611111111111],[-82.08944444444444,35.92611111111111],[-82.08944444444444,35.92611111111111],[-82.40555555555557,36.25611111111111],[-82.40555555555557,36.25611111111111],[-82.40555555555557,36.25611111111111],[-82.40555555555557,36.25611111111111],[-82.99083333333333,36.657222222222224],[-82.99083333333333,36.657222222222224],[-83.25694444444444,36.811388888888885],[-83.25694444444444,36.811388888888885],[-83.25694444444444,36.811388888888885],[-83.25694444444444,36.811388888888885],[-83.25694444444444,36.811388888888885],[-83.25694444444444,36.811388888888885],[-83.66416666666667,37.04472222222222],[-83.66416666666667,37.04472222222222],[-83.66416666666667,37.04472222222222],[-83.66416666666667,37.04472222222222],[-83.66416666666667,37.04472222222222],[-84.28527777777778,37.39611111111111],[-84.28527777777778,37.39611111111111],[-84.28527777777778,37.39611111111111],[-84.28527777777778,37.39611111111111],[-84.28527777777778,37.39611111111111],[-84.8938888888889,37.57972222222222],[-84.8938888888889,37.57972222222222],[-84.8938888888889,37.57972222222222],[-84.8938888888889,37.57972222222222],[-85.13527777777779,37.63055555555555],[-85.13527777777779,37.63055555555555],[-85.13527777777779,37.63055555555555],[-85.13527777777779,37.63055555555555],[-85.13527777777779,37.63055555555555],[-85.37305555555555,37.68333333333333],[-85.37305555555555,37.68333333333333],[-85.37305555555555,37.68333333333333],[-85.53694444444444,37.717222222222226],[-85.8611111111111,37.78611111111111],[-85.8611111111111,37.78611111111111],[-86.11916666666666,37.84027777777778],[-86.3425,37.88583333333333],[-86.3425,37.88583333333333],[-86.3425,37.88583333333333],[-86.3425,37.88583333333333],[-86.3425,37.88583333333333],[-86.40527777777778,37.89972222222222],[-86.40527777777778,37.89972222222222],[-86.40527777777778,37.89972222222222],[-86.56611111111111,37.9325],[-86.66361111111112,37.9525],[-86.66361111111112,37.9525],[-86.89277777777778,37.998333333333335],[-86.89277777777778,37.998333333333335],[-86.98972222222223,38.01777777777777],[-86.98972222222223,38.01777777777777],[-87.05694444444444,38.03111111111111],[-87.05694444444444,38.03111111111111],[-87.05694444444444,38.03111111111111],[-87.48666666666666,38.11611111111111],[-87.48666666666666,38.11611111111111],[-87.48666666666666,38.11611111111111],[-87.87972222222221,38.19194444444444],[-87.87972222222221,38.19194444444444],[-87.97694444444444,38.21055555555556],[-87.97694444444444,38.21055555555556],[-88.04083333333332,38.22277777777778],[-88.04083333333332,38.22277777777778],[-88.04083333333332,38.22277777777778],[-88.13666666666667,38.24111111111111],[-88.13666666666667,38.24111111111111],[-88.13666666666667,38.24111111111111],[-88.30333333333333,38.2725],[-88.30333333333333,38.2725],[-88.30333333333333,38.2725],[-89,38.400555555555556],[-89,38.400555555555556],[-89,38.400555555555556],[-89.2713888888889,38.44916666666666],[-89.2713888888889,38.44916666666666],[-89.2713888888889,38.44916666666666],[-89.2713888888889,38.44916666666666],[-91.01333333333334,38.74583333333334],[-91.01333333333334,38.74583333333334],[-91.01333333333334,38.74583333333334],[-91.01333333333334,38.74583333333334],[-91.01333333333334,38.74583333333334],[-91.01333333333334,38.74583333333334],[-91.01333333333334,38.74583333333334],[-91.64055555555557,38.845555555555556],[-91.64055555555557,38.845555555555556],[-91.64055555555557,38.845555555555556],[-91.64055555555557,38.845555555555556],[-91.79555555555555,38.86972222222222],[-91.79555555555555,38.86972222222222],[-92.42111111111112,38.96472222222223],[-92.42111111111112,38.96472222222223],[-92.42111111111112,38.96472222222223],[-92.42111111111112,38.96472222222223],[-92.42111111111112,38.96472222222223],[-92.42111111111112,38.96472222222223],[-92.42111111111112,38.96472222222223],[-93.79916666666666,39.16138888888889],[-93.79916666666666,39.16138888888889],[-94.10749999999999,39.20333333333333],[-94.10749999999999,39.20333333333333],[-94.10749999999999,39.20333333333333],[-94.10749999999999,39.20333333333333],[-94.26027777777777,39.223333333333336],[-94.26027777777777,39.223333333333336],[-94.26027777777777,39.223333333333336],[-94.26027777777777,39.223333333333336],[-95.20583333333333,39.293055555555554],[-95.20583333333333,39.293055555555554],[-95.36,39.29527777777778],[-95.36,39.29527777777778],[-95.51944444444445,39.2975],[-95.51944444444445,39.2975],[-95.98472222222222,39.30222222222222],[-95.98472222222222,39.30222222222222],[-95.98472222222222,39.30222222222222],[-95.98472222222222,39.30222222222222],[-95.98472222222222,39.30222222222222],[-95.98472222222222,39.30222222222222],[-96.28361111111111,39.2925],[-96.28361111111111,39.2925],[-96.28361111111111,39.2925],[-96.28361111111111,39.2925],[-96.28361111111111,39.2925],[-97.8286111111111,39.154444444444444],[-97.8286111111111,39.154444444444444],[-97.98166666666667,39.13944444444444],[-97.98166666666667,39.13944444444444],[-97.98166666666667,39.13944444444444],[-97.98166666666667,39.13944444444444],[-97.98166666666667,39.13944444444444],[-97.98166666666667,39.13944444444444],[-98.44638888888889,39.093333333333334],[-98.44638888888889,39.093333333333334],[-98.44638888888889,39.093333333333334],[-99.06666666666666,39.02833333333333],[-99.06666666666666,39.02833333333333],[-99.21916666666667,39.011944444444445],[-99.21916666666667,39.011944444444445],[-99.37388888888889,38.995],[-99.37388888888889,38.995],[-99.37388888888889,38.995],[-99.37388888888889,38.995],[-99.67194444444445,38.969166666666666],[-99.67194444444445,38.969166666666666],[-100.27388888888889,38.93888888888888],[-100.27388888888889,38.93888888888888],[-100.27388888888889,38.93888888888888],[-100.27388888888889,38.93888888888888],[-100.27388888888889,38.93888888888888],[-100.30194444444444,38.9375],[-100.30194444444444,38.9375],[-100.30194444444444,38.9375],[-100.72944444444444,38.91416666666667],[-100.88277777777778,38.90555555555555],[-100.88277777777778,38.90555555555555],[-100.88277777777778,38.90555555555555],[-101.03138888888888,38.89694444444444],[-101.03138888888888,38.89694444444444],[-101.03138888888888,38.89694444444444],[-101.7786111111111,38.85111111111111],[-101.7786111111111,38.85111111111111],[-101.7786111111111,38.85111111111111],[-102.22500000000001,38.845],[-102.22500000000001,38.845],[-102.37333333333332,38.84277777777778],[-102.37333333333332,38.84277777777778],[-102.37333333333332,38.84277777777778],[-102.37333333333332,38.84277777777778],[-102.67305555555556,38.838055555555556],[-102.67305555555556,38.838055555555556],[-102.67305555555556,38.838055555555556],[-102.67305555555556,38.838055555555556],[-102.67305555555556,38.838055555555556],[-102.67305555555556,38.838055555555556],[-103.7075,38.82916666666667],[-103.7075,38.82916666666667],[-103.7075,38.82916666666667],[-103.7075,38.82916666666667],[-104.0111111111111,38.867777777777775],[-104.15611111111112,38.88611111111111],[-104.15611111111112,38.88611111111111],[-104.15611111111112,38.88611111111111],[-104.15611111111112,38.88611111111111],[-104.93833333333333,38.92222222222222],[-105.03333333333333,38.91888888888889],[-105.03333333333333,38.91888888888889],[-105.08388888888888,38.91305555555555],[-105.08388888888888,38.91305555555555],[-105.23,38.90333333333333],[-105.3775,38.8925],[-105.3775,38.8925],[-105.4738888888889,38.888888888888886],[-105.52416666666666,38.88333333333333],[-105.62249999999999,38.87833333333333],[-105.76916666666666,38.867777777777775],[-105.76916666666666,38.867777777777775],[-105.91444444444446,38.856944444444444],[-106.19388888888889,38.836111111111116],[-106.49,38.81305555555555],[-106.49,38.81305555555555],[-106.73277777777778,38.79222222222222],[-106.73277777777778,38.79222222222222],[-106.73277777777778,38.79222222222222],[-106.73277777777778,38.79222222222222],[-107.17361111111111,38.780833333333334],[-107.23111111111112,38.78138888888889],[-107.23111111111112,38.78138888888889],[-107.37888888888888,38.77722222222222],[-107.67583333333334,38.76861111111111],[-107.67583333333334,38.76861111111111],[-107.67583333333334,38.76861111111111],[-108.03666666666666,38.75611111111111],[-108.03666666666666,38.75611111111111],[-108.12444444444444,38.75416666666667],[-108.12444444444444,38.75416666666667],[-108.18555555555555,38.75111111111111],[-108.18555555555555,38.75111111111111],[-108.18555555555555,38.75111111111111],[-108.48333333333333,38.740833333333335],[-108.72,38.7325],[-108.72,38.7325],[-108.72,38.7325],[-108.80138888888888,38.72916666666667],[-108.86722222222221,38.72666666666667],[-108.86722222222221,38.72666666666667],[-108.86722222222221,38.72666666666667],[-109.3086111111111,38.68388888888889],[-109.36638888888888,38.672777777777775],[-109.36638888888888,38.672777777777775],[-109.36638888888888,38.672777777777775],[-109.51083333333334,38.64527777777778],[-109.51083333333334,38.64527777777778],[-109.80333333333333,38.609722222222224],[-109.80333333333333,38.609722222222224],[-109.95111111111112,38.603611111111114],[-110.09972222222221,38.59722222222222],[-110.09972222222221,38.59722222222222],[-110.09972222222221,38.59722222222222],[-110.24694444444445,38.59055555555556],[-110.24694444444445,38.59055555555556],[-110.24694444444445,38.59055555555556],[-110.48444444444445,38.57972222222222],[-110.48444444444445,38.57972222222222],[-110.48444444444445,38.57972222222222],[-110.68972222222223,38.57],[-110.68972222222223,38.57],[-110.68972222222223,38.57],[-111.00666666666666,38.55416666666667],[-111.00666666666666,38.55416666666667],[-111.15555555555557,38.54666666666667],[-111.15555555555557,38.54666666666667],[-111.45138888888889,38.53055555555555],[-111.45138888888889,38.53055555555555],[-111.74777777777778,38.513888888888886],[-111.74777777777778,38.513888888888886],[-111.74777777777778,38.513888888888886],[-112.04972222222221,38.49611111111111],[-112.04972222222221,38.49611111111111],[-112.50055555555555,38.46805555555556],[-112.50055555555555,38.46805555555556],[-112.50055555555555,38.46805555555556],[-112.50055555555555,38.46805555555556],[-112.50055555555555,38.46805555555556],[-112.64916666666667,38.458333333333336],[-112.64916666666667,38.458333333333336],[-113.2525,38.41722222222222],[-113.2525,38.41722222222222],[-113.2525,38.41722222222222],[-113.2525,38.41722222222222],[-113.38694444444445,38.4075],[-113.38694444444445,38.4075],[-113.38694444444445,38.4075],[-113.68444444444445,38.38583333333333],[-113.68444444444445,38.38583333333333],[-113.68444444444445,38.38583333333333],[-114.1261111111111,38.405],[-114.1261111111111,38.405],[-114.1261111111111,38.405],[-114.53888888888889,38.538888888888884],[-114.53888888888889,38.538888888888884],[-114.53888888888889,38.538888888888884],[-114.67527777777778,38.58277777777778],[-114.67527777777778,38.58277777777778],[-114.8125,38.6275],[-114.8125,38.6275],[-114.8125,38.6275],[-114.8125,38.6275],[-114.97055555555556,38.68],[-115.10555555555555,38.724444444444444],[-115.2525,38.71805555555556],[-115.33833333333332,38.700833333333335],[-115.33833333333332,38.700833333333335],[-115.33833333333332,38.700833333333335],[-115.36666666666666,38.69361111111111],[-115.4863888888889,38.668055555555554],[-115.4863888888889,38.668055555555554],[-115.775,38.60583333333334],[-115.775,38.60583333333334],[-115.775,38.60583333333334],[-115.80361111111111,38.59777777777778],[-115.80361111111111,38.59777777777778],[-115.80361111111111,38.59777777777778],[-116.09055555555555,38.53361111111111],[-116.09055555555555,38.53361111111111],[-116.20722222222223,38.507222222222225],[-116.20722222222223,38.507222222222225],[-116.52055555555556,38.43583333333333],[-116.52055555555556,38.43583333333333],[-116.52055555555556,38.43583333333333],[-116.52055555555556,38.43583333333333],[-116.52055555555556,38.43583333333333],[-116.66277777777778,38.403055555555554],[-116.77638888888889,38.376666666666665],[-116.77638888888889,38.376666666666665],[-117.4025,38.25194444444445],[-117.4025,38.25194444444445],[-117.54888888888888,38.22694444444445],[-117.54888888888888,38.22694444444445],[-117.54888888888888,38.22694444444445],[-117.54888888888888,38.22694444444445],[-117.78611111111111,38.18611111111111],[-117.9888888888889,38.150555555555556],[-117.9888888888889,38.150555555555556],[-118.51166666666667,38.0575],[-118.51166666666667,38.0575],[-118.51166666666667,38.0575],[-118.80222222222221,38.00472222222222],[-118.80222222222221,38.00472222222222],[-119.0925,37.95111111111111],[-119.37666666666667,37.89805555555556],[-119.37666666666667,37.89805555555556],[-119.37666666666667,37.89805555555556],[-119.37666666666667,37.89805555555556],[-119.80916666666667,37.815555555555555],[-119.80916666666667,37.815555555555555],[-119.80916666666667,37.815555555555555],[-119.80916666666667,37.815555555555555],[-119.9525,37.78777777777778],[-120.24527777777777,37.730555555555554],[-120.24527777777777,37.730555555555554],[-120.24527777777777,37.730555555555554],[-120.24527777777777,37.730555555555554],[-120.39055555555557,37.702222222222225],[-120.5,37.68333333333333],[-120.53333333333333,37.68333333333333],[-120.8111111111111,37.65138888888889],[-120.8111111111111,37.65138888888889],[-120.8111111111111,37.65138888888889],[-120.94,37.63583333333333],[-120.94,37.63583333333333],[-121.06916666666666,37.61888888888889],[-121.06916666666666,37.61888888888889],[-121.06916666666666,37.61888888888889],[-121.19722222222222,37.60166666666667],[-121.31694444444445,37.586111111111116],[-121.31694444444445,37.586111111111116],[-121.41666666666667,37.583333333333336],[-121.41666666666667,37.583333333333336],[-121.42583333333334,37.57416666666667],[-121.42583333333334,37.57416666666667],[-121.63361111111112,37.54888888888889],[-121.63361111111112,37.54888888888889],[-121.7325,37.525],[-121.7325,37.525],[-121.82111111111111,37.50388888888889],[-121.82111111111111,37.50388888888889],[-121.82111111111111,37.50388888888889],[-121.90944444444445,37.49194444444444],[-122.06361111111111,37.51916666666666],[-122.06361111111111,37.51916666666666],[-122.06361111111111,37.51916666666666],[-122.06361111111111,37.51916666666666],[-122.24722222222222,37.57833333333333],[-122.3,37.583333333333336],[-122.3,37.583333333333336],[-122.29583333333333,37.59138888888889],[-122.33333333333333,37.6],[-122.33333333333333,37.6],[-122.33333333333333,37.6],[-122.33333333333333,37.6],[-122.33333333333333,37.6],[-122.3411111111111,37.60666666666667],[-122.3411111111111,37.60666666666667]],"type":"LineString"}
}
