{
  "id": 1981699477,
  "type": "Feature",
  "properties": {
    "geom:area": 0,
    "geom:bbox": "-122.342460,37.491710,-121.284360,37.607430",
    "geom:latitude": 37.544330170974064,
    "geom:longitude": -121.81779721967231,
    "src:alt_label": "swim-approach",
    "src:geom": "swim",
    "swim:elevations": [
      5017,
      4814,
      4561,
      4329,
      4295,
      3978,
      3009,
      2640,
      2535,
      2438,
      2438,
      2411,
      2241,
      2156,
      1931,
      1746,
      1638,
      1391,
      1156,
      1055,
      846,
      717,
      672,
      549,
      415,
      308,
      213,
      99
    ],
    "swim:geom": "approach",
    "swim:timestamps": [
      1760797828,
      1760797854,
      1760797885,
      1760797915,
      1760797920,
      1760797953,
      1760798031,
      1760798060,
      1760798071,
      1760798097,
      1760798106,
      1760798144,
      1760798176,
      1760798196,
      1760798239,
      1760798266,
      1760798285,
      1760798316,
      1760798363,
      1760798381,
      1760798420,
      1760798454,
      1760798464,
      1760798501,
      1760798540,
      1760798565,
      1760798589,
      1760798616
    ],
    "wof:geomhash": "ee81ea73aa464673964eebec6f19bcd4",
    "wof:id": 1981699477,
    "wof:repo": "sfomuseum-data-flights-2025-10"
  },
  "bbox": [
    -122.34246,
    37.49171,
    -121.28436,
    37.60743
  ],
  "geometry": {"coordinates":[[-121.28436,37.59031],[-121.33258,37.58509],[-121.38934,37.5785],[-121.44416,37.57218],[-121.45328,37.57114],[-121.51252,37.56424],[-121.64697,37.54568],[-121.69413,37.53435],[-121.71154,37.53018],[-121.75337,37.52015],[-121.76729,37.51682],[-121.82515,37.50291],[-121.87,37.49246],[-121.89763,37.49171],[-121.9556,37.49309],[-121.99041,37.49636],[-122.01147,37.50266],[-122.04428,37.51317],[-122.09531,37.52965],[-122.11512,37.53602],[-122.15568,37.54917],[-122.19044,37.56052],[-122.20082,37.56386],[-122.2394,37.57629],[-122.27841,37.58836],[-122.29995,37.59466],[-122.32041,37.60069],[-122.34246,37.60743]],"type":"LineString"}
}
