{
  "id": 1981733405,
  "type": "Feature",
  "properties": {
    "geom:area": 0,
    "geom:bbox": "-122.279444,30.005833,-95.387500,38.519167",
    "geom:latitude": 35.93623076591795,
    "geom:longitude": -108.15846757809113,
    "src:alt_label": "swim-path",
    "src:geom": "swim",
    "swim:altitudes": [
      "040",
      "040",
      "040",
      "040",
      "040",
      "040",
      "040",
      "121",
      "121",
      "121",
      "121",
      "121",
      "121",
      "178",
      "178",
      "195",
      "195",
      "195",
      "195",
      "195",
      "195",
      "195",
      "195",
      "289",
      "289",
      "289",
      "294",
      "294",
      "294",
      "294",
      "294",
      "294",
      "294",
      "294",
      "350C",
      "350C",
      "350C",
      "350C",
      "350C",
      "350C",
      "350C",
      "350C",
      "350C",
      "350C",
      "350C",
      "350C",
      "350C",
      "350C",
      "350C",
      "350C",
      "350C",
      "350C",
      "350C",
      "350C",
      "350C",
      "350C",
      "350C",
      "350C",
      "350C",
      "350C",
      "350C",
      "350C",
      "350C",
      "350C",
      "350C",
      "350C",
      "350C",
      "350C",
      "350C",
      "350C",
      "350C",
      "350C",
      "350C",
      "350C",
      "350C",
      "350C",
      "350C",
      "350C",
      "350C",
      "350C",
      "350C",
      "350C",
      "350C",
      "350C",
      "350C",
      "350C",
      "350C",
      "350C",
      "350C",
      "350C",
      "350C",
      "350C",
      "350C",
      "350C",
      "350C",
      "350C",
      "350C",
      "350C",
      "350C",
      "350C",
      "350C",
      "350C",
      "350C",
      "350C",
      "350C",
      "350C",
      "350C",
      "350C",
      "350C",
      "350C",
      "350C",
      "350C",
      "350C",
      "350C",
      "350C",
      "350C",
      "350C",
      "350C",
      "350C",
      "350C",
      "350C",
      "350C",
      "350C",
      "350C",
      "350C",
      "350C",
      "350C",
      "350C",
      "350C",
      "350C",
      "350C",
      "350C",
      "350C",
      "350C",
      "350C",
      "350C",
      "350C",
      "350C",
      "350C",
      "350C",
      "350C",
      "350C",
      "350C",
      "350C",
      "350C",
      "350C",
      "350C",
      "350C",
      "350C",
      "350C",
      "350C",
      "350C",
      "350C",
      "350C",
      "350C",
      "350C",
      "350C",
      "350C",
      "350C",
      "350C",
      "350C",
      "350C",
      "350C",
      "350C",
      "350C",
      "350C",
      "350C",
      "350C",
      "350C",
      "350C",
      "350C",
      "350C",
      "350C",
      "350C",
      "350C",
      "350C",
      "350C",
      "350C",
      "350C",
      "350C",
      "350C",
      "350C",
      "350C",
      "350C",
      "350C",
      "350C",
      "350C",
      "350C",
      "350C",
      "350C",
      "350C",
      "350C",
      "350C",
      "350C",
      "350C",
      "350C",
      "350C",
      "350C",
      "350C",
      "350C",
      "350C",
      "350C",
      "350C",
      "350C",
      "350C",
      "350C",
      "350C",
      "350C",
      "350C",
      "350C",
      "350C",
      "350C",
      "350C",
      "350C",
      "350C",
      "350C",
      "350C",
      "350C",
      "350C",
      "350C",
      "350C",
      "350C",
      "350C",
      "350C",
      "350C",
      "350C",
      "350C",
      "350C",
      "350C",
      "350C",
      "350C",
      "350C",
      "350C",
      "350C",
      "350C",
      "350C",
      "350C",
      "350C",
      "350C",
      "350C",
      "350C",
      "350C",
      "350C",
      "350C",
      "350C",
      "350C",
      "350C",
      "350C",
      "350C",
      "350C",
      "350C",
      "350C",
      "350C",
      "350C",
      "350C",
      "350C",
      "350C",
      "350C",
      "350C",
      "350C",
      "350C",
      "350C",
      "350C",
      "350C",
      "350C",
      "350C",
      "350C",
      "350C",
      "350C",
      "350C",
      "350C",
      "350C",
      "350C",
      "350",
      "350",
      "350",
      "346",
      "346",
      "346",
      "346",
      "346",
      "346",
      "301",
      "301",
      "301",
      "301",
      "301",
      "291C",
      "291C",
      "241C",
      "241C",
      "241C",
      "241C",
      "239",
      "239",
      "239",
      "239",
      "239",
      "219",
      "189",
      "189",
      "170",
      "170",
      "170",
      "170",
      "170",
      "143",
      "143",
      "136",
      "129",
      "129",
      "129",
      "102",
      "102",
      "094",
      "094",
      "094",
      "090C",
      "084",
      "084",
      "078",
      "078",
      "069",
      "069",
      "069",
      "069",
      "069",
      "048",
      "048",
      "043",
      "041",
      "041",
      "041",
      "030",
      "030",
      "030",
      "030",
      "030",
      "028",
      "028",
      "028",
      "028",
      "028",
      "019",
      "019",
      "019",
      "010",
      "010",
      "010",
      "005",
      "005",
      "005",
      "005",
      "005"
    ],
    "swim:geom": "path",
    "swim:speeds": [
      220,
      220,
      220,
      220,
      220,
      220,
      220,
      359,
      359,
      359,
      359,
      359,
      359,
      411,
      411,
      419,
      419,
      419,
      419,
      419,
      419,
      419,
      419,
      483,
      483,
      483,
      482,
      482,
      482,
      482,
      482,
      482,
      482,
      482,
      482,
      482,
      482,
      489,
      489,
      489,
      489,
      489,
      489,
      489,
      486,
      486,
      486,
      486,
      486,
      486,
      486,
      488,
      488,
      488,
      488,
      488,
      488,
      488,
      488,
      488,
      488,
      488,
      488,
      488,
      488,
      489,
      489,
      489,
      489,
      490,
      490,
      490,
      490,
      496,
      496,
      496,
      496,
      496,
      496,
      496,
      496,
      504,
      502,
      502,
      502,
      502,
      500,
      500,
      498,
      498,
      498,
      498,
      498,
      498,
      497,
      497,
      497,
      497,
      495,
      495,
      495,
      495,
      495,
      495,
      495,
      495,
      498,
      498,
      498,
      498,
      498,
      498,
      498,
      498,
      498,
      504,
      504,
      504,
      504,
      504,
      505,
      505,
      505,
      505,
      505,
      505,
      505,
      505,
      505,
      505,
      505,
      505,
      505,
      507,
      507,
      507,
      507,
      507,
      507,
      507,
      519,
      519,
      519,
      519,
      519,
      519,
      520,
      520,
      521,
      521,
      521,
      521,
      522,
      522,
      522,
      522,
      522,
      522,
      522,
      522,
      521,
      521,
      521,
      520,
      520,
      519,
      519,
      519,
      519,
      519,
      519,
      519,
      521,
      521,
      521,
      523,
      523,
      523,
      523,
      523,
      523,
      523,
      525,
      526,
      526,
      526,
      527,
      527,
      527,
      527,
      527,
      527,
      527,
      527,
      534,
      534,
      534,
      534,
      538,
      538,
      538,
      538,
      538,
      538,
      541,
      542,
      543,
      543,
      543,
      543,
      543,
      542,
      542,
      542,
      542,
      542,
      542,
      542,
      542,
      542,
      542,
      542,
      542,
      543,
      543,
      543,
      543,
      544,
      544,
      544,
      544,
      544,
      544,
      544,
      544,
      543,
      543,
      543,
      543,
      543,
      543,
      543,
      543,
      543,
      543,
      543,
      543,
      543,
      543,
      542,
      542,
      542,
      542,
      542,
      542,
      542,
      542,
      542,
      543,
      541,
      541,
      541,
      541,
      541,
      541,
      538,
      535,
      535,
      535,
      535,
      535,
      535,
      537,
      535,
      535,
      535,
      537,
      537,
      537,
      537,
      537,
      537,
      503,
      503,
      503,
      503,
      503,
      495,
      495,
      474,
      474,
      474,
      474,
      460,
      460,
      460,
      460,
      460,
      418,
      413,
      413,
      399,
      399,
      399,
      399,
      399,
      387,
      387,
      385,
      375,
      375,
      375,
      346,
      346,
      287,
      287,
      287,
      283,
      273,
      273,
      273,
      273,
      262,
      262,
      262,
      262,
      262,
      267,
      267,
      263,
      266,
      266,
      266,
      225,
      225,
      225,
      219,
      219,
      210,
      210,
      210,
      210,
      210,
      175,
      175,
      175,
      142,
      142,
      142,
      145,
      145,
      145,
      145,
      145
    ],
    "swim:timestamps": [
      1761089759,
      1761089759,
      1761089759,
      1761089759,
      1761089759,
      1761089759,
      1761089759,
      1761090000,
      1761090000,
      1761090000,
      1761090000,
      1761090000,
      1761090000,
      1761090180,
      1761090180,
      1761090240,
      1761090240,
      1761090240,
      1761090240,
      1761090240,
      1761090240,
      1761090240,
      1761090240,
      1761090693,
      1761090693,
      1761090693,
      1761090721,
      1761090721,
      1761090721,
      1761090721,
      1761090721,
      1761090721,
      1761090721,
      1761090721,
      1761091173,
      1761091173,
      1761091173,
      1761091354,
      1761091354,
      1761091354,
      1761091354,
      1761091354,
      1761091354,
      1761091354,
      1761091654,
      1761091654,
      1761091654,
      1761091654,
      1761091654,
      1761091654,
      1761091654,
      1761091714,
      1761091774,
      1761091774,
      1761091774,
      1761091774,
      1761092015,
      1761092015,
      1761092015,
      1761092015,
      1761092015,
      1761092075,
      1761092075,
      1761092075,
      1761092075,
      1761092556,
      1761092556,
      1761092556,
      1761092556,
      1761092616,
      1761092616,
      1761092616,
      1761092616,
      1761092796,
      1761092796,
      1761092796,
      1761092796,
      1761092796,
      1761092796,
      1761092796,
      1761092796,
      1761093157,
      1761093217,
      1761093217,
      1761093217,
      1761093217,
      1761093277,
      1761093277,
      1761093337,
      1761093337,
      1761093337,
      1761093337,
      1761093337,
      1761093337,
      1761093397,
      1761093397,
      1761093397,
      1761093397,
      1761093472,
      1761093472,
      1761093472,
      1761093517,
      1761093517,
      1761093517,
      1761093517,
      1761093517,
      1761093713,
      1761093713,
      1761093713,
      1761093713,
      1761093713,
      1761093713,
      1761093713,
      1761093713,
      1761093713,
      1761094178,
      1761094178,
      1761094193,
      1761094193,
      1761094193,
      1761094253,
      1761094253,
      1761094253,
      1761094253,
      1761094253,
      1761094374,
      1761094374,
      1761094374,
      1761094374,
      1761094434,
      1761094434,
      1761094434,
      1761094434,
      1761094554,
      1761094554,
      1761094554,
      1761094554,
      1761094554,
      1761094554,
      1761094554,
      1761095034,
      1761095034,
      1761095034,
      1761095034,
      1761095034,
      1761095034,
      1761095086,
      1761095086,
      1761095146,
      1761095155,
      1761095155,
      1761095155,
      1761095206,
      1761095266,
      1761095266,
      1761095266,
      1761095395,
      1761095395,
      1761095395,
      1761095395,
      1761095515,
      1761095515,
      1761095515,
      1761095627,
      1761095627,
      1761095687,
      1761095687,
      1761095867,
      1761095867,
      1761095867,
      1761095867,
      1761095867,
      1761095987,
      1761095987,
      1761095987,
      1761096167,
      1761096167,
      1761096167,
      1761096167,
      1761096167,
      1761096167,
      1761096167,
      1761096348,
      1761096416,
      1761096476,
      1761096476,
      1761096536,
      1761096536,
      1761096588,
      1761096588,
      1761096588,
      1761096596,
      1761096596,
      1761096596,
      1761096836,
      1761096836,
      1761096836,
      1761096836,
      1761096948,
      1761096948,
      1761096948,
      1761096948,
      1761096948,
      1761096957,
      1761097069,
      1761097189,
      1761097249,
      1761097249,
      1761097249,
      1761097249,
      1761097317,
      1761097437,
      1761097437,
      1761097437,
      1761097489,
      1761097489,
      1761097489,
      1761097497,
      1761097497,
      1761097557,
      1761097557,
      1761097557,
      1761097557,
      1761097678,
      1761097678,
      1761097678,
      1761097678,
      1761097858,
      1761097858,
      1761097918,
      1761097918,
      1761097918,
      1761097918,
      1761097918,
      1761097918,
      1761098038,
      1761098038,
      1761098038,
      1761098038,
      1761098098,
      1761098098,
      1761098098,
      1761098098,
      1761098098,
      1761098278,
      1761098278,
      1761098278,
      1761098278,
      1761098278,
      1761098398,
      1761098398,
      1761098398,
      1761098398,
      1761098398,
      1761098459,
      1761098459,
      1761098519,
      1761098519,
      1761098699,
      1761098759,
      1761098759,
      1761098759,
      1761098759,
      1761098759,
      1761098759,
      1761098819,
      1761098842,
      1761098842,
      1761098842,
      1761098842,
      1761098842,
      1761098842,
      1761098879,
      1761099083,
      1761099083,
      1761099083,
      1761099119,
      1761099119,
      1761099119,
      1761099119,
      1761099119,
      1761099119,
      1761099383,
      1761099383,
      1761099383,
      1761099383,
      1761099383,
      1761099443,
      1761099443,
      1761099600,
      1761099600,
      1761099600,
      1761099600,
      1761099660,
      1761099660,
      1761099660,
      1761099660,
      1761099660,
      1761099743,
      1761099804,
      1761099804,
      1761099840,
      1761099840,
      1761099840,
      1761099840,
      1761099840,
      1761099900,
      1761099900,
      1761099924,
      1761099936,
      1761099936,
      1761099936,
      1761100021,
      1761100021,
      1761100081,
      1761100081,
      1761100081,
      1761100104,
      1761100119,
      1761100119,
      1761100141,
      1761100141,
      1761100179,
      1761100179,
      1761100179,
      1761100179,
      1761100179,
      1761100284,
      1761100284,
      1761100299,
      1761100321,
      1761100321,
      1761100321,
      1761100489,
      1761100489,
      1761100489,
      1761100525,
      1761100525,
      1761100606,
      1761100606,
      1761100606,
      1761100606,
      1761100606,
      1761100660,
      1761100660,
      1761100660,
      1761100726,
      1761100726,
      1761100726,
      1761100765,
      1761100765,
      1761100765,
      1761100765,
      1761100765
    ],
    "wof:geomhash": "6561225f0c705e5828190f0015a36ccd",
    "wof:id": 1981733405,
    "wof:repo": "sfomuseum-data-flights-2025-10"
  },
  "bbox": [
    -122.27944444444444,
    30.00583333333333,
    -95.3875,
    38.51916666666666
  ],
  "geometry": {"coordinates":[[-122.27944444444444,37.68277777777777],[-122.27944444444444,37.68277777777777],[-122.27944444444444,37.68277777777777],[-122.27944444444444,37.68277777777777],[-122.27944444444444,37.68277777777777],[-122.27944444444444,37.68277777777777],[-122.27944444444444,37.68277777777777],[-121.90944444444445,37.843333333333334],[-121.90944444444445,37.843333333333334],[-121.90944444444445,37.843333333333334],[-121.90944444444445,37.843333333333334],[-121.90944444444445,37.843333333333334],[-121.90944444444445,37.843333333333334],[-121.50222222222222,37.91916666666666],[-121.50222222222222,37.91916666666666],[-121.35944444444443,37.94499999999999],[-121.35944444444443,37.94499999999999],[-121.35944444444443,37.94499999999999],[-121.35944444444443,37.94499999999999],[-121.35944444444443,37.94499999999999],[-121.35944444444443,37.94499999999999],[-121.35944444444443,37.94499999999999],[-121.35944444444443,37.94499999999999],[-120.13138888888888,38.125],[-120.13138888888888,38.125],[-120.13138888888888,38.125],[-120.04777777777778,38.15083333333333],[-120.04777777777778,38.15083333333333],[-120.04777777777778,38.15083333333333],[-120.04777777777778,38.15083333333333],[-120.04777777777778,38.15083333333333],[-120.04777777777778,38.15083333333333],[-120.04777777777778,38.15083333333333],[-120.04777777777778,38.15083333333333],[-118.78444444444445,38.32166666666667],[-118.78444444444445,38.32166666666667],[-118.78444444444445,38.32166666666667],[-118.2713888888889,38.395833333333336],[-118.2713888888889,38.395833333333336],[-118.2713888888889,38.395833333333336],[-118.2713888888889,38.395833333333336],[-118.2713888888889,38.395833333333336],[-118.2713888888889,38.395833333333336],[-118.2713888888889,38.395833333333336],[-117.45444444444445,38.5],[-117.45444444444445,38.5],[-117.45444444444445,38.5],[-117.45444444444445,38.5],[-117.45444444444445,38.5],[-117.45444444444445,38.5],[-117.45444444444445,38.5],[-117.28,38.51916666666666],[-117.10499999999999,38.51694444444444],[-117.10499999999999,38.51694444444444],[-117.10499999999999,38.51694444444444],[-117.10499999999999,38.51694444444444],[-116.40777777777778,38.500277777777775],[-116.40777777777778,38.500277777777775],[-116.40777777777778,38.500277777777775],[-116.40777777777778,38.500277777777775],[-116.40777777777778,38.500277777777775],[-116.23444444444445,38.495555555555555],[-116.23444444444445,38.495555555555555],[-116.23444444444445,38.495555555555555],[-116.23444444444445,38.495555555555555],[-114.84583333333333,38.44833333333333],[-114.84583333333333,38.44833333333333],[-114.84583333333333,38.44833333333333],[-114.84583333333333,38.44833333333333],[-114.67166666666667,38.441111111111105],[-114.67166666666667,38.441111111111105],[-114.67166666666667,38.441111111111105],[-114.67166666666667,38.441111111111105],[-114.14444444444445,38.418055555555554],[-114.14444444444445,38.418055555555554],[-114.14444444444445,38.418055555555554],[-114.14444444444445,38.418055555555554],[-114.14444444444445,38.418055555555554],[-114.14444444444445,38.418055555555554],[-114.14444444444445,38.418055555555554],[-114.14444444444445,38.418055555555554],[-113.08055555555555,38.36416666666667],[-112.90777777777778,38.33166666666667],[-112.90777777777778,38.33166666666667],[-112.90777777777778,38.33166666666667],[-112.90777777777778,38.33166666666667],[-112.74138888888889,38.28666666666666],[-112.74138888888889,38.28666666666666],[-112.57277777777777,38.240833333333335],[-112.57277777777777,38.240833333333335],[-112.57277777777777,38.240833333333335],[-112.57277777777777,38.240833333333335],[-112.57277777777777,38.240833333333335],[-112.57277777777777,38.240833333333335],[-112.41000000000001,38.19611111111111],[-112.41000000000001,38.19611111111111],[-112.41000000000001,38.19611111111111],[-112.41000000000001,38.19611111111111],[-112.20722222222223,38.13972222222222],[-112.20722222222223,38.13972222222222],[-112.20722222222223,38.13972222222222],[-112.07972222222222,38.10416666666667],[-112.07972222222222,38.10416666666667],[-112.07972222222222,38.10416666666667],[-112.07972222222222,38.10416666666667],[-112.07972222222222,38.10416666666667],[-111.55055555555555,37.95472222222222],[-111.55055555555555,37.95472222222222],[-111.55055555555555,37.95472222222222],[-111.55055555555555,37.95472222222222],[-111.55055555555555,37.95472222222222],[-111.55055555555555,37.95472222222222],[-111.55055555555555,37.95472222222222],[-111.55055555555555,37.95472222222222],[-111.55055555555555,37.95472222222222],[-110.26194444444444,37.578611111111115],[-110.26194444444444,37.578611111111115],[-110.22194444444445,37.56666666666667],[-110.22194444444445,37.56666666666667],[-110.22194444444445,37.56666666666667],[-110.05499999999999,37.51638888888889],[-110.05499999999999,37.51638888888889],[-110.05499999999999,37.51638888888889],[-110.05499999999999,37.51638888888889],[-110.05499999999999,37.51638888888889],[-109.735,37.40222222222222],[-109.735,37.40222222222222],[-109.735,37.40222222222222],[-109.735,37.40222222222222],[-109.57416666666666,37.3425],[-109.57416666666666,37.3425],[-109.57416666666666,37.3425],[-109.57416666666666,37.3425],[-109.25444444444445,37.223055555555554],[-109.25444444444445,37.223055555555554],[-109.25444444444445,37.223055555555554],[-109.25444444444445,37.223055555555554],[-109.25444444444445,37.223055555555554],[-109.25444444444445,37.223055555555554],[-109.25444444444445,37.223055555555554],[-107.95583333333333,36.724444444444444],[-107.95583333333333,36.724444444444444],[-107.95583333333333,36.724444444444444],[-107.95583333333333,36.724444444444444],[-107.95583333333333,36.724444444444444],[-107.95583333333333,36.724444444444444],[-107.82333333333332,36.67222222222222],[-107.82333333333332,36.67222222222222],[-107.66083333333334,36.60805555555556],[-107.62833333333333,36.59527777777778],[-107.62833333333333,36.59527777777778],[-107.62833333333333,36.59527777777778],[-107.50055555555555,36.54388888888889],[-107.33694444444444,36.478611111111114],[-107.33694444444444,36.478611111111114],[-107.33694444444444,36.478611111111114],[-106.97555555555556,36.35],[-106.97555555555556,36.35],[-106.97555555555556,36.35],[-106.97555555555556,36.35],[-106.64750000000001,36.23361111111111],[-106.64750000000001,36.23361111111111],[-106.64750000000001,36.23361111111111],[-106.33277777777778,36.12083333333334],[-106.33277777777778,36.12083333333334],[-106.17944444444444,36.06527777777777],[-106.17944444444444,36.06527777777777],[-105.705,35.880833333333335],[-105.705,35.880833333333335],[-105.705,35.880833333333335],[-105.705,35.880833333333335],[-105.705,35.880833333333335],[-105.37638888888888,35.74777777777778],[-105.37638888888888,35.74777777777778],[-105.37638888888888,35.74777777777778],[-104.89833333333334,35.550555555555555],[-104.89833333333334,35.550555555555555],[-104.89833333333334,35.550555555555555],[-104.89833333333334,35.550555555555555],[-104.89833333333334,35.550555555555555],[-104.89833333333334,35.550555555555555],[-104.89833333333334,35.550555555555555],[-104.4225,35.35111111111111],[-104.2425,35.27305555555555],[-104.08388888888888,35.20805555555556],[-104.08388888888888,35.20805555555556],[-103.92527777777778,35.140277777777776],[-103.92527777777778,35.140277777777776],[-103.80472222222222,35.08888888888889],[-103.80472222222222,35.08888888888889],[-103.80472222222222,35.08888888888889],[-103.76611111111112,35.07222222222222],[-103.76611111111112,35.07222222222222],[-103.76611111111112,35.07222222222222],[-103.13055555555555,34.79666666666667],[-103.13055555555555,34.79666666666667],[-103.13055555555555,34.79666666666667],[-103.13055555555555,34.79666666666667],[-102.84388888888888,34.67055555555555],[-102.84388888888888,34.67055555555555],[-102.84388888888888,34.67055555555555],[-102.84388888888888,34.67055555555555],[-102.84388888888888,34.67055555555555],[-102.81083333333333,34.65611111111111],[-102.51611111111112,34.53333333333333],[-102.19027777777778,34.40416666666667],[-102.02666666666667,34.33861111111111],[-102.02666666666667,34.33861111111111],[-102.02666666666667,34.33861111111111],[-102.02666666666667,34.33861111111111],[-101.83277777777778,34.26027777777778],[-101.50888888888889,34.12888888888889],[-101.50888888888889,34.12888888888889],[-101.50888888888889,34.12888888888889],[-101.34555555555555,34.06222222222222],[-101.34555555555555,34.06222222222222],[-101.34555555555555,34.06222222222222],[-101.34527777777777,34.06222222222222],[-101.34527777777777,34.06222222222222],[-101.18194444444445,33.995],[-101.18194444444445,33.995],[-101.18194444444445,33.995],[-101.18194444444445,33.995],[-100.83666666666666,33.852222222222224],[-100.83666666666666,33.852222222222224],[-100.83666666666666,33.852222222222224],[-100.83666666666666,33.852222222222224],[-100.34888888888888,33.647777777777776],[-100.34888888888888,33.647777777777776],[-100.18555555555555,33.57888888888889],[-100.18555555555555,33.57888888888889],[-100.18555555555555,33.57888888888889],[-100.18555555555555,33.57888888888889],[-100.18555555555555,33.57888888888889],[-100.18555555555555,33.57888888888889],[-99.89027777777778,33.45888888888889],[-99.89027777777778,33.45888888888889],[-99.89027777777778,33.45888888888889],[-99.89027777777778,33.45888888888889],[-99.72500000000001,33.396388888888886],[-99.72500000000001,33.396388888888886],[-99.72500000000001,33.396388888888886],[-99.72500000000001,33.396388888888886],[-99.72500000000001,33.396388888888886],[-99.2286111111111,33.2075],[-99.2286111111111,33.2075],[-99.2286111111111,33.2075],[-99.2286111111111,33.2075],[-99.2286111111111,33.2075],[-98.90138888888889,33.08111111111111],[-98.90138888888889,33.08111111111111],[-98.90138888888889,33.08111111111111],[-98.90138888888889,33.08111111111111],[-98.90138888888889,33.08111111111111],[-98.7375,33.01722222222222],[-98.7375,33.01722222222222],[-98.57305555555556,32.95333333333333],[-98.57305555555556,32.95333333333333],[-98.08277777777778,32.76],[-97.93666666666667,32.67722222222222],[-97.93666666666667,32.67722222222222],[-97.93666666666667,32.67722222222222],[-97.93666666666667,32.67722222222222],[-97.93666666666667,32.67722222222222],[-97.93666666666667,32.67722222222222],[-97.8086111111111,32.57527777777778],[-97.77055555555556,32.54666666666667],[-97.77055555555556,32.54666666666667],[-97.77055555555556,32.54666666666667],[-97.77055555555556,32.54666666666667],[-97.77055555555556,32.54666666666667],[-97.77055555555556,32.54666666666667],[-97.68361111111112,32.475],[-97.23861111111111,32.11527777777778],[-97.23861111111111,32.11527777777778],[-97.23861111111111,32.11527777777778],[-97.17694444444444,32.06527777777777],[-97.17694444444444,32.06527777777777],[-97.17694444444444,32.06527777777777],[-97.17694444444444,32.06527777777777],[-97.17694444444444,32.06527777777777],[-97.17694444444444,32.06527777777777],[-96.61833333333333,31.60611111111111],[-96.61833333333333,31.60611111111111],[-96.61833333333333,31.60611111111111],[-96.61833333333333,31.60611111111111],[-96.61833333333333,31.60611111111111],[-96.5275,31.526944444444442],[-96.5275,31.526944444444442],[-96.31805555555555,31.198888888888888],[-96.31805555555555,31.198888888888888],[-96.31805555555555,31.198888888888888],[-96.31805555555555,31.198888888888888],[-96.24944444444445,31.085833333333333],[-96.24944444444445,31.085833333333333],[-96.24944444444445,31.085833333333333],[-96.24944444444445,31.085833333333333],[-96.24944444444445,31.085833333333333],[-96.17194444444445,30.959444444444443],[-96.10638888888889,30.859444444444446],[-96.10638888888889,30.859444444444446],[-96.05583333333333,30.780555555555555],[-96.05583333333333,30.780555555555555],[-96.05583333333333,30.780555555555555],[-96.05583333333333,30.780555555555555],[-96.05583333333333,30.780555555555555],[-95.99527777777777,30.685833333333335],[-95.99527777777777,30.685833333333335],[-95.98055555555555,30.662777777777777],[-95.96333333333334,30.633888888888887],[-95.96333333333334,30.633888888888887],[-95.96333333333334,30.633888888888887],[-95.88305555555554,30.510555555555555],[-95.88305555555554,30.510555555555555],[-95.86444444444444,30.429166666666667],[-95.86444444444444,30.429166666666667],[-95.86444444444444,30.429166666666667],[-95.86222222222221,30.40972222222222],[-95.85888888888888,30.38361111111111],[-95.85888888888888,30.38361111111111],[-95.85583333333332,30.354722222222225],[-95.85583333333332,30.354722222222225],[-95.85083333333333,30.307222222222222],[-95.85083333333333,30.307222222222222],[-95.85083333333333,30.307222222222222],[-95.85083333333333,30.307222222222222],[-95.85083333333333,30.307222222222222],[-95.83583333333333,30.18777777777778],[-95.83583333333333,30.18777777777778],[-95.81666666666666,30.16361111111111],[-95.80749999999999,30.154166666666665],[-95.80749999999999,30.154166666666665],[-95.80749999999999,30.154166666666665],[-95.65166666666667,30.00638888888889],[-95.65166666666667,30.00638888888889],[-95.65166666666667,30.00638888888889],[-95.61888888888888,30.006666666666668],[-95.61888888888888,30.006666666666668],[-95.51888888888888,30.006944444444443],[-95.51888888888888,30.006944444444443],[-95.51888888888888,30.006944444444443],[-95.51888888888888,30.006944444444443],[-95.51888888888888,30.006944444444443],[-95.46611111111112,30.00638888888889],[-95.46611111111112,30.00638888888889],[-95.46611111111112,30.00638888888889],[-95.41305555555556,30.00583333333333],[-95.41305555555556,30.00583333333333],[-95.41305555555556,30.00583333333333],[-95.3875,30.00722222222222],[-95.3875,30.00722222222222],[-95.3875,30.00722222222222],[-95.3875,30.00722222222222],[-95.3875,30.00722222222222]],"type":"LineString"}
}
