{
  "id": 1981602359,
  "type": "Feature",
  "properties": {
    "geom:area": 0,
    "geom:bbox": "-122.366190,37.628670,-121.285810,37.980820",
    "geom:latitude": 37.891008565577415,
    "geom:longitude": -121.86754665363071,
    "src:alt_label": "swim-takeoff",
    "src:geom": "swim",
    "swim:elevations": [
      122,
      477,
      803,
      955,
      1047,
      1236,
      1341,
      1554,
      1585,
      2059,
      2442,
      2836,
      3080,
      3458,
      3882,
      4114,
      4578,
      4849,
      4938,
      5072,
      5381,
      5498,
      5756,
      6109,
      6346,
      6494,
      6722
    ],
    "swim:geom": "takeoff",
    "swim:timestamps": [
      1759742364,
      1759742388,
      1759742407,
      1759742427,
      1759742440,
      1759742476,
      1759742490,
      1759742547,
      1759742562,
      1759742607,
      1759742636,
      1759742662,
      1759742681,
      1759742714,
      1759742748,
      1759742770,
      1759742813,
      1759742847,
      1759742871,
      1759742899,
      1759742931,
      1759742948,
      1759742980,
      1759743024,
      1759743053,
      1759743070,
      1759743097
    ],
    "wof:geomhash": "275e3d4ac5b817f9bcf3ef5638e7822e",
    "wof:id": 1981602359,
    "wof:repo": "sfomuseum-data-flights-2025-10"
  },
  "bbox": [
    -122.36619,
    37.62867,
    -121.28581,
    37.98082
  ],
  "geometry": {"coordinates":[[-122.36619,37.62867],[-122.35018,37.64447],[-122.33563,37.65182],[-122.31918,37.66044],[-122.30737,37.66676],[-122.27138,37.688],[-122.25435,37.69742],[-122.19705,37.74951],[-122.18741,37.76693],[-122.15733,37.8208],[-122.13754,37.85632],[-122.12047,37.88791],[-122.10767,37.91138],[-122.06436,37.93822],[-122.00612,37.93888],[-121.96697,37.94009],[-121.89153,37.94489],[-121.8285,37.9489],[-121.78238,37.95163],[-121.72514,37.95513],[-121.6573,37.95918],[-121.61947,37.96146],[-121.55043,37.96559],[-121.45152,37.97138],[-121.3852,37.97521],[-121.34713,37.9774],[-121.28581,37.98082]],"type":"LineString"}
}
