{
  "id": 1981588453,
  "type": "Feature",
  "properties": {
    "geom:area": 0,
    "geom:bbox": "-122.360900,37.466850,-121.277280,37.616300",
    "geom:latitude": 37.54069995575388,
    "geom:longitude": -121.82302073556507,
    "src:alt_label": "swim-approach",
    "src:geom": "swim",
    "swim:elevations": [
      4449,
      3930,
      3746,
      3717,
      3295,
      3131,
      2848,
      2705,
      2571,
      2500,
      2327,
      2280,
      2262,
      2138,
      2045,
      1893,
      1823,
      1583,
      1437,
      1239,
      1009,
      914,
      777,
      630,
      572,
      425,
      339,
      300,
      211,
      102,
      0
    ],
    "swim:geom": "approach",
    "swim:timestamps": [
      1759683606,
      1759683663,
      1759683699,
      1759683708,
      1759683771,
      1759683791,
      1759683834,
      1759683864,
      1759683887,
      1759683903,
      1759683950,
      1759683955,
      1759683962,
      1759684011,
      1759684047,
      1759684076,
      1759684095,
      1759684129,
      1759684149,
      1759684171,
      1759684207,
      1759684247,
      1759684286,
      1759684315,
      1759684329,
      1759684354,
      1759684377,
      1759684386,
      1759684414,
      1759684444,
      1759684471
    ],
    "wof:geomhash": "b15df51490cd5007c6607d65a12c3f0f",
    "wof:id": 1981588453,
    "wof:repo": "sfomuseum-data-flights-2025-10"
  },
  "bbox": [
    -122.3609,
    37.46685,
    -121.27728,
    37.6163
  ],
  "geometry": {"coordinates":[[-121.27728,37.59102],[-121.39179,37.57789],[-121.45918,37.57029],[-121.47508,37.56835],[-121.57903,37.55625],[-121.6111,37.55252],[-121.67769,37.53801],[-121.72124,37.52708],[-121.74457,37.50803],[-121.75384,37.49135],[-121.80537,37.46685],[-121.81299,37.46805],[-121.82163,37.46946],[-121.89047,37.47975],[-121.94231,37.48751],[-121.98147,37.49361],[-122.00436,37.50029],[-122.04031,37.5119],[-122.06197,37.51892],[-122.08601,37.52673],[-122.12501,37.53939],[-122.16577,37.55262],[-122.20676,37.5659],[-122.23618,37.5754],[-122.25062,37.58002],[-122.27519,37.58751],[-122.294,37.5928],[-122.30085,37.5948],[-122.3218,37.6011],[-122.34418,37.60794],[-122.3609,37.6163]],"type":"LineString"}
}
