{
  "id": 1981698749,
  "type": "Feature",
  "properties": {
    "geom:area": 0,
    "geom:bbox": "-122.528410,37.662670,-122.097360,38.495050",
    "geom:latitude": 38.027439341957,
    "geom:longitude": -122.26334963304771,
    "src:alt_label": "swim-takeoff",
    "src:geom": "swim",
    "swim:elevations": [
      1050,
      1199,
      1243,
      1450,
      1970,
      2055,
      2477,
      2804,
      3314,
      3463,
      3584,
      3771,
      3963,
      4187,
      4655,
      4839,
      4962,
      5300,
      5418,
      5842,
      6043,
      6236
    ],
    "swim:geom": "takeoff",
    "swim:timestamps": [
      1760722003,
      1760722023,
      1760722034,
      1760722061,
      1760722104,
      1760722110,
      1760722146,
      1760722171,
      1760722221,
      1760722255,
      1760722277,
      1760722304,
      1760722328,
      1760722367,
      1760722428,
      1760722450,
      1760722471,
      1760722510,
      1760722530,
      1760722584,
      1760722613,
      1760722637
    ],
    "wof:geomhash": "a28669ef046f46a8b0814750a6f561a1",
    "wof:id": 1981698749,
    "wof:repo": "sfomuseum-data-flights-2025-10"
  },
  "bbox": [
    -122.52841,
    37.66267,
    -122.09736,
    38.49505
  ],
  "geometry": {"coordinates":[[-122.47822,37.66267],[-122.50045,37.67242],[-122.51313,37.67851],[-122.52841,37.70609],[-122.52198,37.75736],[-122.51778,37.76397],[-122.46968,37.78943],[-122.43237,37.80273],[-122.35676,37.83106],[-122.31073,37.86372],[-122.28208,37.88592],[-122.24357,37.91612],[-122.2131,37.94647],[-122.18921,38.00902],[-122.16689,38.11322],[-122.15759,38.15266],[-122.14873,38.18875],[-122.1312,38.25953],[-122.12191,38.29656],[-122.10623,38.3946],[-122.10152,38.44951],[-122.09736,38.49505]],"type":"LineString"}
}
