{
  "id": 1981623865,
  "type": "Feature",
  "properties": {
    "geom:area": 0,
    "geom:bbox": "-122.352720,37.491980,-121.277050,37.611650",
    "geom:latitude": 37.54521791498084,
    "geom:longitude": -121.81965185033813,
    "src:alt_label": "swim-approach",
    "src:geom": "swim",
    "swim:elevations": [
      4731,
      4255,
      4057,
      3871,
      3600,
      3229,
      3082,
      2931,
      2736,
      2646,
      2406,
      2311,
      2204,
      2134,
      2067,
      1897,
      1771,
      1604,
      1579,
      1214,
      879,
      721,
      610,
      432,
      308,
      141,
      43
    ],
    "swim:geom": "approach",
    "swim:timestamps": [
      1760002599,
      1760002646,
      1760002666,
      1760002684,
      1760002712,
      1760002766,
      1760002794,
      1760002828,
      1760002856,
      1760002864,
      1760002908,
      1760002925,
      1760002939,
      1760002967,
      1760002989,
      1760003022,
      1760003066,
      1760003097,
      1760003100,
      1760003135,
      1760003182,
      1760003213,
      1760003231,
      1760003264,
      1760003289,
      1760003330,
      1760003354
    ],
    "wof:geomhash": "a17d301ecc9099d0b963c94c3aa26d0a",
    "wof:id": 1981623865,
    "wof:repo": "sfomuseum-data-flights-2025-10"
  },
  "bbox": [
    -122.35272,
    37.49198,
    -121.27705,
    37.61165
  ],
  "geometry": {"coordinates":[[-121.27705,37.59083],[-121.36828,37.58054],[-121.40761,37.57613],[-121.44188,37.5724],[-121.49548,37.5662],[-121.59704,37.55409],[-121.64518,37.54606],[-121.69834,37.53317],[-121.74051,37.52324],[-121.75322,37.52018],[-121.81938,37.50439],[-121.84304,37.49864],[-121.86455,37.49368],[-121.90604,37.49198],[-121.9401,37.49276],[-121.9894,37.4955],[-122.04753,37.51362],[-122.08353,37.52547],[-122.087,37.52661],[-122.12781,37.54008],[-122.18214,37.55763],[-122.21896,37.56974],[-122.23942,37.57603],[-122.27469,37.58642],[-122.29793,37.5927],[-122.33277,37.60326],[-122.35272,37.61165]],"type":"LineString"}
}
