{
  "id": 1981680231,
  "type": "Feature",
  "properties": {
    "geom:area": 0,
    "geom:bbox": "-122.531850,36.752200,-122.145650,37.699580",
    "geom:latitude": 37.24342480319848,
    "geom:longitude": -122.40922706106007,
    "src:alt_label": "swim-takeoff",
    "src:geom": "swim",
    "swim:elevations": [
      267,
      422,
      1109,
      1253,
      1725,
      1935,
      2125,
      2494,
      2546,
      2996,
      3442,
      3959,
      4184,
      4320,
      4453,
      4984,
      5262,
      5501,
      5730,
      6154,
      6300,
      6796,
      7095,
      7258,
      7482,
      7676,
      7839,
      7971,
      8052
    ],
    "swim:geom": "takeoff",
    "swim:timestamps": [
      1760563431,
      1760563443,
      1760563496,
      1760563510,
      1760563558,
      1760563583,
      1760563595,
      1760563618,
      1760563621,
      1760563650,
      1760563687,
      1760563736,
      1760563757,
      1760563772,
      1760563784,
      1760563826,
      1760563852,
      1760563881,
      1760563903,
      1760563943,
      1760563958,
      1760564003,
      1760564036,
      1760564054,
      1760564079,
      1760564102,
      1760564126,
      1760564147,
      1760564160
    ],
    "wof:geomhash": "a037fc192210ff0c0971a18dc4b910e9",
    "wof:id": 1981680231,
    "wof:repo": "sfomuseum-data-flights-2025-10"
  },
  "bbox": [
    -122.53185,
    36.7522,
    -122.14565,
    37.69958
  ],
  "geometry": {"coordinates":[[-122.36509,37.63439],[-122.36247,37.64284],[-122.36212,37.68335],[-122.36626,37.6937],[-122.41459,37.69958],[-122.43655,37.67544],[-122.44688,37.66184],[-122.46556,37.63625],[-122.46748,37.63258],[-122.47456,37.59425],[-122.48352,37.54392],[-122.49673,37.46697],[-122.50175,37.43195],[-122.50539,37.40635],[-122.5083,37.3854],[-122.519,37.311],[-122.52555,37.2645],[-122.53185,37.20994],[-122.51739,37.17061],[-122.46272,37.10911],[-122.4417,37.08568],[-122.37764,37.01377],[-122.33068,36.96118],[-122.30395,36.93123],[-122.26714,36.88995],[-122.2334,36.85198],[-122.19714,36.81062],[-122.16518,36.77443],[-122.14565,36.7522]],"type":"LineString"}
}
