{
  "id": 1981797475,
  "type": "Feature",
  "properties": {
    "geom:area": 0,
    "geom:bbox": "-123.264167,37.411944,-122.135833,47.374444",
    "geom:latitude": 42.51600297598614,
    "geom:longitude": -122.95759786898138,
    "src:alt_label": "swim-path",
    "src:geom": "swim",
    "swim:altitudes": [
      "045",
      "062",
      "062",
      "062",
      "070",
      "107",
      "107",
      "107",
      "107",
      "107",
      "226",
      "226",
      "226",
      "284",
      "284",
      "333",
      "333",
      "363",
      "363",
      "374",
      "389C",
      "389C",
      "389C",
      "389C",
      "389C",
      "389C",
      "390C",
      "390C",
      "390C",
      "390C",
      "390C",
      "390C",
      "390C",
      "390C",
      "390C",
      "390C",
      "390C",
      "390C",
      "390C",
      "390C",
      "390C",
      "390C",
      "390C",
      "390C",
      "390C",
      "390C",
      "390C",
      "390C",
      "390C",
      "390C",
      "390C",
      "390C",
      "390C",
      "390C",
      "390C",
      "390C",
      "390C",
      "390C",
      "390C",
      "390C",
      "390C",
      "390C",
      "390C",
      "390C",
      "390C",
      "390C",
      "390C",
      "390C",
      "390C",
      "390C",
      "390",
      "390",
      "390",
      "390",
      "390",
      "390",
      "390",
      "379",
      "379",
      "379",
      "379",
      "379",
      "179",
      "179",
      "179",
      "179",
      "179",
      "110",
      "110",
      "110",
      "098",
      "098",
      "098",
      "065",
      "065",
      "065",
      "065",
      "065",
      "037",
      "037",
      "037",
      "037",
      "037",
      "037",
      "037"
    ],
    "swim:geom": "path",
    "swim:speeds": [
      227,
      254,
      254,
      254,
      269,
      292,
      292,
      292,
      292,
      292,
      344,
      344,
      344,
      425,
      425,
      445,
      445,
      448,
      448,
      449,
      446,
      446,
      446,
      446,
      446,
      446,
      449,
      449,
      449,
      449,
      449,
      449,
      449,
      444,
      444,
      444,
      444,
      444,
      444,
      438,
      438,
      438,
      438,
      439,
      439,
      441,
      441,
      440,
      440,
      440,
      440,
      432,
      432,
      432,
      433,
      433,
      433,
      433,
      433,
      438,
      438,
      438,
      443,
      445,
      446,
      448,
      448,
      448,
      448,
      444,
      443,
      443,
      443,
      443,
      445,
      445,
      445,
      441,
      441,
      441,
      441,
      441,
      400,
      400,
      400,
      400,
      400,
      260,
      260,
      260,
      246,
      246,
      246,
      247,
      247,
      247,
      247,
      247,
      183,
      183,
      183,
      183,
      183,
      183,
      183
    ],
    "swim:timestamps": [
      1761778032,
      1761778068,
      1761778068,
      1761778068,
      1761778128,
      1761778248,
      1761778248,
      1761778248,
      1761778248,
      1761778248,
      1761778489,
      1761778489,
      1761778489,
      1761778669,
      1761778669,
      1761778849,
      1761778849,
      1761778969,
      1761778969,
      1761779029,
      1761779090,
      1761779090,
      1761779090,
      1761779090,
      1761779090,
      1761779090,
      1761779510,
      1761779510,
      1761779510,
      1761779510,
      1761779510,
      1761779510,
      1761779510,
      1761780051,
      1761780051,
      1761780051,
      1761780051,
      1761780051,
      1761780051,
      1761780351,
      1761780351,
      1761780351,
      1761780351,
      1761780558,
      1761780558,
      1761780652,
      1761780652,
      1761780738,
      1761780738,
      1761780738,
      1761780738,
      1761781009,
      1761781009,
      1761781009,
      1761781250,
      1761781250,
      1761781250,
      1761781339,
      1761781339,
      1761781519,
      1761781519,
      1761781519,
      1761781639,
      1761781699,
      1761781730,
      1761781790,
      1761781790,
      1761781790,
      1761781790,
      1761782091,
      1761782151,
      1761782151,
      1761782180,
      1761782180,
      1761782360,
      1761782360,
      1761782360,
      1761782480,
      1761782480,
      1761782480,
      1761782480,
      1761782480,
      1761782961,
      1761782961,
      1761782961,
      1761782961,
      1761782961,
      1761783261,
      1761783261,
      1761783261,
      1761783384,
      1761783384,
      1761783384,
      1761783502,
      1761783502,
      1761783502,
      1761783502,
      1761783502,
      1761783742,
      1761783742,
      1761783742,
      1761783742,
      1761783742,
      1761783742,
      1761783742
    ],
    "wof:geomhash": "26caaba84004bd019ccc2f6550088ffe",
    "wof:id": 1981797475,
    "wof:repo": "sfomuseum-data-flights-2025-10"
  },
  "bbox": [
    -123.26416666666667,
    37.411944444444444,
    -122.13583333333334,
    47.37444444444444
  ],
  "geometry": {"coordinates":[[-122.30777777777777,47.37444444444444],[-122.31638888888888,47.33722222222222],[-122.31638888888888,47.33722222222222],[-122.31638888888888,47.33722222222222],[-122.41333333333334,47.30833333333333],[-122.63527777777779,47.30361111111111],[-122.63527777777779,47.30361111111111],[-122.63527777777779,47.30361111111111],[-122.63527777777779,47.30361111111111],[-122.63527777777779,47.30361111111111],[-123.05277777777778,47.06805555555556],[-123.05277777777778,47.06805555555556],[-123.05277777777778,47.06805555555556],[-123.26416666666667,46.82527777777778],[-123.26416666666667,46.82527777777778],[-123.24361111111111,46.45472222222222],[-123.24361111111111,46.45472222222222],[-123.22888888888889,46.19361111111111],[-123.22888888888889,46.19361111111111],[-123.22166666666666,46.06777777777778],[-123.21472222222222,45.94416666666666],[-123.21472222222222,45.94416666666666],[-123.21472222222222,45.94416666666666],[-123.21472222222222,45.94416666666666],[-123.21472222222222,45.94416666666666],[-123.21472222222222,45.94416666666666],[-123.16666666666667,45.07361111111111],[-123.16666666666667,45.07361111111111],[-123.16666666666667,45.07361111111111],[-123.16666666666667,45.07361111111111],[-123.16666666666667,45.07361111111111],[-123.16666666666667,45.07361111111111],[-123.16666666666667,45.07361111111111],[-123.11694444444444,43.96527777777778],[-123.11694444444444,43.96527777777778],[-123.11694444444444,43.96527777777778],[-123.11694444444444,43.96527777777778],[-123.11694444444444,43.96527777777778],[-123.11694444444444,43.96527777777778],[-123.09583333333333,43.35305555555556],[-123.09583333333333,43.35305555555556],[-123.09583333333333,43.35305555555556],[-123.09583333333333,43.35305555555556],[-123.08222222222221,42.937777777777775],[-123.08222222222221,42.937777777777775],[-123.07444444444444,42.74138888888889],[-123.07444444444444,42.74138888888889],[-123.06944444444444,42.572500000000005],[-123.06944444444444,42.572500000000005],[-123.06944444444444,42.572500000000005],[-123.06944444444444,42.572500000000005],[-123.05083333333333,42.02333333333333],[-123.05083333333333,42.02333333333333],[-123.05083333333333,42.02333333333333],[-123.02666666666667,41.54416666666666],[-123.02666666666667,41.54416666666666],[-123.02666666666667,41.54416666666666],[-123.0111111111111,41.352222222222224],[-123.0111111111111,41.352222222222224],[-122.98305555555555,41.00333333333333],[-122.98305555555555,41.00333333333333],[-122.98305555555555,41.00333333333333],[-122.96305555555556,40.75222222222222],[-122.95277777777778,40.629444444444445],[-122.94694444444445,40.55416666666667],[-122.93722222222223,40.43055555555555],[-122.93722222222223,40.43055555555555],[-122.93722222222223,40.43055555555555],[-122.93722222222223,40.43055555555555],[-122.88861111111112,39.81361111111111],[-122.87888888888888,39.68944444444444],[-122.87888888888888,39.68944444444444],[-122.8736111111111,39.62138888888889],[-122.8736111111111,39.62138888888889],[-122.84555555555555,39.253055555555555],[-122.84555555555555,39.253055555555555],[-122.84555555555555,39.253055555555555],[-122.82777777777777,39.02194444444444],[-122.82777777777777,39.02194444444444],[-122.82777777777777,39.02194444444444],[-122.82777777777777,39.02194444444444],[-122.82777777777777,39.02194444444444],[-122.71944444444445,38.05916666666666],[-122.71944444444445,38.05916666666666],[-122.71944444444445,38.05916666666666],[-122.71944444444445,38.05916666666666],[-122.71944444444445,38.05916666666666],[-122.41861111111112,37.659444444444446],[-122.41861111111112,37.659444444444446],[-122.41861111111112,37.659444444444446],[-122.31666666666666,37.53333333333333],[-122.31666666666666,37.53333333333333],[-122.31666666666666,37.53333333333333],[-122.30361111111111,37.411944444444444],[-122.30361111111111,37.411944444444444],[-122.30361111111111,37.411944444444444],[-122.30361111111111,37.411944444444444],[-122.30361111111111,37.411944444444444],[-122.13583333333334,37.50888888888889],[-122.13583333333334,37.50888888888889],[-122.13583333333334,37.50888888888889],[-122.13583333333334,37.50888888888889],[-122.13583333333334,37.50888888888889],[-122.13583333333334,37.50888888888889],[-122.13583333333334,37.50888888888889]],"type":"LineString"}
}
