{
  "id": 1981570755,
  "type": "Feature",
  "properties": {
    "geom:area": 0,
    "geom:bbox": "-122.360550,37.490920,-121.260770,37.612910",
    "geom:latitude": 37.542084567210516,
    "geom:longitude": -121.81738141449195,
    "src:alt_label": "swim-approach",
    "src:geom": "swim",
    "swim:elevations": [
      4507,
      4222,
      3986,
      3903,
      3761,
      3446,
      3354,
      3353,
      3320,
      3085,
      2746,
      2433,
      2368,
      2238,
      2129,
      1990,
      1837,
      1700,
      1608,
      1374,
      1025,
      963,
      905,
      793,
      795,
      551,
      454,
      391,
      236,
      157,
      118
    ],
    "swim:geom": "approach",
    "swim:timestamps": [
      1759492684,
      1759492717,
      1759492746,
      1759492758,
      1759492774,
      1759492814,
      1759492858,
      1759492862,
      1759492915,
      1759492944,
      1759492987,
      1759493035,
      1759493045,
      1759493063,
      1759493089,
      1759493109,
      1759493134,
      1759493186,
      1759493195,
      1759493225,
      1759493279,
      1759493295,
      1759493312,
      1759493349,
      1759493370,
      1759493422,
      1759493443,
      1759493462,
      1759493506,
      1759493528,
      1759493573
    ],
    "wof:geomhash": "d3a0384e8a5804eaada425cdb4221770",
    "wof:id": 1981570755,
    "wof:repo": "sfomuseum-data-flights-2025-10"
  },
  "bbox": [
    -122.36055,
    37.49092,
    -121.26077,
    37.61291
  ],
  "geometry": {"coordinates":[[-121.26077,37.59248],[-121.3175,37.58519],[-121.36764,37.57968],[-121.38835,37.57744],[-121.41659,37.5743],[-121.48371,37.56656],[-121.55102,37.55862],[-121.557,37.55789],[-121.63093,37.54862],[-121.67063,37.53931],[-121.72969,37.52508],[-121.79378,37.50979],[-121.80593,37.50691],[-121.83046,37.50105],[-121.864,37.49297],[-121.88968,37.49092],[-121.92324,37.49365],[-121.98999,37.49967],[-122.00184,37.50064],[-122.03924,37.50381],[-122.10792,37.50971],[-122.12743,37.51508],[-122.14563,37.52216],[-122.18143,37.53728],[-122.20027,37.54517],[-122.24925,37.56589],[-122.26765,37.57362],[-122.28242,37.57983],[-122.31357,37.59291],[-122.32899,37.59934],[-122.36055,37.61291]],"type":"LineString"}
}
