{
  "id": 1981694435,
  "type": "Feature",
  "properties": {
    "geom:area": 0,
    "geom:bbox": "-122.352930,36.742810,-121.891580,37.609470",
    "geom:latitude": 37.21749349855814,
    "geom:longitude": -122.07241294437969,
    "src:alt_label": "swim-approach",
    "src:geom": "swim",
    "swim:elevations": [
      4745,
      4643,
      4088,
      3824,
      3658,
      3523,
      3121,
      3077,
      2888,
      2768,
      2441,
      2440,
      2438,
      2438,
      2373,
      2160,
      2021,
      1947,
      1677,
      1612,
      1465,
      1293,
      1068,
      980,
      595,
      508,
      343,
      264,
      51
    ],
    "swim:geom": "approach",
    "swim:timestamps": [
      1760697237,
      1760697245,
      1760697289,
      1760697324,
      1760697352,
      1760697369,
      1760697403,
      1760697420,
      1760697473,
      1760697487,
      1760697533,
      1760697544,
      1760697596,
      1760697610,
      1760697644,
      1760697688,
      1760697717,
      1760697726,
      1760697766,
      1760697775,
      1760697800,
      1760697823,
      1760697862,
      1760697891,
      1760697950,
      1760697963,
      1760697996,
      1760698020,
      1760698075
    ],
    "wof:geomhash": "d89b2ef629d6f49c46daec509f1bac36",
    "wof:id": 1981694435,
    "wof:repo": "sfomuseum-data-flights-2025-10"
  },
  "bbox": [
    -122.35293,
    36.74281,
    -121.89158,
    37.60947
  ],
  "geometry": {"coordinates":[[-121.89158,36.74281],[-121.89716,36.75739],[-121.91925,36.83299],[-121.93615,36.89328],[-121.94892,36.93854],[-121.95738,36.96388],[-121.97736,37.01477],[-121.98669,37.03882],[-122.0132,37.10633],[-122.02007,37.124],[-122.0418,37.1796],[-122.04667,37.19202],[-122.07075,37.25322],[-122.07716,37.26925],[-122.09216,37.30735],[-122.10998,37.35311],[-122.12133,37.38104],[-122.12447,37.39039],[-122.1366,37.42835],[-122.1396,37.43697],[-122.14936,37.46107],[-122.15991,37.4826],[-122.18379,37.51699],[-122.20173,37.54115],[-122.25662,37.56903],[-122.26913,37.5741],[-122.29659,37.58584],[-122.31421,37.59305],[-122.35293,37.60947]],"type":"LineString"}
}
