{
  "id": 1981784083,
  "type": "Feature",
  "properties": {
    "geom:area": 0,
    "geom:bbox": "-122.386440,37.627810,-121.438810,38.512510",
    "geom:latitude": 38.119215609431656,
    "geom:longitude": -122.0169333444259,
    "src:alt_label": "swim-takeoff",
    "src:geom": "swim",
    "swim:elevations": [
      122,
      468,
      611,
      651,
      1087,
      1391,
      1973,
      2326,
      2601,
      2672,
      2725,
      2896,
      3287,
      3499,
      3662,
      3851,
      4247,
      4838,
      4925,
      5266,
      5408,
      5712,
      5964,
      6473,
      6779
    ],
    "swim:geom": "takeoff",
    "swim:timestamps": [
      1761603734,
      1761603758,
      1761603776,
      1761603782,
      1761603833,
      1761603855,
      1761603896,
      1761603925,
      1761603948,
      1761603954,
      1761603960,
      1761603975,
      1761604017,
      1761604047,
      1761604071,
      1761604114,
      1761604165,
      1761604227,
      1761604239,
      1761604282,
      1761604302,
      1761604345,
      1761604380,
      1761604463,
      1761604523
    ],
    "wof:geomhash": "b65b156e8ad6f83c68e5447636bdef6e",
    "wof:id": 1981784083,
    "wof:repo": "sfomuseum-data-flights-2025-10"
  },
  "bbox": [
    -122.38644,
    37.62781,
    -121.43881,
    38.51251
  ],
  "geometry": {"coordinates":[[-122.36683,37.62781],[-122.3534,37.64294],[-122.34068,37.65374],[-122.33605,37.65762],[-122.31132,37.70285],[-122.32443,37.72639],[-122.34963,37.7721],[-122.36631,37.80482],[-122.37916,37.83119],[-122.38257,37.83823],[-122.38539,37.84559],[-122.38644,37.86485],[-122.38361,37.92026],[-122.35769,37.95714],[-122.32002,37.97934],[-122.24736,38.02331],[-122.15631,38.07958],[-122.03989,38.15027],[-122.01702,38.16417],[-121.93289,38.21509],[-121.89332,38.2389],[-121.80741,38.29075],[-121.73724,38.33295],[-121.56575,38.43555],[-121.43881,38.51251]],"type":"LineString"}
}
