{
  "id": 1981593219,
  "type": "Feature",
  "properties": {
    "geom:area": 0,
    "geom:bbox": "-122.463180,36.724330,-121.418030,37.720840",
    "geom:latitude": 37.23800700866699,
    "geom:longitude": -122.02323564428633,
    "src:alt_label": "swim-takeoff",
    "src:geom": "swim",
    "swim:elevations": [
      494,
      990,
      1230,
      1337,
      1616,
      2343,
      2684,
      3239,
      3430,
      4023,
      4316,
      4805,
      5178,
      5338,
      5669,
      6124,
      6444,
      6792,
      7173,
      7551,
      7756,
      8039,
      8202,
      8434,
      8805,
      8854,
      9002,
      9247,
      9547,
      9567,
      9856
    ],
    "swim:geom": "takeoff",
    "swim:timestamps": [
      1759687587,
      1759687617,
      1759687644,
      1759687658,
      1759687686,
      1759687730,
      1759687748,
      1759687783,
      1759687805,
      1759687857,
      1759687879,
      1759687914,
      1759687942,
      1759687958,
      1759687986,
      1759688018,
      1759688042,
      1759688073,
      1759688114,
      1759688154,
      1759688176,
      1759688207,
      1759688226,
      1759688251,
      1759688298,
      1759688306,
      1759688327,
      1759688364,
      1759688397,
      1759688400,
      1759688434
    ],
    "wof:geomhash": "1dfdcad08742d0d30dc6f473c9aa280a",
    "wof:id": 1981593219,
    "wof:repo": "sfomuseum-data-flights-2025-10"
  },
  "bbox": [
    -122.46318,
    36.72433,
    -121.41803,
    37.72084
  ],
  "geometry": {"coordinates":[[-122.36369,37.6402],[-122.3629,37.66393],[-122.36168,37.68644],[-122.36656,37.69999],[-122.39696,37.72084],[-122.45802,37.69926],[-122.46318,37.67719],[-122.45726,37.63083],[-122.45275,37.60019],[-122.41479,37.52568],[-122.38243,37.50134],[-122.33008,37.45904],[-122.28614,37.42431],[-122.26054,37.40395],[-122.2163,37.36865],[-122.16394,37.32691],[-122.12408,37.29445],[-122.07279,37.25325],[-122.00345,37.19787],[-121.93421,37.14251],[-121.89424,37.11017],[-121.83828,37.06533],[-121.80498,37.03859],[-121.75937,37.00193],[-121.67315,36.93152],[-121.65907,36.92013],[-121.61935,36.88883],[-121.54869,36.83152],[-121.48714,36.78041],[-121.48137,36.7759],[-121.41803,36.72433]],"type":"LineString"}
}
