{
  "id": 1981739423,
  "type": "Feature",
  "properties": {
    "geom:area": 0,
    "geom:bbox": "-122.732222,37.666111,-121.965000,47.734444",
    "geom:latitude": 42.85591664682628,
    "geom:longitude": -122.20575705453228,
    "src:alt_label": "swim-path",
    "src:geom": "swim",
    "swim:altitudes": [
      "026",
      "047",
      "157",
      "157",
      "157",
      "240",
      "256",
      "256",
      "272",
      "272",
      "286",
      "286",
      "328",
      "328",
      "328",
      "328",
      "339",
      "350",
      "360C",
      "360C",
      "360C",
      "360C",
      "360C",
      "360C",
      "360C",
      "360C",
      "360C",
      "360C",
      "360C",
      "360C",
      "360C",
      "360C",
      "360C",
      "360C",
      "360C",
      "360C",
      "360C",
      "360C",
      "360C",
      "360C",
      "360",
      "360",
      "300C",
      "300C",
      "300C",
      "300C",
      "300C",
      "300C",
      "300C",
      "300C",
      "300C",
      "300C",
      "300C",
      "300C",
      "300C",
      "300C",
      "300C",
      "300C",
      "300C",
      "300C",
      "300C",
      "300C",
      "300C",
      "300",
      "300",
      "300",
      "300",
      "300",
      "300",
      "300",
      "300",
      "300",
      "299",
      "275",
      "275",
      "252",
      "252",
      "230",
      "208",
      "208",
      "151",
      "145",
      "145",
      "145",
      "132",
      "126",
      "108",
      "108",
      "108",
      "069",
      "069",
      "069",
      "061",
      "061",
      "044",
      "044",
      "040",
      "040",
      "040",
      "040",
      "027",
      "025",
      "025",
      "017",
      "011",
      "011",
      "009",
      "009"
    ],
    "swim:geom": "path",
    "swim:speeds": [
      202,
      242,
      357,
      357,
      357,
      401,
      413,
      413,
      418,
      418,
      420,
      420,
      435,
      435,
      435,
      435,
      435,
      436,
      434,
      434,
      434,
      434,
      434,
      429,
      429,
      428,
      427,
      427,
      428,
      428,
      428,
      432,
      432,
      431,
      431,
      431,
      431,
      429,
      429,
      429,
      431,
      431,
      419,
      419,
      420,
      420,
      415,
      415,
      415,
      413,
      413,
      409,
      407,
      407,
      407,
      407,
      407,
      407,
      409,
      409,
      415,
      415,
      415,
      415,
      415,
      415,
      411,
      408,
      408,
      408,
      407,
      407,
      408,
      400,
      400,
      399,
      399,
      396,
      389,
      389,
      378,
      345,
      345,
      345,
      327,
      328,
      283,
      283,
      283,
      246,
      246,
      246,
      244,
      244,
      245,
      245,
      228,
      164,
      164,
      166,
      162,
      163,
      163,
      154,
      139,
      139,
      143,
      143
    ],
    "swim:timestamps": [
      1761182832,
      1761182892,
      1761183193,
      1761183193,
      1761183193,
      1761183432,
      1761183492,
      1761183492,
      1761183552,
      1761183552,
      1761183612,
      1761183612,
      1761183793,
      1761183793,
      1761183793,
      1761183793,
      1761183853,
      1761183913,
      1761184033,
      1761184033,
      1761184033,
      1761184033,
      1761184093,
      1761184210,
      1761184210,
      1761184270,
      1761184334,
      1761184334,
      1761184514,
      1761184514,
      1761184514,
      1761184631,
      1761184631,
      1761184811,
      1761184811,
      1761184811,
      1761184811,
      1761184875,
      1761184931,
      1761184931,
      1761185112,
      1761185112,
      1761185532,
      1761185532,
      1761185592,
      1761185592,
      1761185773,
      1761185773,
      1761185773,
      1761186013,
      1761186013,
      1761186133,
      1761186193,
      1761186193,
      1761186193,
      1761186193,
      1761186434,
      1761186434,
      1761186494,
      1761186494,
      1761186674,
      1761186674,
      1761186674,
      1761186914,
      1761186914,
      1761186914,
      1761187034,
      1761187215,
      1761187215,
      1761187215,
      1761187335,
      1761187335,
      1761187395,
      1761187455,
      1761187455,
      1761187515,
      1761187515,
      1761187575,
      1761187635,
      1761187635,
      1761187816,
      1761187855,
      1761187855,
      1761187855,
      1761187909,
      1761187936,
      1761188032,
      1761188032,
      1761188032,
      1761188236,
      1761188236,
      1761188236,
      1761188275,
      1761188275,
      1761188455,
      1761188455,
      1761188537,
      1761188639,
      1761188639,
      1761188657,
      1761188762,
      1761188777,
      1761188777,
      1761188837,
      1761188882,
      1761188882,
      1761188897,
      1761188897
    ],
    "wof:geomhash": "8bb720c2d871ef85741189175750957a",
    "wof:id": 1981739423,
    "wof:repo": "sfomuseum-data-flights-2025-10"
  },
  "bbox": [
    -122.73222222222222,
    37.66611111111111,
    -121.965,
    47.73444444444444
  ],
  "geometry": {"coordinates":[[-122.30805555555555,37.66611111111111],[-122.24277777777777,37.70277777777778],[-122.11694444444444,38.081944444444446],[-122.11694444444444,38.081944444444446],[-122.11694444444444,38.081944444444446],[-122.08388888888888,38.500277777777775],[-122.07194444444444,38.61555555555556],[-122.07194444444444,38.61555555555556],[-122.06166666666667,38.73277777777778],[-122.06166666666667,38.73277777777778],[-122.05083333333333,38.85111111111111],[-122.05083333333333,38.85111111111111],[-122.01694444444445,39.21333333333334],[-122.01694444444445,39.21333333333334],[-122.01694444444445,39.21333333333334],[-122.01694444444445,39.21333333333334],[-122.00611111111111,39.33361111111111],[-121.99416666666667,39.45472222222222],[-121.97166666666666,39.693888888888885],[-121.97166666666666,39.693888888888885],[-121.97166666666666,39.693888888888885],[-121.97166666666666,39.693888888888885],[-121.965,39.81361111111111],[-121.96861111111112,40.07194444444445],[-121.96861111111112,40.07194444444445],[-121.97055555555556,40.18805555555555],[-121.97194444444445,40.306666666666665],[-121.97194444444445,40.306666666666665],[-121.97527777777778,40.65972222222222],[-121.97527777777778,40.65972222222222],[-121.97527777777778,40.65972222222222],[-121.97777777777777,40.900555555555556],[-121.97777777777777,40.900555555555556],[-121.98166666666667,41.264722222222225],[-121.98166666666667,41.264722222222225],[-121.98166666666667,41.264722222222225],[-121.98166666666667,41.264722222222225],[-121.98305555555555,41.38361111111111],[-121.98416666666667,41.50277777777778],[-121.98416666666667,41.50277777777778],[-121.98805555555556,41.86222222222222],[-121.98805555555556,41.86222222222222],[-121.99638888888889,42.64361111111111],[-121.99638888888889,42.64361111111111],[-121.99777777777778,42.76083333333333],[-121.99777777777778,42.76083333333333],[-122.00138888888888,43.10611111111111],[-122.00138888888888,43.10611111111111],[-122.00138888888888,43.10611111111111],[-122.05722222222222,43.57777777777778],[-122.05722222222222,43.57777777777778],[-122.11083333333333,43.80166666666666],[-122.13694444444445,43.91222222222222],[-122.13694444444445,43.91222222222222],[-122.13694444444445,43.91222222222222],[-122.13694444444445,43.91222222222222],[-122.24416666666667,44.355000000000004],[-122.24416666666667,44.355000000000004],[-122.27111111111111,44.46611111111111],[-122.27111111111111,44.46611111111111],[-122.35472222222222,44.806666666666665],[-122.35472222222222,44.806666666666665],[-122.35472222222222,44.806666666666665],[-122.47,45.26777777777777],[-122.47,45.26777777777777],[-122.47,45.26777777777777],[-122.52666666666667,45.4925],[-122.61083333333333,45.825833333333335],[-122.61083333333333,45.825833333333335],[-122.61083333333333,45.825833333333335],[-122.66611111111112,46.04861111111111],[-122.66611111111112,46.04861111111111],[-122.69055555555556,46.15861111111111],[-122.71222222222222,46.269999999999996],[-122.71222222222222,46.269999999999996],[-122.72416666666666,46.37833333333333],[-122.72416666666666,46.37833333333333],[-122.72805555555556,46.48833333333334],[-122.73222222222222,46.596944444444446],[-122.73222222222222,46.596944444444446],[-122.62249999999999,46.884166666666665],[-122.56333333333333,46.94166666666666],[-122.56333333333333,46.94166666666666],[-122.56333333333333,46.94166666666666],[-122.52583333333334,47.02333333333333],[-122.51083333333334,47.05583333333333],[-122.48,47.19138888888889],[-122.48,47.19138888888889],[-122.48,47.19138888888889],[-122.45555555555556,47.42444444444444],[-122.45555555555556,47.42444444444444],[-122.45555555555556,47.42444444444444],[-122.45694444444445,47.47222222222222],[-122.45694444444445,47.47222222222222],[-122.4563888888889,47.67638888888889],[-122.4563888888889,47.67638888888889],[-122.38944444444445,47.73444444444444],[-122.31611111111111,47.67444444444444],[-122.31611111111111,47.67444444444444],[-122.31555555555555,47.66277777777778],[-122.31694444444445,47.58361111111111],[-122.31694444444445,47.57277777777778],[-122.31694444444445,47.57277777777778],[-122.31722222222221,47.52972222222222],[-122.31861111111111,47.49722222222222],[-122.31861111111111,47.49722222222222],[-122.31777777777778,47.49055555555556],[-122.31777777777778,47.49055555555556]],"type":"LineString"}
}
