{
  "id": 1981768529,
  "type": "Feature",
  "properties": {
    "geom:area": 0,
    "geom:bbox": "-122.342590,36.735400,-121.887340,37.605060",
    "geom:latitude": 37.209323316336686,
    "geom:longitude": -122.06804649116938,
    "src:alt_label": "swim-approach",
    "src:geom": "swim",
    "swim:elevations": [
      5523,
      5416,
      5088,
      4807,
      4488,
      4298,
      3978,
      3821,
      3507,
      3269,
      3093,
      2930,
      2662,
      2414,
      2248,
      1956,
      1822,
      1627,
      1582,
      1347,
      994,
      949,
      812,
      649,
      499,
      419,
      342,
      234,
      93
    ],
    "swim:geom": "approach",
    "swim:timestamps": [
      1761476780,
      1761476800,
      1761476832,
      1761476865,
      1761476904,
      1761476925,
      1761476965,
      1761476983,
      1761477023,
      1761477053,
      1761477073,
      1761477105,
      1761477138,
      1761477170,
      1761477193,
      1761477234,
      1761477253,
      1761477290,
      1761477301,
      1761477340,
      1761477387,
      1761477392,
      1761477413,
      1761477436,
      1761477476,
      1761477495,
      1761477510,
      1761477540,
      1761477575
    ],
    "wof:geomhash": "e0c87bc28fb48988d4a3f82e5473d819",
    "wof:id": 1981768529,
    "wof:repo": "sfomuseum-data-flights-2025-10"
  },
  "bbox": [
    -122.34259,
    36.7354,
    -121.88734,
    37.60506
  ],
  "geometry": {"coordinates":[[-121.88734,36.7354],[-121.90062,36.76481],[-121.91456,36.8139],[-121.9284,36.86386],[-121.9443,36.92096],[-121.95327,36.95281],[-121.97586,37.01065],[-121.98567,37.03529],[-122.0072,37.09077],[-122.02276,37.13043],[-122.03333,37.15754],[-122.04913,37.19807],[-122.06588,37.24045],[-122.08129,37.27989],[-122.09213,37.30723],[-122.11128,37.35612],[-122.12003,37.37833],[-122.1344,37.42065],[-122.13859,37.43289],[-122.15462,37.47276],[-122.18401,37.51753],[-122.18784,37.5231],[-122.20172,37.54225],[-122.22476,37.55465],[-122.26194,37.57126],[-122.2785,37.5782],[-122.29105,37.58344],[-122.31464,37.59339],[-122.34259,37.60506]],"type":"LineString"}
}
