{
  "id": 1981562767,
  "type": "Feature",
  "properties": {
    "geom:area": 0,
    "geom:bbox": "-122.351380,37.492050,-121.246330,37.611140",
    "geom:latitude": 37.54269898406521,
    "geom:longitude": -121.80583822814403,
    "src:alt_label": "swim-approach",
    "src:geom": "swim",
    "swim:elevations": [
      5175,
      4938,
      4693,
      4383,
      4043,
      3889,
      3724,
      3549,
      3394,
      3320,
      3173,
      3075,
      2876,
      2781,
      2536,
      2475,
      2431,
      2072,
      2004,
      1892,
      1728,
      1708,
      1646,
      1476,
      1348,
      1246,
      1116,
      963,
      930,
      834,
      727,
      549,
      430,
      346,
      214,
      152,
      127,
      63
    ],
    "swim:geom": "approach",
    "swim:timestamps": [
      1759393707,
      1759393728,
      1759393751,
      1759393778,
      1759393809,
      1759393823,
      1759393838,
      1759393858,
      1759393873,
      1759393898,
      1759393940,
      1759393965,
      1759394000,
      1759394014,
      1759394053,
      1759394065,
      1759394071,
      1759394124,
      1759394152,
      1759394184,
      1759394217,
      1759394223,
      1759394244,
      1759394277,
      1759394304,
      1759394322,
      1759394361,
      1759394394,
      1759394403,
      1759394426,
      1759394450,
      1759394488,
      1759394513,
      1759394533,
      1759394571,
      1759394590,
      1759394596,
      1759394616
    ],
    "wof:geomhash": "c1ba3e8e025edbf0d524ed0d2cf4ef47",
    "wof:id": 1981562767,
    "wof:repo": "sfomuseum-data-flights-2025-10"
  },
  "bbox": [
    -122.35138,
    37.49205,
    -121.24633,
    37.61114
  ],
  "geometry": {"coordinates":[[-121.24633,37.59487],[-121.28731,37.58949],[-121.33203,37.58457],[-121.38632,37.5786],[-121.44591,37.57192],[-121.47403,37.56862],[-121.50292,37.5652],[-121.54059,37.56072],[-121.56835,37.55742],[-121.61215,37.5521],[-121.67375,37.53923],[-121.70643,37.53138],[-121.75007,37.5209],[-121.76685,37.5168],[-121.81321,37.50565],[-121.82826,37.50203],[-121.83539,37.50036],[-121.89926,37.49205],[-121.93601,37.49424],[-121.97666,37.49681],[-122.01431,37.49895],[-122.02036,37.49931],[-122.04107,37.50047],[-122.07263,37.5021],[-122.09839,37.50494],[-122.11489,37.51129],[-122.14938,37.52597],[-122.17807,37.53816],[-122.18647,37.54177],[-122.20669,37.55024],[-122.22683,37.5588],[-122.26023,37.57281],[-122.28031,37.58115],[-122.29552,37.58778],[-122.32174,37.59871],[-122.33408,37.60378],[-122.33814,37.60549],[-122.35138,37.61114]],"type":"LineString"}
}
