{
  "id": 1981654625,
  "type": "Feature",
  "properties": {
    "geom:area": 0,
    "geom:bbox": "-122.526680,37.625830,-121.266040,38.146740",
    "geom:latitude": 37.93357696518251,
    "geom:longitude": -121.99389268134802,
    "src:alt_label": "swim-takeoff",
    "src:geom": "swim",
    "swim:elevations": [
      305,
      772,
      1020,
      1189,
      1350,
      1532,
      1871,
      2173,
      2650,
      2813,
      3248,
      3382,
      3474,
      3988,
      4085,
      4382,
      4808,
      5166,
      5229,
      5394,
      5751,
      5830,
      6109,
      6457,
      6650,
      6730,
      6879,
      7094,
      7211,
      7459
    ],
    "swim:geom": "takeoff",
    "swim:timestamps": [
      1760312502,
      1760312544,
      1760312573,
      1760312589,
      1760312620,
      1760312635,
      1760312662,
      1760312683,
      1760312723,
      1760312741,
      1760312778,
      1760312801,
      1760312822,
      1760312878,
      1760312891,
      1760312920,
      1760312961,
      1760312997,
      1760313003,
      1760313018,
      1760313055,
      1760313067,
      1760313106,
      1760313148,
      1760313176,
      1760313188,
      1760313207,
      1760313232,
      1760313252,
      1760313282
    ],
    "wof:geomhash": "84f46f0a896f13baf7ff73beebeeed1e",
    "wof:id": 1981654625,
    "wof:repo": "sfomuseum-data-flights-2025-10"
  },
  "bbox": [
    -122.52668,
    37.62583,
    -121.26604,
    38.14674
  ],
  "geometry": {"coordinates":[[-122.39111,37.62583],[-122.42627,37.64119],[-122.45335,37.65241],[-122.46951,37.6594],[-122.50387,37.67435],[-122.51937,37.68571],[-122.52668,37.71598],[-122.52666,37.74097],[-122.525,37.79084],[-122.50944,37.81032],[-122.45066,37.83257],[-122.40967,37.84447],[-122.36931,37.8559],[-122.25412,37.8866],[-122.22487,37.89442],[-122.1614,37.91125],[-122.06875,37.93632],[-121.98724,37.958],[-121.97323,37.96161],[-121.93702,37.97112],[-121.84919,37.99456],[-121.82032,38.00225],[-121.72404,38.02763],[-121.61772,38.05551],[-121.54642,38.074],[-121.51552,38.08201],[-121.46518,38.0951],[-121.40011,38.11205],[-121.34678,38.1259],[-121.26604,38.14674]],"type":"LineString"}
}
