{
  "id": 1981595325,
  "type": "Feature",
  "properties": {
    "geom:area": 0,
    "geom:bbox": "-122.853110,37.409780,-122.133020,38.515080",
    "geom:latitude": 37.83199943088745,
    "geom:longitude": -122.50683428908918,
    "src:alt_label": "swim-approach",
    "src:geom": "swim",
    "swim:elevations": [
      7781,
      7328,
      7278,
      6966,
      6772,
      6673,
      6170,
      6064,
      5603,
      5432,
      5030,
      4851,
      4529,
      4419,
      3958,
      3744,
      3643,
      3533,
      3424,
      3354,
      3353,
      3353,
      3353,
      3353,
      3318,
      3168,
      3094,
      2920,
      2631,
      2387,
      2085,
      1921,
      1821,
      1719,
      1516,
      1486,
      1275,
      1122,
      1038,
      737,
      668,
      655,
      609,
      464,
      300,
      271,
      98,
      67,
      180
    ],
    "swim:geom": "approach",
    "swim:timestamps": [
      1759777991,
      1759778038,
      1759778044,
      1759778075,
      1759778095,
      1759778105,
      1759778158,
      1759778169,
      1759778218,
      1759778234,
      1759778278,
      1759778294,
      1759778330,
      1759778342,
      1759778395,
      1759778420,
      1759778431,
      1759778443,
      1759778468,
      1759778503,
      1759778530,
      1759778570,
      1759778573,
      1759778598,
      1759778631,
      1759778666,
      1759778685,
      1759778712,
      1759778744,
      1759778774,
      1759778809,
      1759778835,
      1759778866,
      1759778884,
      1759778920,
      1759778924,
      1759778967,
      1759778997,
      1759779005,
      1759779057,
      1759779080,
      1759779091,
      1759779097,
      1759779130,
      1759779175,
      1759779181,
      1759779228,
      1759779255,
      1759779260
    ],
    "wof:geomhash": "0a81cd53dd24534b689e06c205df5c20",
    "wof:id": 1981595325,
    "wof:repo": "sfomuseum-data-flights-2025-10"
  },
  "bbox": [
    -122.85311,
    37.40978,
    -122.13302,
    38.51508
  ],
  "geometry": {"coordinates":[[-122.85311,38.51508],[-122.82752,38.42918],[-122.82428,38.41801],[-122.80756,38.36068],[-122.79753,38.3265],[-122.7921,38.30808],[-122.76507,38.21612],[-122.75962,38.19766],[-122.73553,38.11449],[-122.72768,38.08779],[-122.70721,38.01769],[-122.69957,37.99058],[-122.68329,37.9337],[-122.67701,37.91546],[-122.6198,37.84904],[-122.58813,37.81917],[-122.5756,37.80737],[-122.56098,37.79365],[-122.5303,37.76513],[-122.4924,37.72858],[-122.46483,37.70235],[-122.42238,37.66284],[-122.41919,37.65989],[-122.39355,37.63589],[-122.36045,37.60234],[-122.34073,37.56551],[-122.33091,37.5468],[-122.31527,37.52075],[-122.29612,37.48978],[-122.2764,37.4619],[-122.23878,37.4419],[-122.20894,37.42678],[-122.17759,37.41124],[-122.15728,37.40978],[-122.13418,37.43615],[-122.13302,37.44029],[-122.13539,37.47666],[-122.15612,37.49764],[-122.16195,37.50342],[-122.1975,37.53849],[-122.21579,37.55179],[-122.22596,37.55596],[-122.23256,37.55867],[-122.26264,37.57148],[-122.29931,37.58687],[-122.30404,37.58882],[-122.33928,37.60375],[-122.35859,37.61179],[-122.36205,37.61387]],"type":"LineString"}
}
