{
  "id": 1981766199,
  "type": "Feature",
  "properties": {
    "geom:area": 0,
    "geom:bbox": "-122.380000,37.530000,-83.240000,43.300000",
    "geom:latitude": 41.28563350883543,
    "geom:longitude": -102.74451485225809,
    "src:alt_label": "swim-route",
    "src:geom": "swim",
    "swim:geom": "route",
    "wof:geomhash": "71f9d449df011a0e8a8d5f96ed07ef66",
    "wof:id": 1981766199,
    "wof:repo": "sfomuseum-data-flights-2025-10"
  },
  "bbox": [
    -122.38,
    37.53,
    -83.24,
    43.3
  ],
  "geometry": {"coordinates":[[-122.38,37.62],[-122.36,37.61],[-122.34,37.61],[-122.34,37.6],[-122.26,37.57],[-122.24,37.57],[-122.18,37.54],[-122.15,37.53],[-122.12,37.56],[-122.1,37.58],[-122.09,37.59],[-122.03,37.63],[-121.96,37.69],[-121.9,37.75],[-121.8,37.8],[-121.73,37.84],[-121.68,37.87],[-121.66,37.87],[-121.53,37.95],[-121.43,38],[-121.38,38.02],[-121.33,38.05],[-121.3,38.07],[-121.24,38.1],[-121.22,38.11],[-121.05,38.2],[-121.04,38.21],[-120.96,38.22],[-120.87,38.23],[-120.78,38.24],[-120.56,38.27],[-119.22,38.45],[-118.23,38.57],[-117.3,38.68],[-117.29,38.68],[-116.05,38.89],[-114.68,39.1],[-113.32,39.29],[-113.25,39.3],[-112.76,39.44],[-111.78,39.71],[-110.26,40.11],[-110.13,40.15],[-109.67,40.28],[-109.13,40.44],[-106.34,41.18],[-105.72,41.34],[-104.59,41.63],[-103.48,41.89],[-102.14,42.11],[-101.06,42.27],[-99.42,42.49],[-97.39,42.73],[-96.81,42.79],[-96.22,42.85],[-94.42,43.01],[-94.08,43.04],[-93.33,43.09],[-91.66,43.19],[-91.28,43.17],[-90.39,43.13],[-89.86,43.13],[-88.28,43.12],[-87.12,43.26],[-87.07,43.26],[-87,43.26],[-86.95,43.27],[-86.13,43.3],[-86.05,43.3],[-85.21,43.3],[-85,43.2],[-85,43.2],[-84.91,43.16],[-84.86,43.14],[-84.81,43.11],[-84.48,42.95],[-84.31,42.86],[-84.11,42.76],[-83.99,42.7],[-83.96,42.69],[-83.76,42.54],[-83.75,42.53],[-83.67,42.48],[-83.6,42.43],[-83.56,42.41],[-83.52,42.38],[-83.44,42.32],[-83.41,42.3],[-83.38,42.27],[-83.31,42.22],[-83.26,42.17],[-83.24,42.16],[-83.24,42.16],[-83.28,42.11],[-83.28,42.11],[-83.33,42.18],[-83.35,42.21]],"type":"LineString"}
}
