{
  "id": 1981645385,
  "type": "Feature",
  "properties": {
    "geom:area": 0,
    "geom:bbox": "-122.357200,37.639930,-121.243820,38.003630",
    "geom:latitude": 37.86385980125334,
    "geom:longitude": -121.8150816870323,
    "src:alt_label": "swim-takeoff",
    "src:geom": "swim",
    "swim:elevations": [
      385,
      821,
      1067,
      1096,
      1651,
      1800,
      2355,
      2842,
      3195,
      3441,
      3817,
      3946,
      4445,
      4591,
      4759,
      5062,
      5291,
      5452,
      5815,
      5977,
      6248,
      6480,
      6941,
      6971
    ],
    "swim:geom": "takeoff",
    "swim:timestamps": [
      1760191677,
      1760191706,
      1760191736,
      1760191740,
      1760191797,
      1760191807,
      1760191846,
      1760191886,
      1760191915,
      1760191941,
      1760191977,
      1760191987,
      1760192029,
      1760192041,
      1760192059,
      1760192087,
      1760192114,
      1760192137,
      1760192179,
      1760192199,
      1760192229,
      1760192251,
      1760192306,
      1760192310
    ],
    "wof:geomhash": "25133ccb2117732521ba2d3ebc8ea982",
    "wof:id": 1981645385,
    "wof:repo": "sfomuseum-data-flights-2025-10"
  },
  "bbox": [
    -122.3572,
    37.63993,
    -121.24382,
    38.00363
  ],
  "geometry": {"coordinates":[[-122.3572,37.63993],[-122.33006,37.65149],[-122.29898,37.66231],[-122.29445,37.66391],[-122.22569,37.69763],[-122.21488,37.70579],[-122.17141,37.73897],[-122.12185,37.77375],[-122.07772,37.79241],[-122.03445,37.80978],[-121.97266,37.83483],[-121.95394,37.8424],[-121.87716,37.873],[-121.85463,37.88191],[-121.82304,37.89467],[-121.76826,37.91697],[-121.71495,37.93231],[-121.66076,37.93838],[-121.56195,37.94927],[-121.51366,37.95725],[-121.44166,37.97009],[-121.38994,37.97925],[-121.25436,38.00191],[-121.24382,38.00363]],"type":"LineString"}
}
