{
  "id": 1981566997,
  "type": "Feature",
  "properties": {
    "geom:area": 0,
    "geom:bbox": "-122.564510,36.723080,-122.356840,37.714080",
    "geom:latitude": 37.26475677882878,
    "geom:longitude": -122.50393309546065,
    "src:alt_label": "swim-takeoff",
    "src:geom": "swim",
    "swim:elevations": [
      213,
      577,
      994,
      1245,
      1543,
      1683,
      2135,
      2220,
      2423,
      3461,
      3707,
      3814,
      4080,
      4546,
      5235,
      5583,
      5752,
      5915,
      6559,
      6698,
      7218,
      7475,
      7722,
      7948,
      8181,
      8326,
      8666,
      8775
    ],
    "swim:geom": "takeoff",
    "swim:timestamps": [
      1759416715,
      1759416742,
      1759416772,
      1759416800,
      1759416838,
      1759416848,
      1759416892,
      1759416918,
      1759416934,
      1759416986,
      1759417009,
      1759417021,
      1759417051,
      1759417087,
      1759417130,
      1759417168,
      1759417187,
      1759417205,
      1759417258,
      1759417271,
      1759417315,
      1759417343,
      1759417372,
      1759417403,
      1759417433,
      1759417452,
      1759417492,
      1759417504
    ],
    "wof:geomhash": "7d37637befebe69051f738776a0387fa",
    "wof:id": 1981566997,
    "wof:repo": "sfomuseum-data-flights-2025-10"
  },
  "bbox": [
    -122.56451,
    36.72308,
    -122.35684,
    37.71408
  ],
  "geometry": {"coordinates":[[-122.36519,37.63397],[-122.36063,37.65526],[-122.36142,37.67818],[-122.36987,37.69961],[-122.41483,37.71408],[-122.42984,37.71171],[-122.47363,37.6704],[-122.49553,37.64048],[-122.50972,37.62172],[-122.55399,37.56522],[-122.56379,37.53637],[-122.56418,37.51984],[-122.5644,37.47461],[-122.56424,37.41794],[-122.56401,37.34857],[-122.56411,37.28689],[-122.5644,37.25597],[-122.56451,37.2246],[-122.56406,37.13218],[-122.56404,37.10968],[-122.56367,37.03375],[-122.54753,36.98564],[-122.51508,36.93922],[-122.47965,36.89053],[-122.44335,36.84096],[-122.42098,36.81054],[-122.37122,36.74277],[-122.35684,36.72308]],"type":"LineString"}
}
