{
  "id": 1981760493,
  "type": "Feature",
  "properties": {
    "geom:area": 0,
    "geom:bbox": "-122.352040,37.491420,-121.250930,37.611310",
    "geom:latitude": 37.54611006600627,
    "geom:longitude": -121.8063020807246,
    "src:alt_label": "swim-approach",
    "src:geom": "swim",
    "swim:elevations": [
      4721,
      4678,
      4280,
      4044,
      3942,
      3820,
      3626,
      3490,
      3105,
      3016,
      2816,
      2732,
      2527,
      2321,
      2258,
      1956,
      1847,
      1828,
      1802,
      1661,
      1468,
      1201,
      984,
      822,
      763,
      548,
      549,
      462,
      340,
      286,
      176,
      94,
      61
    ],
    "swim:geom": "approach",
    "swim:timestamps": [
      1761436708,
      1761436714,
      1761436765,
      1761436798,
      1761436812,
      1761436844,
      1761436878,
      1761436897,
      1761436944,
      1761436955,
      1761436985,
      1761437000,
      1761437031,
      1761437067,
      1761437075,
      1761437128,
      1761437143,
      1761437161,
      1761437185,
      1761437208,
      1761437235,
      1761437273,
      1761437308,
      1761437331,
      1761437356,
      1761437398,
      1761437424,
      1761437454,
      1761437484,
      1761437495,
      1761437528,
      1761437548,
      1761437557
    ],
    "wof:geomhash": "e674742f21a91c411bd8b8ed9fd1c989",
    "wof:id": 1981760493,
    "wof:repo": "sfomuseum-data-flights-2025-10"
  },
  "bbox": [
    -122.35204,
    37.49142,
    -121.25093,
    37.61131
  ],
  "geometry": {"coordinates":[[-121.25093,37.59411],[-121.26196,37.59266],[-121.35548,37.5818],[-121.41372,37.5751],[-121.4392,37.57209],[-121.49157,37.56604],[-121.54531,37.55981],[-121.57538,37.55631],[-121.64559,37.54543],[-121.66143,37.54169],[-121.70578,37.53127],[-121.72708,37.5261],[-121.77143,37.51538],[-121.82201,37.50326],[-121.83338,37.50051],[-121.9084,37.49142],[-121.92966,37.49198],[-121.95449,37.49263],[-121.98426,37.49418],[-122.01228,37.50213],[-122.04343,37.51247],[-122.08558,37.52609],[-122.12462,37.53867],[-122.15151,37.54743],[-122.17838,37.55614],[-122.22024,37.56976],[-122.2438,37.57734],[-122.26868,37.58503],[-122.29342,37.59228],[-122.30313,37.5952],[-122.32982,37.60315],[-122.34515,37.6084],[-122.35204,37.61131]],"type":"LineString"}
}
