{
  "id": 1981733255,
  "type": "Feature",
  "properties": {
    "geom:area": 0,
    "geom:bbox": "-122.386240,37.629390,-121.258130,38.068850",
    "geom:latitude": 37.960858223722795,
    "geom:longitude": -121.9420891241617,
    "src:alt_label": "swim-takeoff",
    "src:geom": "swim",
    "swim:elevations": [
      152,
      396,
      890,
      1184,
      1460,
      1925,
      2139,
      2430,
      3206,
      3286,
      3457,
      3861,
      4421,
      4788,
      5341,
      5451,
      5892,
      6201,
      6601,
      6795,
      7072,
      7335,
      7752,
      7899,
      8069,
      8184,
      8652,
      8851,
      9086
    ],
    "swim:geom": "takeoff",
    "swim:timestamps": [
      1761094408,
      1761094423,
      1761094457,
      1761094490,
      1761094516,
      1761094558,
      1761094573,
      1761094591,
      1761094645,
      1761094658,
      1761094704,
      1761094725,
      1761094762,
      1761094786,
      1761094828,
      1761094837,
      1761094874,
      1761094904,
      1761094946,
      1761094967,
      1761094991,
      1761095020,
      1761095062,
      1761095075,
      1761095098,
      1761095112,
      1761095151,
      1761095172,
      1761095193
    ],
    "wof:geomhash": "d4df4a4f1b65dbb3559792d028152510",
    "wof:id": 1981733255,
    "wof:repo": "sfomuseum-data-flights-2025-10"
  },
  "bbox": [
    -122.38624,
    37.62939,
    -121.25813,
    38.06885
  ],
  "geometry": {"coordinates":[[-122.36564,37.62939],[-122.35727,37.64017],[-122.33267,37.66145],[-122.30849,37.68562],[-122.31417,37.71256],[-122.34385,37.75914],[-122.35385,37.77801],[-122.36511,37.80114],[-122.38624,37.87364],[-122.38558,37.8929],[-122.33411,37.95136],[-122.2917,37.96029],[-122.22017,37.97372],[-122.17204,37.9815],[-122.08725,37.99335],[-122.06883,37.99579],[-121.99051,38.00589],[-121.92699,38.01418],[-121.83608,38.02562],[-121.7893,38.03043],[-121.73686,38.0349],[-121.67042,38.03991],[-121.57337,38.04662],[-121.54308,38.0491],[-121.48803,38.05267],[-121.45514,38.05505],[-121.35823,38.06164],[-121.3082,38.06524],[-121.25813,38.06885]],"type":"LineString"}
}
