{
  "id": 1981720051,
  "type": "Feature",
  "properties": {
    "geom:area": 0,
    "geom:bbox": "-122.275000,37.495000,-118.369722,37.937222",
    "geom:latitude": 37.71072676903182,
    "geom:longitude": -120.32913707691172,
    "src:alt_label": "swim-path",
    "src:geom": "swim",
    "swim:altitudes": [
      "360C",
      "360C",
      "360C",
      "360C",
      "360C",
      "360C",
      "360C",
      "360C",
      "360C",
      "360C",
      "360C",
      "360C",
      "360C",
      "337",
      "226",
      "226",
      "226",
      "102",
      "102",
      "102",
      "102",
      "102",
      "073",
      "060",
      "060",
      "034",
      "034",
      "024",
      "024",
      "024",
      "015",
      "015",
      "015",
      "015"
    ],
    "swim:geom": "path",
    "swim:speeds": [
      447,
      447,
      447,
      447,
      447,
      447,
      447,
      447,
      447,
      447,
      448,
      448,
      448,
      454,
      422,
      422,
      422,
      327,
      327,
      327,
      327,
      327,
      241,
      228,
      228,
      201,
      201,
      197,
      197,
      197,
      174,
      174,
      174,
      174
    ],
    "swim:timestamps": [
      1760976270,
      1760976270,
      1760976270,
      1760976330,
      1760976330,
      1760976330,
      1760976571,
      1760976571,
      1760976571,
      1760976571,
      1760976631,
      1760976631,
      1760976631,
      1760976931,
      1760977172,
      1760977172,
      1760977172,
      1760977592,
      1760977592,
      1760977592,
      1760977592,
      1760977592,
      1760977772,
      1760977865,
      1760977865,
      1760978013,
      1760978013,
      1760978073,
      1760978073,
      1760978073,
      1760978133,
      1760978133,
      1760978133,
      1760978133
    ],
    "wof:geomhash": "db1b934f6f1b0e897b2d73aabda123c6",
    "wof:id": 1981720051,
    "wof:repo": "sfomuseum-data-flights-2025-10"
  },
  "bbox": [
    -122.275,
    37.495,
    -118.36972222222222,
    37.93722222222222
  ],
  "geometry": {"coordinates":[[-118.36972222222222,37.93722222222222],[-118.36972222222222,37.93722222222222],[-118.36972222222222,37.93722222222222],[-118.52388888888889,37.92111111111111],[-118.52388888888889,37.92111111111111],[-118.52388888888889,37.92111111111111],[-119.12694444444443,37.85416666666667],[-119.12694444444443,37.85416666666667],[-119.12694444444443,37.85416666666667],[-119.12694444444443,37.85416666666667],[-119.28444444444445,37.83583333333333],[-119.28444444444445,37.83583333333333],[-119.28444444444445,37.83583333333333],[-120.06805555555555,37.74138888888889],[-120.70055555555555,37.664722222222224],[-120.70055555555555,37.664722222222224],[-120.70055555555555,37.664722222222224],[-121.60277777777777,37.55361111111111],[-121.60277777777777,37.55361111111111],[-121.60277777777777,37.55361111111111],[-121.60277777777777,37.55361111111111],[-121.60277777777777,37.55361111111111],[-121.85805555555555,37.495],[-121.98333333333333,37.5],[-121.98333333333333,37.5],[-122.15305555555557,37.54805555555556],[-122.15305555555557,37.54805555555556],[-122.21694444444445,37.569722222222225],[-122.21694444444445,37.569722222222225],[-122.21694444444445,37.569722222222225],[-122.275,37.58722222222222],[-122.275,37.58722222222222],[-122.275,37.58722222222222],[-122.275,37.58722222222222]],"type":"LineString"}
}
