{
  "id": 1981752919,
  "type": "Feature",
  "properties": {
    "geom:area": 0,
    "geom:bbox": "-122.361850,36.731540,-121.884540,37.616010",
    "geom:latitude": 37.22279312124437,
    "geom:longitude": -122.07335726575249,
    "src:alt_label": "swim-approach",
    "src:geom": "swim",
    "swim:elevations": [
      5279,
      5065,
      4859,
      4424,
      4220,
      3931,
      3560,
      3497,
      3197,
      3125,
      3050,
      2918,
      2834,
      2517,
      2279,
      2033,
      1943,
      1706,
      1556,
      1461,
      1300,
      1037,
      954,
      705,
      546,
      423,
      306,
      45,
      0
    ],
    "swim:geom": "approach",
    "swim:timestamps": [
      1761329240,
      1761329262,
      1761329282,
      1761329330,
      1761329350,
      1761329381,
      1761329422,
      1761329430,
      1761329467,
      1761329490,
      1761329517,
      1761329539,
      1761329552,
      1761329599,
      1761329632,
      1761329665,
      1761329679,
      1761329713,
      1761329753,
      1761329770,
      1761329794,
      1761329842,
      1761329863,
      1761329905,
      1761329937,
      1761329964,
      1761329992,
      1761330058,
      1761330069
    ],
    "wof:geomhash": "8d36d2ecac50652c3be2de26bcd0e021",
    "wof:id": 1981752919,
    "wof:repo": "sfomuseum-data-flights-2025-10"
  },
  "bbox": [
    -122.36185,
    36.73154,
    -121.88454,
    37.61601
  ],
  "geometry": {"coordinates":[[-121.88454,36.73154],[-121.90078,36.76662],[-121.91031,36.80032],[-121.93252,36.8779],[-121.94145,36.90987],[-121.9561,36.96007],[-121.9803,37.02266],[-121.98471,37.03381],[-122.00667,37.08988],[-122.01915,37.12165],[-122.03359,37.15851],[-122.04479,37.18671],[-122.05131,37.20331],[-122.07418,37.26178],[-122.09007,37.30229],[-122.10615,37.34261],[-122.11288,37.35983],[-122.12794,37.40145],[-122.14312,37.44608],[-122.1493,37.46391],[-122.15727,37.48829],[-122.17202,37.53416],[-122.17909,37.55176],[-122.21857,37.56949],[-122.25202,37.58012],[-122.27753,37.58779],[-122.30106,37.59468],[-122.35357,37.61199],[-122.36185,37.61601]],"type":"LineString"}
}
