{
  "id": 1981804987,
  "type": "Feature",
  "properties": {
    "geom:area": 0,
    "geom:bbox": "-122.340990,37.397950,-121.242260,37.604430",
    "geom:latitude": 37.512335908179004,
    "geom:longitude": -121.77913706383558,
    "src:alt_label": "swim-approach",
    "src:geom": "swim",
    "swim:elevations": [
      4973,
      4788,
      4686,
      4614,
      4346,
      4296,
      4020,
      3931,
      3822,
      3771,
      3500,
      3365,
      3297,
      3050,
      3048,
      3048,
      3048,
      2961,
      2717,
      2550,
      2323,
      2285,
      2176,
      2014,
      1833,
      1829,
      1607,
      1509,
      1354,
      1139,
      952,
      914,
      775,
      673,
      622,
      542,
      365,
      273,
      150,
      110
    ],
    "swim:geom": "approach",
    "swim:timestamps": [
      1761816535,
      1761816559,
      1761816576,
      1761816588,
      1761816620,
      1761816630,
      1761816680,
      1761816712,
      1761816747,
      1761816757,
      1761816808,
      1761816828,
      1761816840,
      1761816893,
      1761816917,
      1761816926,
      1761816954,
      1761816973,
      1761817011,
      1761817040,
      1761817075,
      1761817084,
      1761817101,
      1761817123,
      1761817159,
      1761817187,
      1761817219,
      1761817230,
      1761817245,
      1761817276,
      1761817307,
      1761817346,
      1761817378,
      1761817397,
      1761817407,
      1761817422,
      1761817465,
      1761817496,
      1761817523,
      1761817540
    ],
    "wof:geomhash": "e544f14a658d6ec369a08fd8d3485485",
    "wof:id": 1981804987,
    "wof:repo": "sfomuseum-data-flights-2025-10"
  },
  "bbox": [
    -122.34099,
    37.39795,
    -121.24226,
    37.60443
  ],
  "geometry": {"coordinates":[[-121.24226,37.39795],[-121.27967,37.41531],[-121.29482,37.43777],[-121.30052,37.45363],[-121.32395,37.49774],[-121.33856,37.50682],[-121.42531,37.52168],[-121.47752,37.52925],[-121.53039,37.53709],[-121.54449,37.53924],[-121.61806,37.55014],[-121.64681,37.5475],[-121.66385,37.54899],[-121.73248,37.57421],[-121.76516,37.57904],[-121.77725,37.57548],[-121.79905,37.55028],[-121.80474,37.52998],[-121.81575,37.4879],[-121.82804,37.45834],[-121.87235,37.4446],[-121.88377,37.4438],[-121.90745,37.44201],[-121.93739,37.44021],[-121.98209,37.45321],[-122.01385,37.46643],[-122.0467,37.48034],[-122.05707,37.48467],[-122.07289,37.4915],[-122.1039,37.50458],[-122.13554,37.51788],[-122.17522,37.53464],[-122.20777,37.54845],[-122.22672,37.55637],[-122.23656,37.56042],[-122.25121,37.56676],[-122.28685,37.58165],[-122.30972,37.59132],[-122.3294,37.59954],[-122.34099,37.60443]],"type":"LineString"}
}
