{
  "id": 1981631561,
  "type": "Feature",
  "properties": {
    "geom:area": 0,
    "geom:bbox": "-123.501450,36.969180,-122.105340,37.605900",
    "geom:latitude": 37.29322056176109,
    "geom:longitude": -122.71060833608209,
    "src:alt_label": "swim-approach",
    "src:geom": "swim",
    "swim:elevations": [
      6067,
      5826,
      5604,
      5140,
      5090,
      4578,
      4560,
      4304,
      4196,
      3656,
      3556,
      3099,
      3044,
      3048,
      3048,
      2997,
      2950,
      2771,
      2686,
      2684,
      2674,
      2581,
      2464,
      2350,
      2102,
      1980,
      1922,
      1827,
      1829,
      1829,
      1684,
      1553,
      1417,
      1227,
      1219,
      1143,
      999,
      882,
      850,
      642,
      540,
      411,
      355,
      279,
      204,
      95,
      74
    ],
    "swim:geom": "approach",
    "swim:timestamps": [
      1760124956,
      1760124980,
      1760125001,
      1760125047,
      1760125054,
      1760125104,
      1760125107,
      1760125131,
      1760125141,
      1760125197,
      1760125209,
      1760125256,
      1760125268,
      1760125286,
      1760125294,
      1760125336,
      1760125352,
      1760125397,
      1760125438,
      1760125447,
      1760125454,
      1760125489,
      1760125515,
      1760125536,
      1760125579,
      1760125602,
      1760125614,
      1760125645,
      1760125677,
      1760125696,
      1760125728,
      1760125768,
      1760125792,
      1760125823,
      1760125858,
      1760125878,
      1760125911,
      1760125943,
      1760125955,
      1760126000,
      1760126029,
      1760126062,
      1760126085,
      1760126106,
      1760126128,
      1760126158,
      1760126165
    ],
    "wof:geomhash": "ca36f388727086c87ab44ee7624d60ee",
    "wof:id": 1981631561,
    "wof:repo": "sfomuseum-data-flights-2025-10"
  },
  "bbox": [
    -123.50145,
    36.96918,
    -122.10534,
    37.6059
  ],
  "geometry": {"coordinates":[[-123.50145,36.96918],[-123.45382,36.99802],[-123.41246,37.023],[-123.32114,37.07972],[-123.30823,37.08765],[-123.20873,37.14803],[-123.20281,37.1516],[-123.15488,37.18064],[-123.13461,37.19155],[-123.00734,37.22357],[-122.98015,37.23003],[-122.87379,37.25523],[-122.84745,37.26136],[-122.80928,37.27028],[-122.7934,37.27393],[-122.71242,37.29295],[-122.68439,37.29959],[-122.60367,37.3183],[-122.53563,37.31628],[-122.52187,37.31235],[-122.51138,37.3094],[-122.46223,37.29528],[-122.42443,37.29242],[-122.40115,37.30791],[-122.39058,37.3538],[-122.37134,37.3731],[-122.35488,37.37793],[-122.31243,37.38734],[-122.26979,37.39717],[-122.24477,37.40303],[-122.20249,37.41319],[-122.15381,37.42459],[-122.12685,37.43106],[-122.10534,37.45322],[-122.12064,37.4807],[-122.13298,37.49501],[-122.15306,37.51811],[-122.17855,37.53578],[-122.18926,37.54052],[-122.2289,37.55731],[-122.25342,37.56762],[-122.27778,37.57785],[-122.29245,37.58398],[-122.30582,37.58964],[-122.32058,37.59587],[-122.34007,37.604],[-122.3446,37.6059]],"type":"LineString"}
}
