{
  "id": 1981746497,
  "type": "Feature",
  "properties": {
    "geom:area": 0,
    "geom:bbox": "-122.645278,37.400000,-107.789444,50.215556",
    "geom:latitude": 43.93055950218071,
    "geom:longitude": -115.79936918463957,
    "src:alt_label": "swim-path",
    "src:geom": "swim",
    "swim:altitudes": [
      "380C",
      "380C",
      "380C",
      "380C",
      "380C",
      "380C",
      "380C",
      "380C",
      "380C",
      "380C",
      "380C",
      "380C",
      "380C",
      "380C",
      "380C",
      "380C",
      "380C",
      "380C",
      "380C",
      "380C",
      "380C",
      "380C",
      "380C",
      "380C",
      "380C",
      "380C",
      "380C",
      "380C",
      "380C",
      "380C",
      "380C",
      "380C",
      "380C",
      "380C",
      "380C",
      "380C",
      "380C",
      "380C",
      "380C",
      "380C",
      "380C",
      "380C",
      "380C",
      "380C",
      "380C",
      "380C",
      "380C",
      "380C",
      "380C",
      "380C",
      "380C",
      "380C",
      "380C",
      "380C",
      "380C",
      "380C",
      "380C",
      "380C",
      "380C",
      "380C",
      "380C",
      "380C",
      "380C",
      "380C",
      "380C",
      "380C",
      "380C",
      "380C",
      "380C",
      "380C",
      "380C",
      "380C",
      "380C",
      "380C",
      "380C",
      "380C",
      "380C",
      "380C",
      "380C",
      "380C",
      "380C",
      "380C",
      "380C",
      "380C",
      "380C",
      "380C",
      "380C",
      "380C",
      "380C",
      "380C",
      "380C",
      "380C",
      "380C",
      "380C",
      "380C",
      "380C",
      "380C",
      "380C",
      "380C",
      "380C",
      "380C",
      "380C",
      "380C",
      "380C",
      "380C",
      "380C",
      "380C",
      "380C",
      "380C",
      "380C",
      "380C",
      "380C",
      "380C",
      "380C",
      "380C",
      "380C",
      "380",
      "380",
      "380",
      "380",
      "360",
      "360",
      "338",
      "338",
      "338",
      "338",
      "298",
      "298",
      "261",
      "261",
      "242",
      "242",
      "242",
      "242",
      "161",
      "161",
      "150",
      "131",
      "131",
      "131",
      "131",
      "111C",
      "111C",
      "111C",
      "111C",
      "110C",
      "110C",
      "110C",
      "110C",
      "110C",
      "060",
      "060",
      "040",
      "040",
      "040",
      "040",
      "021",
      "021",
      "021",
      "021",
      "021",
      "013",
      "013",
      "013",
      "013"
    ],
    "swim:geom": "path",
    "swim:speeds": [
      485,
      485,
      485,
      485,
      485,
      485,
      480,
      480,
      480,
      480,
      474,
      474,
      474,
      474,
      474,
      474,
      474,
      481,
      481,
      480,
      480,
      480,
      480,
      480,
      480,
      480,
      481,
      481,
      481,
      481,
      481,
      481,
      481,
      483,
      483,
      483,
      485,
      485,
      485,
      485,
      485,
      485,
      485,
      490,
      490,
      490,
      490,
      490,
      490,
      490,
      490,
      490,
      490,
      490,
      490,
      490,
      490,
      490,
      490,
      490,
      492,
      492,
      492,
      492,
      492,
      494,
      493,
      493,
      494,
      494,
      494,
      494,
      494,
      494,
      494,
      494,
      494,
      494,
      494,
      494,
      494,
      494,
      494,
      494,
      494,
      494,
      494,
      495,
      495,
      500,
      500,
      500,
      500,
      499,
      499,
      500,
      500,
      500,
      500,
      498,
      497,
      497,
      497,
      499,
      499,
      499,
      500,
      500,
      497,
      497,
      497,
      494,
      494,
      492,
      492,
      492,
      483,
      483,
      483,
      483,
      470,
      470,
      464,
      464,
      464,
      464,
      437,
      437,
      434,
      434,
      433,
      433,
      433,
      433,
      364,
      364,
      363,
      333,
      333,
      333,
      333,
      285,
      285,
      285,
      283,
      281,
      281,
      281,
      281,
      281,
      247,
      247,
      184,
      184,
      184,
      184,
      176,
      176,
      176,
      176,
      176,
      144,
      144,
      144,
      144
    ],
    "swim:timestamps": [
      1761262881,
      1761262881,
      1761262881,
      1761262881,
      1761262881,
      1761262881,
      1761262941,
      1761262941,
      1761262941,
      1761262941,
      1761263482,
      1761263482,
      1761263482,
      1761263482,
      1761263482,
      1761263482,
      1761263482,
      1761263903,
      1761263903,
      1761264143,
      1761264143,
      1761264143,
      1761264143,
      1761264143,
      1761264143,
      1761264143,
      1761264984,
      1761264984,
      1761264984,
      1761264984,
      1761264984,
      1761264984,
      1761264984,
      1761265345,
      1761265345,
      1761265345,
      1761265465,
      1761265465,
      1761265465,
      1761265465,
      1761265465,
      1761265465,
      1761265465,
      1761265763,
      1761265763,
      1761265763,
      1761265823,
      1761265823,
      1761266063,
      1761266063,
      1761266063,
      1761266063,
      1761266123,
      1761266123,
      1761266123,
      1761266123,
      1761266364,
      1761266364,
      1761266364,
      1761266364,
      1761266544,
      1761266544,
      1761266544,
      1761266544,
      1761266544,
      1761266724,
      1761266784,
      1761266784,
      1761266844,
      1761266844,
      1761266904,
      1761266904,
      1761266904,
      1761267085,
      1761267085,
      1761267085,
      1761267085,
      1761267085,
      1761267145,
      1761267145,
      1761267326,
      1761267326,
      1761267326,
      1761267326,
      1761267386,
      1761267386,
      1761267386,
      1761267476,
      1761267476,
      1761267566,
      1761268016,
      1761268016,
      1761268016,
      1761268167,
      1761268167,
      1761268196,
      1761268196,
      1761268227,
      1761268227,
      1761268317,
      1761268407,
      1761268407,
      1761268407,
      1761268588,
      1761268588,
      1761268588,
      1761268768,
      1761268797,
      1761269037,
      1761269037,
      1761269037,
      1761269098,
      1761269098,
      1761269218,
      1761269218,
      1761269218,
      1761269398,
      1761269398,
      1761269398,
      1761269398,
      1761269578,
      1761269578,
      1761269638,
      1761269638,
      1761269638,
      1761269638,
      1761269758,
      1761269758,
      1761269818,
      1761269818,
      1761269878,
      1761269878,
      1761269878,
      1761269878,
      1761270128,
      1761270128,
      1761270179,
      1761270249,
      1761270249,
      1761270249,
      1761270249,
      1761270359,
      1761270359,
      1761270359,
      1761270419,
      1761270479,
      1761270479,
      1761270479,
      1761270479,
      1761270479,
      1761270663,
      1761270663,
      1761270840,
      1761270840,
      1761270840,
      1761270840,
      1761271020,
      1761271020,
      1761271020,
      1761271020,
      1761271020,
      1761271080,
      1761271080,
      1761271080,
      1761271080
    ],
    "wof:geomhash": "b52a12e15d03781cc2a9b515250fc89e",
    "wof:id": 1981746497,
    "wof:repo": "sfomuseum-data-flights-2025-10"
  },
  "bbox": [
    -122.64527777777778,
    37.4,
    -107.78944444444444,
    50.21555555555556
  ],
  "geometry": {"coordinates":[[-107.78944444444444,50.21555555555556],[-107.78944444444444,50.21555555555556],[-107.78944444444444,50.21555555555556],[-107.78944444444444,50.21555555555556],[-107.78944444444444,50.21555555555556],[-107.78944444444444,50.21555555555556],[-107.93444444444445,50.12722222222222],[-107.93444444444445,50.12722222222222],[-107.93444444444445,50.12722222222222],[-107.93444444444445,50.12722222222222],[-109.14750000000001,49.23555555555556],[-109.14750000000001,49.23555555555556],[-109.14750000000001,49.23555555555556],[-109.14750000000001,49.23555555555556],[-109.14750000000001,49.23555555555556],[-109.14750000000001,49.23555555555556],[-109.14750000000001,49.23555555555556],[-110.07277777777777,48.52638888888889],[-110.07277777777777,48.52638888888889],[-110.58833333333332,48.119166666666665],[-110.58833333333332,48.119166666666665],[-110.58833333333332,48.119166666666665],[-110.58833333333332,48.119166666666665],[-110.58833333333332,48.119166666666665],[-110.58833333333332,48.119166666666665],[-110.58833333333332,48.119166666666665],[-112.43972222222223,46.754444444444445],[-112.43972222222223,46.754444444444445],[-112.43972222222223,46.754444444444445],[-112.43972222222223,46.754444444444445],[-112.43972222222223,46.754444444444445],[-112.43972222222223,46.754444444444445],[-112.43972222222223,46.754444444444445],[-113.26861111111111,46.17305555555555],[-113.26861111111111,46.17305555555555],[-113.26861111111111,46.17305555555555],[-113.54444444444444,45.97527777777778],[-113.54444444444444,45.97527777777778],[-113.54444444444444,45.97527777777778],[-113.54444444444444,45.97527777777778],[-113.54444444444444,45.97527777777778],[-113.54444444444444,45.97527777777778],[-113.54444444444444,45.97527777777778],[-114.21527777777779,45.48583333333333],[-114.21527777777779,45.48583333333333],[-114.21527777777779,45.48583333333333],[-114.34861111111111,45.38722222222222],[-114.34861111111111,45.38722222222222],[-114.87666666666667,44.990833333333335],[-114.87666666666667,44.990833333333335],[-114.87666666666667,44.990833333333335],[-114.87666666666667,44.990833333333335],[-115.00666666666666,44.89222222222222],[-115.00666666666666,44.89222222222222],[-115.00666666666666,44.89222222222222],[-115.00666666666666,44.89222222222222],[-115.5286111111111,44.490833333333335],[-115.5286111111111,44.490833333333335],[-115.5286111111111,44.490833333333335],[-115.5286111111111,44.490833333333335],[-115.91861111111112,44.18555555555555],[-115.91861111111112,44.18555555555555],[-115.91861111111112,44.18555555555555],[-115.91861111111112,44.18555555555555],[-115.91861111111112,44.18555555555555],[-116.30638888888889,43.8775],[-116.43277777777779,43.77638888888889],[-116.43277777777779,43.77638888888889],[-116.56055555555555,43.67333333333333],[-116.56055555555555,43.67333333333333],[-116.68611111111112,43.57138888888889],[-116.68611111111112,43.57138888888889],[-116.68611111111112,43.57138888888889],[-117.06388888888888,43.26277777777778],[-117.06388888888888,43.26277777777778],[-117.06388888888888,43.26277777777778],[-117.06388888888888,43.26277777777778],[-117.06388888888888,43.26277777777778],[-117.18833333333333,43.16],[-117.18833333333333,43.16],[-117.56,42.85055555555556],[-117.56,42.85055555555556],[-117.56,42.85055555555556],[-117.56,42.85055555555556],[-117.68138888888889,42.748333333333335],[-117.68138888888889,42.748333333333335],[-117.68138888888889,42.748333333333335],[-117.84888888888888,42.605555555555554],[-117.84888888888888,42.605555555555554],[-118.01805555555555,42.414722222222224],[-118.745,41.54555555555555],[-118.745,41.54555555555555],[-118.745,41.54555555555555],[-119.03166666666667,41.26166666666666],[-119.03166666666667,41.26166666666666],[-119.10527777777777,41.19555555555555],[-119.10527777777777,41.19555555555555],[-119.15,41.155277777777776],[-119.15,41.155277777777776],[-119.3386111111111,40.984722222222224],[-119.5075,40.83083333333334],[-119.5075,40.83083333333334],[-119.5075,40.83083333333334],[-119.85583333333332,40.510555555555555],[-119.85583333333332,40.510555555555555],[-119.85583333333332,40.510555555555555],[-120.20194444444445,40.18833333333333],[-120.24888888888889,40.144444444444446],[-120.71666666666667,39.70138888888889],[-120.71666666666667,39.70138888888889],[-120.71666666666667,39.70138888888889],[-120.82694444444444,39.59583333333334],[-120.82694444444444,39.59583333333334],[-121.04888888888888,39.38194444444444],[-121.04888888888888,39.38194444444444],[-121.04888888888888,39.38194444444444],[-121.45027777777779,39.13055555555555],[-121.45027777777779,39.13055555555555],[-121.45027777777779,39.13055555555555],[-121.45027777777779,39.13055555555555],[-121.85666666666665,38.89138888888889],[-121.85666666666665,38.89138888888889],[-121.9875,38.81361111111111],[-121.9875,38.81361111111111],[-121.9875,38.81361111111111],[-121.9875,38.81361111111111],[-122.235,38.66583333333333],[-122.235,38.66583333333333],[-122.33138888888888,38.573888888888895],[-122.33138888888888,38.573888888888895],[-122.38805555555557,38.46277777777778],[-122.38805555555557,38.46277777777778],[-122.38805555555557,38.46277777777778],[-122.38805555555557,38.46277777777778],[-122.61666666666666,38.016666666666666],[-122.61666666666666,38.016666666666666],[-122.64527777777778,37.955000000000005],[-122.61666666666666,37.833333333333336],[-122.61666666666666,37.833333333333336],[-122.61666666666666,37.833333333333336],[-122.61666666666666,37.833333333333336],[-122.49138888888889,37.72833333333333],[-122.49138888888889,37.72833333333333],[-122.49138888888889,37.72833333333333],[-122.42722222222223,37.6675],[-122.36527777777778,37.60916666666667],[-122.36527777777778,37.60916666666667],[-122.36527777777778,37.60916666666667],[-122.36527777777778,37.60916666666667],[-122.36527777777778,37.60916666666667],[-122.26666666666667,37.4],[-122.26666666666667,37.4],[-122.10222222222221,37.4675],[-122.10222222222221,37.4675],[-122.10222222222221,37.4675],[-122.10222222222221,37.4675],[-122.2375,37.56083333333333],[-122.2375,37.56083333333333],[-122.2375,37.56083333333333],[-122.2375,37.56083333333333],[-122.2375,37.56083333333333],[-122.2875,37.581944444444446],[-122.2875,37.581944444444446],[-122.2875,37.581944444444446],[-122.2875,37.581944444444446]],"type":"LineString"}
}
