{
  "id": 1981694215,
  "type": "Feature",
  "properties": {
    "geom:area": 0,
    "geom:bbox": "-122.356830,37.418480,-121.245260,37.613330",
    "geom:latitude": 37.53949605800324,
    "geom:longitude": -121.80359067480904,
    "src:alt_label": "swim-approach",
    "src:geom": "swim",
    "swim:elevations": [
      4940,
      4855,
      4551,
      4146,
      4016,
      3960,
      3755,
      3636,
      3351,
      3353,
      3240,
      3050,
      2927,
      2628,
      2483,
      2439,
      2346,
      2200,
      2134,
      2012,
      1905,
      1857,
      1827,
      1555,
      1378,
      1328,
      1185,
      1159,
      1009,
      947,
      738,
      621,
      463,
      304,
      243,
      156,
      37
    ],
    "swim:geom": "approach",
    "swim:timestamps": [
      1760692918,
      1760692925,
      1760692962,
      1760692999,
      1760693032,
      1760693047,
      1760693087,
      1760693104,
      1760693154,
      1760693163,
      1760693199,
      1760693231,
      1760693255,
      1760693302,
      1760693335,
      1760693352,
      1760693374,
      1760693403,
      1760693444,
      1760693478,
      1760693518,
      1760693539,
      1760693553,
      1760693601,
      1760693630,
      1760693642,
      1760693667,
      1760693671,
      1760693697,
      1760693712,
      1760693754,
      1760693780,
      1760693807,
      1760693846,
      1760693864,
      1760693882,
      1760693913
    ],
    "wof:geomhash": "44459a0b78fdb36f588d06b88a4acab3",
    "wof:id": 1981694215,
    "wof:repo": "sfomuseum-data-flights-2025-10"
  },
  "bbox": [
    -122.35683,
    37.41848,
    -121.24526,
    37.61333
  ],
  "geometry": {"coordinates":[[-121.24526,37.59508],[-121.25879,37.59328],[-121.32817,37.58527],[-121.39565,37.57758],[-121.45359,37.57072],[-121.47849,37.5678],[-121.54073,37.56059],[-121.56703,37.55761],[-121.63667,37.57314],[-121.64866,37.57636],[-121.69646,37.58926],[-121.74237,37.59488],[-121.77161,37.57697],[-121.77606,37.51813],[-121.77214,37.47707],[-121.77026,37.45572],[-121.77975,37.43151],[-121.8178,37.41848],[-121.86743,37.43308],[-121.90528,37.45247],[-121.94917,37.47492],[-121.97183,37.48674],[-121.98739,37.49432],[-122.04576,37.51342],[-122.0799,37.52454],[-122.09284,37.52869],[-122.12048,37.5377],[-122.12511,37.5392],[-122.15399,37.54852],[-122.16913,37.55348],[-122.21368,37.56786],[-122.23974,37.57627],[-122.26744,37.58509],[-122.30169,37.59495],[-122.3166,37.59934],[-122.33222,37.60411],[-122.35683,37.61333]],"type":"LineString"}
}
