{
  "id": 1981770301,
  "type": "Feature",
  "properties": {
    "geom:area": 0,
    "geom:bbox": "-122.713333,37.406667,-73.531389,45.415278",
    "geom:latitude": 43.065847275133166,
    "geom:longitude": -98.6898458370183,
    "src:alt_label": "swim-path",
    "src:geom": "swim",
    "swim:altitudes": [
      "005",
      "031",
      "031",
      "059",
      "143",
      "143",
      "143",
      "143",
      "196",
      "196",
      "196",
      "196",
      "196",
      "220",
      "220",
      "220",
      "250",
      "250",
      "250",
      "271",
      "281",
      "292",
      "292",
      "308",
      "308",
      "308",
      "318C",
      "318C",
      "320C",
      "320C",
      "320C",
      "320C",
      "320C",
      "320C",
      "320C",
      "320C",
      "320C",
      "320C",
      "320C",
      "320C",
      "320C",
      "320C",
      "320C",
      "320C",
      "320C",
      "320C",
      "320C",
      "320C",
      "320C",
      "320C",
      "320C",
      "320C",
      "320C",
      "320C",
      "320C",
      "320C",
      "340C",
      "340C",
      "340C",
      "340C",
      "340C",
      "340C",
      "340C",
      "340C",
      "340C",
      "340C",
      "340C",
      "340C",
      "340C",
      "340C",
      "340C",
      "340C",
      "340C",
      "340C",
      "340C",
      "340C",
      "340C",
      "340C",
      "340C",
      "340C",
      "340C",
      "340C",
      "340C",
      "340C",
      "340C",
      "340C",
      "340C",
      "340C",
      "340C",
      "340C",
      "340C",
      "340C",
      "340C",
      "340C",
      "340C",
      "340C",
      "340C",
      "340C",
      "340C",
      "340C",
      "340C",
      "340C",
      "340C",
      "340C",
      "340C",
      "340C",
      "340C",
      "340C",
      "340C",
      "340C",
      "340C",
      "340C",
      "340C",
      "340C",
      "340C",
      "340C",
      "340C",
      "340C",
      "340C",
      "340C",
      "340C",
      "340C",
      "340C",
      "340C",
      "340C",
      "340C",
      "340C",
      "340C",
      "340C",
      "340C",
      "340C",
      "340C",
      "340C",
      "340C",
      "340C",
      "357",
      "360C",
      "360C",
      "360C",
      "360C",
      "360C",
      "360C",
      "360C",
      "360C",
      "360C",
      "360C",
      "360C",
      "360C",
      "360C",
      "360C",
      "360C",
      "360C",
      "360C",
      "360C",
      "360C",
      "360C",
      "360C",
      "360C",
      "360C",
      "360C",
      "360C",
      "360C",
      "360C",
      "360C",
      "360C",
      "360C",
      "360C",
      "360C",
      "360C",
      "360C",
      "360C",
      "360C",
      "360C",
      "360C",
      "360C",
      "360C",
      "360C",
      "360C",
      "360C",
      "360C",
      "360C",
      "360C",
      "360C",
      "360C",
      "360C",
      "360C",
      "360C",
      "360C",
      "360C",
      "360C",
      "360C",
      "360C",
      "360C",
      "360C",
      "360C",
      "360C",
      "360C",
      "360C",
      "360C",
      "360C",
      "360C",
      "360C",
      "360C",
      "360C",
      "360C",
      "360C",
      "360C",
      "360C",
      "360C",
      "360C",
      "360C",
      "360C",
      "360C",
      "360C",
      "360C",
      "360C",
      "360C",
      "360C",
      "360C",
      "360C",
      "360C",
      "360C",
      "360C",
      "360C",
      "360C",
      "360C",
      "360C",
      "360C",
      "360C",
      "360C",
      "360C",
      "360C",
      "360C",
      "360C",
      "360C",
      "360C",
      "360C",
      "360C",
      "360C",
      "360C",
      "360C",
      "360C",
      "360C",
      "360C",
      "360C",
      "360C",
      "360C",
      "360C",
      "360C",
      "360C",
      "360C",
      "360C",
      "360C",
      "360C",
      "360C",
      "360C",
      "360C",
      "360C",
      "360C",
      "360C",
      "360C",
      "360C",
      "360C",
      "360C",
      "360C",
      "360C",
      "360C",
      "360C",
      "360C",
      "360C",
      "360C",
      "360C",
      "360C",
      "360C",
      "360C",
      "360C",
      "360C",
      "360C",
      "360C",
      "360C",
      "360C",
      "360C",
      "360C",
      "360C",
      "360C",
      "360C",
      "360C",
      "360C",
      "360C",
      "360C",
      "360C",
      "360C",
      "360C",
      "360C",
      "360C",
      "360C",
      "360C",
      "360C",
      "360C",
      "360C",
      "360C",
      "360C",
      "360C",
      "360C",
      "360C",
      "360C",
      "360C",
      "360C",
      "360C",
      "360C",
      "360C",
      "360C",
      "360C",
      "360C",
      "360C",
      "360C",
      "360C",
      "360",
      "360",
      "360",
      "313",
      "283",
      "283",
      "283",
      "211",
      "211",
      "152",
      "114",
      "110C",
      "110",
      "051",
      "051",
      "051",
      "043",
      "031",
      "026",
      "017",
      "006"
    ],
    "swim:geom": "path",
    "swim:speeds": [
      170,
      247,
      247,
      264,
      363,
      363,
      363,
      363,
      375,
      375,
      375,
      375,
      375,
      386,
      386,
      386,
      407,
      408,
      408,
      410,
      418,
      427,
      427,
      423,
      423,
      423,
      421,
      421,
      421,
      424,
      426,
      427,
      427,
      427,
      427,
      437,
      437,
      437,
      438,
      438,
      438,
      438,
      438,
      444,
      445,
      446,
      446,
      446,
      446,
      446,
      463,
      463,
      463,
      463,
      463,
      463,
      459,
      459,
      459,
      459,
      459,
      459,
      460,
      460,
      460,
      460,
      467,
      467,
      467,
      467,
      472,
      472,
      472,
      472,
      473,
      473,
      475,
      475,
      475,
      475,
      476,
      476,
      476,
      476,
      476,
      477,
      477,
      477,
      476,
      475,
      475,
      475,
      475,
      473,
      473,
      473,
      473,
      472,
      472,
      474,
      474,
      474,
      471,
      471,
      471,
      471,
      471,
      471,
      471,
      470,
      470,
      469,
      469,
      469,
      469,
      469,
      469,
      470,
      470,
      471,
      471,
      471,
      471,
      471,
      471,
      471,
      471,
      471,
      471,
      471,
      471,
      467,
      465,
      465,
      465,
      457,
      455,
      455,
      455,
      454,
      453,
      453,
      453,
      453,
      453,
      453,
      451,
      451,
      448,
      448,
      448,
      448,
      448,
      448,
      447,
      446,
      446,
      446,
      446,
      445,
      445,
      446,
      446,
      446,
      446,
      446,
      447,
      447,
      445,
      445,
      445,
      440,
      440,
      440,
      436,
      436,
      436,
      428,
      428,
      428,
      428,
      428,
      428,
      420,
      420,
      420,
      420,
      420,
      420,
      423,
      423,
      423,
      423,
      423,
      420,
      417,
      417,
      415,
      415,
      415,
      415,
      412,
      412,
      411,
      411,
      415,
      415,
      415,
      417,
      411,
      411,
      409,
      409,
      411,
      408,
      408,
      408,
      408,
      408,
      409,
      409,
      409,
      408,
      408,
      406,
      406,
      406,
      406,
      401,
      401,
      401,
      401,
      401,
      401,
      399,
      399,
      399,
      401,
      401,
      401,
      399,
      399,
      396,
      396,
      388,
      388,
      390,
      390,
      390,
      388,
      388,
      384,
      382,
      382,
      382,
      382,
      381,
      379,
      379,
      377,
      377,
      377,
      377,
      376,
      372,
      372,
      367,
      368,
      368,
      368,
      371,
      371,
      371,
      371,
      370,
      370,
      369,
      348,
      349,
      349,
      348,
      349,
      345,
      343,
      343,
      343,
      345,
      345,
      345,
      345,
      345,
      345,
      357,
      357,
      360,
      361,
      361,
      358,
      359,
      358,
      362,
      362,
      366,
      366,
      367,
      368,
      368,
      368,
      373,
      374,
      374,
      374,
      377,
      377,
      381,
      381,
      381,
      387,
      388,
      388,
      403,
      411,
      411,
      411,
      348,
      348,
      378,
      377,
      323,
      279,
      204,
      204,
      204,
      189,
      180,
      177,
      163,
      120
    ],
    "swim:timestamps": [
      1761529503,
      1761529581,
      1761529581,
      1761529646,
      1761529886,
      1761529886,
      1761529886,
      1761529886,
      1761530187,
      1761530187,
      1761530187,
      1761530187,
      1761530187,
      1761530307,
      1761530307,
      1761530307,
      1761530547,
      1761530608,
      1761530608,
      1761530728,
      1761530788,
      1761530848,
      1761530848,
      1761530908,
      1761530908,
      1761530908,
      1761530968,
      1761530968,
      1761531028,
      1761531148,
      1761531208,
      1761531268,
      1761531268,
      1761531268,
      1761531268,
      1761531569,
      1761531569,
      1761531569,
      1761531629,
      1761531629,
      1761531629,
      1761531629,
      1761531629,
      1761531991,
      1761532051,
      1761532111,
      1761532111,
      1761532111,
      1761532111,
      1761532111,
      1761532351,
      1761532351,
      1761532351,
      1761532351,
      1761532351,
      1761532351,
      1761533297,
      1761533297,
      1761533297,
      1761533297,
      1761533297,
      1761533357,
      1761533433,
      1761533433,
      1761533433,
      1761533433,
      1761533793,
      1761533793,
      1761533793,
      1761533793,
      1761533971,
      1761533971,
      1761534031,
      1761534031,
      1761534078,
      1761534078,
      1761534151,
      1761534151,
      1761534151,
      1761534151,
      1761534378,
      1761534378,
      1761534378,
      1761534378,
      1761534378,
      1761534438,
      1761534438,
      1761534438,
      1761534619,
      1761534739,
      1761534739,
      1761534739,
      1761534739,
      1761534919,
      1761534919,
      1761534919,
      1761534919,
      1761535039,
      1761535039,
      1761535219,
      1761535219,
      1761535219,
      1761535339,
      1761535339,
      1761535339,
      1761535339,
      1761535339,
      1761535519,
      1761535519,
      1761535580,
      1761535580,
      1761535640,
      1761535640,
      1761535760,
      1761535760,
      1761535760,
      1761535760,
      1761535880,
      1761535880,
      1761536120,
      1761536120,
      1761536120,
      1761536120,
      1761536120,
      1761536120,
      1761536420,
      1761536480,
      1761536480,
      1761536480,
      1761536480,
      1761536480,
      1761536600,
      1761536720,
      1761536720,
      1761536720,
      1761537021,
      1761537081,
      1761537081,
      1761537081,
      1761537141,
      1761537201,
      1761537201,
      1761537201,
      1761537321,
      1761537321,
      1761537321,
      1761537441,
      1761537441,
      1761537681,
      1761537681,
      1761537741,
      1761537741,
      1761537741,
      1761537741,
      1761538041,
      1761538102,
      1761538102,
      1761538102,
      1761538102,
      1761538222,
      1761538222,
      1761538342,
      1761538342,
      1761538462,
      1761538462,
      1761538462,
      1761538642,
      1761538642,
      1761538762,
      1761538762,
      1761538762,
      1761538882,
      1761538882,
      1761538882,
      1761538942,
      1761538942,
      1761538942,
      1761539302,
      1761539302,
      1761539302,
      1761539302,
      1761539302,
      1761539302,
      1761539603,
      1761539654,
      1761539654,
      1761539654,
      1761539723,
      1761539723,
      1761540015,
      1761540015,
      1761540015,
      1761540023,
      1761540023,
      1761540195,
      1761540255,
      1761540255,
      1761540317,
      1761540317,
      1761540323,
      1761540323,
      1761540495,
      1761540503,
      1761540555,
      1761540555,
      1761540735,
      1761540735,
      1761540735,
      1761540795,
      1761540915,
      1761540915,
      1761540975,
      1761540975,
      1761541043,
      1761541276,
      1761541276,
      1761541336,
      1761541336,
      1761541336,
      1761541456,
      1761541456,
      1761541456,
      1761541516,
      1761541516,
      1761541639,
      1761541639,
      1761541639,
      1761541639,
      1761541878,
      1761541999,
      1761541999,
      1761541999,
      1761541999,
      1761541999,
      1761542356,
      1761542356,
      1761542356,
      1761542537,
      1761542537,
      1761542537,
      1761542661,
      1761542661,
      1761542901,
      1761542901,
      1761543261,
      1761543261,
      1761543381,
      1761543381,
      1761543381,
      1761543441,
      1761543441,
      1761543619,
      1761543740,
      1761543740,
      1761543740,
      1761543740,
      1761543802,
      1761543862,
      1761543862,
      1761543982,
      1761543982,
      1761543982,
      1761544160,
      1761544221,
      1761544400,
      1761544400,
      1761544581,
      1761544700,
      1761544700,
      1761544760,
      1761544881,
      1761544881,
      1761544881,
      1761545062,
      1761545122,
      1761545122,
      1761545183,
      1761545721,
      1761545786,
      1761545786,
      1761545843,
      1761545906,
      1761546147,
      1761546201,
      1761546201,
      1761546201,
      1761546447,
      1761546501,
      1761546507,
      1761546507,
      1761546507,
      1761546627,
      1761546803,
      1761546803,
      1761547104,
      1761547164,
      1761547164,
      1761547287,
      1761547467,
      1761547522,
      1761547582,
      1761547582,
      1761547702,
      1761547828,
      1761547948,
      1761548064,
      1761548064,
      1761548064,
      1761548728,
      1761548788,
      1761548788,
      1761548848,
      1761548968,
      1761548968,
      1761549028,
      1761549028,
      1761549028,
      1761549328,
      1761549388,
      1761549388,
      1761549569,
      1761549629,
      1761549629,
      1761549629,
      1761549869,
      1761549869,
      1761550042,
      1761550169,
      1761550229,
      1761550276,
      1761550589,
      1761550589,
      1761550589,
      1761550649,
      1761550751,
      1761550829,
      1761550889,
      1761550985
    ],
    "wof:geomhash": "4837159ad6f6394d5b0d7d3fe2abb39c",
    "wof:id": 1981770301,
    "wof:repo": "sfomuseum-data-flights-2025-10"
  },
  "bbox": [
    -122.71333333333334,
    37.406666666666666,
    -73.53138888888888,
    45.415277777777774
  ],
  "geometry": {"coordinates":[[-73.8,40.65],[-73.88333333333334,40.61666666666667],[-73.88333333333334,40.61666666666667],[-73.83972222222222,40.558611111111105],[-73.53138888888888,40.77361111111111],[-73.53138888888888,40.77361111111111],[-73.53138888888888,40.77361111111111],[-73.53138888888888,40.77361111111111],[-73.98666666666666,41.156388888888884],[-73.98666666666666,41.156388888888884],[-73.98666666666666,41.156388888888884],[-73.98666666666666,41.156388888888884],[-73.98666666666666,41.156388888888884],[-74.19777777777779,41.29944444444444],[-74.19777777777779,41.29944444444444],[-74.19777777777779,41.29944444444444],[-74.66555555555556,41.53972222222222],[-74.79861111111111,41.59722222222222],[-74.79861111111111,41.59722222222222],[-75.06305555555555,41.71],[-75.19722222222222,41.766666666666666],[-75.33583333333333,41.82527777777778],[-75.33583333333333,41.82527777777778],[-75.47166666666666,41.882222222222225],[-75.47166666666666,41.882222222222225],[-75.47166666666666,41.882222222222225],[-75.60666666666665,41.93861111111111],[-75.60666666666665,41.93861111111111],[-75.74305555555556,41.99527777777778],[-76.03555555555555,42.11611111111111],[-76.1763888888889,42.17027777777778],[-76.32277777777777,42.2175],[-76.32277777777777,42.2175],[-76.32277777777777,42.2175],[-76.32277777777777,42.2175],[-77.07638888888889,42.45527777777778],[-77.07638888888889,42.45527777777778],[-77.07638888888889,42.45527777777778],[-77.22916666666667,42.5025],[-77.22916666666667,42.5025],[-77.22916666666667,42.5025],[-77.22916666666667,42.5025],[-77.22916666666667,42.5025],[-78.14361111111111,42.77111111111111],[-78.30388888888889,42.815555555555555],[-78.46138888888889,42.85861111111111],[-78.46138888888889,42.85861111111111],[-78.46138888888889,42.85861111111111],[-78.46138888888889,42.85861111111111],[-78.46138888888889,42.85861111111111],[-79.165,42.97361111111111],[-79.165,42.97361111111111],[-79.165,42.97361111111111],[-79.165,42.97361111111111],[-79.165,42.97361111111111],[-79.165,42.97361111111111],[-81.83833333333332,43.35138888888889],[-81.83833333333332,43.35138888888889],[-81.83833333333332,43.35138888888889],[-81.83833333333332,43.35138888888889],[-81.83833333333332,43.35138888888889],[-82.01694444444445,43.39083333333333],[-82.2063888888889,43.43222222222222],[-82.2063888888889,43.43222222222222],[-82.2063888888889,43.43222222222222],[-82.2063888888889,43.43222222222222],[-83.23305555555555,43.650277777777774],[-83.23305555555555,43.650277777777774],[-83.23305555555555,43.650277777777774],[-83.23305555555555,43.650277777777774],[-83.76333333333334,43.75861111111111],[-83.76333333333334,43.75861111111111],[-83.9375,43.79361111111111],[-83.9375,43.79361111111111],[-84.08055555555555,43.82194444444445],[-84.08055555555555,43.82194444444445],[-84.2911111111111,43.86361111111111],[-84.2911111111111,43.86361111111111],[-84.2911111111111,43.86361111111111],[-84.2911111111111,43.86361111111111],[-84.96388888888889,43.993611111111115],[-84.96388888888889,43.993611111111115],[-84.96388888888889,43.993611111111115],[-84.96388888888889,43.993611111111115],[-84.96388888888889,43.993611111111115],[-85.14083333333333,44.026944444444446],[-85.14083333333333,44.026944444444446],[-85.14083333333333,44.026944444444446],[-85.67083333333333,44.125277777777775],[-86.02944444444444,44.19],[-86.02944444444444,44.19],[-86.02944444444444,44.19],[-86.02944444444444,44.19],[-86.56611111111111,44.28472222222222],[-86.56611111111111,44.28472222222222],[-86.56611111111111,44.28472222222222],[-86.56611111111111,44.28472222222222],[-86.92222222222223,44.346111111111114],[-86.92222222222223,44.346111111111114],[-87.4713888888889,44.43833333333333],[-87.4713888888889,44.43833333333333],[-87.4713888888889,44.43833333333333],[-87.81611111111111,44.49444444444445],[-87.81611111111111,44.49444444444445],[-87.81611111111111,44.49444444444445],[-87.81611111111111,44.49444444444445],[-87.81611111111111,44.49444444444445],[-88.35888888888888,44.577222222222225],[-88.35888888888888,44.577222222222225],[-88.53694444444444,44.60277777777778],[-88.53694444444444,44.60277777777778],[-88.71805555555555,44.626666666666665],[-88.71805555555555,44.626666666666665],[-89.07555555555555,44.67305555555555],[-89.07555555555555,44.67305555555555],[-89.07555555555555,44.67305555555555],[-89.07555555555555,44.67305555555555],[-89.43388888888889,44.71888888888889],[-89.43388888888889,44.71888888888889],[-90.1588888888889,44.80833333333333],[-90.1588888888889,44.80833333333333],[-90.1588888888889,44.80833333333333],[-90.1588888888889,44.80833333333333],[-90.1588888888889,44.80833333333333],[-90.1588888888889,44.80833333333333],[-91.06083333333333,44.9125],[-91.24194444444444,44.9325],[-91.24194444444444,44.9325],[-91.24194444444444,44.9325],[-91.24194444444444,44.9325],[-91.24194444444444,44.9325],[-91.60055555555554,44.97138888888889],[-91.96083333333334,45.009166666666665],[-91.96083333333334,45.009166666666665],[-91.96083333333334,45.009166666666665],[-92.85111111111111,45.09722222222222],[-93.02361111111111,45.11361111111111],[-93.02361111111111,45.11361111111111],[-93.02361111111111,45.11361111111111],[-93.19805555555556,45.12972222222222],[-93.40916666666668,45.14888888888889],[-93.40916666666668,45.14888888888889],[-93.40916666666668,45.14888888888889],[-93.75944444444444,45.17444444444444],[-93.75944444444444,45.17444444444444],[-93.75944444444444,45.17444444444444],[-94.10972222222222,45.19972222222222],[-94.10972222222222,45.19972222222222],[-94.8111111111111,45.24666666666667],[-94.8111111111111,45.24666666666667],[-94.985,45.2575],[-94.985,45.2575],[-94.985,45.2575],[-94.985,45.2575],[-95.86222222222221,45.308611111111105],[-96.0363888888889,45.31805555555556],[-96.0363888888889,45.31805555555556],[-96.0363888888889,45.31805555555556],[-96.0363888888889,45.31805555555556],[-96.37138888888889,45.33527777777778],[-96.37138888888889,45.33527777777778],[-96.72083333333333,45.352222222222224],[-96.72083333333333,45.352222222222224],[-97.06972222222223,45.36805555555556],[-97.06972222222223,45.36805555555556],[-97.06972222222223,45.36805555555556],[-97.59472222222222,45.38972222222222],[-97.59472222222222,45.38972222222222],[-97.94527777777778,45.40277777777778],[-97.94527777777778,45.40277777777778],[-97.94527777777778,45.40277777777778],[-98.30555555555556,45.415277777777774],[-98.30555555555556,45.415277777777774],[-98.30555555555556,45.415277777777774],[-98.47611111111111,45.40833333333333],[-98.47611111111111,45.40833333333333],[-98.47611111111111,45.40833333333333],[-99.48111111111112,45.31583333333333],[-99.48111111111112,45.31583333333333],[-99.48111111111112,45.31583333333333],[-99.48111111111112,45.31583333333333],[-99.48111111111112,45.31583333333333],[-99.48111111111112,45.31583333333333],[-100.29222222222222,45.234722222222224],[-100.45361111111112,45.21805555555556],[-100.45361111111112,45.21805555555556],[-100.45361111111112,45.21805555555556],[-100.61777777777777,45.20055555555556],[-100.61777777777777,45.20055555555556],[-101.43722222222223,45.11027777777778],[-101.43722222222223,45.11027777777778],[-101.43722222222223,45.11027777777778],[-101.43722222222223,45.11027777777778],[-101.43722222222223,45.11027777777778],[-101.9225,45.03583333333333],[-102.07833333333333,45.00333333333333],[-102.07833333333333,45.00333333333333],[-102.235,44.97083333333334],[-102.235,44.97083333333334],[-102.2325,44.971111111111114],[-102.2325,44.971111111111114],[-102.69583333333334,44.873333333333335],[-102.69583333333334,44.873333333333335],[-102.84888888888888,44.84027777777778],[-102.84888888888888,44.84027777777778],[-103.31472222222222,44.73888888888889],[-103.31472222222222,44.73888888888889],[-103.31472222222222,44.73888888888889],[-103.47,44.70472222222222],[-103.77527777777777,44.63638888888889],[-103.77527777777777,44.63638888888889],[-103.92611111111111,44.60444444444445],[-103.92611111111111,44.60444444444445],[-104.11,44.56583333333333],[-104.6888888888889,44.441111111111105],[-104.6888888888889,44.441111111111105],[-104.83944444444444,44.408055555555556],[-104.83944444444444,44.408055555555556],[-104.83944444444444,44.408055555555556],[-105.14361111111111,44.34055555555556],[-105.14361111111111,44.34055555555556],[-105.14361111111111,44.34055555555556],[-105.29388888888889,44.30694444444444],[-105.29388888888889,44.30694444444444],[-105.5911111111111,44.23972222222222],[-105.5911111111111,44.23972222222222],[-105.5911111111111,44.23972222222222],[-105.5911111111111,44.23972222222222],[-106.19805555555556,44.099722222222226],[-106.49194444444444,44.030277777777776],[-106.49194444444444,44.030277777777776],[-106.49194444444444,44.030277777777776],[-106.49194444444444,44.030277777777776],[-106.49194444444444,44.030277777777776],[-107.34388888888888,43.82416666666667],[-107.34388888888888,43.82416666666667],[-107.34388888888888,43.82416666666667],[-107.78055555555555,43.71555555555556],[-107.78055555555555,43.71555555555556],[-107.78055555555555,43.71555555555556],[-108.06861111111111,43.64277777777778],[-108.06861111111111,43.64277777777778],[-108.64,43.495555555555555],[-108.64,43.495555555555555],[-109.47972222222222,43.272777777777776],[-109.47972222222222,43.272777777777776],[-109.75833333333334,43.19694444444444],[-109.75833333333334,43.19694444444444],[-109.75833333333334,43.19694444444444],[-109.92194444444445,43.15222222222222],[-109.92194444444445,43.15222222222222],[-110.33083333333333,43.038888888888884],[-110.60055555555554,42.963055555555556],[-110.60055555555554,42.963055555555556],[-110.60055555555554,42.963055555555556],[-110.60055555555554,42.963055555555556],[-110.73388888888888,42.92527777777777],[-110.86833333333333,42.886944444444445],[-110.86833333333333,42.886944444444445],[-111.13388888888889,42.81055555555555],[-111.13388888888889,42.81055555555555],[-111.13388888888889,42.81055555555555],[-111.52194444444444,42.69777777777777],[-111.6525,42.659444444444446],[-112.0411111111111,42.54416666666666],[-112.0411111111111,42.54416666666666],[-112.4225,42.42916666666667],[-112.67583333333334,42.35194444444445],[-112.67583333333334,42.35194444444445],[-112.80277777777778,42.312777777777775],[-113.06055555555555,42.233333333333334],[-113.06055555555555,42.233333333333334],[-113.06055555555555,42.233333333333334],[-113.44416666666667,42.113055555555555],[-113.57027777777778,42.073055555555555],[-113.57027777777778,42.073055555555555],[-113.69694444444445,42.032777777777774],[-114.77972222222222,41.68111111111111],[-114.92472222222223,41.634166666666665],[-114.92472222222223,41.634166666666665],[-115.0411111111111,41.59388888888889],[-115.15777777777778,41.55694444444444],[-115.61972222222222,41.39972222222222],[-115.73305555555555,41.35944444444445],[-115.73305555555555,41.35944444444445],[-115.73305555555555,41.35944444444445],[-116.19500000000001,41.20194444444445],[-116.30749999999999,41.16027777777778],[-116.31055555555555,41.16166666666666],[-116.31055555555555,41.16166666666666],[-116.31055555555555,41.16166666666666],[-116.53888888888889,41.080000000000005],[-116.89305555555556,40.95305555555556],[-116.89305555555556,40.95305555555556],[-117.48222222222222,40.74],[-117.60111111111111,40.696666666666665],[-117.60111111111111,40.696666666666665],[-117.83749999999999,40.609722222222224],[-118.19194444444445,40.47805555555556],[-118.30277777777778,40.436388888888885],[-118.42111111111112,40.391666666666666],[-118.42111111111112,40.391666666666666],[-118.6613888888889,40.30083333333333],[-118.90305555555557,40.20861111111111],[-119.1388888888889,40.117777777777775],[-119.37583333333333,40.02583333333333],[-119.37583333333333,40.02583333333333],[-119.37583333333333,40.02583333333333],[-120.68055555555556,39.506388888888885],[-120.79888888888888,39.458333333333336],[-120.79888888888888,39.458333333333336],[-120.91944444444445,39.409166666666664],[-121.15305555555557,39.303888888888885],[-121.15305555555557,39.303888888888885],[-121.26138888888889,39.24055555555556],[-121.26138888888889,39.24055555555556],[-121.26138888888889,39.24055555555556],[-121.8125,38.91722222222222],[-121.92305555555556,38.85194444444445],[-121.92305555555556,38.85194444444445],[-122.26277777777777,38.649166666666666],[-122.3786111111111,38.57944444444445],[-122.3786111111111,38.57944444444445],[-122.3786111111111,38.57944444444445],[-122.71333333333334,38.27722222222222],[-122.71333333333334,38.27722222222222],[-122.7,37.96666666666667],[-122.55333333333333,37.78638888888889],[-122.47777777777777,37.71527777777778],[-122.41666666666667,37.666666666666664],[-122.13527777777779,37.406666666666666],[-122.13527777777779,37.406666666666666],[-122.13527777777779,37.406666666666666],[-122.0975,37.448611111111106],[-122.15,37.516666666666666],[-122.21583333333334,37.55416666666667],[-122.26805555555555,37.57611111111112],[-122.33333333333333,37.6]],"type":"LineString"}
}
