{
  "id": 1981770391,
  "type": "Feature",
  "properties": {
    "geom:area": 0,
    "geom:bbox": "-122.362260,37.484060,-121.408600,37.621420",
    "geom:latitude": 37.55598142433145,
    "geom:longitude": -121.88672936486903,
    "src:alt_label": "swim-approach",
    "src:geom": "swim",
    "swim:elevations": [
      4025,
      3905,
      3695,
      3447,
      3329,
      3173,
      3048,
      3048,
      3048,
      3048,
      3048,
      3048,
      3064,
      2984,
      2925,
      2800,
      2712,
      2567,
      2429,
      2348,
      2070,
      2025,
      1951,
      1837,
      1544,
      1524,
      1524,
      1350,
      1189,
      1110,
      950,
      782,
      676,
      582,
      547,
      422,
      304,
      251,
      130,
      66,
      0
    ],
    "swim:geom": "approach",
    "swim:timestamps": [
      1761500878,
      1761500890,
      1761500911,
      1761500938,
      1761500950,
      1761500974,
      1761501056,
      1761501070,
      1761501104,
      1761501108,
      1761501157,
      1761501200,
      1761501232,
      1761501263,
      1761501275,
      1761501292,
      1761501313,
      1761501358,
      1761501382,
      1761501393,
      1761501434,
      1761501443,
      1761501453,
      1761501481,
      1761501536,
      1761501564,
      1761501576,
      1761501624,
      1761501646,
      1761501661,
      1761501690,
      1761501748,
      1761501777,
      1761501808,
      1761501820,
      1761501859,
      1761501894,
      1761501911,
      1761501946,
      1761501964,
      1761501985
    ],
    "wof:geomhash": "a57a0c0e90344e368f54bf2a59df62cc",
    "wof:id": 1981770391,
    "wof:repo": "sfomuseum-data-flights-2025-10"
  },
  "bbox": [
    -122.36226,
    37.48406,
    -121.4086,
    37.62142
  ],
  "geometry": {"coordinates":[[-121.4086,37.57609],[-121.43059,37.57354],[-121.46846,37.56915],[-121.5173,37.56337],[-121.53754,37.56097],[-121.57637,37.55636],[-121.67467,37.58625],[-121.68748,37.59462],[-121.71928,37.61482],[-121.72333,37.61672],[-121.77996,37.62142],[-121.8326,37.62131],[-121.8698,37.61764],[-121.88657,37.58963],[-121.88155,37.57593],[-121.86353,37.55972],[-121.8411,37.54049],[-121.8519,37.49561],[-121.87844,37.48861],[-121.89159,37.48771],[-121.9406,37.48637],[-121.95177,37.48605],[-121.96513,37.48559],[-121.99965,37.48406],[-122.06315,37.48952],[-122.09094,37.50103],[-122.10141,37.5057],[-122.13822,37.52133],[-122.15452,37.52818],[-122.1648,37.53244],[-122.18295,37.5402],[-122.217,37.55456],[-122.23438,37.56199],[-122.25224,37.56946],[-122.25925,37.57239],[-122.28309,37.58233],[-122.30385,37.5911],[-122.31434,37.59557],[-122.33721,37.60514],[-122.34865,37.60998],[-122.36226,37.61679]],"type":"LineString"}
}
