{
  "id": 1997541703,
  "type": "Feature",
  "properties": {
    "geom:area": 0,
    "geom:bbox": "-122.351410,36.736680,-121.889260,37.608730",
    "geom:latitude": 37.21881371681673,
    "geom:longitude": -122.06956521780555,
    "src:alt_label": "swim-approach",
    "src:geom": "swim",
    "swim:elevations": [
      5286,
      4995,
      4653,
      4521,
      4297,
      4064,
      3880,
      3682,
      3220,
      3204,
      2954,
      2785,
      2671,
      2635,
      2502,
      2438,
      2430,
      2199,
      2010,
      1717,
      1607,
      1541,
      1335,
      1287,
      1219,
      1219,
      1123,
      914,
      868,
      822,
      577,
      548,
      436,
      309,
      219,
      191,
      148,
      59
    ],
    "swim:geom": "approach",
    "swim:timestamps": [
      1761945295,
      1761945324,
      1761945356,
      1761945369,
      1761945390,
      1761945414,
      1761945434,
      1761945454,
      1761945507,
      1761945510,
      1761945561,
      1761945582,
      1761945598,
      1761945604,
      1761945619,
      1761945651,
      1761945675,
      1761945717,
      1761945744,
      1761945777,
      1761945787,
      1761945797,
      1761945834,
      1761945846,
      1761945895,
      1761945906,
      1761945933,
      1761945958,
      1761945964,
      1761945972,
      1761946016,
      1761946044,
      1761946071,
      1761946107,
      1761946132,
      1761946140,
      1761946153,
      1761946177
    ],
    "wof:geomhash": "280345d83a6204d5ab04e53acbf21b20",
    "wof:id": 1997541703,
    "wof:repo": "sfomuseum-data-flights-2025-10"
  },
  "bbox": [
    -122.35141,
    36.73668,
    -121.88926,
    37.60873
  ],
  "geometry": {"coordinates":[[-121.88926,36.73668],[-121.90611,36.78405],[-121.92063,36.83771],[-121.92635,36.85835],[-121.93575,36.8911],[-121.94628,36.92834],[-121.95575,36.95975],[-121.96751,36.98912],[-121.99829,37.06759],[-121.99993,37.07187],[-122.0265,37.14004],[-122.03704,37.16724],[-122.045,37.18752],[-122.04783,37.1948],[-122.05477,37.2125],[-122.06865,37.24806],[-122.0786,37.2731],[-122.09535,37.31589],[-122.106,37.34271],[-122.11851,37.37497],[-122.11949,37.38605],[-122.1174,37.39614],[-122.10615,37.43354],[-122.10506,37.44534],[-122.13634,37.4825],[-122.14474,37.48996],[-122.16791,37.50542],[-122.18834,37.52015],[-122.19301,37.52369],[-122.19918,37.52839],[-122.23239,37.55327],[-122.25399,37.56727],[-122.27637,37.5768],[-122.3019,37.58771],[-122.31957,37.59528],[-122.32465,37.59742],[-122.33441,37.60158],[-122.35141,37.60873]],"type":"LineString"}
}
