{
  "id": 1981559139,
  "type": "Feature",
  "properties": {
    "geom:area": 0,
    "geom:bbox": "-122.366970,37.627500,-122.090760,38.518380",
    "geom:latitude": 38.040123796996,
    "geom:longitude": -122.1754024880853,
    "src:alt_label": "swim-takeoff",
    "src:geom": "swim",
    "swim:elevations": [
      152,
      377,
      738,
      1168,
      1587,
      2498,
      2735,
      3389,
      3729,
      4086,
      4623,
      5276,
      5720,
      6094,
      6280,
      6824,
      7069,
      7524,
      7779,
      8059
    ],
    "swim:geom": "takeoff",
    "swim:timestamps": [
      1759303881,
      1759303901,
      1759303934,
      1759303955,
      1759303985,
      1759304036,
      1759304048,
      1759304096,
      1759304123,
      1759304144,
      1759304174,
      1759304215,
      1759304247,
      1759304274,
      1759304289,
      1759304337,
      1759304358,
      1759304398,
      1759304423,
      1759304450
    ],
    "wof:geomhash": "775d5ee3418d80b50e910f2ac7bb21d8",
    "wof:id": 1981559139,
    "wof:repo": "sfomuseum-data-flights-2025-10"
  },
  "bbox": [
    -122.36697,
    37.6275,
    -122.09076,
    38.51838
  ],
  "geometry": {"coordinates":[[-122.36697,37.6275],[-122.35554,37.63975],[-122.32544,37.65505],[-122.30399,37.66781],[-122.27098,37.68777],[-122.21199,37.73537],[-122.20881,37.75179],[-122.1972,37.8231],[-122.18937,37.8694],[-122.18322,37.90618],[-122.17506,37.96052],[-122.16318,38.03568],[-122.15263,38.0974],[-122.14378,38.14956],[-122.13892,38.17894],[-122.12292,38.2751],[-122.11542,38.31958],[-122.10324,38.40451],[-122.09773,38.45818],[-122.09076,38.51838]],"type":"LineString"}
}
