{
  "id": 1981784893,
  "type": "Feature",
  "properties": {
    "geom:area": 0,
    "geom:bbox": "-122.323611,37.656944,-93.316667,44.955278",
    "geom:latitude": 40.99562863447192,
    "geom:longitude": -107.77543110803192,
    "src:alt_label": "swim-path",
    "src:geom": "swim",
    "swim:altitudes": [
      "032",
      "032",
      "032",
      "032",
      "032",
      "069",
      "069",
      "069",
      "069",
      "069",
      "069",
      "099",
      "099",
      "143",
      "143",
      "143",
      "143",
      "143",
      "143",
      "259",
      "259",
      "259",
      "259",
      "259",
      "259",
      "259",
      "259",
      "259",
      "259",
      "259",
      "314",
      "314",
      "314",
      "314",
      "314",
      "314",
      "314",
      "314",
      "314",
      "314",
      "314",
      "314",
      "314",
      "370C",
      "370C",
      "370C",
      "370C",
      "370C",
      "370C",
      "370C",
      "370C",
      "370C",
      "370C",
      "370C",
      "370C",
      "370C",
      "370C",
      "370C",
      "370C",
      "370C",
      "370C",
      "370C",
      "370C",
      "370C",
      "370C",
      "370C",
      "370C",
      "370C",
      "370C",
      "370C",
      "370C",
      "370C",
      "370C",
      "370C",
      "370C",
      "370C",
      "370C",
      "370C",
      "370C",
      "370C",
      "370C",
      "370C",
      "370C",
      "370C",
      "370C",
      "370C",
      "370C",
      "370C",
      "371C",
      "371C",
      "371C",
      "371C",
      "371C",
      "371C",
      "371C",
      "371C",
      "371C",
      "371C",
      "371C",
      "370C",
      "370C",
      "370C",
      "370C",
      "370C",
      "370C",
      "370C",
      "370C",
      "370C",
      "370C",
      "370C",
      "370C",
      "370C",
      "370C",
      "370C",
      "370C",
      "370C",
      "370C",
      "370C",
      "370C",
      "370C",
      "370C",
      "370C",
      "370C",
      "370C",
      "370C",
      "370C",
      "370C",
      "370C",
      "370C",
      "370C",
      "370C",
      "370C",
      "370C",
      "370C",
      "370C",
      "370C",
      "370C",
      "370C",
      "370C",
      "370C",
      "370C",
      "370C",
      "370C",
      "370C",
      "370C",
      "370C",
      "370C",
      "370C",
      "370C",
      "370C",
      "370C",
      "370C",
      "370C",
      "370C",
      "370C",
      "370C",
      "370C",
      "370C",
      "370C",
      "370C",
      "370C",
      "370C",
      "370C",
      "370C",
      "370C",
      "370C",
      "370C",
      "370C",
      "370C",
      "370C",
      "370C",
      "370C",
      "370C",
      "370C",
      "370C",
      "370C",
      "370C",
      "370C",
      "370C",
      "370C",
      "370C",
      "370C",
      "370C",
      "370C",
      "370C",
      "370C",
      "370C",
      "370C",
      "370C",
      "370C",
      "370C",
      "370C",
      "370C",
      "370C",
      "370C",
      "370C",
      "370C",
      "370C",
      "370C",
      "370C",
      "370C",
      "370C",
      "370C",
      "370C",
      "370C",
      "370C",
      "370C",
      "370C",
      "370C",
      "370C",
      "371",
      "371",
      "371",
      "371",
      "371",
      "371",
      "318",
      "318",
      "318",
      "318",
      "318",
      "318",
      "318",
      "318",
      "253",
      "253",
      "253",
      "253",
      "253",
      "138",
      "138",
      "138",
      "138",
      "108",
      "108",
      "108",
      "108",
      "108",
      "108",
      "108",
      "108",
      "108",
      "054",
      "054",
      "054",
      "054",
      "054",
      "054",
      "051",
      "051",
      "051",
      "022",
      "022",
      "022",
      "022",
      "022",
      "022",
      "022",
      "022",
      "022"
    ],
    "swim:geom": "path",
    "swim:speeds": [
      142,
      142,
      142,
      142,
      142,
      259,
      259,
      259,
      259,
      259,
      259,
      280,
      280,
      371,
      371,
      371,
      371,
      371,
      371,
      488,
      488,
      488,
      488,
      488,
      488,
      488,
      488,
      488,
      488,
      488,
      511,
      511,
      511,
      511,
      511,
      511,
      511,
      511,
      511,
      511,
      511,
      511,
      511,
      513,
      513,
      513,
      513,
      513,
      513,
      513,
      513,
      513,
      513,
      513,
      513,
      518,
      518,
      518,
      518,
      518,
      518,
      518,
      518,
      518,
      518,
      518,
      525,
      525,
      525,
      525,
      525,
      525,
      525,
      537,
      537,
      537,
      537,
      537,
      537,
      538,
      538,
      538,
      538,
      538,
      538,
      538,
      538,
      538,
      550,
      550,
      550,
      550,
      550,
      550,
      550,
      550,
      542,
      542,
      542,
      542,
      542,
      542,
      542,
      542,
      541,
      541,
      541,
      541,
      532,
      532,
      532,
      532,
      532,
      532,
      532,
      524,
      524,
      524,
      524,
      528,
      528,
      528,
      528,
      532,
      532,
      532,
      531,
      531,
      531,
      531,
      531,
      531,
      531,
      531,
      531,
      528,
      528,
      528,
      528,
      528,
      519,
      519,
      519,
      519,
      519,
      519,
      519,
      519,
      519,
      519,
      515,
      515,
      515,
      515,
      515,
      515,
      515,
      515,
      515,
      515,
      515,
      515,
      515,
      515,
      515,
      515,
      515,
      515,
      512,
      512,
      512,
      512,
      508,
      508,
      508,
      508,
      502,
      502,
      502,
      502,
      502,
      501,
      501,
      501,
      501,
      500,
      500,
      500,
      500,
      500,
      500,
      500,
      500,
      500,
      500,
      500,
      500,
      500,
      500,
      480,
      480,
      480,
      480,
      470,
      470,
      470,
      470,
      470,
      470,
      470,
      467,
      467,
      467,
      467,
      467,
      467,
      458,
      458,
      458,
      458,
      458,
      458,
      458,
      458,
      428,
      428,
      428,
      428,
      428,
      374,
      374,
      374,
      374,
      338,
      338,
      338,
      338,
      338,
      338,
      338,
      338,
      338,
      207,
      207,
      207,
      207,
      207,
      207,
      195,
      195,
      195,
      138,
      138,
      138,
      138,
      138,
      138,
      138,
      138,
      138
    ],
    "swim:timestamps": [
      1761579547,
      1761579547,
      1761579547,
      1761579547,
      1761579547,
      1761579667,
      1761579667,
      1761579667,
      1761579667,
      1761579667,
      1761579667,
      1761579727,
      1761579727,
      1761579847,
      1761579847,
      1761579847,
      1761579847,
      1761579847,
      1761579847,
      1761580268,
      1761580268,
      1761580268,
      1761580268,
      1761580268,
      1761580268,
      1761580268,
      1761580268,
      1761580268,
      1761580268,
      1761580268,
      1761580508,
      1761580508,
      1761580508,
      1761580508,
      1761580508,
      1761580508,
      1761580508,
      1761580508,
      1761580508,
      1761580508,
      1761580508,
      1761580508,
      1761580508,
      1761581169,
      1761581169,
      1761581169,
      1761581169,
      1761581169,
      1761581169,
      1761581169,
      1761581169,
      1761581169,
      1761581169,
      1761581169,
      1761581169,
      1761581890,
      1761581890,
      1761581890,
      1761581890,
      1761581890,
      1761581890,
      1761581890,
      1761581890,
      1761581890,
      1761581890,
      1761581890,
      1761582251,
      1761582251,
      1761582251,
      1761582251,
      1761582251,
      1761582251,
      1761582251,
      1761582551,
      1761582551,
      1761582551,
      1761582551,
      1761582551,
      1761582551,
      1761582792,
      1761582792,
      1761582792,
      1761582792,
      1761582792,
      1761582792,
      1761582792,
      1761582792,
      1761582792,
      1761583296,
      1761583296,
      1761583296,
      1761583296,
      1761583296,
      1761583296,
      1761583296,
      1761583296,
      1761583332,
      1761583332,
      1761583332,
      1761583453,
      1761583453,
      1761583453,
      1761583453,
      1761583453,
      1761583513,
      1761583513,
      1761583513,
      1761583513,
      1761583837,
      1761583837,
      1761583837,
      1761583837,
      1761583837,
      1761583837,
      1761583837,
      1761584017,
      1761584017,
      1761584017,
      1761584017,
      1761584077,
      1761584077,
      1761584077,
      1761584077,
      1761584294,
      1761584294,
      1761584294,
      1761584354,
      1761584354,
      1761584354,
      1761584354,
      1761584354,
      1761584377,
      1761584377,
      1761584377,
      1761584377,
      1761584654,
      1761584654,
      1761584654,
      1761584654,
      1761584654,
      1761585278,
      1761585278,
      1761585278,
      1761585278,
      1761585278,
      1761585278,
      1761585278,
      1761585339,
      1761585339,
      1761585339,
      1761585519,
      1761585519,
      1761585519,
      1761585519,
      1761585519,
      1761585519,
      1761585519,
      1761585519,
      1761585519,
      1761585519,
      1761586420,
      1761586420,
      1761586420,
      1761586420,
      1761586420,
      1761586420,
      1761586420,
      1761586420,
      1761586681,
      1761586681,
      1761586681,
      1761586681,
      1761586720,
      1761586720,
      1761586720,
      1761586720,
      1761586841,
      1761586841,
      1761586841,
      1761586841,
      1761586841,
      1761587081,
      1761587081,
      1761587081,
      1761587081,
      1761587381,
      1761587381,
      1761587381,
      1761587381,
      1761587381,
      1761587381,
      1761587381,
      1761587381,
      1761587381,
      1761587381,
      1761587441,
      1761587441,
      1761587441,
      1761587441,
      1761587943,
      1761587943,
      1761587943,
      1761587943,
      1761588184,
      1761588184,
      1761588184,
      1761588184,
      1761588184,
      1761588184,
      1761588184,
      1761588484,
      1761588484,
      1761588484,
      1761588484,
      1761588484,
      1761588484,
      1761588784,
      1761588784,
      1761588784,
      1761588784,
      1761588784,
      1761588784,
      1761588784,
      1761588784,
      1761588965,
      1761588965,
      1761588965,
      1761588965,
      1761588965,
      1761589325,
      1761589325,
      1761589325,
      1761589325,
      1761589406,
      1761589406,
      1761589406,
      1761589406,
      1761589406,
      1761589406,
      1761589406,
      1761589406,
      1761589406,
      1761589806,
      1761589806,
      1761589806,
      1761589806,
      1761589806,
      1761589806,
      1761589826,
      1761589826,
      1761589826,
      1761590006,
      1761590006,
      1761590006,
      1761590006,
      1761590006,
      1761590006,
      1761590006,
      1761590006,
      1761590006
    ],
    "wof:geomhash": "b9f3356996408a4e3ec98e7a96c0799e",
    "wof:id": 1981784893,
    "wof:repo": "sfomuseum-data-flights-2025-10"
  },
  "bbox": [
    -122.3236111111111,
    37.65694444444444,
    -93.31666666666666,
    44.95527777777778
  ],
  "geometry": {"coordinates":[[-122.3236111111111,37.65694444444444],[-122.3236111111111,37.65694444444444],[-122.3236111111111,37.65694444444444],[-122.3236111111111,37.65694444444444],[-122.3236111111111,37.65694444444444],[-122.25722222222223,37.75944444444445],[-122.25722222222223,37.75944444444445],[-122.25722222222223,37.75944444444445],[-122.25722222222223,37.75944444444445],[-122.25722222222223,37.75944444444445],[-122.25722222222223,37.75944444444445],[-122.21722222222222,37.824444444444445],[-122.21722222222222,37.824444444444445],[-122.03361111111111,37.93611111111111],[-122.03361111111111,37.93611111111111],[-122.03361111111111,37.93611111111111],[-122.03361111111111,37.93611111111111],[-122.03361111111111,37.93611111111111],[-122.03361111111111,37.93611111111111],[-120.98944444444444,38.15083333333333],[-120.98944444444444,38.15083333333333],[-120.98944444444444,38.15083333333333],[-120.98944444444444,38.15083333333333],[-120.98944444444444,38.15083333333333],[-120.98944444444444,38.15083333333333],[-120.98944444444444,38.15083333333333],[-120.98944444444444,38.15083333333333],[-120.98944444444444,38.15083333333333],[-120.98944444444444,38.15083333333333],[-120.98944444444444,38.15083333333333],[-120.29277777777777,38.26],[-120.29277777777777,38.26],[-120.29277777777777,38.26],[-120.29277777777777,38.26],[-120.29277777777777,38.26],[-120.29277777777777,38.26],[-120.29277777777777,38.26],[-120.29277777777777,38.26],[-120.29277777777777,38.26],[-120.29277777777777,38.26],[-120.29277777777777,38.26],[-120.29277777777777,38.26],[-120.29277777777777,38.26],[-118.33,38.54388888888889],[-118.33,38.54388888888889],[-118.33,38.54388888888889],[-118.33,38.54388888888889],[-118.33,38.54388888888889],[-118.33,38.54388888888889],[-118.33,38.54388888888889],[-118.33,38.54388888888889],[-118.33,38.54388888888889],[-118.33,38.54388888888889],[-118.33,38.54388888888889],[-118.33,38.54388888888889],[-116.18777777777778,38.86472222222223],[-116.18777777777778,38.86472222222223],[-116.18777777777778,38.86472222222223],[-116.18777777777778,38.86472222222223],[-116.18777777777778,38.86472222222223],[-116.18777777777778,38.86472222222223],[-116.18777777777778,38.86472222222223],[-116.18777777777778,38.86472222222223],[-116.18777777777778,38.86472222222223],[-116.18777777777778,38.86472222222223],[-116.18777777777778,38.86472222222223],[-115.09722222222221,39.035555555555554],[-115.09722222222221,39.035555555555554],[-115.09722222222221,39.035555555555554],[-115.09722222222221,39.035555555555554],[-115.09722222222221,39.035555555555554],[-115.09722222222221,39.035555555555554],[-115.09722222222221,39.035555555555554],[-114.15527777777778,39.17444444444444],[-114.15527777777778,39.17444444444444],[-114.15527777777778,39.17444444444444],[-114.15527777777778,39.17444444444444],[-114.15527777777778,39.17444444444444],[-114.15527777777778,39.17444444444444],[-113.40583333333333,39.278888888888886],[-113.40583333333333,39.278888888888886],[-113.40583333333333,39.278888888888886],[-113.40583333333333,39.278888888888886],[-113.40583333333333,39.278888888888886],[-113.40583333333333,39.278888888888886],[-113.40583333333333,39.278888888888886],[-113.40583333333333,39.278888888888886],[-113.40583333333333,39.278888888888886],[-111.87944444444443,39.68555555555555],[-111.87944444444443,39.68555555555555],[-111.87944444444443,39.68555555555555],[-111.87944444444443,39.68555555555555],[-111.87944444444443,39.68555555555555],[-111.87944444444443,39.68555555555555],[-111.87944444444443,39.68555555555555],[-111.87944444444443,39.68555555555555],[-111.7375,39.724444444444444],[-111.7375,39.724444444444444],[-111.7375,39.724444444444444],[-111.39472222222223,39.816944444444445],[-111.39472222222223,39.816944444444445],[-111.39472222222223,39.816944444444445],[-111.39472222222223,39.816944444444445],[-111.39472222222223,39.816944444444445],[-111.21111111111111,39.86638888888889],[-111.21111111111111,39.86638888888889],[-111.21111111111111,39.86638888888889],[-111.21111111111111,39.86638888888889],[-110.22166666666666,40.125],[-110.22166666666666,40.125],[-110.22166666666666,40.125],[-110.22166666666666,40.125],[-110.22166666666666,40.125],[-110.22166666666666,40.125],[-110.22166666666666,40.125],[-109.68666666666667,40.277499999999996],[-109.68666666666667,40.277499999999996],[-109.68666666666667,40.277499999999996],[-109.68666666666667,40.277499999999996],[-109.50361111111111,40.33027777777778],[-109.50361111111111,40.33027777777778],[-109.50361111111111,40.33027777777778],[-109.50361111111111,40.33027777777778],[-108.845,40.51694444444444],[-108.845,40.51694444444444],[-108.845,40.51694444444444],[-108.6588888888889,40.56861111111112],[-108.6588888888889,40.56861111111112],[-108.6588888888889,40.56861111111112],[-108.6588888888889,40.56861111111112],[-108.6588888888889,40.56861111111112],[-108.59055555555555,40.58777777777778],[-108.59055555555555,40.58777777777778],[-108.59055555555555,40.58777777777778],[-108.59055555555555,40.58777777777778],[-107.75361111111111,40.815555555555555],[-107.75361111111111,40.815555555555555],[-107.75361111111111,40.815555555555555],[-107.75361111111111,40.815555555555555],[-107.75361111111111,40.815555555555555],[-105.84805555555555,41.30638888888888],[-105.84805555555555,41.30638888888888],[-105.84805555555555,41.30638888888888],[-105.84805555555555,41.30638888888888],[-105.84805555555555,41.30638888888888],[-105.84805555555555,41.30638888888888],[-105.84805555555555,41.30638888888888],[-105.66666666666667,41.35138888888889],[-105.66666666666667,41.35138888888889],[-105.66666666666667,41.35138888888889],[-105.12944444444443,41.49027777777778],[-105.12944444444443,41.49027777777778],[-105.12944444444443,41.49027777777778],[-105.12944444444443,41.49027777777778],[-105.12944444444443,41.49027777777778],[-105.12944444444443,41.49027777777778],[-105.12944444444443,41.49027777777778],[-105.12944444444443,41.49027777777778],[-105.12944444444443,41.49027777777778],[-105.12944444444443,41.49027777777778],[-102.39027777777778,42.24166666666667],[-102.39027777777778,42.24166666666667],[-102.39027777777778,42.24166666666667],[-102.39027777777778,42.24166666666667],[-102.39027777777778,42.24166666666667],[-102.39027777777778,42.24166666666667],[-102.39027777777778,42.24166666666667],[-102.39027777777778,42.24166666666667],[-101.64222222222223,42.47222222222222],[-101.64222222222223,42.47222222222222],[-101.64222222222223,42.47222222222222],[-101.64222222222223,42.47222222222222],[-101.52694444444444,42.506388888888885],[-101.52694444444444,42.506388888888885],[-101.52694444444444,42.506388888888885],[-101.52694444444444,42.506388888888885],[-101.17527777777778,42.611666666666665],[-101.17527777777778,42.611666666666665],[-101.17527777777778,42.611666666666665],[-101.17527777777778,42.611666666666665],[-101.17527777777778,42.611666666666665],[-100.47416666666666,42.81777777777778],[-100.47416666666666,42.81777777777778],[-100.47416666666666,42.81777777777778],[-100.47416666666666,42.81777777777778],[-99.59388888888888,43.06805555555556],[-99.59388888888888,43.06805555555556],[-99.59388888888888,43.06805555555556],[-99.59388888888888,43.06805555555556],[-99.59388888888888,43.06805555555556],[-99.59388888888888,43.06805555555556],[-99.59388888888888,43.06805555555556],[-99.59388888888888,43.06805555555556],[-99.59388888888888,43.06805555555556],[-99.59388888888888,43.06805555555556],[-99.41611111111112,43.117777777777775],[-99.41611111111112,43.117777777777775],[-99.41611111111112,43.117777777777775],[-99.41611111111112,43.117777777777775],[-97.95166666666667,43.51611111111111],[-97.95166666666667,43.51611111111111],[-97.95166666666667,43.51611111111111],[-97.95166666666667,43.51611111111111],[-97.29388888888889,43.73277777777778],[-97.29388888888889,43.73277777777778],[-97.29388888888889,43.73277777777778],[-97.29388888888889,43.73277777777778],[-97.29388888888889,43.73277777777778],[-97.29388888888889,43.73277777777778],[-97.29388888888889,43.73277777777778],[-96.47277777777778,43.99527777777778],[-96.47277777777778,43.99527777777778],[-96.47277777777778,43.99527777777778],[-96.47277777777778,43.99527777777778],[-96.47277777777778,43.99527777777778],[-96.47277777777778,43.99527777777778],[-95.63222222222221,44.255],[-95.63222222222221,44.255],[-95.63222222222221,44.255],[-95.63222222222221,44.255],[-95.63222222222221,44.255],[-95.63222222222221,44.255],[-95.63222222222221,44.255],[-95.63222222222221,44.255],[-95.15666666666667,44.39833333333333],[-95.15666666666667,44.39833333333333],[-95.15666666666667,44.39833333333333],[-95.15666666666667,44.39833333333333],[-95.15666666666667,44.39833333333333],[-94.34583333333333,44.63611111111111],[-94.34583333333333,44.63611111111111],[-94.34583333333333,44.63611111111111],[-94.34583333333333,44.63611111111111],[-94.15,44.7],[-94.15,44.7],[-94.15,44.7],[-94.15,44.7],[-94.15,44.7],[-94.15,44.7],[-94.15,44.7],[-94.15,44.7],[-94.15,44.7],[-93.54416666666667,44.95527777777778],[-93.54416666666667,44.95527777777778],[-93.54416666666667,44.95527777777778],[-93.54416666666667,44.95527777777778],[-93.54416666666667,44.95527777777778],[-93.54416666666667,44.95527777777778],[-93.5,44.95],[-93.5,44.95],[-93.5,44.95],[-93.31666666666666,44.916666666666664],[-93.31666666666666,44.916666666666664],[-93.31666666666666,44.916666666666664],[-93.31666666666666,44.916666666666664],[-93.31666666666666,44.916666666666664],[-93.31666666666666,44.916666666666664],[-93.31666666666666,44.916666666666664],[-93.31666666666666,44.916666666666664],[-93.31666666666666,44.916666666666664]],"type":"LineString"}
}
