{
  "id": 1981671751,
  "type": "Feature",
  "properties": {
    "geom:area": 0,
    "geom:bbox": "-122.366190,37.629060,-121.429320,38.518510",
    "geom:latitude": 38.06979259022899,
    "geom:longitude": -121.89544023540095,
    "src:alt_label": "swim-takeoff",
    "src:geom": "swim",
    "swim:elevations": [
      152,
      634,
      804,
      1102,
      1323,
      1855,
      2376,
      2941,
      3133,
      3541,
      3772,
      4413,
      4568,
      4880,
      5126,
      5534,
      5941,
      6150,
      6233,
      6461,
      6896,
      7286,
      7440,
      7652,
      7753,
      8267,
      8442,
      8492
    ],
    "swim:geom": "takeoff",
    "swim:timestamps": [
      1760448082,
      1760448113,
      1760448126,
      1760448152,
      1760448186,
      1760448229,
      1760448260,
      1760448296,
      1760448312,
      1760448357,
      1760448370,
      1760448418,
      1760448430,
      1760448451,
      1760448470,
      1760448505,
      1760448538,
      1760448564,
      1760448575,
      1760448602,
      1760448644,
      1760448685,
      1760448711,
      1760448743,
      1760448757,
      1760448836,
      1760448866,
      1760448875
    ],
    "wof:geomhash": "c8126c16b9f3da20e3a02eefa49f4330",
    "wof:id": 1981671751,
    "wof:repo": "sfomuseum-data-flights-2025-10"
  },
  "bbox": [
    -122.36619,
    37.62906,
    -121.42932,
    38.51851
  ],
  "geometry": {"coordinates":[[-122.36619,37.62906],[-122.3443,37.64668],[-122.33375,37.65229],[-122.31163,37.66426],[-122.27839,37.684],[-122.22564,37.71264],[-122.19251,37.74082],[-122.15968,37.77695],[-122.1445,37.79462],[-122.09885,37.84654],[-122.08339,37.86342],[-122.03043,37.92103],[-122.01682,37.93601],[-121.99305,37.96186],[-121.97032,37.98617],[-121.9304,38.03102],[-121.89233,38.07257],[-121.86183,38.10549],[-121.84833,38.12035],[-121.81539,38.15692],[-121.76282,38.21437],[-121.71234,38.26939],[-121.67927,38.30524],[-121.63724,38.35087],[-121.61985,38.36979],[-121.50057,38.47519],[-121.44605,38.50839],[-121.42932,38.51851]],"type":"LineString"}
}
