{
  "id": 1981784941,
  "type": "Feature",
  "properties": {
    "geom:area": 0,
    "geom:bbox": "-122.504360,36.737350,-121.468620,37.687420",
    "geom:latitude": 37.21765245221877,
    "geom:longitude": -122.07296488902011,
    "src:alt_label": "swim-takeoff",
    "src:geom": "swim",
    "swim:elevations": [
      152,
      658,
      1031,
      1190,
      1841,
      2030,
      2342,
      2517,
      3216,
      3369,
      3899,
      4238,
      4478,
      4673,
      5121,
      5399,
      5780,
      6065,
      6280,
      6668,
      6887,
      7412,
      7799,
      7957,
      8393,
      8838,
      8839,
      8839
    ],
    "swim:geom": "takeoff",
    "swim:timestamps": [
      1761592539,
      1761592573,
      1761592600,
      1761592627,
      1761592674,
      1761592683,
      1761592705,
      1761592718,
      1761592763,
      1761592775,
      1761592818,
      1761592839,
      1761592861,
      1761592875,
      1761592912,
      1761592943,
      1761592977,
      1761592999,
      1761593023,
      1761593062,
      1761593082,
      1761593138,
      1761593182,
      1761593203,
      1761593268,
      1761593337,
      1761593340,
      1761593359
    ],
    "wof:geomhash": "bedfd29f811118b2d009ee3772475f83",
    "wof:id": 1981784941,
    "wof:repo": "sfomuseum-data-flights-2025-10"
  },
  "bbox": [
    -122.50436,
    36.73735,
    -121.46862,
    37.68742
  ],
  "geometry": {"coordinates":[[-122.36836,37.62961],[-122.36245,37.65348],[-122.36356,37.67265],[-122.3847,37.68742],[-122.44314,37.66398],[-122.45113,37.65454],[-122.47134,37.63025],[-122.48342,37.61589],[-122.50436,37.55686],[-122.50202,37.5392],[-122.47348,37.47551],[-122.43887,37.4519],[-122.40398,37.42807],[-122.38041,37.41123],[-122.31751,37.36572],[-122.26473,37.32714],[-122.20618,37.28416],[-122.16836,37.25647],[-122.12523,37.22477],[-122.05339,37.17199],[-122.01629,37.1447],[-121.91151,37.0674],[-121.82586,37.00407],[-121.78586,36.97407],[-121.655,36.87915],[-121.5144,36.77168],[-121.50837,36.76705],[-121.46862,36.73735]],"type":"LineString"}
}
