{
  "id": 1981741489,
  "type": "Feature",
  "properties": {
    "geom:area": 0,
    "geom:bbox": "-122.564722,29.553889,-95.093611,37.633333",
    "geom:latitude": 32.60674281095832,
    "geom:longitude": -109.1408910379793,
    "src:alt_label": "swim-path",
    "src:geom": "swim",
    "swim:altitudes": [
      "006",
      "006",
      "006",
      "006",
      "130",
      "130",
      "140",
      "140",
      "180",
      "183",
      "183",
      "201",
      "201",
      "201",
      "201",
      "201",
      "215",
      "215",
      "294",
      "294",
      "294",
      "297",
      "297",
      "297",
      "330C",
      "333",
      "333",
      "338",
      "338",
      "340",
      "340",
      "350C",
      "350C",
      "350C",
      "350C",
      "350C",
      "350C",
      "350C",
      "350C",
      "350C",
      "350C",
      "350C",
      "350C",
      "350C",
      "350C",
      "350C",
      "350C",
      "350C",
      "350C",
      "350C",
      "350C",
      "350C",
      "350C",
      "350C",
      "350C",
      "350C",
      "350C",
      "350C",
      "350C",
      "350C",
      "350C",
      "350C",
      "350C",
      "350C",
      "350C",
      "350C",
      "350C",
      "350C",
      "350C",
      "350C",
      "350C",
      "350C",
      "350C",
      "350C",
      "350C",
      "350C",
      "350C",
      "350C",
      "350C",
      "350C",
      "350C",
      "350C",
      "350C",
      "350C",
      "350C",
      "350C",
      "350C",
      "350C",
      "350C",
      "350C",
      "350C",
      "350C",
      "350C",
      "350C",
      "350C",
      "350C",
      "350C",
      "350C",
      "350C",
      "350C",
      "350C",
      "350C",
      "350C",
      "350C",
      "350C",
      "350C",
      "350C",
      "350C",
      "350C",
      "350C",
      "350C",
      "350C",
      "350C",
      "350C",
      "350C",
      "350C",
      "350C",
      "350C",
      "350C",
      "350C",
      "350C",
      "350C",
      "350C",
      "350C",
      "350C",
      "350C",
      "350C",
      "350C",
      "350C",
      "350C",
      "350C",
      "350C",
      "350C",
      "350C",
      "350C",
      "350C",
      "350C",
      "350C",
      "350C",
      "350C",
      "350C",
      "350C",
      "350C",
      "350C",
      "350C",
      "350C",
      "350C",
      "350C",
      "350C",
      "350C",
      "350C",
      "350C",
      "350C",
      "350",
      "350",
      "350",
      "302",
      "302",
      "302",
      "279",
      "279",
      "229",
      "229",
      "199",
      "170",
      "170",
      "141",
      "141",
      "141",
      "131",
      "131",
      "131",
      "105",
      "105",
      "089",
      "089",
      "059",
      "050",
      "050",
      "037",
      "037",
      "020",
      "013",
      "012",
      "012",
      "012",
      "012",
      "012"
    ],
    "swim:geom": "path",
    "swim:speeds": [
      177,
      177,
      177,
      177,
      331,
      331,
      344,
      344,
      373,
      382,
      382,
      393,
      393,
      393,
      393,
      393,
      397,
      397,
      444,
      444,
      444,
      444,
      444,
      444,
      474,
      475,
      475,
      478,
      478,
      479,
      479,
      474,
      474,
      473,
      473,
      473,
      473,
      472,
      472,
      472,
      471,
      472,
      472,
      472,
      472,
      505,
      505,
      502,
      502,
      502,
      500,
      500,
      500,
      493,
      493,
      493,
      493,
      492,
      492,
      492,
      489,
      493,
      493,
      493,
      482,
      490,
      491,
      491,
      490,
      488,
      488,
      488,
      488,
      492,
      492,
      491,
      491,
      488,
      488,
      488,
      488,
      488,
      488,
      488,
      488,
      490,
      490,
      490,
      490,
      490,
      491,
      491,
      491,
      487,
      487,
      487,
      487,
      492,
      492,
      492,
      492,
      492,
      505,
      505,
      505,
      505,
      505,
      505,
      504,
      506,
      506,
      506,
      506,
      506,
      506,
      506,
      506,
      505,
      505,
      506,
      506,
      507,
      507,
      507,
      507,
      507,
      507,
      508,
      508,
      508,
      508,
      508,
      508,
      507,
      507,
      507,
      505,
      505,
      505,
      505,
      503,
      503,
      503,
      503,
      503,
      503,
      503,
      503,
      505,
      505,
      505,
      505,
      505,
      504,
      504,
      504,
      503,
      503,
      503,
      484,
      484,
      433,
      433,
      416,
      386,
      386,
      372,
      372,
      372,
      336,
      336,
      336,
      310,
      310,
      299,
      299,
      270,
      234,
      234,
      217,
      217,
      198,
      173,
      177,
      177,
      177,
      177,
      177
    ],
    "swim:timestamps": [
      1761164338,
      1761164338,
      1761164338,
      1761164338,
      1761164713,
      1761164713,
      1761164765,
      1761164765,
      1761164886,
      1761164894,
      1761164894,
      1761164954,
      1761164954,
      1761164954,
      1761164954,
      1761164954,
      1761165006,
      1761165006,
      1761165366,
      1761165366,
      1761165366,
      1761165374,
      1761165374,
      1761165374,
      1761165675,
      1761165735,
      1761165735,
      1761165787,
      1761165787,
      1761165795,
      1761165795,
      1761166148,
      1761166148,
      1761166155,
      1761166155,
      1761166155,
      1761166155,
      1761166516,
      1761166516,
      1761166516,
      1761166628,
      1761166748,
      1761166748,
      1761166748,
      1761166748,
      1761167289,
      1761167289,
      1761167409,
      1761167409,
      1761167409,
      1761167469,
      1761167469,
      1761167469,
      1761167710,
      1761167710,
      1761167710,
      1761167710,
      1761167770,
      1761167770,
      1761167770,
      1761167883,
      1761168003,
      1761168003,
      1761168003,
      1761168191,
      1761168424,
      1761168431,
      1761168431,
      1761168484,
      1761168611,
      1761168611,
      1761168611,
      1761168611,
      1761168785,
      1761168905,
      1761169025,
      1761169025,
      1761169145,
      1761169145,
      1761169145,
      1761169205,
      1761169205,
      1761169205,
      1761169205,
      1761169205,
      1761169626,
      1761169626,
      1761169626,
      1761169626,
      1761169626,
      1761170047,
      1761170047,
      1761170047,
      1761170708,
      1761170708,
      1761170708,
      1761170708,
      1761170888,
      1761170888,
      1761170888,
      1761170888,
      1761170888,
      1761171549,
      1761171549,
      1761171549,
      1761171669,
      1761171669,
      1761171669,
      1761171760,
      1761171789,
      1761171970,
      1761171970,
      1761171970,
      1761171970,
      1761171970,
      1761172030,
      1761172030,
      1761172120,
      1761172120,
      1761172361,
      1761172361,
      1761172571,
      1761172571,
      1761172571,
      1761172631,
      1761172631,
      1761172631,
      1761172811,
      1761172842,
      1761172842,
      1761172842,
      1761172842,
      1761172842,
      1761173202,
      1761173202,
      1761173202,
      1761173923,
      1761173923,
      1761173923,
      1761173923,
      1761174044,
      1761174044,
      1761174044,
      1761174284,
      1761174284,
      1761174284,
      1761174284,
      1761174284,
      1761174765,
      1761174765,
      1761174765,
      1761174765,
      1761174765,
      1761174885,
      1761174885,
      1761174885,
      1761175125,
      1761175125,
      1761175125,
      1761175185,
      1761175185,
      1761175327,
      1761175327,
      1761175426,
      1761175510,
      1761175510,
      1761175606,
      1761175606,
      1761175606,
      1761175666,
      1761175666,
      1761175666,
      1761175762,
      1761175762,
      1761175846,
      1761175846,
      1761176027,
      1761176186,
      1761176186,
      1761176249,
      1761176249,
      1761176387,
      1761176438,
      1761176447,
      1761176447,
      1761176447,
      1761176447,
      1761176447
    ],
    "wof:geomhash": "5312d77fdc7b5d1e0c803d8f2438ed97",
    "wof:id": 1981741489,
    "wof:repo": "sfomuseum-data-flights-2025-10"
  },
  "bbox": [
    -122.56472222222222,
    29.55388888888889,
    -95.0936111111111,
    37.63333333333333
  ],
  "geometry": {"coordinates":[[-122.36666666666666,37.63333333333333],[-122.36666666666666,37.63333333333333],[-122.36666666666666,37.63333333333333],[-122.36666666666666,37.63333333333333],[-122.56472222222222,37.43416666666666],[-122.56472222222222,37.43416666666666],[-122.48833333333333,37.38777777777778],[-122.48833333333333,37.38777777777778],[-122.28083333333333,37.265],[-122.25666666666666,37.25472222222222],[-122.25666666666666,37.25472222222222],[-122.14611111111111,37.19083333333333],[-122.14611111111111,37.19083333333333],[-122.14611111111111,37.19083333333333],[-122.14611111111111,37.19083333333333],[-122.14611111111111,37.19083333333333],[-122.05666666666666,37.135],[-122.05666666666666,37.135],[-121.33222222222221,36.71194444444445],[-121.33222222222221,36.71194444444445],[-121.33222222222221,36.71194444444445],[-121.30194444444444,36.698055555555555],[-121.30194444444444,36.698055555555555],[-121.30194444444444,36.698055555555555],[-120.66861111111112,36.301111111111105],[-120.5436111111111,36.21555555555556],[-120.5436111111111,36.21555555555556],[-120.44250000000001,36.14722222222222],[-120.44250000000001,36.14722222222222],[-120.41527777777779,36.12888888888889],[-120.41527777777779,36.12888888888889],[-119.69277777777778,35.63055555555555],[-119.69277777777778,35.63055555555555],[-119.66861111111112,35.61361111111111],[-119.66861111111112,35.61361111111111],[-119.66861111111112,35.61361111111111],[-119.66861111111112,35.61361111111111],[-118.93472222222222,35.08888888888889],[-118.93472222222222,35.08888888888889],[-118.93472222222222,35.08888888888889],[-118.72111111111111,34.93333333333333],[-118.4725,34.75194444444445],[-118.4725,34.75194444444445],[-118.4725,34.75194444444445],[-118.4725,34.75194444444445],[-117.15277777777779,34.245],[-117.15277777777779,34.245],[-116.84472222222222,34.18055555555555],[-116.84472222222222,34.18055555555555],[-116.84472222222222,34.18055555555555],[-116.6863888888889,34.14722222222222],[-116.6863888888889,34.14722222222222],[-116.6863888888889,34.14722222222222],[-116.04666666666667,34.01027777777778],[-116.04666666666667,34.01027777777778],[-116.04666666666667,34.01027777777778],[-116.04666666666667,34.01027777777778],[-115.8875,33.97527777777778],[-115.8875,33.97527777777778],[-115.8875,33.97527777777778],[-115.56944444444444,33.905277777777776],[-115.25027777777778,33.8325],[-115.25027777777778,33.8325],[-115.25027777777778,33.8325],[-114.80833333333334,33.66444444444444],[-114.23472222222222,33.47416666666667],[-114.2175,33.472500000000004],[-114.2175,33.472500000000004],[-114.07138888888889,33.45861111111111],[-113.73777777777778,33.4075],[-113.73777777777778,33.4075],[-113.73777777777778,33.4075],[-113.73777777777778,33.4075],[-113.27222222222223,33.33083333333334],[-112.9538888888889,33.277499999999996],[-112.63694444444445,33.22361111111111],[-112.63694444444445,33.22361111111111],[-112.32388888888889,33.169444444444444],[-112.32388888888889,33.169444444444444],[-112.32388888888889,33.169444444444444],[-112.16583333333334,33.141666666666666],[-112.16583333333334,33.141666666666666],[-112.16583333333334,33.141666666666666],[-112.16583333333334,33.141666666666666],[-112.16583333333334,33.141666666666666],[-111.03833333333333,32.91888888888889],[-111.03833333333333,32.91888888888889],[-111.03833333333333,32.91888888888889],[-111.03833333333333,32.91888888888889],[-111.03833333333333,32.91888888888889],[-109.94888888888889,32.68472222222222],[-109.94888888888889,32.68472222222222],[-109.94888888888889,32.68472222222222],[-108.25666666666666,32.29888888888889],[-108.25666666666666,32.29888888888889],[-108.25666666666666,32.29888888888889],[-108.25666666666666,32.29888888888889],[-107.75861111111111,32.18055555555555],[-107.75861111111111,32.18055555555555],[-107.75861111111111,32.18055555555555],[-107.75861111111111,32.18055555555555],[-107.75861111111111,32.18055555555555],[-106.02972222222222,31.753611111111113],[-106.02972222222222,31.753611111111113],[-106.02972222222222,31.753611111111113],[-105.71361111111112,31.674722222222222],[-105.71361111111112,31.674722222222222],[-105.71361111111112,31.674722222222222],[-105.48416666666667,31.61861111111111],[-105.40166666666667,31.59583333333333],[-104.92500000000001,31.473333333333333],[-104.92500000000001,31.473333333333333],[-104.92500000000001,31.473333333333333],[-104.92500000000001,31.473333333333333],[-104.92500000000001,31.473333333333333],[-104.76611111111112,31.432222222222222],[-104.76611111111112,31.432222222222222],[-104.53999999999999,31.37361111111111],[-104.53999999999999,31.37361111111111],[-103.91305555555556,31.20861111111111],[-103.91305555555556,31.20861111111111],[-103.37583333333333,31.06222222222222],[-103.37583333333333,31.06222222222222],[-103.37583333333333,31.06222222222222],[-103.21944444444445,31.019166666666667],[-103.21944444444445,31.019166666666667],[-103.21944444444445,31.019166666666667],[-102.7525,30.891944444444444],[-102.65972222222223,30.866944444444446],[-102.65972222222223,30.866944444444446],[-102.65972222222223,30.866944444444446],[-102.65972222222223,30.866944444444446],[-102.65972222222223,30.866944444444446],[-101.73,30.610000000000003],[-101.73,30.610000000000003],[-101.73,30.610000000000003],[-100.27388888888889,29.874166666666667],[-100.27388888888889,29.874166666666667],[-100.27388888888889,29.874166666666667],[-100.27388888888889,29.874166666666667],[-99.92666666666668,29.831944444444446],[-99.92666666666668,29.831944444444446],[-99.92666666666668,29.831944444444446],[-99.29583333333333,29.753333333333334],[-99.29583333333333,29.753333333333334],[-99.29583333333333,29.753333333333334],[-99.29583333333333,29.753333333333334],[-99.29583333333333,29.753333333333334],[-98.01305555555555,29.62777777777778],[-98.01305555555555,29.62777777777778],[-98.01305555555555,29.62777777777778],[-98.01305555555555,29.62777777777778],[-98.01305555555555,29.62777777777778],[-97.68611111111112,29.615000000000002],[-97.68611111111112,29.615000000000002],[-97.68611111111112,29.615000000000002],[-97.0736111111111,29.58861111111111],[-97.0736111111111,29.58861111111111],[-97.0736111111111,29.58861111111111],[-96.91472222222222,29.581666666666667],[-96.91472222222222,29.581666666666667],[-96.55111111111111,29.563333333333333],[-96.55111111111111,29.563333333333333],[-96.34833333333333,29.55388888888889],[-96.15694444444445,29.567777777777778],[-96.15694444444445,29.567777777777778],[-96.0038888888889,29.639166666666664],[-96.0038888888889,29.639166666666664],[-96.0038888888889,29.639166666666664],[-95.90138888888889,29.6875],[-95.90138888888889,29.6875],[-95.90138888888889,29.6875],[-95.74833333333333,29.75888888888889],[-95.74833333333333,29.75888888888889],[-95.64027777777778,29.810555555555556],[-95.64027777777778,29.810555555555556],[-95.39194444444445,29.892222222222223],[-95.16666666666667,29.890833333333333],[-95.16666666666667,29.890833333333333],[-95.0936111111111,29.896666666666665],[-95.0936111111111,29.896666666666665],[-95.17777777777778,29.978055555555553],[-95.23333333333333,29.976666666666667],[-95.23527777777778,29.9775],[-95.23527777777778,29.9775],[-95.23527777777778,29.9775],[-95.23527777777778,29.9775],[-95.23527777777778,29.9775]],"type":"LineString"}
}
