{
  "id": 1981584995,
  "type": "Feature",
  "properties": {
    "geom:area": 0,
    "geom:bbox": "-122.357720,36.745520,-121.892040,37.611340",
    "geom:latitude": 37.220696061797845,
    "geom:longitude": -122.07440992458258,
    "src:alt_label": "swim-approach",
    "src:geom": "swim",
    "swim:elevations": [
      5785,
      5713,
      5246,
      5065,
      4682,
      4392,
      4104,
      3678,
      3651,
      3049,
      2902,
      2486,
      2264,
      2173,
      1997,
      1715,
      1649,
      1506,
      1285,
      1120,
      968,
      844,
      627,
      490,
      316,
      187,
      88,
      0
    ],
    "swim:geom": "approach",
    "swim:timestamps": [
      1759670126,
      1759670133,
      1759670178,
      1759670197,
      1759670235,
      1759670265,
      1759670293,
      1759670338,
      1759670341,
      1759670414,
      1759670432,
      1759670486,
      1759670516,
      1759670525,
      1759670555,
      1759670603,
      1759670621,
      1759670655,
      1759670691,
      1759670718,
      1759670740,
      1759670762,
      1759670803,
      1759670834,
      1759670874,
      1759670906,
      1759670933,
      1759670949
    ],
    "wof:geomhash": "6c105a1ad5933fb66b5a8b6f6ca21492",
    "wof:id": 1981584995,
    "wof:repo": "sfomuseum-data-flights-2025-10"
  },
  "bbox": [
    -122.35772,
    36.74552,
    -121.89204,
    37.61134
  ],
  "geometry": {"coordinates":[[-121.89204,36.74552],[-121.89668,36.75562],[-121.91908,36.83095],[-121.92784,36.86203],[-121.9451,36.92307],[-121.96052,36.9708],[-121.97693,37.01359],[-122.00231,37.07942],[-122.00409,37.08381],[-122.043,37.18179],[-122.0519,37.20505],[-122.07903,37.2742],[-122.09271,37.30866],[-122.09691,37.31942],[-122.10943,37.3513],[-122.12807,37.40073],[-122.1341,37.41818],[-122.14496,37.45079],[-122.15941,37.48237],[-122.17468,37.50424],[-122.18688,37.52165],[-122.19882,37.53847],[-122.23689,37.56028],[-122.26493,37.57251],[-122.29782,37.58616],[-122.32345,37.59697],[-122.3446,37.60594],[-122.35772,37.61134]],"type":"LineString"}
}
