{
  "id": 1981720675,
  "type": "Feature",
  "properties": {
    "geom:area": 0,
    "geom:bbox": "-122.761350,37.437590,-122.123670,38.465470",
    "geom:latitude": 37.818321027580275,
    "geom:longitude": -122.48756447631514,
    "src:alt_label": "swim-approach",
    "src:geom": "swim",
    "swim:elevations": [
      7590,
      7335,
      6944,
      6747,
      6538,
      6241,
      5989,
      5896,
      5557,
      5224,
      4981,
      4919,
      4491,
      4219,
      4048,
      3594,
      3423,
      3354,
      3353,
      3353,
      3353,
      3353,
      3124,
      2983,
      2888,
      2867,
      2716,
      2524,
      2376,
      2135,
      2052,
      1918,
      1459,
      1371,
      1302,
      1038,
      1037,
      914,
      884,
      731,
      611,
      526,
      397,
      377,
      281,
      151,
      120,
      56
    ],
    "swim:geom": "approach",
    "swim:timestamps": [
      1760988433,
      1760988459,
      1760988499,
      1760988519,
      1760988541,
      1760988572,
      1760988596,
      1760988606,
      1760988641,
      1760988676,
      1760988699,
      1760988704,
      1760988747,
      1760988774,
      1760988792,
      1760988838,
      1760988866,
      1760988894,
      1760988901,
      1760988927,
      1760988953,
      1760988985,
      1760989037,
      1760989062,
      1760989078,
      1760989082,
      1760989108,
      1760989127,
      1760989148,
      1760989190,
      1760989206,
      1760989230,
      1760989284,
      1760989300,
      1760989320,
      1760989375,
      1760989384,
      1760989421,
      1760989426,
      1760989458,
      1760989488,
      1760989509,
      1760989532,
      1760989538,
      1760989565,
      1760989601,
      1760989611,
      1760989627
    ],
    "wof:geomhash": "665847117c13108ee6bbff504eddb134",
    "wof:id": 1981720675,
    "wof:repo": "sfomuseum-data-flights-2025-10"
  },
  "bbox": [
    -122.76135,
    37.43759,
    -122.12367,
    38.46547
  ],
  "geometry": {"coordinates":[[-122.70011,38.46547],[-122.71388,38.41624],[-122.7343,38.34306],[-122.74444,38.30673],[-122.75559,38.2671],[-122.76135,38.21267],[-122.75182,38.17025],[-122.74697,38.15297],[-122.72951,38.09368],[-122.71208,38.03454],[-122.701,37.99636],[-122.69886,37.98895],[-122.67831,37.91959],[-122.65146,37.87935],[-122.62847,37.85724],[-122.56682,37.79906],[-122.53056,37.76507],[-122.49656,37.7328],[-122.48923,37.72585],[-122.45966,37.6981],[-122.43323,37.67319],[-122.40246,37.64418],[-122.35687,37.59778],[-122.34131,37.57275],[-122.33112,37.55648],[-122.32877,37.55268],[-122.3124,37.52654],[-122.30029,37.50732],[-122.28721,37.48647],[-122.24998,37.45411],[-122.23152,37.44802],[-122.20475,37.43958],[-122.14479,37.43759],[-122.1329,37.4492],[-122.12367,37.46605],[-122.13921,37.51072],[-122.14654,37.51601],[-122.17783,37.53427],[-122.18231,37.53645],[-122.21134,37.54947],[-122.2393,37.56166],[-122.25911,37.57001],[-122.27897,37.57833],[-122.28406,37.58036],[-122.30549,37.58924],[-122.33348,37.6012],[-122.3406,37.60429],[-122.35351,37.60964]],"type":"LineString"}
}
