{
  "id": 1981773355,
  "type": "Feature",
  "properties": {
    "geom:area": 0,
    "geom:bbox": "-122.364470,37.631310,-121.246170,38.074750",
    "geom:latitude": 37.887047366488666,
    "geom:longitude": -121.81841193645899,
    "src:alt_label": "swim-takeoff",
    "src:geom": "swim",
    "swim:elevations": [
      122,
      403,
      637,
      951,
      1152,
      1528,
      1873,
      2086,
      2472,
      2729,
      2913,
      3146,
      3223,
      3605,
      3921,
      4294,
      4561,
      4698,
      4853,
      4995,
      5182,
      5487,
      5698,
      6051,
      6236,
      6311
    ],
    "swim:geom": "takeoff",
    "swim:timestamps": [
      1761468235,
      1761468256,
      1761468273,
      1761468300,
      1761468332,
      1761468384,
      1761468411,
      1761468428,
      1761468459,
      1761468480,
      1761468495,
      1761468514,
      1761468529,
      1761468566,
      1761468594,
      1761468626,
      1761468652,
      1761468667,
      1761468690,
      1761468703,
      1761468720,
      1761468755,
      1761468782,
      1761468831,
      1761468861,
      1761468872
    ],
    "wof:geomhash": "db5b5d18430fcaa141833b0a31d722ff",
    "wof:id": 1981773355,
    "wof:repo": "sfomuseum-data-flights-2025-10"
  },
  "bbox": [
    -122.36447,
    37.63131,
    -121.24617,
    38.07475
  ],
  "geometry": {"coordinates":[[-122.36447,37.63131],[-122.34955,37.64595],[-122.3326,37.65312],[-122.308,37.66676],[-122.27562,37.6856],[-122.20751,37.72094],[-122.16768,37.74162],[-122.14272,37.75486],[-122.09515,37.77952],[-122.06291,37.7962],[-122.03823,37.809],[-122.00728,37.82469],[-121.98098,37.83566],[-121.91226,37.86284],[-121.85709,37.88461],[-121.79511,37.90923],[-121.74299,37.92986],[-121.71207,37.94196],[-121.66585,37.96037],[-121.63788,37.97135],[-121.60226,37.98525],[-121.52864,38.01396],[-121.47014,38.03501],[-121.35143,38.05713],[-121.27358,38.07002],[-121.24617,38.07475]],"type":"LineString"}
}
