{
  "id": 1981687717,
  "type": "Feature",
  "properties": {
    "geom:area": 0,
    "geom:bbox": "-122.366060,37.629140,-121.251410,37.964130",
    "geom:latitude": 37.837935117293156,
    "geom:longitude": -121.82394134431082,
    "src:alt_label": "swim-takeoff",
    "src:geom": "swim",
    "swim:elevations": [
      213,
      468,
      711,
      876,
      1249,
      1697,
      2037,
      2793,
      3172,
      3279,
      3936,
      4112,
      4495,
      4978,
      5505,
      5639,
      5790,
      6136,
      6312,
      6876,
      7185,
      7444,
      7546,
      7793
    ],
    "swim:geom": "takeoff",
    "swim:timestamps": [
      1760607897,
      1760607914,
      1760607938,
      1760607956,
      1760607985,
      1760608010,
      1760608030,
      1760608071,
      1760608105,
      1760608123,
      1760608166,
      1760608181,
      1760608207,
      1760608241,
      1760608285,
      1760608295,
      1760608309,
      1760608336,
      1760608352,
      1760608404,
      1760608433,
      1760608461,
      1760608475,
      1760608501
    ],
    "wof:geomhash": "5e664a94fa1839175bbd32d0e59b13f6",
    "wof:id": 1981687717,
    "wof:repo": "sfomuseum-data-flights-2025-10"
  },
  "bbox": [
    -122.36606,
    37.62914,
    -121.25141,
    37.96413
  ],
  "geometry": {"coordinates":[[-122.36606,37.62914],[-122.35626,37.64034],[-122.33573,37.65238],[-122.31756,37.66247],[-122.28567,37.68028],[-122.25464,37.69746],[-122.22883,37.71033],[-122.17597,37.73743],[-122.12912,37.76207],[-122.10178,37.77626],[-122.03032,37.81268],[-122.0022,37.82425],[-121.94825,37.83731],[-121.87478,37.85092],[-121.77739,37.86835],[-121.75519,37.87242],[-121.72331,37.87821],[-121.6589,37.89],[-121.62224,37.89679],[-121.49803,37.91966],[-121.42649,37.93266],[-121.3543,37.94585],[-121.31909,37.95221],[-121.25141,37.96413]],"type":"LineString"}
}
