{
  "id": 1981602989,
  "type": "Feature",
  "properties": {
    "geom:area": 0,
    "geom:bbox": "-122.360670,37.491590,-121.270150,37.615070",
    "geom:latitude": 37.54617506338419,
    "geom:longitude": -121.82034907476437,
    "src:alt_label": "swim-approach",
    "src:geom": "swim",
    "swim:elevations": [
      4544,
      4481,
      4393,
      4194,
      4082,
      3785,
      3716,
      3544,
      3291,
      3148,
      3006,
      2985,
      2841,
      2833,
      2785,
      2625,
      2507,
      2385,
      2134,
      2134,
      2101,
      1803,
      1598,
      1308,
      1022,
      901,
      792,
      661,
      551,
      487,
      347,
      270,
      245,
      130,
      119,
      123,
      85,
      164
    ],
    "swim:geom": "approach",
    "swim:timestamps": [
      1759828822,
      1759828856,
      1759828886,
      1759828915,
      1759828929,
      1759828972,
      1759828984,
      1759829007,
      1759829037,
      1759829055,
      1759829073,
      1759829078,
      1759829096,
      1759829117,
      1759829130,
      1759829152,
      1759829164,
      1759829177,
      1759829214,
      1759829243,
      1759829261,
      1759829299,
      1759829325,
      1759829358,
      1759829393,
      1759829407,
      1759829449,
      1759829484,
      1759829502,
      1759829543,
      1759829578,
      1759829593,
      1759829600,
      1759829636,
      1759829642,
      1759829645,
      1759829668,
      1759829673
    ],
    "wof:geomhash": "370b02b494b1ff6fe51d7c70ee551eca",
    "wof:id": 1981602989,
    "wof:repo": "sfomuseum-data-flights-2025-10"
  },
  "bbox": [
    -122.36067,
    37.49159,
    -121.27015,
    37.61507
  ],
  "geometry": {"coordinates":[[-121.27015,37.59195],[-121.33545,37.58439],[-121.38787,37.57846],[-121.43649,37.5728],[-121.45948,37.57017],[-121.5292,37.56212],[-121.54881,37.55982],[-121.58512,37.55553],[-121.63277,37.54893],[-121.66011,37.5423],[-121.68769,37.53564],[-121.69495,37.53395],[-121.72291,37.52738],[-121.75284,37.52037],[-121.77062,37.51609],[-121.7992,37.50913],[-121.81504,37.50527],[-121.83223,37.50112],[-121.88001,37.49159],[-121.91941,37.49238],[-121.94462,37.49303],[-121.99316,37.49717],[-122.02593,37.50748],[-122.06482,37.51998],[-122.10672,37.53352],[-122.1234,37.53886],[-122.17189,37.55454],[-122.20917,37.56649],[-122.22783,37.5726],[-122.26635,37.58482],[-122.29284,37.59157],[-122.30487,37.59449],[-122.31012,37.59589],[-122.33614,37.60463],[-122.34021,37.60632],[-122.34223,37.60718],[-122.35714,37.61354],[-122.36067,37.61507]],"type":"LineString"}
}
