{
  "id": 1981715981,
  "type": "Feature",
  "properties": {
    "geom:area": 0,
    "geom:bbox": "-122.363420,37.632060,-121.425600,38.517850",
    "geom:latitude": 38.07232941149898,
    "geom:longitude": -121.89294247293549,
    "src:alt_label": "swim-takeoff",
    "src:geom": "swim",
    "swim:elevations": [
      213,
      777,
      1163,
      1401,
      1779,
      2250,
      2617,
      3354,
      3564,
      3758,
      3998,
      4357,
      4854,
      5422,
      5552,
      6350,
      6401,
      6401,
      6401,
      6401,
      6401,
      6401,
      6401,
      6415
    ],
    "swim:geom": "takeoff",
    "swim:timestamps": [
      1760877346,
      1760877383,
      1760877411,
      1760877436,
      1760877467,
      1760877498,
      1760877518,
      1760877565,
      1760877598,
      1760877619,
      1760877638,
      1760877666,
      1760877702,
      1760877747,
      1760877757,
      1760877828,
      1760877867,
      1760877882,
      1760877926,
      1760877931,
      1760877962,
      1760877993,
      1760878026,
      1760878051
    ],
    "wof:geomhash": "909174905aac0b3f4508ef2d0a456fc2",
    "wof:id": 1981715981,
    "wof:repo": "sfomuseum-data-flights-2025-10"
  },
  "bbox": [
    -122.36342,
    37.63206,
    -121.4256,
    38.51785
  ],
  "geometry": {"coordinates":[[-122.36342,37.63206],[-122.33218,37.65262],[-122.30741,37.66685],[-122.28117,37.6817],[-122.24435,37.70253],[-122.20514,37.72749],[-122.1852,37.74898],[-122.13801,37.80134],[-122.10264,37.84131],[-122.076,37.87055],[-122.05215,37.89672],[-122.01479,37.93782],[-121.96704,37.9904],[-121.90546,38.05827],[-121.89112,38.07417],[-121.79041,38.18435],[-121.73335,38.24637],[-121.71142,38.27022],[-121.64721,38.34008],[-121.64023,38.34767],[-121.59398,38.39764],[-121.54206,38.44538],[-121.47589,38.48802],[-121.4256,38.51785]],"type":"LineString"}
}
