{
  "id": 1981764057,
  "type": "Feature",
  "properties": {
    "geom:area": 0,
    "geom:bbox": "-125.950000,37.483333,-122.200000,39.650000",
    "geom:latitude": 38.70478137866327,
    "geom:longitude": -123.88047147706716,
    "src:alt_label": "swim-path",
    "src:geom": "swim",
    "swim:altitudes": [
      "290",
      "290C",
      "192",
      "160",
      "145",
      "123",
      "112C",
      "110C",
      "110",
      "110C",
      "058",
      "016",
      "007"
    ],
    "swim:geom": "path",
    "swim:speeds": [
      530,
      526,
      428,
      369,
      365,
      371,
      342,
      315,
      294,
      298,
      261,
      165,
      163
    ],
    "swim:timestamps": [
      1761479540,
      1761479931,
      1761480771,
      1761480891,
      1761480951,
      1761481011,
      1761481071,
      1761481131,
      1761481184,
      1761481191,
      1761481364,
      1761481611,
      1761481671
    ],
    "wof:geomhash": "fb76ff38b3e3d3ebc098764e710577bc",
    "wof:id": 1981764057,
    "wof:repo": "sfomuseum-data-flights-2025-10"
  },
  "bbox": [
    -125.95,
    37.483333333333334,
    -122.2,
    39.65
  ],
  "geometry": {"coordinates":[[-125.95,39.65],[-124.83166666666666,39.31222222222222],[-122.78777777777778,38.23722222222222],[-122.71138888888889,38.031666666666666],[-122.68333333333334,37.93472222222222],[-122.60555555555555,37.83555555555556],[-122.52777777777777,37.76222222222222],[-122.45694444444445,37.695277777777775],[-122.38333333333334,37.63333333333333],[-122.38805555555557,37.63055555555555],[-122.2,37.483333333333334],[-122.26777777777778,37.575833333333335],[-122.3175,37.596944444444446]],"type":"LineString"}
}
