{
  "id": 1981575561,
  "type": "Feature",
  "properties": {
    "geom:area": 0,
    "geom:bbox": "-122.366170,37.628080,-121.256090,37.963720",
    "geom:latitude": 37.83723807924368,
    "geom:longitude": -121.82606374993172,
    "src:alt_label": "swim-takeoff",
    "src:geom": "swim",
    "swim:elevations": [
      183,
      649,
      849,
      1584,
      1809,
      2107,
      2585,
      3306,
      3327,
      4098,
      4501,
      4909,
      5159,
      5236,
      5859,
      6241,
      6562,
      6649,
      6974,
      7128,
      7481,
      7608,
      7991,
      8196
    ],
    "swim:geom": "takeoff",
    "swim:timestamps": [
      1759489842,
      1759489885,
      1759489901,
      1759489948,
      1759489961,
      1759489981,
      1759490010,
      1759490067,
      1759490070,
      1759490118,
      1759490144,
      1759490174,
      1759490192,
      1759490196,
      1759490246,
      1759490278,
      1759490306,
      1759490313,
      1759490342,
      1759490355,
      1759490391,
      1759490405,
      1759490448,
      1759490470
    ],
    "wof:geomhash": "1dc8d3c936bf9ce0d1dbd7cff037ffb3",
    "wof:id": 1981575561,
    "wof:repo": "sfomuseum-data-flights-2025-10"
  },
  "bbox": [
    -122.36617,
    37.62808,
    -121.25609,
    37.96372
  ],
  "geometry": {"coordinates":[[-122.36617,37.62808],[-122.33109,37.65231],[-122.31379,37.66244],[-122.25957,37.69461],[-122.2431,37.70316],[-122.21744,37.7162],[-122.1776,37.7362],[-122.0977,37.77811],[-122.09249,37.78083],[-122.01405,37.82003],[-121.96532,37.8334],[-121.90558,37.84454],[-121.8689,37.85144],[-121.86023,37.853],[-121.7567,37.87223],[-121.68973,37.88463],[-121.62786,37.89605],[-121.61289,37.89877],[-121.54895,37.91061],[-121.52055,37.91579],[-121.43853,37.93067],[-121.40685,37.93638],[-121.30737,37.95471],[-121.25609,37.96372]],"type":"LineString"}
}
